{
  "type": "FeatureCollection",
  "features": [
    {
      "type": "Feature",
      "id": "2e03099b-f759-4d96-b64e-7f36ef296f7c",
      "geometry": null,
      "properties": {
        "kind": "SENSOR_CONTACT",
        "parent_track": "Frigate",
        "time": "1970-01-03T03:31:25+00:00",
        "bearing": 80.0,
        "range": 12496.0,
        "sensor_name": "Frigate_Optic",
        "label": "some message"
      }
    },
    {
      "type": "Feature",
      "id": "b7e35635-d5c6-4099-a036-f8d448f15282",
      "geometry": null,
      "properties": {
        "kind": "SENSOR_CONTACT",
        "parent_track": "Frigate",
        "time": "1970-01-03T03:32:25+00:00",
        "bearing": 78.0,
        "range": 11678.0,
        "sensor_name": "Frigate_Optic",
        "label": "some message"
      }
    },
    {
      "type": "Feature",
      "id": "cfd36b16-3d3a-4c86-b1c0-58b9705d509b",
      "geometry": null,
      "properties": {
        "kind": "SENSOR_CONTACT",
        "parent_track": "Frigate",
        "time": "1970-01-03T03:33:25+00:00",
        "bearing": 77.0,
        "range": 10866.0,
        "sensor_name": "Frigate_Optic",
        "label": "some message"
      }
    },
    {
      "type": "Feature",
      "id": "62a9c635-476d-470d-b633-7f095b946892",
      "geometry": null,
      "properties": {
        "kind": "SENSOR_CONTACT",
        "parent_track": "Frigate",
        "time": "1970-01-03T03:34:25+00:00",
        "bearing": 75.0,
        "range": 10062.0,
        "sensor_name": "Frigate_Optic",
        "label": "some message"
      }
    },
    {
      "type": "Feature",
      "id": "7f84e41b-9ba0-4410-93b4-3998407148ca",
      "geometry": null,
      "properties": {
        "kind": "SENSOR_CONTACT",
        "parent_track": "Frigate",
        "time": "1970-01-03T03:35:25+00:00",
        "bearing": 73.0,
        "range": 9265.0,
        "sensor_name": "Frigate_Optic",
        "label": "some message"
      }
    },
    {
      "type": "Feature",
      "id": "6d25435a-77b2-4e8a-b999-cc63ddd43665",
      "geometry": null,
      "properties": {
        "kind": "SENSOR_CONTACT",
        "parent_track": "Frigate",
        "time": "1970-01-03T03:36:25+00:00",
        "bearing": 71.0,
        "range": 8479.0,
        "sensor_name": "Frigate_Optic",
        "label": "some message"
      }
    },
    {
      "type": "Feature",
      "id": "9761f656-2bfd-41f0-a426-26adc81bbe4f",
      "geometry": null,
      "properties": {
        "kind": "SENSOR_CONTACT",
        "parent_track": "Frigate",
        "time": "1970-01-03T03:37:25+00:00",
        "bearing": 69.0,
        "range": 7704.0,
        "sensor_name": "Frigate_Optic",
        "label": "some message"
      }
    },
    {
      "type": "Feature",
      "id": "85735313-5066-43ac-8322-821d6f67f132",
      "geometry": null,
      "properties": {
        "kind": "SENSOR_CONTACT",
        "parent_track": "Frigate",
        "time": "1970-01-03T03:38:25+00:00",
        "bearing": 66.0,
        "range": 6943.0,
        "sensor_name": "Frigate_Optic",
        "label": "some message"
      }
    },
    {
      "type": "Feature",
      "id": "b2117a68-2270-44d6-aa1b-0d53b9e127a3",
      "geometry": null,
      "properties": {
        "kind": "SENSOR_CONTACT",
        "parent_track": "Frigate",
        "time": "1970-01-03T03:39:25+00:00",
        "bearing": 63.0,
        "range": 6198.0,
        "sensor_name": "Frigate_Optic",
        "label": "some message"
      }
    },
    {
      "type": "Feature",
      "id": "523e9af7-bf42-4cce-9276-0dc900b347fd",
      "geometry": null,
      "properties": {
        "kind": "SENSOR_CONTACT",
        "parent_track": "Frigate",
        "time": "1970-01-03T03:40:25+00:00",
        "bearing": 59.0,
        "range": 5475.0,
        "sensor_name": "Frigate_Optic",
        "label": "some message"
      }
    },
    {
      "type": "Feature",
      "id": "3cca9302-fb3b-4d85-852a-b56dbcb84c88",
      "geometry": null,
      "properties": {
        "kind": "SENSOR_CONTACT",
        "parent_track": "Frigate",
        "time": "1970-01-03T03:41:25+00:00",
        "bearing": 55.0,
        "range": 4777.0,
        "sensor_name": "Frigate_Optic",
        "label": "some message"
      }
    },
    {
      "type": "Feature",
      "id": "799c3eb6-35bb-4979-acaf-2f99dc246011",
      "geometry": null,
      "properties": {
        "kind": "SENSOR_CONTACT",
        "parent_track": "Frigate",
        "time": "1970-01-03T03:42:25+00:00",
        "bearing": 49.0,
        "range": 4112.0,
        "sensor_name": "Frigate_Optic",
        "label": "some message"
      }
    },
    {
      "type": "Feature",
      "id": "b22a98a9-5c74-49b3-9dcc-d4817e8123a9",
      "geometry": null,
      "properties": {
        "kind": "SENSOR_CONTACT",
        "parent_track": "Frigate",
        "time": "1970-01-03T03:43:25+00:00",
        "bearing": 42.0,
        "range": 3491.0,
        "sensor_name": "Frigate_Optic",
        "label": "some message"
      }
    },
    {
      "type": "Feature",
      "id": "1e181069-8fc6-4035-9215-077f130c0504",
      "geometry": null,
      "properties": {
        "kind": "SENSOR_CONTACT",
        "parent_track": "Frigate",
        "time": "1970-01-03T03:44:25+00:00",
        "bearing": 33.0,
        "range": 2934.0,
        "sensor_name": "Frigate_Optic",
        "label": "some message"
      }
    },
    {
      "type": "Feature",
      "id": "7f398983-70a0-4c8b-bc78-960920fe41e6",
      "geometry": null,
      "properties": {
        "kind": "SENSOR_CONTACT",
        "parent_track": "Frigate",
        "time": "1970-01-03T03:45:25+00:00",
        "bearing": 21.0,
        "range": 2458.0,
        "sensor_name": "Frigate_Optic",
        "label": "some message"
      }
    },
    {
      "type": "Feature",
      "id": "c04823be-12d6-42af-9844-9ef9cf819077",
      "geometry": null,
      "properties": {
        "kind": "SENSOR_CONTACT",
        "parent_track": "Frigate",
        "time": "1970-01-03T03:46:25+00:00",
        "bearing": 7.0,
        "range": 2089.0,
        "sensor_name": "Frigate_Optic",
        "label": "some message"
      }
    },
    {
      "type": "Feature",
      "id": "86b636bb-11e3-477a-80ad-3782c7a4753c",
      "geometry": null,
      "properties": {
        "kind": "SENSOR_CONTACT",
        "parent_track": "Frigate",
        "time": "1970-01-03T03:47:25+00:00",
        "bearing": -9.0,
        "range": 1840.0,
        "sensor_name": "Frigate_Optic",
        "label": "some message"
      }
    },
    {
      "type": "Feature",
      "id": "9e8ed4e3-ef46-4acd-ad1c-0973bdfa000e",
      "geometry": null,
      "properties": {
        "kind": "SENSOR_CONTACT",
        "parent_track": "Frigate",
        "time": "1970-01-03T03:48:25+00:00",
        "bearing": -26.0,
        "range": 1695.0,
        "sensor_name": "Frigate_Optic",
        "label": "some message"
      }
    },
    {
      "type": "Feature",
      "id": "ef61c4af-4d70-4fa7-84b2-b499f061aed8",
      "geometry": null,
      "properties": {
        "kind": "SENSOR_CONTACT",
        "parent_track": "Frigate",
        "time": "1970-01-03T03:49:25+00:00",
        "bearing": -40.0,
        "range": 1633.0,
        "sensor_name": "Frigate_Optic",
        "label": "some message"
      }
    },
    {
      "type": "Feature",
      "id": "73625112-ded6-4f98-ae79-6deb0f866806",
      "geometry": null,
      "properties": {
        "kind": "SENSOR_CONTACT",
        "parent_track": "Frigate",
        "time": "1970-01-03T03:50:25+00:00",
        "bearing": -50.0,
        "range": 1607.0,
        "sensor_name": "Frigate_Optic",
        "label": "some message"
      }
    },
    {
      "type": "Feature",
      "id": "c679f041-aca2-404a-bda9-4e0319efe49f",
      "geometry": null,
      "properties": {
        "kind": "SENSOR_CONTACT",
        "parent_track": "Frigate",
        "time": "1970-01-03T03:51:25+00:00",
        "bearing": -56.0,
        "range": 1596.0,
        "sensor_name": "Frigate_Optic",
        "label": "some message"
      }
    },
    {
      "type": "Feature",
      "id": "92e15c0b-280a-4188-8bd7-b95695a19566",
      "geometry": null,
      "properties": {
        "kind": "SENSOR_CONTACT",
        "parent_track": "Frigate",
        "time": "1970-01-03T03:52:25+00:00",
        "bearing": -59.0,
        "range": 1596.0,
        "sensor_name": "Frigate_Optic",
        "label": "some message"
      }
    },
    {
      "type": "Feature",
      "id": "1b49a1e2-e7d2-4454-8b07-b6b46bb1df93",
      "geometry": null,
      "properties": {
        "kind": "SENSOR_CONTACT",
        "parent_track": "Frigate",
        "time": "1970-01-03T03:53:25+00:00",
        "bearing": -60.0,
        "range": 1613.0,
        "sensor_name": "Frigate_Optic",
        "label": "some message"
      }
    },
    {
      "type": "Feature",
      "id": "4d5b9aec-065b-4d1d-af8f-85c8b34e3f49",
      "geometry": null,
      "properties": {
        "kind": "SENSOR_CONTACT",
        "parent_track": "Frigate",
        "time": "1970-01-03T03:54:25+00:00",
        "bearing": -60.0,
        "range": 1648.0,
        "sensor_name": "Frigate_Optic",
        "label": "some message"
      }
    },
    {
      "type": "Feature",
      "id": "048f12fb-ec5e-4e76-a9e3-3aac4032b736",
      "geometry": null,
      "properties": {
        "kind": "SENSOR_CONTACT",
        "parent_track": "Frigate",
        "time": "1970-01-03T03:55:25+00:00",
        "bearing": -60.0,
        "range": 1701.0,
        "sensor_name": "Frigate_Optic",
        "label": "some message"
      }
    },
    {
      "type": "Feature",
      "id": "f226e04f-4c3c-4d7d-b2b7-e9f3c0861636",
      "geometry": null,
      "properties": {
        "kind": "SENSOR_CONTACT",
        "parent_track": "Frigate",
        "time": "1970-01-03T03:56:25+00:00",
        "bearing": -60.0,
        "range": 1772.0,
        "sensor_name": "Frigate_Optic",
        "label": "some message"
      }
    },
    {
      "type": "Feature",
      "id": "061249e9-0e5c-4777-825a-a39bb4157b02",
      "geometry": null,
      "properties": {
        "kind": "SENSOR_CONTACT",
        "parent_track": "Frigate",
        "time": "1970-01-03T03:57:25+00:00",
        "bearing": -60.0,
        "range": 1859.0,
        "sensor_name": "Frigate_Optic",
        "label": "some message"
      }
    },
    {
      "type": "Feature",
      "id": "23a7b79a-1a1a-49e8-8c5c-5c33827464e6",
      "geometry": null,
      "properties": {
        "kind": "SENSOR_CONTACT",
        "parent_track": "Frigate",
        "time": "1970-01-03T03:58:25+00:00",
        "bearing": -60.0,
        "range": 1945.0,
        "sensor_name": "Frigate_Optic",
        "label": "some message"
      }
    },
    {
      "type": "Feature",
      "id": "cafb9b60-1816-4044-b3cf-9460b4396244",
      "geometry": null,
      "properties": {
        "kind": "SENSOR_CONTACT",
        "parent_track": "Frigate",
        "time": "1970-01-03T03:59:25+00:00",
        "bearing": -60.0,
        "range": 2031.0,
        "sensor_name": "Frigate_Optic",
        "label": "some message"
      }
    },
    {
      "type": "Feature",
      "id": "d41a68b4-914f-4fc8-b2e9-11874519f94d",
      "geometry": null,
      "properties": {
        "kind": "SENSOR_CONTACT",
        "parent_track": "Frigate",
        "time": "1970-01-03T04:00:25+00:00",
        "bearing": -60.0,
        "range": 2117.0,
        "sensor_name": "Frigate_Optic",
        "label": "some message"
      }
    },
    {
      "type": "Feature",
      "id": "a20de62d-7439-4951-8f0e-f554266f5834",
      "geometry": null,
      "properties": {
        "kind": "SENSOR_CONTACT",
        "parent_track": "Frigate",
        "time": "1970-01-03T04:01:25+00:00",
        "bearing": -60.0,
        "range": 2203.0,
        "sensor_name": "Frigate_Optic",
        "label": "some message"
      }
    },
    {
      "type": "Feature",
      "id": "607f9805-ce9c-4fba-87ab-d65ed55edccc",
      "geometry": null,
      "properties": {
        "kind": "SENSOR_CONTACT",
        "parent_track": "Frigate",
        "time": "1970-01-03T04:02:25+00:00",
        "bearing": -60.0,
        "range": 2289.0,
        "sensor_name": "Frigate_Optic",
        "label": "some message"
      }
    },
    {
      "type": "Feature",
      "id": "9e267936-5648-4677-8d6b-bc3b8589ffb9",
      "geometry": null,
      "properties": {
        "kind": "SENSOR_CONTACT",
        "parent_track": "Frigate",
        "time": "1970-01-03T04:03:25+00:00",
        "bearing": -60.0,
        "range": 2375.0,
        "sensor_name": "Frigate_Optic",
        "label": "some message"
      }
    },
    {
      "type": "Feature",
      "id": "d2f5eba9-076b-40c7-90cf-ded8be084cc2",
      "geometry": null,
      "properties": {
        "kind": "SENSOR_CONTACT",
        "parent_track": "Frigate",
        "time": "1970-01-03T04:04:25+00:00",
        "bearing": -60.0,
        "range": 2461.0,
        "sensor_name": "Frigate_Optic",
        "label": "some message"
      }
    },
    {
      "type": "Feature",
      "id": "b0a09b7d-5af6-4b66-8305-a391bfd7ba8e",
      "geometry": null,
      "properties": {
        "kind": "SENSOR_CONTACT",
        "parent_track": "Frigate",
        "time": "1970-01-03T04:05:25+00:00",
        "bearing": -60.0,
        "range": 2547.0,
        "sensor_name": "Frigate_Optic",
        "label": "some message"
      }
    },
    {
      "type": "Feature",
      "id": "f0d682dc-3d19-4144-aebd-c369cad1968a",
      "geometry": null,
      "properties": {
        "kind": "SENSOR_CONTACT",
        "parent_track": "Frigate",
        "time": "1970-01-03T04:06:25+00:00",
        "bearing": -60.0,
        "range": 2633.0,
        "sensor_name": "Frigate_Optic",
        "label": "some message"
      }
    },
    {
      "type": "Feature",
      "id": "039a45c7-6620-41e2-8169-754a5cceffe3",
      "geometry": null,
      "properties": {
        "kind": "SENSOR_CONTACT",
        "parent_track": "Frigate",
        "time": "1970-01-03T04:07:25+00:00",
        "bearing": -60.0,
        "range": 2719.0,
        "sensor_name": "Frigate_Optic",
        "label": "some message"
      }
    },
    {
      "type": "Feature",
      "id": "6d8728c6-7c3f-41b6-95de-7ebd5d7f1bc6",
      "geometry": null,
      "properties": {
        "kind": "SENSOR_CONTACT",
        "parent_track": "Frigate",
        "time": "1970-01-03T04:08:25+00:00",
        "bearing": -60.0,
        "range": 2805.0,
        "sensor_name": "Frigate_Optic",
        "label": "some message"
      }
    },
    {
      "type": "Feature",
      "id": "d019fbd3-ec8f-41d5-9149-6e43245a6f38",
      "geometry": null,
      "properties": {
        "kind": "SENSOR_CONTACT",
        "parent_track": "Frigate",
        "time": "1970-01-03T04:09:25+00:00",
        "bearing": -60.0,
        "range": 2891.0,
        "sensor_name": "Frigate_Optic",
        "label": "some message"
      }
    },
    {
      "type": "Feature",
      "id": "069735da-5bd4-4ae2-a7b4-3262562641c8",
      "geometry": null,
      "properties": {
        "kind": "SENSOR_CONTACT",
        "parent_track": "Frigate",
        "time": "1970-01-03T04:10:25+00:00",
        "bearing": -60.0,
        "range": 2977.0,
        "sensor_name": "Frigate_Optic",
        "label": "some message"
      }
    },
    {
      "type": "Feature",
      "id": "bd2d7b01-da89-496b-9f41-176d01957ba5",
      "geometry": null,
      "properties": {
        "kind": "SENSOR_CONTACT",
        "parent_track": "Frigate",
        "time": "1970-01-03T04:11:25+00:00",
        "bearing": -60.0,
        "range": 3063.0,
        "sensor_name": "Frigate_Optic",
        "label": "some message"
      }
    },
    {
      "type": "Feature",
      "id": "a50346d5-7db8-46d0-882f-cf16bb99b5fe",
      "geometry": null,
      "properties": {
        "kind": "SENSOR_CONTACT",
        "parent_track": "Frigate",
        "time": "1970-01-03T04:12:25+00:00",
        "bearing": -60.0,
        "range": 3134.0,
        "sensor_name": "Frigate_Optic",
        "label": "some message"
      }
    },
    {
      "type": "Feature",
      "id": "952d6718-100e-469d-91a7-987d5a7114a7",
      "geometry": null,
      "properties": {
        "kind": "SENSOR_CONTACT",
        "parent_track": "Frigate",
        "time": "1970-01-03T04:13:25+00:00",
        "bearing": -60.0,
        "range": 3189.0,
        "sensor_name": "Frigate_Optic",
        "label": "some message"
      }
    },
    {
      "type": "Feature",
      "id": "4256c308-53e9-4fcb-94b1-362740ea2eca",
      "geometry": null,
      "properties": {
        "kind": "SENSOR_CONTACT",
        "parent_track": "Frigate",
        "time": "1970-01-03T04:14:25+00:00",
        "bearing": -60.0,
        "range": 3226.0,
        "sensor_name": "Frigate_Optic",
        "label": "some message"
      }
    },
    {
      "type": "Feature",
      "id": "0d088421-5988-4188-99ba-cf2d4e4dc797",
      "geometry": null,
      "properties": {
        "kind": "SENSOR_CONTACT",
        "parent_track": "Frigate",
        "time": "1970-01-03T04:15:25+00:00",
        "bearing": -60.0,
        "range": 3245.0,
        "sensor_name": "Frigate_Optic",
        "label": "some message"
      }
    },
    {
      "type": "Feature",
      "id": "c45da714-a4ea-46f3-86c6-8b183e1ad21c",
      "geometry": null,
      "properties": {
        "kind": "SENSOR_CONTACT",
        "parent_track": "Frigate",
        "time": "1970-01-03T04:16:25+00:00",
        "bearing": -60.0,
        "range": 3245.0,
        "sensor_name": "Frigate_Optic",
        "label": "some message"
      }
    },
    {
      "type": "Feature",
      "id": "0473205a-8504-4e81-8b97-983dde9d2702",
      "geometry": null,
      "properties": {
        "kind": "SENSOR_CONTACT",
        "parent_track": "Frigate",
        "time": "1970-01-03T04:17:25+00:00",
        "bearing": -60.0,
        "range": 3223.0,
        "sensor_name": "Frigate_Optic",
        "label": "some message"
      }
    },
    {
      "type": "Feature",
      "id": "a50f9da7-d881-490e-820c-e364c24a9485",
      "geometry": null,
      "properties": {
        "kind": "SENSOR_CONTACT",
        "parent_track": "Frigate",
        "time": "1970-01-03T03:31:25+00:00",
        "bearing": 80.0,
        "speed": 12496.0,
        "sensor_name": "Frigate_Optic2",
        "label": "some message"
      }
    },
    {
      "type": "Feature",
      "id": "26aa0ce1-44ba-4c68-b694-99ace07ee979",
      "geometry": null,
      "properties": {
        "kind": "SENSOR_CONTACT",
        "parent_track": "Frigate",
        "time": "1970-01-03T03:32:25+00:00",
        "bearing": 78.0,
        "speed": 11678.0,
        "sensor_name": "Frigate_Optic2",
        "label": "some message"
      }
    },
    {
      "type": "Feature",
      "id": "ecc63403-d25e-4f6a-8a35-ffe166e494ab",
      "geometry": null,
      "properties": {
        "kind": "SENSOR_CONTACT",
        "parent_track": "Frigate",
        "time": "1970-01-03T03:33:25+00:00",
        "bearing": 77.0,
        "speed": 10866.0,
        "sensor_name": "Frigate_Optic2",
        "label": "some message"
      }
    },
    {
      "type": "Feature",
      "id": "1af26380-bf1f-4213-8a05-abc22920040a",
      "geometry": null,
      "properties": {
        "kind": "SENSOR_CONTACT",
        "parent_track": "Frigate",
        "time": "1970-01-03T03:34:25+00:00",
        "bearing": 75.0,
        "speed": 10062.0,
        "sensor_name": "Frigate_Optic2",
        "label": "some message"
      }
    },
    {
      "type": "Feature",
      "id": "63d43ec5-30c1-4b7c-9d04-338a5bf171fa",
      "geometry": null,
      "properties": {
        "kind": "SENSOR_CONTACT",
        "parent_track": "Frigate",
        "time": "1970-01-03T03:35:25+00:00",
        "bearing": 73.0,
        "speed": 9265.0,
        "sensor_name": "Frigate_Optic2",
        "label": "some message"
      }
    },
    {
      "type": "Feature",
      "id": "d1a3efa7-4549-4b7d-8ee4-b218e7f6fb38",
      "geometry": null,
      "properties": {
        "kind": "SENSOR_CONTACT",
        "parent_track": "Frigate",
        "time": "1970-01-03T03:36:25+00:00",
        "bearing": 71.0,
        "speed": 8479.0,
        "sensor_name": "Frigate_Optic2",
        "label": "some message"
      }
    },
    {
      "type": "Feature",
      "id": "0d0bb54a-557e-4251-a51e-a8edde351a6a",
      "geometry": null,
      "properties": {
        "kind": "SENSOR_CONTACT",
        "parent_track": "Frigate",
        "time": "1970-01-03T03:37:25+00:00",
        "bearing": 69.0,
        "speed": 7704.0,
        "sensor_name": "Frigate_Optic2",
        "label": "some message"
      }
    },
    {
      "type": "Feature",
      "id": "c0dd6fcc-d25c-4784-8608-d6e1a0f7e72b",
      "geometry": null,
      "properties": {
        "kind": "SENSOR_CONTACT",
        "parent_track": "Frigate",
        "time": "1970-01-03T03:38:25+00:00",
        "bearing": 66.0,
        "speed": 6943.0,
        "sensor_name": "Frigate_Optic2",
        "label": "some message"
      }
    },
    {
      "type": "Feature",
      "id": "f4552068-322d-44b0-90c2-13a36fb2b8ee",
      "geometry": null,
      "properties": {
        "kind": "SENSOR_CONTACT",
        "parent_track": "Frigate",
        "time": "1970-01-03T03:39:25+00:00",
        "bearing": 63.0,
        "speed": 6198.0,
        "sensor_name": "Frigate_Optic2",
        "label": "some message"
      }
    },
    {
      "type": "Feature",
      "id": "355545a7-ea5a-4228-80db-c3e956206853",
      "geometry": null,
      "properties": {
        "kind": "SENSOR_CONTACT",
        "parent_track": "Frigate",
        "time": "1970-01-03T03:40:25+00:00",
        "bearing": 59.0,
        "speed": 5475.0,
        "sensor_name": "Frigate_Optic2",
        "label": "some message"
      }
    },
    {
      "type": "Feature",
      "id": "ecc2829a-aeb5-4ace-b0b7-fdc544292562",
      "geometry": null,
      "properties": {
        "kind": "SENSOR_CONTACT",
        "parent_track": "Frigate",
        "time": "1970-01-03T03:41:25+00:00",
        "bearing": 55.0,
        "speed": 4777.0,
        "sensor_name": "Frigate_Optic2",
        "label": "some message"
      }
    },
    {
      "type": "Feature",
      "id": "83a9eba6-1ef6-4c7b-bb47-4608a16d6891",
      "geometry": null,
      "properties": {
        "kind": "SENSOR_CONTACT",
        "parent_track": "Frigate",
        "time": "1970-01-03T03:42:25+00:00",
        "bearing": 49.0,
        "speed": 4112.0,
        "sensor_name": "Frigate_Optic2",
        "label": "some message"
      }
    },
    {
      "type": "Feature",
      "id": "91b8ce54-1ff5-4855-93ee-d397126e344c",
      "geometry": null,
      "properties": {
        "kind": "SENSOR_CONTACT",
        "parent_track": "Frigate",
        "time": "1970-01-03T03:43:25+00:00",
        "bearing": 42.0,
        "speed": 3491.0,
        "sensor_name": "Frigate_Optic2",
        "label": "some message"
      }
    },
    {
      "type": "Feature",
      "id": "23d7e28c-be16-43a3-918d-71b0b50a36ab",
      "geometry": null,
      "properties": {
        "kind": "SENSOR_CONTACT",
        "parent_track": "Frigate",
        "time": "1970-01-03T03:44:25+00:00",
        "bearing": 33.0,
        "speed": 2934.0,
        "sensor_name": "Frigate_Optic2",
        "label": "some message"
      }
    },
    {
      "type": "Feature",
      "id": "0cbeb91a-c761-4813-bd6d-b4cc6fb1c9b0",
      "geometry": null,
      "properties": {
        "kind": "SENSOR_CONTACT",
        "parent_track": "Frigate",
        "time": "1970-01-03T03:45:25+00:00",
        "bearing": 21.0,
        "speed": 2458.0,
        "sensor_name": "Frigate_Optic2",
        "label": "some message"
      }
    },
    {
      "type": "Feature",
      "id": "7706e670-d5ac-4c63-9ac2-cd2280b2fd4d",
      "geometry": null,
      "properties": {
        "kind": "SENSOR_CONTACT",
        "parent_track": "Frigate",
        "time": "1970-01-03T03:46:25+00:00",
        "bearing": 7.0,
        "speed": 2089.0,
        "sensor_name": "Frigate_Optic2",
        "label": "some message"
      }
    },
    {
      "type": "Feature",
      "id": "0442eb97-3c0b-4b77-8c9b-f4764cf6b02b",
      "geometry": null,
      "properties": {
        "kind": "SENSOR_CONTACT",
        "parent_track": "Frigate",
        "time": "1970-01-03T03:31:25+00:00",
        "bearing": 80.0,
        "range": 160.0,
        "speed": 12496.0,
        "sensor_name": "Frigate_Optic3",
        "label": "some message"
      }
    },
    {
      "type": "Feature",
      "id": "b2ce8fee-4741-4ba1-bf04-26c8ff687301",
      "geometry": null,
      "properties": {
        "kind": "SENSOR_CONTACT",
        "parent_track": "Frigate",
        "time": "1970-01-03T03:32:25+00:00",
        "bearing": 78.0,
        "range": 160.0,
        "speed": 11678.0,
        "sensor_name": "Frigate_Optic3",
        "label": "some message"
      }
    },
    {
      "type": "Feature",
      "id": "a268ee9e-2d24-4378-8833-1f93f1e749b7",
      "geometry": null,
      "properties": {
        "kind": "SENSOR_CONTACT",
        "parent_track": "Frigate",
        "time": "1970-01-03T03:33:25+00:00",
        "bearing": 77.0,
        "range": 165.0,
        "speed": 10866.0,
        "sensor_name": "Frigate_Optic3",
        "label": "some message"
      }
    },
    {
      "type": "Feature",
      "id": "a64ab55f-e3ca-4704-8d67-08b5560d0e03",
      "geometry": null,
      "properties": {
        "kind": "SENSOR_CONTACT",
        "parent_track": "Frigate",
        "time": "1970-01-03T03:34:25+00:00",
        "bearing": 75.0,
        "range": 165.0,
        "speed": 10062.0,
        "sensor_name": "Frigate_Optic3",
        "label": "some message"
      }
    },
    {
      "type": "Feature",
      "id": "6596ef3d-4160-48bb-b411-030703d116de",
      "geometry": null,
      "properties": {
        "kind": "SENSOR_CONTACT",
        "parent_track": "Frigate",
        "time": "1970-01-03T03:35:25+00:00",
        "bearing": 73.0,
        "range": 165.0,
        "speed": 9265.0,
        "sensor_name": "Frigate_Optic3",
        "label": "some message"
      }
    },
    {
      "type": "Feature",
      "id": "533d1ccf-92bb-48c7-88e8-3aff09297136",
      "geometry": null,
      "properties": {
        "kind": "SENSOR_CONTACT",
        "parent_track": "Frigate",
        "time": "1970-01-03T03:36:25+00:00",
        "bearing": 71.0,
        "range": 165.0,
        "speed": 8479.0,
        "sensor_name": "Frigate_Optic3",
        "label": "some message"
      }
    },
    {
      "type": "Feature",
      "id": "c51b4ac8-7e47-44ff-81bf-9149a5962eb2",
      "geometry": null,
      "properties": {
        "kind": "SENSOR_CONTACT",
        "parent_track": "Frigate",
        "time": "1970-01-03T03:37:25+00:00",
        "bearing": 69.0,
        "range": 180.0,
        "speed": 7704.0,
        "sensor_name": "Frigate_Optic3",
        "label": "some message"
      }
    },
    {
      "type": "Feature",
      "id": "a6d620e0-0002-4a78-a414-eeab3682102b",
      "geometry": null,
      "properties": {
        "kind": "SENSOR_CONTACT",
        "parent_track": "Frigate",
        "time": "1970-01-03T03:38:25+00:00",
        "bearing": 66.0,
        "range": 180.0,
        "speed": 6943.0,
        "sensor_name": "Frigate_Optic3",
        "label": "some message"
      }
    },
    {
      "type": "Feature",
      "id": "3ef9f621-cd08-4d0c-9991-ffe569e21621",
      "geometry": null,
      "properties": {
        "kind": "SENSOR_CONTACT",
        "parent_track": "Frigate",
        "time": "1970-01-03T03:39:25+00:00",
        "bearing": 63.0,
        "range": 180.0,
        "speed": 6198.0,
        "sensor_name": "Frigate_Optic3",
        "label": "some message"
      }
    },
    {
      "type": "Feature",
      "id": "cfd6700c-5d6f-401d-8999-d78020a31940",
      "geometry": null,
      "properties": {
        "kind": "SENSOR_CONTACT",
        "parent_track": "Frigate",
        "time": "1970-01-03T03:40:25+00:00",
        "bearing": 59.0,
        "range": 170.0,
        "speed": 5475.0,
        "sensor_name": "Frigate_Optic3",
        "label": "some message"
      }
    },
    {
      "type": "Feature",
      "id": "23633925-1c68-4b21-ad56-38a432c36096",
      "geometry": null,
      "properties": {
        "kind": "SENSOR_CONTACT",
        "parent_track": "Frigate",
        "time": "1970-01-03T03:41:25+00:00",
        "bearing": 55.0,
        "range": 170.0,
        "speed": 4777.0,
        "sensor_name": "Frigate_Optic3",
        "label": "some message"
      }
    },
    {
      "type": "Feature",
      "id": "6580cc6e-49a0-4f11-bab7-4a3074f752d6",
      "geometry": null,
      "properties": {
        "kind": "SENSOR_CONTACT",
        "parent_track": "Frigate",
        "time": "1970-01-03T03:42:25+00:00",
        "bearing": 49.0,
        "range": 170.0,
        "speed": 4112.0,
        "sensor_name": "Frigate_Optic3",
        "label": "some message"
      }
    },
    {
      "type": "Feature",
      "id": "e2c127e8-a923-4881-bb91-2c91ea936c83",
      "geometry": null,
      "properties": {
        "kind": "SENSOR_CONTACT",
        "parent_track": "Frigate",
        "time": "1970-01-03T03:43:25+00:00",
        "bearing": 42.0,
        "range": 200.0,
        "speed": 3491.0,
        "sensor_name": "Frigate_Optic3",
        "label": "some message"
      }
    },
    {
      "type": "Feature",
      "id": "0ac702e0-ad91-47ca-9071-948662e10193",
      "geometry": null,
      "properties": {
        "kind": "SENSOR_CONTACT",
        "parent_track": "Frigate",
        "time": "1970-01-03T03:44:25+00:00",
        "bearing": 33.0,
        "range": 205.0,
        "speed": 2934.0,
        "sensor_name": "Frigate_Optic3",
        "label": "some message"
      }
    },
    {
      "type": "Feature",
      "id": "3a58fa4b-27eb-4ba8-9651-c68a0b05890a",
      "geometry": null,
      "properties": {
        "kind": "SENSOR_CONTACT",
        "parent_track": "Frigate",
        "time": "1970-01-03T03:45:25+00:00",
        "bearing": 21.0,
        "range": 220.0,
        "speed": 2458.0,
        "sensor_name": "Frigate_Optic3",
        "label": "some message"
      }
    },
    {
      "type": "Feature",
      "id": "0ea80103-c871-4d22-9e1d-8aaa4ec21e93",
      "geometry": null,
      "properties": {
        "kind": "SENSOR_CONTACT",
        "parent_track": "Frigate",
        "time": "1970-01-03T03:46:25+00:00",
        "bearing": 7.0,
        "range": 230.0,
        "speed": 2089.0,
        "sensor_name": "Frigate_Optic3",
        "label": "some message"
      }
    },
    {
      "type": "Feature",
      "id": "e2978fbd-3d08-49ec-a469-31f726a531cf",
      "geometry": null,
      "properties": {
        "kind": "SENSOR_CONTACT",
        "parent_track": "Frigate",
        "time": "1970-01-03T03:31:25+00:00",
        "bearing": 80.0,
        "range": 160.0,
        "frequency": 77.0,
        "speed": 12496.0,
        "sensor_name": "Frigate_Optic4",
        "label": "some message"
      }
    },
    {
      "type": "Feature",
      "id": "8cec047e-62b4-4ea7-a640-70d1823bb1f0",
      "geometry": null,
      "properties": {
        "kind": "SENSOR_CONTACT",
        "parent_track": "Frigate",
        "time": "1970-01-03T03:32:25+00:00",
        "bearing": 78.0,
        "range": 160.0,
        "frequency": 77.0,
        "speed": 11678.0,
        "sensor_name": "Frigate_Optic4",
        "label": "some message"
      }
    },
    {
      "type": "Feature",
      "id": "0db8af17-4ca9-4042-864c-36889e303ead",
      "geometry": null,
      "properties": {
        "kind": "SENSOR_CONTACT",
        "parent_track": "Frigate",
        "time": "1970-01-03T03:33:25+00:00",
        "bearing": 77.0,
        "range": 165.0,
        "frequency": 78.0,
        "speed": 10866.0,
        "sensor_name": "Frigate_Optic4",
        "label": "some message"
      }
    },
    {
      "type": "Feature",
      "id": "fa1fcd3d-48e4-419a-8cd9-8084ee4cf431",
      "geometry": null,
      "properties": {
        "kind": "SENSOR_CONTACT",
        "parent_track": "Frigate",
        "time": "1970-01-03T03:34:25+00:00",
        "bearing": 75.0,
        "range": 165.0,
        "frequency": 79.0,
        "speed": 10062.0,
        "sensor_name": "Frigate_Optic4",
        "label": "some message"
      }
    },
    {
      "type": "Feature",
      "id": "e0b867d9-72ab-43a7-acf5-b32a6845f710",
      "geometry": null,
      "properties": {
        "kind": "SENSOR_CONTACT",
        "parent_track": "Frigate",
        "time": "1970-01-03T03:35:25+00:00",
        "bearing": 73.0,
        "range": 165.0,
        "frequency": 79.0,
        "speed": 9265.0,
        "sensor_name": "Frigate_Optic4",
        "label": "some message"
      }
    },
    {
      "type": "Feature",
      "id": "4cfaa43e-4493-40e8-9258-1fcdff469f51",
      "geometry": null,
      "properties": {
        "kind": "SENSOR_CONTACT",
        "parent_track": "Frigate",
        "time": "1970-01-03T03:36:25+00:00",
        "bearing": 71.0,
        "range": 165.0,
        "frequency": 79.0,
        "speed": 8479.0,
        "sensor_name": "Frigate_Optic4",
        "label": "some message"
      }
    },
    {
      "type": "Feature",
      "id": "917b81d3-0f89-4638-bcdf-c25ef1fbb370",
      "geometry": null,
      "properties": {
        "kind": "SENSOR_CONTACT",
        "parent_track": "Frigate",
        "time": "1970-01-03T03:37:25+00:00",
        "bearing": 69.0,
        "range": 180.0,
        "frequency": 80.0,
        "speed": 7704.0,
        "sensor_name": "Frigate_Optic4",
        "label": "some message"
      }
    },
    {
      "type": "Feature",
      "id": "a79457da-b819-4ae2-a8f2-96cc75468a59",
      "geometry": null,
      "properties": {
        "kind": "SENSOR_CONTACT",
        "parent_track": "Frigate",
        "time": "1970-01-03T03:38:25+00:00",
        "bearing": 66.0,
        "range": 180.0,
        "frequency": 79.0,
        "speed": 6943.0,
        "sensor_name": "Frigate_Optic4",
        "label": "some message"
      }
    },
    {
      "type": "Feature",
      "id": "9132c237-6e06-4d09-bb90-21b29776d26b",
      "geometry": null,
      "properties": {
        "kind": "SENSOR_CONTACT",
        "parent_track": "Frigate",
        "time": "1970-01-03T03:39:25+00:00",
        "bearing": 63.0,
        "range": 180.0,
        "frequency": 79.0,
        "speed": 6198.0,
        "sensor_name": "Frigate_Optic4",
        "label": "some message"
      }
    },
    {
      "type": "Feature",
      "id": "c9ba4193-ce2f-4726-8530-bf13696ad342",
      "geometry": null,
      "properties": {
        "kind": "SENSOR_CONTACT",
        "parent_track": "Frigate",
        "time": "1970-01-03T03:40:25+00:00",
        "bearing": 59.0,
        "range": 170.0,
        "frequency": 78.0,
        "speed": 5475.0,
        "sensor_name": "Frigate_Optic4",
        "label": "some message"
      }
    },
    {
      "type": "Feature",
      "id": "d8e71a01-e318-46a6-9070-7c70dd944030",
      "geometry": null,
      "properties": {
        "kind": "SENSOR_CONTACT",
        "parent_track": "Frigate",
        "time": "1970-01-03T03:41:25+00:00",
        "bearing": 55.0,
        "range": 170.0,
        "frequency": 78.0,
        "speed": 4777.0,
        "sensor_name": "\"Frigate",
        "label": "Optic5\" some message"
      }
    },
    {
      "type": "Feature",
      "id": "fa24fe44-8494-4160-8511-d7aa743dcb44",
      "geometry": null,
      "properties": {
        "kind": "SENSOR_CONTACT",
        "parent_track": "Frigate",
        "time": "1970-01-03T03:42:25+00:00",
        "bearing": 49.0,
        "range": 170.0,
        "frequency": 77.0,
        "speed": 4112.0,
        "sensor_name": "\"Frigate",
        "label": "Optic5\" some message"
      }
    },
    {
      "type": "Feature",
      "id": "867aa9b5-4944-4913-9823-6d4c6ac73cc2",
      "geometry": null,
      "properties": {
        "kind": "SENSOR_CONTACT",
        "parent_track": "Frigate",
        "time": "1970-01-03T03:43:25+00:00",
        "bearing": 42.0,
        "range": 200.0,
        "frequency": 77.0,
        "speed": 3491.0,
        "sensor_name": "\"Frigate",
        "label": "Optic5\" some message"
      }
    },
    {
      "type": "Feature",
      "id": "398f280a-ea30-4dea-9e90-4debc3046f2e",
      "geometry": null,
      "properties": {
        "kind": "SENSOR_CONTACT",
        "parent_track": "Frigate",
        "time": "1970-01-03T03:44:25+00:00",
        "bearing": 33.0,
        "range": 205.0,
        "frequency": 76.0,
        "speed": 2934.0,
        "label": "Frigate Optic5\" some message"
      }
    },
    {
      "type": "Feature",
      "id": "a9fb3df7-8419-47a1-a180-0df16574c060",
      "geometry": null,
      "properties": {
        "kind": "SENSOR_CONTACT",
        "parent_track": "Frigate",
        "time": "1970-01-03T03:45:25+00:00",
        "bearing": 21.0,
        "range": 220.0,
        "frequency": 76.0,
        "speed": 2458.0,
        "sensor_name": "\"Frigate",
        "label": "Optic5\" some message"
      }
    },
    {
      "type": "Feature",
      "id": "e474de8a-e4d6-4436-b646-78d273e7e432",
      "geometry": null,
      "properties": {
        "kind": "SENSOR_CONTACT",
        "parent_track": "Frigate",
        "time": "1970-01-03T03:46:25+00:00",
        "bearing": 7.0,
        "range": 230.0,
        "frequency": 76.0,
        "speed": 2089.0,
        "label": "Frigate Optic5 \" some message"
      }
    }
  ]
}