{
  "type": "FeatureCollection",
  "features": [
    {
      "type": "Feature",
      "id": "f5f44634-134a-4a5b-8e33-666656c6e215",
      "geometry": {
        "type": "LineString",
        "coordinates": [
          [
            30.923572222222223,
            5.1826388888888895
          ],
          [
            30.923572222222223,
            5.1826388888888895
          ]
        ]
      },
      "properties": {
        "kind": "TRACK",
        "platform_id": "MAYO",
        "platform_name": "MAYO",
        "track_type": "CONTACT",
        "start_time": "2009-04-22T18:02:54.410000+00:00",
        "end_time": "2009-04-22T18:02:54.410000+00:00",
        "positions": [
          {
            "time": "2009-04-22T18:02:54.410000+00:00",
            "course": 290.0,
            "speed": 4.35,
            "depth": 18.32
          },
          {
            "time": "2009-04-22T18:02:54.410000+00:00",
            "course": 290.0,
            "speed": 4.35,
            "depth": 18.32
          }
        ],
        "style": {
          "line": {
            "color": "#0000FF"
          },
          "point": {
            "shape": "circle",
            "radius": 3.0,
            "fill_color": "#0000FF",
            "color": "#0000FF"
          }
        },
        "default_position_style": {
          "show_symbol": false,
          "symbol": "circle",
          "show_label": false
        },
        "symbol_interval": "PT1M",
        "label_interval": "PT5M"
      }
    }
  ]
}