{
  "type": "FeatureCollection",
  "features": [
    {
      "type": "Feature",
      "id": "881c4832-2bd5-4ef3-8137-5ba06d48c1fd",
      "geometry": null,
      "properties": {
        "kind": "SENSOR_CONTACT",
        "parent_track": "New_SSK",
        "time": "1970-01-03T03:14:25+00:00",
        "frequency": 23.0,
        "sensor_name": "New_SSK_FREQ",
        "label": "some message"
      }
    },
    {
      "type": "Feature",
      "id": "84e207af-0fe5-4848-8350-7b064088686c",
      "geometry": null,
      "properties": {
        "kind": "SENSOR_CONTACT",
        "parent_track": "New_SSK",
        "time": "1970-01-03T03:15:25+00:00",
        "frequency": 23.0,
        "sensor_name": "New_SSK_FREQ",
        "label": "some message"
      }
    },
    {
      "type": "Feature",
      "id": "1060ec1d-4f77-4079-91fb-16a4cb9c6761",
      "geometry": null,
      "properties": {
        "kind": "SENSOR_CONTACT",
        "parent_track": "New_SSK",
        "time": "1970-01-03T03:16:25+00:00",
        "frequency": 23.0,
        "sensor_name": "New_SSK_FREQ",
        "label": "some message"
      }
    },
    {
      "type": "Feature",
      "id": "88ecbbdf-1450-4738-84d8-f07b13c0bc98",
      "geometry": null,
      "properties": {
        "kind": "SENSOR_CONTACT",
        "parent_track": "New_SSK",
        "time": "1970-01-03T03:17:25+00:00",
        "frequency": 23.0,
        "sensor_name": "New_SSK_FREQ",
        "label": "some message"
      }
    },
    {
      "type": "Feature",
      "id": "db0b217b-ccc9-415e-80ed-233816983188",
      "geometry": null,
      "properties": {
        "kind": "SENSOR_CONTACT",
        "parent_track": "New_SSK",
        "time": "1970-01-03T03:18:25+00:00",
        "frequency": 23.0,
        "sensor_name": "New_SSK_FREQ",
        "label": "some message"
      }
    },
    {
      "type": "Feature",
      "id": "3a1ca25d-5df2-455c-affc-8d552aed9e73",
      "geometry": null,
      "properties": {
        "kind": "SENSOR_CONTACT",
        "parent_track": "New_SSK",
        "time": "1970-01-03T03:19:25+00:00",
        "frequency": 23.0,
        "sensor_name": "New_SSK_FREQ",
        "label": "some message"
      }
    },
    {
      "type": "Feature",
      "id": "83eeb757-1c00-4ed8-9e13-6d438506bce9",
      "geometry": null,
      "properties": {
        "kind": "SENSOR_CONTACT",
        "parent_track": "New_SSK",
        "time": "1970-01-03T03:20:25+00:00",
        "frequency": 23.0,
        "sensor_name": "New_SSK_FREQ",
        "label": "some message"
      }
    },
    {
      "type": "Feature",
      "id": "445fe1ed-6772-410f-9dec-b7a9f8c0394d",
      "geometry": null,
      "properties": {
        "kind": "SENSOR_CONTACT",
        "parent_track": "New_SSK",
        "time": "1970-01-03T03:21:25+00:00",
        "frequency": 23.0,
        "sensor_name": "New_SSK_FREQ",
        "label": "some message"
      }
    }
  ]
}