{
  "type": "FeatureCollection",
  "features": [
    {
      "type": "Feature",
      "id": "1f85c292-c21e-4513-ba05-1fe8a007d781",
      "geometry": null,
      "properties": {
        "kind": "SENSOR_CONTACT",
        "parent_track": "NONSUCH",
        "time": "1970-01-03T03:31:25+00:00",
        "bearing": 80.0,
        "range": 12496.0,
        "sensor_name": "Frigate_Optic",
        "label": "some message"
      }
    },
    {
      "type": "Feature",
      "id": "8a241dce-5f45-422f-986d-817f640317d4",
      "geometry": null,
      "properties": {
        "kind": "SENSOR_CONTACT",
        "parent_track": "NONSUCH",
        "time": "1970-01-03T03:32:25+00:00",
        "bearing": 78.0,
        "range": 11678.0,
        "sensor_name": "Frigate_Optic",
        "label": "some message"
      }
    },
    {
      "type": "Feature",
      "id": "2af8addc-1494-42e4-8811-4d45686f55be",
      "geometry": null,
      "properties": {
        "kind": "SENSOR_CONTACT",
        "parent_track": "NONSUCH",
        "time": "1970-01-03T03:33:25+00:00",
        "bearing": 77.0,
        "range": 10866.0,
        "sensor_name": "Frigate_Optic",
        "label": "some message"
      }
    },
    {
      "type": "Feature",
      "id": "c4a73d4c-1a5e-4429-ab83-434961f1a6b0",
      "geometry": null,
      "properties": {
        "kind": "SENSOR_CONTACT",
        "parent_track": "NONSUCH",
        "time": "1970-01-03T03:34:25+00:00",
        "bearing": 75.0,
        "range": 10062.0,
        "sensor_name": "Frigate_Optic",
        "label": "some message"
      }
    },
    {
      "type": "Feature",
      "id": "8315dc24-97b3-4487-9ac9-81cb287cc1ab",
      "geometry": null,
      "properties": {
        "kind": "SENSOR_CONTACT",
        "parent_track": "NONSUCH",
        "time": "1970-01-03T03:35:25+00:00",
        "bearing": 73.0,
        "range": 9265.0,
        "sensor_name": "Frigate_Optic",
        "label": "some message"
      }
    },
    {
      "type": "Feature",
      "id": "3db6a1a5-f76d-4afb-8697-92eb1823cd81",
      "geometry": null,
      "properties": {
        "kind": "SENSOR_CONTACT",
        "parent_track": "NONSUCH",
        "time": "1970-01-03T03:36:25+00:00",
        "bearing": 71.0,
        "range": 8479.0,
        "sensor_name": "Frigate_Optic",
        "label": "some message"
      }
    },
    {
      "type": "Feature",
      "id": "018b6fbc-2045-4562-9d57-0f71987adc6f",
      "geometry": null,
      "properties": {
        "kind": "SENSOR_CONTACT",
        "parent_track": "NONSUCH",
        "time": "1970-01-03T03:37:25+00:00",
        "bearing": 69.0,
        "range": 7704.0,
        "sensor_name": "Frigate_Optic",
        "label": "some message"
      }
    },
    {
      "type": "Feature",
      "id": "b1101aa0-94e5-4875-bc20-2ca45fdbed1e",
      "geometry": null,
      "properties": {
        "kind": "SENSOR_CONTACT",
        "parent_track": "NONSUCH",
        "time": "1970-01-03T03:38:25+00:00",
        "bearing": 66.0,
        "range": 6943.0,
        "sensor_name": "Frigate_Optic",
        "label": "some message"
      }
    },
    {
      "type": "Feature",
      "id": "35e7eeeb-6f42-45e4-923e-1369b2166920",
      "geometry": null,
      "properties": {
        "kind": "SENSOR_CONTACT",
        "parent_track": "NONSUCH",
        "time": "1970-01-03T03:39:25+00:00",
        "bearing": 63.0,
        "range": 6198.0,
        "sensor_name": "Frigate_Optic",
        "label": "some message"
      }
    },
    {
      "type": "Feature",
      "id": "334df1d8-e05f-4f2b-a565-c1ba58f89b57",
      "geometry": null,
      "properties": {
        "kind": "SENSOR_CONTACT",
        "parent_track": "NONSUCH",
        "time": "1970-01-03T03:40:25+00:00",
        "bearing": 59.0,
        "range": 5475.0,
        "sensor_name": "Frigate_Optic",
        "label": "some message"
      }
    },
    {
      "type": "Feature",
      "id": "5f113d3a-d4a2-4056-8963-9107f3e1f2ec",
      "geometry": null,
      "properties": {
        "kind": "SENSOR_CONTACT",
        "parent_track": "NONSUCH",
        "time": "1970-01-03T03:41:25+00:00",
        "bearing": 55.0,
        "range": 4777.0,
        "sensor_name": "Frigate_Optic",
        "label": "some message"
      }
    },
    {
      "type": "Feature",
      "id": "cb02feea-bf3c-4f0d-950f-e11579a1a1a5",
      "geometry": null,
      "properties": {
        "kind": "SENSOR_CONTACT",
        "parent_track": "NONSUCH",
        "time": "1970-01-03T03:42:25+00:00",
        "bearing": 49.0,
        "range": 4112.0,
        "sensor_name": "Frigate_Optic",
        "label": "some message"
      }
    },
    {
      "type": "Feature",
      "id": "7a0ce40c-ff1f-4e1d-b646-80cadb93d825",
      "geometry": null,
      "properties": {
        "kind": "SENSOR_CONTACT",
        "parent_track": "NONSUCH",
        "time": "1970-01-03T03:43:25+00:00",
        "bearing": 42.0,
        "range": 3491.0,
        "sensor_name": "Frigate_Optic",
        "label": "some message"
      }
    },
    {
      "type": "Feature",
      "id": "a2df8a75-adc6-410f-b041-c4d128cf7f98",
      "geometry": null,
      "properties": {
        "kind": "SENSOR_CONTACT",
        "parent_track": "NONSUCH",
        "time": "1970-01-03T03:44:25+00:00",
        "bearing": 33.0,
        "range": 2934.0,
        "sensor_name": "Frigate_Optic",
        "label": "some message"
      }
    },
    {
      "type": "Feature",
      "id": "ced79a35-382f-45f6-b056-b52a17129d9b",
      "geometry": null,
      "properties": {
        "kind": "SENSOR_CONTACT",
        "parent_track": "NONSUCH",
        "time": "1970-01-03T03:45:25+00:00",
        "bearing": 21.0,
        "range": 2458.0,
        "sensor_name": "Frigate_Optic",
        "label": "some message"
      }
    },
    {
      "type": "Feature",
      "id": "a241959a-f111-47ea-8ac2-6b8dec408166",
      "geometry": null,
      "properties": {
        "kind": "SENSOR_CONTACT",
        "parent_track": "NONSUCH",
        "time": "1970-01-03T03:46:25+00:00",
        "bearing": 7.0,
        "range": 2089.0,
        "sensor_name": "Frigate_Optic",
        "label": "some message"
      }
    },
    {
      "type": "Feature",
      "id": "1afe189d-42cd-4fd0-90ca-c97fba525594",
      "geometry": null,
      "properties": {
        "kind": "SENSOR_CONTACT",
        "parent_track": "NONSUCH",
        "time": "1970-01-03T03:47:25+00:00",
        "bearing": -9.0,
        "range": 1840.0,
        "sensor_name": "Frigate_Optic",
        "label": "some message"
      }
    },
    {
      "type": "Feature",
      "id": "9e3ec795-2124-40ff-95dc-3a42b2b3d825",
      "geometry": null,
      "properties": {
        "kind": "SENSOR_CONTACT",
        "parent_track": "NONSUCH",
        "time": "1970-01-03T03:48:25+00:00",
        "bearing": -26.0,
        "range": 1695.0,
        "sensor_name": "Frigate_Optic",
        "label": "some message"
      }
    },
    {
      "type": "Feature",
      "id": "52e01f84-845b-4bb1-8cf3-b8fc40b8b8b9",
      "geometry": null,
      "properties": {
        "kind": "SENSOR_CONTACT",
        "parent_track": "NONSUCH",
        "time": "1970-01-03T03:49:25+00:00",
        "bearing": -40.0,
        "range": 1633.0,
        "sensor_name": "Frigate_Optic",
        "label": "some message"
      }
    },
    {
      "type": "Feature",
      "id": "76a319cd-d2c9-44bb-861c-160ebea8a72b",
      "geometry": null,
      "properties": {
        "kind": "SENSOR_CONTACT",
        "parent_track": "NONSUCH",
        "time": "1970-01-03T03:50:25+00:00",
        "bearing": -50.0,
        "range": 1607.0,
        "sensor_name": "Frigate_Optic",
        "label": "some message"
      }
    },
    {
      "type": "Feature",
      "id": "1de6a893-e28d-4271-a8b5-320716100594",
      "geometry": null,
      "properties": {
        "kind": "SENSOR_CONTACT",
        "parent_track": "NONSUCH",
        "time": "1970-01-03T03:51:25+00:00",
        "bearing": -56.0,
        "range": 1596.0,
        "sensor_name": "Frigate_Optic",
        "label": "some message"
      }
    },
    {
      "type": "Feature",
      "id": "b8187b7a-1d64-44c0-90bd-ee6cf7d0e25c",
      "geometry": null,
      "properties": {
        "kind": "SENSOR_CONTACT",
        "parent_track": "NONSUCH",
        "time": "1970-01-03T03:52:25+00:00",
        "bearing": -59.0,
        "range": 1596.0,
        "sensor_name": "Frigate_Optic",
        "label": "some message"
      }
    },
    {
      "type": "Feature",
      "id": "67b613eb-4c89-4742-918a-a94734145900",
      "geometry": null,
      "properties": {
        "kind": "SENSOR_CONTACT",
        "parent_track": "NONSUCH",
        "time": "1970-01-03T03:53:25+00:00",
        "bearing": -60.0,
        "range": 1613.0,
        "sensor_name": "Frigate_Optic",
        "label": "some message"
      }
    },
    {
      "type": "Feature",
      "id": "e4c30fc3-3491-4a85-8f0b-4b37cc9d0da9",
      "geometry": null,
      "properties": {
        "kind": "SENSOR_CONTACT",
        "parent_track": "NONSUCH",
        "time": "1970-01-03T03:54:25+00:00",
        "bearing": -60.0,
        "range": 1648.0,
        "sensor_name": "Frigate_Optic",
        "label": "some message"
      }
    },
    {
      "type": "Feature",
      "id": "f624bff4-d806-4993-8bf6-e013ebabc676",
      "geometry": null,
      "properties": {
        "kind": "SENSOR_CONTACT",
        "parent_track": "NONSUCH",
        "time": "1970-01-03T03:55:25+00:00",
        "bearing": -60.0,
        "range": 1701.0,
        "sensor_name": "Frigate_Optic",
        "label": "some message"
      }
    },
    {
      "type": "Feature",
      "id": "4bd1fdf9-cccb-4294-ad02-d13e0d429ca6",
      "geometry": null,
      "properties": {
        "kind": "SENSOR_CONTACT",
        "parent_track": "NONSUCH",
        "time": "1970-01-03T03:56:25+00:00",
        "bearing": -60.0,
        "range": 1772.0,
        "sensor_name": "Frigate_Optic",
        "label": "some message"
      }
    },
    {
      "type": "Feature",
      "id": "3a115056-96af-478d-945c-24b7eec3dfe9",
      "geometry": null,
      "properties": {
        "kind": "SENSOR_CONTACT",
        "parent_track": "NONSUCH",
        "time": "1970-01-03T03:57:25+00:00",
        "bearing": -60.0,
        "range": 1859.0,
        "sensor_name": "Frigate_Optic",
        "label": "some message"
      }
    },
    {
      "type": "Feature",
      "id": "a5de4f1d-87f4-4d8d-b613-4d45eb5c967f",
      "geometry": null,
      "properties": {
        "kind": "SENSOR_CONTACT",
        "parent_track": "NONSUCH",
        "time": "1970-01-03T03:58:25+00:00",
        "bearing": -60.0,
        "range": 1945.0,
        "sensor_name": "Frigate_Optic",
        "label": "some message"
      }
    },
    {
      "type": "Feature",
      "id": "de868113-6031-4619-83ff-288e9f68441e",
      "geometry": null,
      "properties": {
        "kind": "SENSOR_CONTACT",
        "parent_track": "NONSUCH",
        "time": "1970-01-03T03:59:25+00:00",
        "bearing": -60.0,
        "range": 2031.0,
        "sensor_name": "Frigate_Optic",
        "label": "some message"
      }
    },
    {
      "type": "Feature",
      "id": "85af93c6-0b72-4e72-a762-0126375d1995",
      "geometry": null,
      "properties": {
        "kind": "SENSOR_CONTACT",
        "parent_track": "NONSUCH",
        "time": "1970-01-03T04:00:25+00:00",
        "bearing": -60.0,
        "range": 2117.0,
        "sensor_name": "Frigate_Optic",
        "label": "some message"
      }
    },
    {
      "type": "Feature",
      "id": "6471e980-f3b3-4b57-b612-d0a4702d40fc",
      "geometry": null,
      "properties": {
        "kind": "SENSOR_CONTACT",
        "parent_track": "NONSUCH",
        "time": "1970-01-03T04:01:25+00:00",
        "bearing": -60.0,
        "range": 2203.0,
        "sensor_name": "Frigate_Optic",
        "label": "some message"
      }
    },
    {
      "type": "Feature",
      "id": "741a3e0c-f31f-4f05-a868-8864fee9802e",
      "geometry": null,
      "properties": {
        "kind": "SENSOR_CONTACT",
        "parent_track": "NONSUCH",
        "time": "1970-01-03T04:02:25+00:00",
        "bearing": -60.0,
        "range": 2289.0,
        "sensor_name": "Frigate_Optic",
        "label": "some message"
      }
    },
    {
      "type": "Feature",
      "id": "13a73bb7-20a3-4224-bd82-f193dddaec7a",
      "geometry": null,
      "properties": {
        "kind": "SENSOR_CONTACT",
        "parent_track": "NONSUCH",
        "time": "1970-01-03T04:03:25+00:00",
        "bearing": -60.0,
        "range": 2375.0,
        "sensor_name": "Frigate_Optic",
        "label": "some message"
      }
    },
    {
      "type": "Feature",
      "id": "ba7deab8-ffb5-47b1-af09-8753de5d755d",
      "geometry": null,
      "properties": {
        "kind": "SENSOR_CONTACT",
        "parent_track": "NONSUCH",
        "time": "1970-01-03T04:04:25+00:00",
        "bearing": -60.0,
        "range": 2461.0,
        "sensor_name": "Frigate_Optic",
        "label": "some message"
      }
    },
    {
      "type": "Feature",
      "id": "173f6b78-b48b-4d24-b343-b78f05c5cb8c",
      "geometry": null,
      "properties": {
        "kind": "SENSOR_CONTACT",
        "parent_track": "NONSUCH",
        "time": "1970-01-03T04:05:25+00:00",
        "bearing": -60.0,
        "range": 2547.0,
        "sensor_name": "Frigate_Optic",
        "label": "some message"
      }
    },
    {
      "type": "Feature",
      "id": "d5030d6d-342a-4660-8504-32c28a9faebf",
      "geometry": null,
      "properties": {
        "kind": "SENSOR_CONTACT",
        "parent_track": "NONSUCH",
        "time": "1970-01-03T04:06:25+00:00",
        "bearing": -60.0,
        "range": 2633.0,
        "sensor_name": "Frigate_Optic",
        "label": "some message"
      }
    },
    {
      "type": "Feature",
      "id": "f9cd549f-f940-447f-b23d-99d2fa163dcf",
      "geometry": null,
      "properties": {
        "kind": "SENSOR_CONTACT",
        "parent_track": "NONSUCH",
        "time": "1970-01-03T04:07:25+00:00",
        "bearing": -60.0,
        "range": 2719.0,
        "sensor_name": "Frigate_Optic",
        "label": "some message"
      }
    },
    {
      "type": "Feature",
      "id": "e9101f4e-ee7d-46a9-bda2-0a5adc375fae",
      "geometry": null,
      "properties": {
        "kind": "SENSOR_CONTACT",
        "parent_track": "NONSUCH",
        "time": "1970-01-03T04:08:25+00:00",
        "bearing": -60.0,
        "range": 2805.0,
        "sensor_name": "Frigate_Optic",
        "label": "some message"
      }
    },
    {
      "type": "Feature",
      "id": "867e0e3b-7985-4928-ab40-125a54a3b756",
      "geometry": null,
      "properties": {
        "kind": "SENSOR_CONTACT",
        "parent_track": "NONSUCH",
        "time": "1970-01-03T04:09:25+00:00",
        "bearing": -60.0,
        "range": 2891.0,
        "sensor_name": "Frigate_Optic",
        "label": "some message"
      }
    },
    {
      "type": "Feature",
      "id": "a5d91ddc-a963-4575-b6ac-5cbadd6932d1",
      "geometry": null,
      "properties": {
        "kind": "SENSOR_CONTACT",
        "parent_track": "NONSUCH",
        "time": "1970-01-03T04:10:25+00:00",
        "bearing": -60.0,
        "range": 2977.0,
        "sensor_name": "Frigate_Optic",
        "label": "some message"
      }
    },
    {
      "type": "Feature",
      "id": "6d9999d9-04b8-4977-97eb-0f6d089f9022",
      "geometry": null,
      "properties": {
        "kind": "SENSOR_CONTACT",
        "parent_track": "NONSUCH",
        "time": "1970-01-03T04:11:25+00:00",
        "bearing": -60.0,
        "range": 3063.0,
        "sensor_name": "Frigate_Optic",
        "label": "some message"
      }
    },
    {
      "type": "Feature",
      "id": "53828244-9605-4789-a372-6b2c792b11a5",
      "geometry": null,
      "properties": {
        "kind": "SENSOR_CONTACT",
        "parent_track": "NONSUCH",
        "time": "1970-01-03T04:12:25+00:00",
        "bearing": -60.0,
        "range": 3134.0,
        "sensor_name": "Frigate_Optic",
        "label": "some message"
      }
    },
    {
      "type": "Feature",
      "id": "2b5ff193-9e40-4334-a219-d7cd3c2d2ad1",
      "geometry": null,
      "properties": {
        "kind": "SENSOR_CONTACT",
        "parent_track": "NONSUCH",
        "time": "1970-01-03T04:13:25+00:00",
        "bearing": -60.0,
        "range": 3189.0,
        "sensor_name": "Frigate_Optic",
        "label": "some message"
      }
    },
    {
      "type": "Feature",
      "id": "282312b7-3bb5-4b06-b07b-cf4e5f8d946e",
      "geometry": null,
      "properties": {
        "kind": "SENSOR_CONTACT",
        "parent_track": "NONSUCH",
        "time": "1970-01-03T04:14:25+00:00",
        "bearing": -60.0,
        "range": 3226.0,
        "sensor_name": "Frigate_Optic",
        "label": "some message"
      }
    },
    {
      "type": "Feature",
      "id": "91dca3fd-a664-4aab-aa6b-bfdf6d726c25",
      "geometry": null,
      "properties": {
        "kind": "SENSOR_CONTACT",
        "parent_track": "NONSUCH",
        "time": "1970-01-03T04:15:25+00:00",
        "bearing": -60.0,
        "range": 3245.0,
        "sensor_name": "Frigate_Optic",
        "label": "some message"
      }
    },
    {
      "type": "Feature",
      "id": "acd85694-8f53-49d1-a7f4-e6bd7ee9924c",
      "geometry": null,
      "properties": {
        "kind": "SENSOR_CONTACT",
        "parent_track": "NONSUCH",
        "time": "1970-01-03T04:16:25+00:00",
        "bearing": -60.0,
        "range": 3245.0,
        "sensor_name": "Frigate_Optic",
        "label": "some message"
      }
    },
    {
      "type": "Feature",
      "id": "3e746fd8-df43-4b12-a12e-61c5d932c467",
      "geometry": null,
      "properties": {
        "kind": "SENSOR_CONTACT",
        "parent_track": "NONSUCH",
        "time": "1970-01-03T04:17:25+00:00",
        "bearing": -60.0,
        "range": 3223.0,
        "sensor_name": "Frigate_Optic",
        "label": "some message"
      }
    },
    {
      "type": "Feature",
      "id": "e8a74063-7abd-47bf-8d3c-ae977792fd9a",
      "geometry": null,
      "properties": {
        "kind": "SENSOR_CONTACT",
        "parent_track": "Frigate",
        "time": "1970-01-03T03:31:25+00:00",
        "bearing": 80.0,
        "speed": 12496.0,
        "sensor_name": "Frigate_Optic2",
        "label": "some message"
      }
    },
    {
      "type": "Feature",
      "id": "b6189f91-a965-4145-88dd-21ad4843c63a",
      "geometry": null,
      "properties": {
        "kind": "SENSOR_CONTACT",
        "parent_track": "Frigate",
        "time": "1970-01-03T03:32:25+00:00",
        "bearing": 78.0,
        "speed": 11678.0,
        "sensor_name": "Frigate_Optic2",
        "label": "some message"
      }
    },
    {
      "type": "Feature",
      "id": "5a06b33d-71eb-4819-8593-f6f97a84937b",
      "geometry": null,
      "properties": {
        "kind": "SENSOR_CONTACT",
        "parent_track": "Frigate",
        "time": "1970-01-03T03:33:25+00:00",
        "bearing": 77.0,
        "speed": 10866.0,
        "sensor_name": "Frigate_Optic2",
        "label": "some message"
      }
    },
    {
      "type": "Feature",
      "id": "2f90ec2e-2310-4067-8e9e-f65ed5c7fcca",
      "geometry": null,
      "properties": {
        "kind": "SENSOR_CONTACT",
        "parent_track": "Frigate",
        "time": "1970-01-03T03:34:25+00:00",
        "bearing": 75.0,
        "speed": 10062.0,
        "sensor_name": "Frigate_Optic2",
        "label": "some message"
      }
    },
    {
      "type": "Feature",
      "id": "8254bc17-7b42-4e18-b99f-0af53bb56c34",
      "geometry": null,
      "properties": {
        "kind": "SENSOR_CONTACT",
        "parent_track": "Frigate",
        "time": "1970-01-03T03:35:25+00:00",
        "bearing": 73.0,
        "speed": 9265.0,
        "sensor_name": "Frigate_Optic2",
        "label": "some message"
      }
    },
    {
      "type": "Feature",
      "id": "69354456-0e08-4ebf-b481-9dee13fbec7e",
      "geometry": null,
      "properties": {
        "kind": "SENSOR_CONTACT",
        "parent_track": "Frigate",
        "time": "1970-01-03T03:36:25+00:00",
        "bearing": 71.0,
        "speed": 8479.0,
        "sensor_name": "Frigate_Optic2",
        "label": "some message"
      }
    },
    {
      "type": "Feature",
      "id": "bcc5040b-0bd7-4a26-a2a1-924d9e6424fe",
      "geometry": null,
      "properties": {
        "kind": "SENSOR_CONTACT",
        "parent_track": "Frigate",
        "time": "1970-01-03T03:37:25+00:00",
        "bearing": 69.0,
        "speed": 7704.0,
        "sensor_name": "Frigate_Optic2",
        "label": "some message"
      }
    },
    {
      "type": "Feature",
      "id": "01925d9f-f3a0-432f-bf8b-7b70a32d041b",
      "geometry": null,
      "properties": {
        "kind": "SENSOR_CONTACT",
        "parent_track": "Frigate",
        "time": "1970-01-03T03:38:25+00:00",
        "bearing": 66.0,
        "speed": 6943.0,
        "sensor_name": "Frigate_Optic2",
        "label": "some message"
      }
    },
    {
      "type": "Feature",
      "id": "ab8ddae5-78df-41e3-8338-b4f8bd8bafed",
      "geometry": null,
      "properties": {
        "kind": "SENSOR_CONTACT",
        "parent_track": "Frigate",
        "time": "1970-01-03T03:39:25+00:00",
        "bearing": 63.0,
        "speed": 6198.0,
        "sensor_name": "Frigate_Optic2",
        "label": "some message"
      }
    },
    {
      "type": "Feature",
      "id": "47e3b1f3-90a2-419a-a058-8d9a64d22c62",
      "geometry": null,
      "properties": {
        "kind": "SENSOR_CONTACT",
        "parent_track": "Frigate",
        "time": "1970-01-03T03:40:25+00:00",
        "bearing": 59.0,
        "speed": 5475.0,
        "sensor_name": "Frigate_Optic2",
        "label": "some message"
      }
    },
    {
      "type": "Feature",
      "id": "015f861a-7ac4-4454-9a38-840098e772c6",
      "geometry": null,
      "properties": {
        "kind": "SENSOR_CONTACT",
        "parent_track": "Frigate",
        "time": "1970-01-03T03:41:25+00:00",
        "bearing": 55.0,
        "speed": 4777.0,
        "sensor_name": "Frigate_Optic2",
        "label": "some message"
      }
    },
    {
      "type": "Feature",
      "id": "b874f4d4-78f1-4add-a1e9-161b657d9b17",
      "geometry": null,
      "properties": {
        "kind": "SENSOR_CONTACT",
        "parent_track": "Frigate",
        "time": "1970-01-03T03:42:25+00:00",
        "bearing": 49.0,
        "speed": 4112.0,
        "sensor_name": "Frigate_Optic2",
        "label": "some message"
      }
    },
    {
      "type": "Feature",
      "id": "36eee0ec-79b6-478f-8f21-8bd37301b042",
      "geometry": null,
      "properties": {
        "kind": "SENSOR_CONTACT",
        "parent_track": "Frigate",
        "time": "1970-01-03T03:43:25+00:00",
        "bearing": 42.0,
        "speed": 3491.0,
        "sensor_name": "Frigate_Optic2",
        "label": "some message"
      }
    },
    {
      "type": "Feature",
      "id": "7020396b-dfad-4047-8e08-ae05e698320e",
      "geometry": null,
      "properties": {
        "kind": "SENSOR_CONTACT",
        "parent_track": "Frigate",
        "time": "1970-01-03T03:44:25+00:00",
        "bearing": 33.0,
        "speed": 2934.0,
        "sensor_name": "Frigate_Optic2",
        "label": "some message"
      }
    },
    {
      "type": "Feature",
      "id": "17e1381b-e0fa-4977-8521-8893083bdf13",
      "geometry": null,
      "properties": {
        "kind": "SENSOR_CONTACT",
        "parent_track": "Frigate",
        "time": "1970-01-03T03:45:25+00:00",
        "bearing": 21.0,
        "speed": 2458.0,
        "sensor_name": "Frigate_Optic2",
        "label": "some message"
      }
    },
    {
      "type": "Feature",
      "id": "02398ce9-91d0-4648-9ee5-44cd187844ee",
      "geometry": null,
      "properties": {
        "kind": "SENSOR_CONTACT",
        "parent_track": "Frigate",
        "time": "1970-01-03T03:46:25+00:00",
        "bearing": 7.0,
        "speed": 2089.0,
        "sensor_name": "Frigate_Optic2",
        "label": "some message"
      }
    },
    {
      "type": "Feature",
      "id": "5566bd68-a58a-4328-86e6-02d68013fa77",
      "geometry": null,
      "properties": {
        "kind": "SENSOR_CONTACT",
        "parent_track": "NONSUCH",
        "time": "1970-01-03T03:31:25+00:00",
        "bearing": 80.0,
        "range": 160.0,
        "speed": 12496.0,
        "sensor_name": "Frigate_Optic3",
        "label": "some message"
      }
    },
    {
      "type": "Feature",
      "id": "2519eb81-1e57-4424-8cd4-700dbf7b4bc3",
      "geometry": null,
      "properties": {
        "kind": "SENSOR_CONTACT",
        "parent_track": "NONSUCH",
        "time": "1970-01-03T03:32:25+00:00",
        "bearing": 78.0,
        "range": 160.0,
        "speed": 11678.0,
        "sensor_name": "Frigate_Optic3",
        "label": "some message"
      }
    },
    {
      "type": "Feature",
      "id": "7a083e5b-cb33-4722-9bd2-e0bae0f723d7",
      "geometry": null,
      "properties": {
        "kind": "SENSOR_CONTACT",
        "parent_track": "NONSUCH",
        "time": "1970-01-03T03:33:25+00:00",
        "bearing": 77.0,
        "range": 165.0,
        "speed": 10866.0,
        "sensor_name": "Frigate_Optic3",
        "label": "some message"
      }
    },
    {
      "type": "Feature",
      "id": "9eb2de9f-160f-44e7-99f6-7e28b279935f",
      "geometry": null,
      "properties": {
        "kind": "SENSOR_CONTACT",
        "parent_track": "NONSUCH",
        "time": "1970-01-03T03:34:25+00:00",
        "bearing": 75.0,
        "range": 165.0,
        "speed": 10062.0,
        "sensor_name": "Frigate_Optic3",
        "label": "some message"
      }
    },
    {
      "type": "Feature",
      "id": "0d6e0533-52d1-487d-aa0a-717a90d856f3",
      "geometry": null,
      "properties": {
        "kind": "SENSOR_CONTACT",
        "parent_track": "NONSUCH",
        "time": "1970-01-03T03:35:25+00:00",
        "bearing": 73.0,
        "range": 165.0,
        "speed": 9265.0,
        "sensor_name": "Frigate_Optic3",
        "label": "some message"
      }
    },
    {
      "type": "Feature",
      "id": "6112dd3d-6fde-44e8-82a8-cb75eadc9fe3",
      "geometry": null,
      "properties": {
        "kind": "SENSOR_CONTACT",
        "parent_track": "NONSUCH",
        "time": "1970-01-03T03:36:25+00:00",
        "bearing": 71.0,
        "range": 165.0,
        "speed": 8479.0,
        "sensor_name": "Frigate_Optic3",
        "label": "some message"
      }
    },
    {
      "type": "Feature",
      "id": "cf9b60f9-be9b-4498-a501-ed931a826fe3",
      "geometry": null,
      "properties": {
        "kind": "SENSOR_CONTACT",
        "parent_track": "NONSUCH",
        "time": "1970-01-03T03:37:25+00:00",
        "bearing": 69.0,
        "range": 180.0,
        "speed": 7704.0,
        "sensor_name": "Frigate_Optic3",
        "label": "some message"
      }
    },
    {
      "type": "Feature",
      "id": "a4d35e64-5ea1-46ab-a201-7780e9ab7124",
      "geometry": null,
      "properties": {
        "kind": "SENSOR_CONTACT",
        "parent_track": "NONSUCH",
        "time": "1970-01-03T03:38:25+00:00",
        "bearing": 66.0,
        "range": 180.0,
        "speed": 6943.0,
        "sensor_name": "Frigate_Optic3",
        "label": "some message"
      }
    },
    {
      "type": "Feature",
      "id": "2111ddfa-e476-4a63-bd56-91808f94c471",
      "geometry": null,
      "properties": {
        "kind": "SENSOR_CONTACT",
        "parent_track": "NONSUCH",
        "time": "1970-01-03T03:39:25+00:00",
        "bearing": 63.0,
        "range": 180.0,
        "speed": 6198.0,
        "sensor_name": "Frigate_Optic3",
        "label": "some message"
      }
    },
    {
      "type": "Feature",
      "id": "0f7a0202-10f3-449f-b365-02263de635a3",
      "geometry": null,
      "properties": {
        "kind": "SENSOR_CONTACT",
        "parent_track": "NONSUCH",
        "time": "1970-01-03T03:40:25+00:00",
        "bearing": 59.0,
        "range": 170.0,
        "speed": 5475.0,
        "sensor_name": "Frigate_Optic3",
        "label": "some message"
      }
    },
    {
      "type": "Feature",
      "id": "87d4fa44-f363-48cb-be2c-7d18256c2a12",
      "geometry": null,
      "properties": {
        "kind": "SENSOR_CONTACT",
        "parent_track": "NONSUCH",
        "time": "1970-01-03T03:41:25+00:00",
        "bearing": 55.0,
        "range": 170.0,
        "speed": 4777.0,
        "sensor_name": "Frigate_Optic3",
        "label": "some message"
      }
    },
    {
      "type": "Feature",
      "id": "d74cf9ff-9a30-48b2-a004-f9995edffb7c",
      "geometry": null,
      "properties": {
        "kind": "SENSOR_CONTACT",
        "parent_track": "NONSUCH",
        "time": "1970-01-03T03:42:25+00:00",
        "bearing": 49.0,
        "range": 170.0,
        "speed": 4112.0,
        "sensor_name": "Frigate_Optic3",
        "label": "some message"
      }
    },
    {
      "type": "Feature",
      "id": "a521e75e-78be-4eea-bf26-21798632b6bd",
      "geometry": null,
      "properties": {
        "kind": "SENSOR_CONTACT",
        "parent_track": "NONSUCH",
        "time": "1970-01-03T03:43:25+00:00",
        "bearing": 42.0,
        "range": 200.0,
        "speed": 3491.0,
        "sensor_name": "Frigate_Optic3",
        "label": "some message"
      }
    },
    {
      "type": "Feature",
      "id": "3d71eebe-fb29-40a7-90b4-87bad64ccd60",
      "geometry": null,
      "properties": {
        "kind": "SENSOR_CONTACT",
        "parent_track": "NONSUCH",
        "time": "1970-01-03T03:44:25+00:00",
        "bearing": 33.0,
        "range": 205.0,
        "speed": 2934.0,
        "sensor_name": "Frigate_Optic3",
        "label": "some message"
      }
    },
    {
      "type": "Feature",
      "id": "7e634eda-3b51-43e8-b07d-12195ab58c59",
      "geometry": null,
      "properties": {
        "kind": "SENSOR_CONTACT",
        "parent_track": "NONSUCH",
        "time": "1970-01-03T03:45:25+00:00",
        "bearing": 21.0,
        "range": 220.0,
        "speed": 2458.0,
        "sensor_name": "Frigate_Optic3",
        "label": "some message"
      }
    },
    {
      "type": "Feature",
      "id": "4e1f27b8-1dbd-437d-89ae-bc074c275cd3",
      "geometry": null,
      "properties": {
        "kind": "SENSOR_CONTACT",
        "parent_track": "NONSUCH",
        "time": "1970-01-03T03:46:25+00:00",
        "bearing": 7.0,
        "range": 230.0,
        "speed": 2089.0,
        "sensor_name": "Frigate_Optic3",
        "label": "some message"
      }
    },
    {
      "type": "Feature",
      "id": "b6dc6693-2bde-438b-b4f4-d22a701dcc2c",
      "geometry": null,
      "properties": {
        "kind": "SENSOR_CONTACT",
        "parent_track": "NONSUCH",
        "time": "1970-01-03T03:31:25+00:00",
        "bearing": 80.0,
        "range": 160.0,
        "frequency": 77.0,
        "speed": 12496.0,
        "sensor_name": "Frigate_Optic4",
        "label": "some message"
      }
    },
    {
      "type": "Feature",
      "id": "57fc34ce-f934-4e90-9545-d6a8c0699da9",
      "geometry": null,
      "properties": {
        "kind": "SENSOR_CONTACT",
        "parent_track": "NONSUCH",
        "time": "1970-01-03T03:32:25+00:00",
        "bearing": 78.0,
        "range": 160.0,
        "frequency": 77.0,
        "speed": 11678.0,
        "sensor_name": "Frigate_Optic4",
        "label": "some message"
      }
    },
    {
      "type": "Feature",
      "id": "71a34973-abd6-4188-b718-afc10c2f8575",
      "geometry": null,
      "properties": {
        "kind": "SENSOR_CONTACT",
        "parent_track": "NONSUCH",
        "time": "1970-01-03T03:33:25+00:00",
        "bearing": 77.0,
        "range": 165.0,
        "frequency": 78.0,
        "speed": 10866.0,
        "sensor_name": "Frigate_Optic4",
        "label": "some message"
      }
    },
    {
      "type": "Feature",
      "id": "e5bf5c14-924b-4332-b866-6f7e6b9db082",
      "geometry": null,
      "properties": {
        "kind": "SENSOR_CONTACT",
        "parent_track": "NONSUCH",
        "time": "1970-01-03T03:34:25+00:00",
        "bearing": 75.0,
        "range": 165.0,
        "frequency": 79.0,
        "speed": 10062.0,
        "sensor_name": "Frigate_Optic4",
        "label": "some message"
      }
    },
    {
      "type": "Feature",
      "id": "7b0b6a37-862f-453b-ba72-4fb5be7d0616",
      "geometry": null,
      "properties": {
        "kind": "SENSOR_CONTACT",
        "parent_track": "NONSUCH",
        "time": "1970-01-03T03:35:25+00:00",
        "bearing": 73.0,
        "range": 165.0,
        "frequency": 79.0,
        "speed": 9265.0,
        "sensor_name": "Frigate_Optic4",
        "label": "some message"
      }
    },
    {
      "type": "Feature",
      "id": "1c96b06d-88f0-4ffe-993c-9a0eced5d0cd",
      "geometry": null,
      "properties": {
        "kind": "SENSOR_CONTACT",
        "parent_track": "NONSUCH",
        "time": "1970-01-03T03:36:25+00:00",
        "bearing": 71.0,
        "range": 165.0,
        "frequency": 79.0,
        "speed": 8479.0,
        "sensor_name": "Frigate_Optic4",
        "label": "some message"
      }
    },
    {
      "type": "Feature",
      "id": "fe42c7a5-0978-4d76-a9be-4d3a784a6558",
      "geometry": null,
      "properties": {
        "kind": "SENSOR_CONTACT",
        "parent_track": "NONSUCH",
        "time": "1970-01-03T03:37:25+00:00",
        "bearing": 69.0,
        "range": 180.0,
        "frequency": 80.0,
        "speed": 7704.0,
        "sensor_name": "Frigate_Optic4",
        "label": "some message"
      }
    },
    {
      "type": "Feature",
      "id": "3ded3435-15f1-426f-bc8c-174b3de7dc6a",
      "geometry": null,
      "properties": {
        "kind": "SENSOR_CONTACT",
        "parent_track": "NONSUCH",
        "time": "1970-01-03T03:38:25+00:00",
        "bearing": 66.0,
        "range": 180.0,
        "frequency": 79.0,
        "speed": 6943.0,
        "sensor_name": "Frigate_Optic4",
        "label": "some message"
      }
    },
    {
      "type": "Feature",
      "id": "2d39c234-aabe-430c-ab1f-8ee1f56bf03b",
      "geometry": null,
      "properties": {
        "kind": "SENSOR_CONTACT",
        "parent_track": "NONSUCH",
        "time": "1970-01-03T03:39:25+00:00",
        "bearing": 63.0,
        "range": 180.0,
        "frequency": 79.0,
        "speed": 6198.0,
        "sensor_name": "Frigate_Optic4",
        "label": "some message"
      }
    },
    {
      "type": "Feature",
      "id": "34138676-4561-4a9b-a07c-9b2777351503",
      "geometry": null,
      "properties": {
        "kind": "SENSOR_CONTACT",
        "parent_track": "NONSUCH",
        "time": "1970-01-03T03:40:25+00:00",
        "bearing": 59.0,
        "range": 170.0,
        "frequency": 78.0,
        "speed": 5475.0,
        "sensor_name": "Frigate_Optic4",
        "label": "some message"
      }
    },
    {
      "type": "Feature",
      "id": "dbe660ca-8db0-4581-a7e2-ceff1978ebbc",
      "geometry": null,
      "properties": {
        "kind": "SENSOR_CONTACT",
        "parent_track": "NONSUCH",
        "time": "1970-01-03T03:41:25+00:00",
        "bearing": 55.0,
        "range": 170.0,
        "frequency": 78.0,
        "speed": 4777.0,
        "sensor_name": "\"Frigate",
        "label": "Optic5\" some message"
      }
    },
    {
      "type": "Feature",
      "id": "3343a0e5-3bdb-483f-8b4e-c2b47e08c326",
      "geometry": null,
      "properties": {
        "kind": "SENSOR_CONTACT",
        "parent_track": "NONSUCH",
        "time": "1970-01-03T03:42:25+00:00",
        "bearing": 49.0,
        "range": 170.0,
        "frequency": 77.0,
        "speed": 4112.0,
        "sensor_name": "\"Frigate",
        "label": "Optic5\" some message"
      }
    },
    {
      "type": "Feature",
      "id": "81706df7-8807-4cbb-94d5-4422d7025c4c",
      "geometry": null,
      "properties": {
        "kind": "SENSOR_CONTACT",
        "parent_track": "NONSUCH",
        "time": "1970-01-03T03:43:25+00:00",
        "bearing": 42.0,
        "range": 200.0,
        "frequency": 77.0,
        "speed": 3491.0,
        "sensor_name": "\"Frigate",
        "label": "Optic5\" some message"
      }
    },
    {
      "type": "Feature",
      "id": "eadefcd0-6f40-428a-911f-c63ab54b2ed3",
      "geometry": null,
      "properties": {
        "kind": "SENSOR_CONTACT",
        "parent_track": "NONSUCH",
        "time": "1970-01-03T03:44:25+00:00",
        "bearing": 33.0,
        "range": 205.0,
        "frequency": 76.0,
        "speed": 2934.0,
        "label": "Frigate Optic5\" some message"
      }
    },
    {
      "type": "Feature",
      "id": "b66c2210-c222-4cc5-aba7-e3ae6087858c",
      "geometry": null,
      "properties": {
        "kind": "SENSOR_CONTACT",
        "parent_track": "NONSUCH",
        "time": "1970-01-03T03:45:25+00:00",
        "bearing": 21.0,
        "range": 220.0,
        "frequency": 76.0,
        "speed": 2458.0,
        "sensor_name": "\"Frigate",
        "label": "Optic5\" some message"
      }
    },
    {
      "type": "Feature",
      "id": "7557c78b-625c-4b08-b594-147a7ee54b10",
      "geometry": null,
      "properties": {
        "kind": "SENSOR_CONTACT",
        "parent_track": "NONSUCH",
        "time": "1970-01-03T03:46:25+00:00",
        "bearing": 7.0,
        "range": 230.0,
        "frequency": 76.0,
        "speed": 2089.0,
        "label": "Frigate Optic5 \" some message"
      }
    }
  ]
}