{
  "type": "FeatureCollection",
  "features": [
    {
      "type": "Feature",
      "id": "9038e4a2-14cf-4860-bf70-509b9aceb11c",
      "geometry": {
        "type": "Polygon",
        "coordinates": [
          [
            [
              -21.721597222222222,
              22.054258333333333
            ],
            [
              -21.560805555555557,
              22.054258333333333
            ],
            [
              -21.560805555555557,
              21.927283333333335
            ],
            [
              -21.721597222222222,
              21.927283333333335
            ],
            [
              -21.721597222222222,
              22.054258333333333
            ]
          ]
        ]
      },
      "properties": {
        "kind": "RECTANGLE",
        "label": "RED SEARCH ALPHA",
        "symbol": "C",
        "style": {
          "fill": false,
          "fill_color": "#FF0000",
          "fill_opacity": 0.0,
          "stroke": true,
          "color": "#FF0000",
          "weight": 1,
          "opacity": 1.0
        }
      }
    },
    {
      "type": "Feature",
      "id": "18da4907-60e0-4847-85d5-9cabdc5075f1",
      "geometry": {
        "type": "Polygon",
        "coordinates": [
          [
            [
              -21.894402777777778,
              22.054258333333333
            ],
            [
              -21.743358333333333,
              22.054258333333333
            ],
            [
              -21.743358333333333,
              21.927283333333335
            ],
            [
              -21.894402777777778,
              21.927283333333335
            ],
            [
              -21.894402777777778,
              22.054258333333333
            ]
          ]
        ]
      },
      "properties": {
        "kind": "RECTANGLE",
        "label": "RED SEARCH BRAVO",
        "symbol": "C",
        "style": {
          "fill": false,
          "fill_color": "#FF0000",
          "fill_opacity": 0.0,
          "stroke": true,
          "color": "#FF0000",
          "weight": 1,
          "opacity": 1.0
        }
      }
    },
    {
      "type": "Feature",
      "id": "a0ddf9ed-28c8-458f-8545-c1e1ba3bac04",
      "geometry": {
        "type": "Polygon",
        "coordinates": [
          [
            [
              -21.93165,
              22.20677222222222
            ],
            [
              -21.471280555555555,
              22.20677222222222
            ],
            [
              -21.471280555555555,
              21.864075
            ],
            [
              -21.93165,
              21.864075
            ],
            [
              -21.93165,
              22.20677222222222
            ]
          ]
        ]
      },
      "properties": {
        "kind": "RECTANGLE",
        "label": "SERIAL 12E",
        "symbol": "C",
        "style": {
          "fill": false,
          "fill_color": "#FF0000",
          "fill_opacity": 0.0,
          "stroke": true,
          "color": "#FF0000",
          "weight": 1,
          "opacity": 1.0
        }
      }
    }
  ]
}