{
  "type": "FeatureCollection",
  "features": [
    {
      "type": "Feature",
      "id": "4f8fd195-83b5-45dd-9ad4-fc7a0e46d9f7",
      "geometry": null,
      "properties": {
        "kind": "SENSOR_CONTACT",
        "parent_track": "Frigate",
        "time": "1970-01-03T03:31:25+00:00",
        "bearing": 80.0,
        "range": 12496.0,
        "sensor_name": "Frigate_Optic",
        "label": "some message"
      }
    },
    {
      "type": "Feature",
      "id": "15de8f4c-f51e-4470-b3aa-7248810264f9",
      "geometry": null,
      "properties": {
        "kind": "SENSOR_CONTACT",
        "parent_track": "Frigate",
        "time": "1970-01-03T03:32:25+00:00",
        "bearing": 78.0,
        "range": 11678.0,
        "sensor_name": "Frigate_Optic",
        "label": "some message"
      }
    },
    {
      "type": "Feature",
      "id": "a01ea880-e841-4fce-b1da-b83e37902789",
      "geometry": null,
      "properties": {
        "kind": "SENSOR_CONTACT",
        "parent_track": "Frigate",
        "time": "1970-01-03T03:33:25+00:00",
        "bearing": 77.0,
        "range": 10866.0,
        "sensor_name": "Frigate_Optic",
        "label": "some message"
      }
    },
    {
      "type": "Feature",
      "id": "475aa343-05df-409e-b258-306e037f5f06",
      "geometry": null,
      "properties": {
        "kind": "SENSOR_CONTACT",
        "parent_track": "Frigate",
        "time": "1970-01-03T03:34:25+00:00",
        "bearing": 75.0,
        "range": 10062.0,
        "sensor_name": "Frigate_Optic",
        "label": "some message"
      }
    },
    {
      "type": "Feature",
      "id": "73c24b9e-5502-4a71-a3cd-feca43cf5237",
      "geometry": null,
      "properties": {
        "kind": "SENSOR_CONTACT",
        "parent_track": "Frigate",
        "time": "1970-01-03T03:35:25+00:00",
        "bearing": 73.0,
        "range": 9265.0,
        "sensor_name": "Frigate_Optic",
        "label": "some message"
      }
    },
    {
      "type": "Feature",
      "id": "4615dead-9007-44d9-874a-3c10fe942e7c",
      "geometry": null,
      "properties": {
        "kind": "SENSOR_CONTACT",
        "parent_track": "Frigate",
        "time": "1970-01-03T03:36:25+00:00",
        "bearing": 71.0,
        "range": 8479.0,
        "sensor_name": "Frigate_Optic",
        "label": "some message"
      }
    },
    {
      "type": "Feature",
      "id": "8f2e4c88-9d40-40c0-955d-d8e48ed1310a",
      "geometry": null,
      "properties": {
        "kind": "SENSOR_CONTACT",
        "parent_track": "Frigate",
        "time": "1970-01-03T03:37:25+00:00",
        "bearing": 69.0,
        "range": 7704.0,
        "sensor_name": "Frigate_Optic",
        "label": "some message"
      }
    },
    {
      "type": "Feature",
      "id": "fbe691c8-a9d5-40a6-9e58-bf1f9b0eeb28",
      "geometry": null,
      "properties": {
        "kind": "SENSOR_CONTACT",
        "parent_track": "Frigate",
        "time": "1970-01-03T03:38:25+00:00",
        "bearing": 66.0,
        "range": 6943.0,
        "sensor_name": "Frigate_Optic",
        "label": "some message"
      }
    },
    {
      "type": "Feature",
      "id": "06361a1e-d292-47ee-8b89-29e18e229151",
      "geometry": null,
      "properties": {
        "kind": "SENSOR_CONTACT",
        "parent_track": "Frigate",
        "time": "1970-01-03T03:39:25+00:00",
        "bearing": 63.0,
        "range": 6198.0,
        "sensor_name": "Frigate_Optic",
        "label": "some message"
      }
    },
    {
      "type": "Feature",
      "id": "fe5fa20b-429e-4b13-8d56-7168a5e40d11",
      "geometry": null,
      "properties": {
        "kind": "SENSOR_CONTACT",
        "parent_track": "Frigate",
        "time": "1970-01-03T03:40:25+00:00",
        "bearing": 59.0,
        "range": 5475.0,
        "sensor_name": "Frigate_Optic",
        "label": "some message"
      }
    },
    {
      "type": "Feature",
      "id": "2354fe7d-121d-4e10-a4e7-236c0496cb71",
      "geometry": null,
      "properties": {
        "kind": "SENSOR_CONTACT",
        "parent_track": "Frigate",
        "time": "1970-01-03T03:41:25+00:00",
        "bearing": 55.0,
        "range": 4777.0,
        "sensor_name": "Frigate_Optic",
        "label": "some message"
      }
    },
    {
      "type": "Feature",
      "id": "f2bd05f2-ec2b-417d-8df3-58732d6a5b55",
      "geometry": null,
      "properties": {
        "kind": "SENSOR_CONTACT",
        "parent_track": "Frigate",
        "time": "1970-01-03T03:42:25+00:00",
        "bearing": 49.0,
        "range": 4112.0,
        "sensor_name": "Frigate_Optic",
        "label": "some message"
      }
    },
    {
      "type": "Feature",
      "id": "349f53ce-3de9-4959-b30b-2213becd211b",
      "geometry": null,
      "properties": {
        "kind": "SENSOR_CONTACT",
        "parent_track": "Frigate",
        "time": "1970-01-03T03:43:25+00:00",
        "bearing": 42.0,
        "range": 3491.0,
        "sensor_name": "Frigate_Optic",
        "label": "some message"
      }
    },
    {
      "type": "Feature",
      "id": "06f64930-55c6-4dff-bf02-27ace865253a",
      "geometry": null,
      "properties": {
        "kind": "SENSOR_CONTACT",
        "parent_track": "Frigate",
        "time": "1970-01-03T03:44:25+00:00",
        "bearing": 33.0,
        "range": 2934.0,
        "sensor_name": "Frigate_Optic",
        "label": "some message"
      }
    },
    {
      "type": "Feature",
      "id": "76e120dc-569f-4bab-8761-1ffe58bde650",
      "geometry": null,
      "properties": {
        "kind": "SENSOR_CONTACT",
        "parent_track": "Frigate",
        "time": "1970-01-03T03:45:25+00:00",
        "bearing": 21.0,
        "range": 2458.0,
        "sensor_name": "Frigate_Optic",
        "label": "some message"
      }
    },
    {
      "type": "Feature",
      "id": "6e4f1870-0bcd-4280-b5be-0d3ac71528a2",
      "geometry": null,
      "properties": {
        "kind": "SENSOR_CONTACT",
        "parent_track": "Frigate",
        "time": "1970-01-03T03:46:25+00:00",
        "bearing": 7.0,
        "range": 2089.0,
        "sensor_name": "Frigate_Optic",
        "label": "some message"
      }
    },
    {
      "type": "Feature",
      "id": "fbe9d246-6480-4f01-9d97-ba893b2f5f4f",
      "geometry": null,
      "properties": {
        "kind": "SENSOR_CONTACT",
        "parent_track": "Frigate",
        "time": "1970-01-03T03:47:25+00:00",
        "bearing": -9.0,
        "range": 1840.0,
        "sensor_name": "Frigate_Optic",
        "label": "some message"
      }
    },
    {
      "type": "Feature",
      "id": "0542b264-e4e8-4269-8fd6-a16fdc3e4ae8",
      "geometry": null,
      "properties": {
        "kind": "SENSOR_CONTACT",
        "parent_track": "Frigate",
        "time": "1970-01-03T03:48:25+00:00",
        "bearing": -26.0,
        "range": 1695.0,
        "sensor_name": "Frigate_Optic",
        "label": "some message"
      }
    },
    {
      "type": "Feature",
      "id": "5c4820fe-a03c-4819-ab12-5b11ce498cda",
      "geometry": null,
      "properties": {
        "kind": "SENSOR_CONTACT",
        "parent_track": "Frigate",
        "time": "1970-01-03T03:49:25+00:00",
        "bearing": -40.0,
        "range": 1633.0,
        "sensor_name": "Frigate_Optic",
        "label": "some message"
      }
    },
    {
      "type": "Feature",
      "id": "3539aca0-7880-4e42-a363-1ff1a6a99ba7",
      "geometry": null,
      "properties": {
        "kind": "SENSOR_CONTACT",
        "parent_track": "Frigate",
        "time": "1970-01-03T03:50:25+00:00",
        "bearing": -50.0,
        "range": 1607.0,
        "sensor_name": "Frigate_Optic",
        "label": "some message"
      }
    },
    {
      "type": "Feature",
      "id": "a2f28f9e-49bc-44da-b03c-30499b10bfc2",
      "geometry": null,
      "properties": {
        "kind": "SENSOR_CONTACT",
        "parent_track": "Frigate",
        "time": "1970-01-03T03:51:25+00:00",
        "bearing": -56.0,
        "range": 1596.0,
        "sensor_name": "Frigate_Optic",
        "label": "some message"
      }
    },
    {
      "type": "Feature",
      "id": "a2580e3d-ab09-4876-b662-97dac6e9b8b5",
      "geometry": null,
      "properties": {
        "kind": "SENSOR_CONTACT",
        "parent_track": "Frigate",
        "time": "1970-01-03T03:52:25+00:00",
        "bearing": -59.0,
        "range": 1596.0,
        "sensor_name": "Frigate_Optic",
        "label": "some message"
      }
    },
    {
      "type": "Feature",
      "id": "4aecbf88-c90b-4ecd-a573-5608a39f8fe3",
      "geometry": null,
      "properties": {
        "kind": "SENSOR_CONTACT",
        "parent_track": "Frigate",
        "time": "1970-01-03T03:53:25+00:00",
        "bearing": -60.0,
        "range": 1613.0,
        "sensor_name": "Frigate_Optic",
        "label": "some message"
      }
    },
    {
      "type": "Feature",
      "id": "e59a3342-eb23-4056-a649-19993da92406",
      "geometry": null,
      "properties": {
        "kind": "SENSOR_CONTACT",
        "parent_track": "Frigate",
        "time": "1970-01-03T03:54:25+00:00",
        "bearing": -60.0,
        "range": 1648.0,
        "sensor_name": "Frigate_Optic",
        "label": "some message"
      }
    },
    {
      "type": "Feature",
      "id": "d4afdd5b-e199-4c50-80c6-d8e30c22b135",
      "geometry": null,
      "properties": {
        "kind": "SENSOR_CONTACT",
        "parent_track": "Frigate",
        "time": "1970-01-03T03:55:25+00:00",
        "bearing": -60.0,
        "range": 1701.0,
        "sensor_name": "Frigate_Optic",
        "label": "some message"
      }
    },
    {
      "type": "Feature",
      "id": "5b23effe-2c54-4ec4-ad9c-43ebaa18218f",
      "geometry": null,
      "properties": {
        "kind": "SENSOR_CONTACT",
        "parent_track": "Frigate",
        "time": "1970-01-03T03:56:25+00:00",
        "bearing": -60.0,
        "range": 1772.0,
        "sensor_name": "Frigate_Optic",
        "label": "some message"
      }
    },
    {
      "type": "Feature",
      "id": "32fc3259-ea2e-4e3e-ae7e-31e95dc20706",
      "geometry": null,
      "properties": {
        "kind": "SENSOR_CONTACT",
        "parent_track": "Frigate",
        "time": "1970-01-03T03:57:25+00:00",
        "bearing": -60.0,
        "range": 1859.0,
        "sensor_name": "Frigate_Optic",
        "label": "some message"
      }
    },
    {
      "type": "Feature",
      "id": "d01e5621-8c57-431e-a029-2da210821118",
      "geometry": null,
      "properties": {
        "kind": "SENSOR_CONTACT",
        "parent_track": "Frigate",
        "time": "1970-01-03T03:58:25+00:00",
        "bearing": -60.0,
        "range": 1945.0,
        "sensor_name": "Frigate_Optic",
        "label": "some message"
      }
    },
    {
      "type": "Feature",
      "id": "ebe85eee-5fc7-4c17-9cb8-0f883328401e",
      "geometry": null,
      "properties": {
        "kind": "SENSOR_CONTACT",
        "parent_track": "Frigate",
        "time": "1970-01-03T03:59:25+00:00",
        "bearing": -60.0,
        "range": 2031.0,
        "sensor_name": "Frigate_Optic",
        "label": "some message"
      }
    },
    {
      "type": "Feature",
      "id": "a1fcf2ba-9b54-4b81-bc2b-46a06a41470b",
      "geometry": null,
      "properties": {
        "kind": "SENSOR_CONTACT",
        "parent_track": "Frigate",
        "time": "1970-01-03T04:00:25+00:00",
        "bearing": -60.0,
        "range": 2117.0,
        "sensor_name": "Frigate_Optic",
        "label": "some message"
      }
    },
    {
      "type": "Feature",
      "id": "e50ce2d4-843f-40c6-9678-f56d87db0a38",
      "geometry": null,
      "properties": {
        "kind": "SENSOR_CONTACT",
        "parent_track": "Frigate",
        "time": "1970-01-03T04:01:25+00:00",
        "bearing": -60.0,
        "range": 2203.0,
        "sensor_name": "Frigate_Optic",
        "label": "some message"
      }
    },
    {
      "type": "Feature",
      "id": "bc9bcb7f-a19c-4289-a11b-e94c419436b7",
      "geometry": null,
      "properties": {
        "kind": "SENSOR_CONTACT",
        "parent_track": "Frigate",
        "time": "1970-01-03T04:02:25+00:00",
        "bearing": -60.0,
        "range": 2289.0,
        "sensor_name": "Frigate_Optic",
        "label": "some message"
      }
    },
    {
      "type": "Feature",
      "id": "223b0a14-f6b6-41e3-abff-3bc919018875",
      "geometry": null,
      "properties": {
        "kind": "SENSOR_CONTACT",
        "parent_track": "Frigate",
        "time": "1970-01-03T04:03:25+00:00",
        "bearing": -60.0,
        "range": 2375.0,
        "sensor_name": "Frigate_Optic",
        "label": "some message"
      }
    },
    {
      "type": "Feature",
      "id": "ad678d89-381a-4c5a-af16-8a0a7588f11f",
      "geometry": null,
      "properties": {
        "kind": "SENSOR_CONTACT",
        "parent_track": "Frigate",
        "time": "1970-01-03T04:04:25+00:00",
        "bearing": -60.0,
        "range": 2461.0,
        "sensor_name": "Frigate_Optic",
        "label": "some message"
      }
    },
    {
      "type": "Feature",
      "id": "63387fec-5775-4c42-9074-ef45e0148509",
      "geometry": null,
      "properties": {
        "kind": "SENSOR_CONTACT",
        "parent_track": "Frigate",
        "time": "1970-01-03T04:05:25+00:00",
        "bearing": -60.0,
        "range": 2547.0,
        "sensor_name": "Frigate_Optic",
        "label": "some message"
      }
    },
    {
      "type": "Feature",
      "id": "4256c79e-8cd1-44ca-a62d-227ad3ac6bbc",
      "geometry": null,
      "properties": {
        "kind": "SENSOR_CONTACT",
        "parent_track": "Frigate",
        "time": "1970-01-03T04:06:25+00:00",
        "bearing": -60.0,
        "range": 2633.0,
        "sensor_name": "Frigate_Optic",
        "label": "some message"
      }
    },
    {
      "type": "Feature",
      "id": "75111152-5509-4efe-89cf-9be611ca7ef9",
      "geometry": null,
      "properties": {
        "kind": "SENSOR_CONTACT",
        "parent_track": "Frigate",
        "time": "1970-01-03T04:07:25+00:00",
        "bearing": -60.0,
        "range": 2719.0,
        "sensor_name": "Frigate_Optic",
        "label": "some message"
      }
    },
    {
      "type": "Feature",
      "id": "f5593ea0-d9a0-4a5e-88ab-fdecf1af4597",
      "geometry": null,
      "properties": {
        "kind": "SENSOR_CONTACT",
        "parent_track": "Frigate",
        "time": "1970-01-03T04:08:25+00:00",
        "bearing": -60.0,
        "range": 2805.0,
        "sensor_name": "Frigate_Optic",
        "label": "some message"
      }
    },
    {
      "type": "Feature",
      "id": "cc02fecf-5f37-47f9-b9de-2308c5321f16",
      "geometry": null,
      "properties": {
        "kind": "SENSOR_CONTACT",
        "parent_track": "Frigate",
        "time": "1970-01-03T04:09:25+00:00",
        "bearing": -60.0,
        "range": 2891.0,
        "sensor_name": "Frigate_Optic",
        "label": "some message"
      }
    },
    {
      "type": "Feature",
      "id": "ee2f4580-d2cd-44cb-8b59-d18eef76846a",
      "geometry": null,
      "properties": {
        "kind": "SENSOR_CONTACT",
        "parent_track": "Frigate",
        "time": "1970-01-03T04:10:25+00:00",
        "bearing": -60.0,
        "range": 2977.0,
        "sensor_name": "Frigate_Optic",
        "label": "some message"
      }
    },
    {
      "type": "Feature",
      "id": "f17de06f-122a-4194-887b-0a285c148188",
      "geometry": null,
      "properties": {
        "kind": "SENSOR_CONTACT",
        "parent_track": "Frigate",
        "time": "1970-01-03T04:11:25+00:00",
        "bearing": -60.0,
        "range": 3063.0,
        "sensor_name": "Frigate_Optic",
        "label": "some message"
      }
    },
    {
      "type": "Feature",
      "id": "a24d9f98-5acc-4c8d-9e2e-5bb867f703e0",
      "geometry": null,
      "properties": {
        "kind": "SENSOR_CONTACT",
        "parent_track": "Frigate",
        "time": "1970-01-03T04:12:25+00:00",
        "bearing": -60.0,
        "range": 3134.0,
        "sensor_name": "Frigate_Optic",
        "label": "some message"
      }
    },
    {
      "type": "Feature",
      "id": "bb6d6050-cfd4-4aca-8452-a5dcf4705a55",
      "geometry": null,
      "properties": {
        "kind": "SENSOR_CONTACT",
        "parent_track": "Frigate",
        "time": "1970-01-03T04:13:25+00:00",
        "bearing": -60.0,
        "range": 3189.0,
        "sensor_name": "Frigate_Optic",
        "label": "some message"
      }
    },
    {
      "type": "Feature",
      "id": "6647c708-0f5e-4812-ab39-9df8c64d5cf4",
      "geometry": null,
      "properties": {
        "kind": "SENSOR_CONTACT",
        "parent_track": "Frigate",
        "time": "1970-01-03T04:14:25+00:00",
        "bearing": -60.0,
        "range": 3226.0,
        "sensor_name": "Frigate_Optic",
        "label": "some message"
      }
    },
    {
      "type": "Feature",
      "id": "b1e9c8ce-9217-4f27-b422-2c52372094ac",
      "geometry": null,
      "properties": {
        "kind": "SENSOR_CONTACT",
        "parent_track": "Frigate",
        "time": "1970-01-03T04:15:25+00:00",
        "bearing": -60.0,
        "range": 3245.0,
        "sensor_name": "Frigate_Optic",
        "label": "some message"
      }
    },
    {
      "type": "Feature",
      "id": "6dc0bb93-045f-4297-b52a-c6ebd539b7bd",
      "geometry": null,
      "properties": {
        "kind": "SENSOR_CONTACT",
        "parent_track": "Frigate",
        "time": "1970-01-03T04:16:25+00:00",
        "bearing": -60.0,
        "range": 3245.0,
        "sensor_name": "Frigate_Optic",
        "label": "some message"
      }
    },
    {
      "type": "Feature",
      "id": "e13b56f4-0d22-435a-bc6c-4cfea0f71b40",
      "geometry": null,
      "properties": {
        "kind": "SENSOR_CONTACT",
        "parent_track": "Frigate",
        "time": "1970-01-03T04:17:25+00:00",
        "bearing": -60.0,
        "range": 3223.0,
        "sensor_name": "Frigate_Optic",
        "label": "some message"
      }
    },
    {
      "type": "Feature",
      "id": "6192dc71-5aa3-47b9-aadc-47c32fd5abf0",
      "geometry": null,
      "properties": {
        "kind": "SENSOR_CONTACT",
        "parent_track": "Frigate",
        "time": "1970-01-03T03:31:25+00:00",
        "bearing": 80.0,
        "speed": 12496.0,
        "sensor_name": "Frigate_Optic2",
        "label": "some message"
      }
    },
    {
      "type": "Feature",
      "id": "9bed5c3b-3865-472a-83d4-6461e9f24b37",
      "geometry": null,
      "properties": {
        "kind": "SENSOR_CONTACT",
        "parent_track": "Frigate",
        "time": "1970-01-03T03:32:25+00:00",
        "bearing": 78.0,
        "speed": 11678.0,
        "sensor_name": "Frigate_Optic2",
        "label": "some message"
      }
    },
    {
      "type": "Feature",
      "id": "236548a0-04d5-47c8-81d6-4c54a5737b15",
      "geometry": null,
      "properties": {
        "kind": "SENSOR_CONTACT",
        "parent_track": "Frigate",
        "time": "1970-01-03T03:33:25+00:00",
        "bearing": 77.0,
        "speed": 10866.0,
        "sensor_name": "Frigate_Optic2",
        "label": "some message"
      }
    },
    {
      "type": "Feature",
      "id": "a943c9ce-62c4-4226-b55b-51caf9fb8f3e",
      "geometry": null,
      "properties": {
        "kind": "SENSOR_CONTACT",
        "parent_track": "Frigate",
        "time": "1970-01-03T03:34:25+00:00",
        "bearing": 75.0,
        "speed": 10062.0,
        "sensor_name": "Frigate_Optic2",
        "label": "some message"
      }
    },
    {
      "type": "Feature",
      "id": "5393968f-3c88-4876-bca9-a9a35d0065d8",
      "geometry": null,
      "properties": {
        "kind": "SENSOR_CONTACT",
        "parent_track": "Frigate",
        "time": "1970-01-03T03:35:25+00:00",
        "bearing": 73.0,
        "speed": 9265.0,
        "sensor_name": "Frigate_Optic2",
        "label": "some message"
      }
    },
    {
      "type": "Feature",
      "id": "c6205817-1b95-482e-b5b1-6c396e4622ae",
      "geometry": null,
      "properties": {
        "kind": "SENSOR_CONTACT",
        "parent_track": "Frigate",
        "time": "1970-01-03T03:36:25+00:00",
        "bearing": 71.0,
        "speed": 8479.0,
        "sensor_name": "Frigate_Optic2",
        "label": "some message"
      }
    },
    {
      "type": "Feature",
      "id": "fa24b6f8-f04f-4829-a890-21bccdff33bb",
      "geometry": null,
      "properties": {
        "kind": "SENSOR_CONTACT",
        "parent_track": "Frigate",
        "time": "1970-01-03T03:37:25+00:00",
        "bearing": 69.0,
        "speed": 7704.0,
        "sensor_name": "Frigate_Optic2",
        "label": "some message"
      }
    },
    {
      "type": "Feature",
      "id": "e2c811b2-0687-45ff-aa4e-bc906229de2b",
      "geometry": null,
      "properties": {
        "kind": "SENSOR_CONTACT",
        "parent_track": "Frigate",
        "time": "1970-01-03T03:38:25+00:00",
        "bearing": 66.0,
        "speed": 6943.0,
        "sensor_name": "Frigate_Optic2",
        "label": "some message"
      }
    },
    {
      "type": "Feature",
      "id": "b59dde4b-601b-4a29-a8cb-4c633d8cffab",
      "geometry": null,
      "properties": {
        "kind": "SENSOR_CONTACT",
        "parent_track": "Frigate",
        "time": "1970-01-03T03:39:25+00:00",
        "bearing": 63.0,
        "speed": 6198.0,
        "sensor_name": "Frigate_Optic2",
        "label": "some message"
      }
    },
    {
      "type": "Feature",
      "id": "da42530e-0f7e-44da-96f0-689a1410ed97",
      "geometry": null,
      "properties": {
        "kind": "SENSOR_CONTACT",
        "parent_track": "Frigate",
        "time": "1970-01-03T03:40:25+00:00",
        "bearing": 59.0,
        "speed": 5475.0,
        "sensor_name": "Frigate_Optic2",
        "label": "some message"
      }
    },
    {
      "type": "Feature",
      "id": "1f0cbb81-86f7-4b5d-8362-b73f647c041c",
      "geometry": null,
      "properties": {
        "kind": "SENSOR_CONTACT",
        "parent_track": "Frigate",
        "time": "1970-01-03T03:41:25+00:00",
        "bearing": 55.0,
        "speed": 4777.0,
        "sensor_name": "Frigate_Optic2",
        "label": "some message"
      }
    },
    {
      "type": "Feature",
      "id": "c4bd68f0-84f5-47f1-a2a7-c11c5f58bf9b",
      "geometry": null,
      "properties": {
        "kind": "SENSOR_CONTACT",
        "parent_track": "Frigate",
        "time": "1970-01-03T03:42:25+00:00",
        "bearing": 49.0,
        "speed": 4112.0,
        "sensor_name": "Frigate_Optic2",
        "label": "some message"
      }
    },
    {
      "type": "Feature",
      "id": "4d8393e8-1374-4438-91cd-e9a4f22bfa6f",
      "geometry": null,
      "properties": {
        "kind": "SENSOR_CONTACT",
        "parent_track": "Frigate",
        "time": "1970-01-03T03:43:25+00:00",
        "bearing": 42.0,
        "speed": 3491.0,
        "sensor_name": "Frigate_Optic2",
        "label": "some message"
      }
    },
    {
      "type": "Feature",
      "id": "ffb27584-4d49-4e72-a303-1c55a4a9d29d",
      "geometry": null,
      "properties": {
        "kind": "SENSOR_CONTACT",
        "parent_track": "Frigate",
        "time": "1970-01-03T03:44:25+00:00",
        "bearing": 33.0,
        "speed": 2934.0,
        "sensor_name": "Frigate_Optic2",
        "label": "some message"
      }
    },
    {
      "type": "Feature",
      "id": "4d2c2570-650d-48cc-b18c-06e05518b6d4",
      "geometry": null,
      "properties": {
        "kind": "SENSOR_CONTACT",
        "parent_track": "Frigate",
        "time": "1970-01-03T03:45:25+00:00",
        "bearing": 21.0,
        "speed": 2458.0,
        "sensor_name": "Frigate_Optic2",
        "label": "some message"
      }
    },
    {
      "type": "Feature",
      "id": "057c1010-305e-45b0-920a-89ac553772f3",
      "geometry": null,
      "properties": {
        "kind": "SENSOR_CONTACT",
        "parent_track": "Frigate",
        "time": "1970-01-03T03:46:25+00:00",
        "bearing": 7.0,
        "speed": 2089.0,
        "sensor_name": "Frigate_Optic2",
        "label": "some message"
      }
    },
    {
      "type": "Feature",
      "id": "ca210330-4f8f-45f2-950c-4b7b8408e12e",
      "geometry": null,
      "properties": {
        "kind": "SENSOR_CONTACT",
        "parent_track": "Frigate",
        "time": "1970-01-03T03:31:25+00:00",
        "bearing": 80.0,
        "range": 160.0,
        "speed": 12496.0,
        "sensor_name": "Frigate_Optic3",
        "label": "some message"
      }
    },
    {
      "type": "Feature",
      "id": "9771d27c-0812-4d59-bdc0-667688708b59",
      "geometry": null,
      "properties": {
        "kind": "SENSOR_CONTACT",
        "parent_track": "Frigate",
        "time": "1970-01-03T03:32:25+00:00",
        "bearing": 78.0,
        "range": 160.0,
        "speed": 11678.0,
        "sensor_name": "Frigate_Optic3",
        "label": "some message"
      }
    },
    {
      "type": "Feature",
      "id": "4b031290-6dfc-4e3a-b1e0-b616970b7cd3",
      "geometry": null,
      "properties": {
        "kind": "SENSOR_CONTACT",
        "parent_track": "Frigate",
        "time": "1970-01-03T03:33:25+00:00",
        "bearing": 77.0,
        "range": 165.0,
        "speed": 10866.0,
        "sensor_name": "Frigate_Optic3",
        "label": "some message"
      }
    },
    {
      "type": "Feature",
      "id": "81b83d97-9512-4fad-a267-c350e9b4c2ce",
      "geometry": null,
      "properties": {
        "kind": "SENSOR_CONTACT",
        "parent_track": "Frigate",
        "time": "1970-01-03T03:34:25+00:00",
        "bearing": 75.0,
        "range": 165.0,
        "speed": 10062.0,
        "sensor_name": "Frigate_Optic3",
        "label": "some message"
      }
    },
    {
      "type": "Feature",
      "id": "9b9b7008-efcb-415d-8fe9-903ef38223fc",
      "geometry": null,
      "properties": {
        "kind": "SENSOR_CONTACT",
        "parent_track": "Frigate",
        "time": "1970-01-03T03:35:25+00:00",
        "bearing": 73.0,
        "range": 165.0,
        "speed": 9265.0,
        "sensor_name": "Frigate_Optic3",
        "label": "some message"
      }
    },
    {
      "type": "Feature",
      "id": "ddec75cd-255d-497d-878f-2e401120bff6",
      "geometry": null,
      "properties": {
        "kind": "SENSOR_CONTACT",
        "parent_track": "Frigate",
        "time": "1970-01-03T03:36:25+00:00",
        "bearing": 71.0,
        "range": 165.0,
        "speed": 8479.0,
        "sensor_name": "Frigate_Optic3",
        "label": "some message"
      }
    },
    {
      "type": "Feature",
      "id": "bc4bc637-ca1d-45cb-9642-84ebbf33ebe5",
      "geometry": null,
      "properties": {
        "kind": "SENSOR_CONTACT",
        "parent_track": "Frigate",
        "time": "1970-01-03T03:37:25+00:00",
        "bearing": 69.0,
        "range": 180.0,
        "speed": 7704.0,
        "sensor_name": "Frigate_Optic3",
        "label": "some message"
      }
    },
    {
      "type": "Feature",
      "id": "7bbecc7a-bb40-4df3-9850-37298c9779d6",
      "geometry": null,
      "properties": {
        "kind": "SENSOR_CONTACT",
        "parent_track": "Frigate",
        "time": "1970-01-03T03:38:25+00:00",
        "bearing": 66.0,
        "range": 180.0,
        "speed": 6943.0,
        "sensor_name": "Frigate_Optic3",
        "label": "some message"
      }
    },
    {
      "type": "Feature",
      "id": "fcb35361-5a8e-40bf-8c86-cb6a8f578546",
      "geometry": null,
      "properties": {
        "kind": "SENSOR_CONTACT",
        "parent_track": "Frigate",
        "time": "1970-01-03T03:39:25+00:00",
        "bearing": 63.0,
        "range": 180.0,
        "speed": 6198.0,
        "sensor_name": "Frigate_Optic3",
        "label": "some message"
      }
    },
    {
      "type": "Feature",
      "id": "209cd5a5-da4e-4a95-a5be-649f764a8702",
      "geometry": null,
      "properties": {
        "kind": "SENSOR_CONTACT",
        "parent_track": "Frigate",
        "time": "1970-01-03T03:40:25+00:00",
        "bearing": 59.0,
        "range": 170.0,
        "speed": 5475.0,
        "sensor_name": "Frigate_Optic3",
        "label": "some message"
      }
    },
    {
      "type": "Feature",
      "id": "a4460cb9-7f98-4565-8c95-a69104c546f1",
      "geometry": null,
      "properties": {
        "kind": "SENSOR_CONTACT",
        "parent_track": "Frigate",
        "time": "1970-01-03T03:41:25+00:00",
        "bearing": 55.0,
        "range": 170.0,
        "speed": 4777.0,
        "sensor_name": "Frigate_Optic3",
        "label": "some message"
      }
    },
    {
      "type": "Feature",
      "id": "d2e3881c-fc99-435a-9499-1e60723e6d3c",
      "geometry": null,
      "properties": {
        "kind": "SENSOR_CONTACT",
        "parent_track": "Frigate",
        "time": "1970-01-03T03:42:25+00:00",
        "bearing": 49.0,
        "range": 170.0,
        "speed": 4112.0,
        "sensor_name": "Frigate_Optic3",
        "label": "some message"
      }
    },
    {
      "type": "Feature",
      "id": "0ad2d8b7-ff9b-4871-b34a-93edfda6bf9e",
      "geometry": null,
      "properties": {
        "kind": "SENSOR_CONTACT",
        "parent_track": "Frigate",
        "time": "1970-01-03T03:43:25+00:00",
        "bearing": 42.0,
        "range": 200.0,
        "speed": 3491.0,
        "sensor_name": "Frigate_Optic3",
        "label": "some message"
      }
    },
    {
      "type": "Feature",
      "id": "6f1b65f5-cede-4ede-af5c-0214b747e88c",
      "geometry": null,
      "properties": {
        "kind": "SENSOR_CONTACT",
        "parent_track": "Frigate",
        "time": "1970-01-03T03:44:25+00:00",
        "bearing": 33.0,
        "range": 205.0,
        "speed": 2934.0,
        "sensor_name": "Frigate_Optic3",
        "label": "some message"
      }
    },
    {
      "type": "Feature",
      "id": "44c92272-0918-4d33-9f60-fad69582da91",
      "geometry": null,
      "properties": {
        "kind": "SENSOR_CONTACT",
        "parent_track": "Frigate",
        "time": "1970-01-03T03:45:25+00:00",
        "bearing": 21.0,
        "range": 220.0,
        "speed": 2458.0,
        "sensor_name": "Frigate_Optic3",
        "label": "some message"
      }
    },
    {
      "type": "Feature",
      "id": "dffc4fe9-44d2-4ec3-98e3-f43c06bf3a90",
      "geometry": null,
      "properties": {
        "kind": "SENSOR_CONTACT",
        "parent_track": "Frigate",
        "time": "1970-01-03T03:46:25+00:00",
        "bearing": 7.0,
        "range": 230.0,
        "speed": 2089.0,
        "sensor_name": "Frigate_Optic3",
        "label": "some message"
      }
    },
    {
      "type": "Feature",
      "id": "fd66660e-fb78-4976-8b79-29864d49b43f",
      "geometry": null,
      "properties": {
        "kind": "SENSOR_CONTACT",
        "parent_track": "Frigate",
        "time": "1970-01-03T03:31:25+00:00",
        "bearing": 80.0,
        "range": 160.0,
        "frequency": 77.0,
        "speed": 12496.0,
        "sensor_name": "Frigate_Optic4",
        "label": "some message"
      }
    },
    {
      "type": "Feature",
      "id": "afeee8f6-1551-4d73-9402-4f01cca9dbf5",
      "geometry": null,
      "properties": {
        "kind": "SENSOR_CONTACT",
        "parent_track": "Frigate",
        "time": "1970-01-03T03:32:25+00:00",
        "bearing": 78.0,
        "range": 160.0,
        "frequency": 77.0,
        "speed": 11678.0,
        "sensor_name": "Frigate_Optic4",
        "label": "some message"
      }
    },
    {
      "type": "Feature",
      "id": "f7dc1997-e7df-4caa-a95a-1bd20e325545",
      "geometry": null,
      "properties": {
        "kind": "SENSOR_CONTACT",
        "parent_track": "Frigate",
        "time": "1970-01-03T03:33:25+00:00",
        "bearing": 77.0,
        "range": 165.0,
        "frequency": 78.0,
        "speed": 10866.0,
        "sensor_name": "Frigate_Optic4",
        "label": "some message"
      }
    },
    {
      "type": "Feature",
      "id": "06ecb116-368f-4566-8abd-0b65f55ffc0f",
      "geometry": null,
      "properties": {
        "kind": "SENSOR_CONTACT",
        "parent_track": "Frigate",
        "time": "1970-01-03T03:34:25+00:00",
        "bearing": 75.0,
        "range": 165.0,
        "frequency": 79.0,
        "speed": 10062.0,
        "sensor_name": "Frigate_Optic4",
        "label": "some message"
      }
    },
    {
      "type": "Feature",
      "id": "fc6556df-eef4-42f6-954d-150dde61d8cb",
      "geometry": null,
      "properties": {
        "kind": "SENSOR_CONTACT",
        "parent_track": "Frigate",
        "time": "1970-01-03T03:35:25+00:00",
        "bearing": 73.0,
        "range": 165.0,
        "frequency": 79.0,
        "speed": 9265.0,
        "sensor_name": "Frigate_Optic4",
        "label": "some message"
      }
    },
    {
      "type": "Feature",
      "id": "cf33d5b9-fe11-449b-ad22-86c9536f49c3",
      "geometry": null,
      "properties": {
        "kind": "SENSOR_CONTACT",
        "parent_track": "Frigate",
        "time": "1970-01-03T03:36:25+00:00",
        "bearing": 71.0,
        "range": 165.0,
        "frequency": 79.0,
        "speed": 8479.0,
        "sensor_name": "Frigate_Optic4",
        "label": "some message"
      }
    },
    {
      "type": "Feature",
      "id": "e339f814-fd34-4ad7-bbb2-ce11bef52933",
      "geometry": null,
      "properties": {
        "kind": "SENSOR_CONTACT",
        "parent_track": "Frigate",
        "time": "1970-01-03T03:37:25+00:00",
        "bearing": 69.0,
        "range": 180.0,
        "frequency": 80.0,
        "speed": 7704.0,
        "sensor_name": "Frigate_Optic4",
        "label": "some message"
      }
    },
    {
      "type": "Feature",
      "id": "e86d25ea-0e04-4598-98da-e4755820b78e",
      "geometry": null,
      "properties": {
        "kind": "SENSOR_CONTACT",
        "parent_track": "Frigate",
        "time": "1970-01-03T03:38:25+00:00",
        "bearing": 66.0,
        "range": 180.0,
        "frequency": 79.0,
        "speed": 6943.0,
        "sensor_name": "Frigate_Optic4",
        "label": "some message"
      }
    },
    {
      "type": "Feature",
      "id": "2c5dbfb1-ce38-4390-995c-2f51a2bdb103",
      "geometry": null,
      "properties": {
        "kind": "SENSOR_CONTACT",
        "parent_track": "Frigate",
        "time": "1970-01-03T03:39:25+00:00",
        "bearing": 63.0,
        "range": 180.0,
        "frequency": 79.0,
        "speed": 6198.0,
        "sensor_name": "Frigate_Optic4",
        "label": "some message"
      }
    },
    {
      "type": "Feature",
      "id": "07b2b760-39e5-40a9-a1ac-218d1a51be45",
      "geometry": null,
      "properties": {
        "kind": "SENSOR_CONTACT",
        "parent_track": "Frigate",
        "time": "1970-01-03T03:40:25+00:00",
        "bearing": 59.0,
        "range": 170.0,
        "frequency": 78.0,
        "speed": 5475.0,
        "sensor_name": "Frigate_Optic4",
        "label": "some message"
      }
    },
    {
      "type": "Feature",
      "id": "5968e182-9fb3-4734-afe1-160f733c8e9d",
      "geometry": null,
      "properties": {
        "kind": "SENSOR_CONTACT",
        "parent_track": "Frigate",
        "time": "1970-01-03T03:41:25+00:00",
        "bearing": 55.0,
        "range": 170.0,
        "frequency": 78.0,
        "speed": 4777.0,
        "sensor_name": "\"Frigate",
        "label": "Optic5\" some message"
      }
    },
    {
      "type": "Feature",
      "id": "d2fe4fff-5e36-4c7c-8be9-4cde5eb2e048",
      "geometry": null,
      "properties": {
        "kind": "SENSOR_CONTACT",
        "parent_track": "Frigate",
        "time": "1970-01-03T03:42:25+00:00",
        "bearing": 49.0,
        "range": 170.0,
        "frequency": 77.0,
        "speed": 4112.0,
        "sensor_name": "\"Frigate",
        "label": "Optic5\" some message"
      }
    },
    {
      "type": "Feature",
      "id": "e3f63729-a689-46dc-8fc4-c9ceb985b372",
      "geometry": null,
      "properties": {
        "kind": "SENSOR_CONTACT",
        "parent_track": "Frigate",
        "time": "1970-01-03T03:43:25+00:00",
        "bearing": 42.0,
        "range": 200.0,
        "frequency": 77.0,
        "speed": 3491.0,
        "sensor_name": "\"Frigate",
        "label": "Optic5\" some message"
      }
    },
    {
      "type": "Feature",
      "id": "74da5389-b03a-4ce3-b325-0edc68a481dd",
      "geometry": null,
      "properties": {
        "kind": "SENSOR_CONTACT",
        "parent_track": "Frigate",
        "time": "1970-01-03T03:44:25+00:00",
        "bearing": 33.0,
        "range": 205.0,
        "frequency": 76.0,
        "speed": 2934.0,
        "label": "Frigate Optic5\" some message"
      }
    },
    {
      "type": "Feature",
      "id": "f780252c-b781-4397-b888-d3dc660d0565",
      "geometry": null,
      "properties": {
        "kind": "SENSOR_CONTACT",
        "parent_track": "Frigate",
        "time": "1970-01-03T03:45:25+00:00",
        "bearing": 21.0,
        "range": 220.0,
        "frequency": 76.0,
        "speed": 2458.0,
        "sensor_name": "\"Frigate",
        "label": "Optic5\" some message"
      }
    },
    {
      "type": "Feature",
      "id": "185f3e8d-e548-48ee-9ae8-4184041fc561",
      "geometry": null,
      "properties": {
        "kind": "SENSOR_CONTACT",
        "parent_track": "Frigate",
        "time": "1970-01-03T03:46:25+00:00",
        "bearing": 7.0,
        "range": 230.0,
        "frequency": 76.0,
        "speed": 2089.0,
        "label": "Frigate Optic5 \" some message"
      }
    }
  ]
}