{
  "type": "FeatureCollection",
  "features": [
    {
      "type": "Feature",
      "id": "7d5a3d60-6c11-445b-bfb6-7832ed210c02",
      "geometry": {
        "type": "LineString",
        "coordinates": [
          [
            0.25,
            60.1
          ],
          [
            0.2473138888888889,
            60.101597222222225
          ],
          [
            0.24462777777777778,
            60.10319166666667
          ],
          [
            0.2419388888888889,
            60.10478888888889
          ],
          [
            0.2392527777777778,
            60.10638333333333
          ],
          [
            0.23656666666666668,
            60.10798055555556
          ],
          [
            0.23388055555555556,
            60.109575
          ],
          [
            0.23119166666666668,
            60.11117222222222
          ],
          [
            0.22850555555555557,
            60.112766666666666
          ],
          [
            0.22581666666666667,
            60.11436388888889
          ],
          [
            0.22313055555555555,
            60.11595833333333
          ],
          [
            0.22044166666666667,
            60.117555555555555
          ],
          [
            0.2177527777777778,
            60.11915
          ],
          [
            0.21506666666666668,
            60.12074722222222
          ],
          [
            0.21237777777777778,
            60.122341666666664
          ],
          [
            0.2096888888888889,
            60.12393888888889
          ],
          [
            0.20700000000000002,
            60.12553611111111
          ],
          [
            0.2043111111111111,
            60.12713055555555
          ],
          [
            0.20162222222222223,
            60.128727777777776
          ],
          [
            0.1989361111111111,
            60.130322222222226
          ],
          [
            0.19624444444444444,
            60.13191944444444
          ],
          [
            0.19355555555555554,
            60.133513888888885
          ],
          [
            0.19086666666666666,
            60.13511111111111
          ],
          [
            0.18817777777777778,
            60.13670555555556
          ],
          [
            0.18548888888888887,
            60.138302777777774
          ],
          [
            0.1828,
            60.139897222222224
          ],
          [
            0.18010833333333331,
            60.14149444444445
          ],
          [
            0.17741944444444444,
            60.14308888888889
          ],
          [
            0.17473055555555556,
            60.14468611111111
          ],
          [
            0.17203888888888888,
            60.146280555555556
          ],
          [
            0.16935,
            60.14787777777778
          ],
          [
            0.16665833333333332,
            60.149475
          ],
          [
            0.16396944444444445,
            60.151069444444445
          ],
          [
            0.16127777777777777,
            60.15266666666667
          ],
          [
            0.1585861111111111,
            60.15426111111111
          ],
          [
            0.15589722222222221,
            60.155858333333335
          ],
          [
            0.15320555555555554,
            60.15745277777778
          ],
          [
            0.1505138888888889,
            60.15905
          ],
          [
            0.14782222222222222,
            60.16064444444444
          ],
          [
            0.14513055555555554,
            60.16224166666667
          ],
          [
            0.1424388888888889,
            60.16383611111111
          ],
          [
            0.13974722222222222,
            60.16543333333333
          ],
          [
            0.13705555555555554,
            60.167027777777776
          ],
          [
            0.1343638888888889,
            60.168625
          ],
          [
            0.13167222222222222,
            60.17021944444444
          ],
          [
            0.12898055555555554,
            60.171816666666665
          ],
          [
            0.1262861111111111,
            60.17341388888889
          ],
          [
            0.12359444444444445,
            60.17500833333333
          ],
          [
            0.12194166666666667,
            60.17689166666666
          ],
          [
            0.12123611111111111,
            60.17894722222222
          ],
          [
            0.12052777777777778,
            60.181
          ],
          [
            0.11981944444444445,
            60.183052777777775
          ],
          [
            0.1191138888888889,
            60.18510555555555
          ],
          [
            0.11840555555555556,
            60.18716111111111
          ],
          [
            0.11769722222222223,
            60.18921388888889
          ],
          [
            0.11699166666666667,
            60.191266666666664
          ],
          [
            0.11628333333333334,
            60.19331944444444
          ],
          [
            0.11557500000000001,
            60.195375
          ],
          [
            0.11486944444444445,
            60.197427777777776
          ],
          [
            0.11416111111111112,
            60.19948055555555
          ],
          [
            0.11345277777777778,
            60.20153333333334
          ],
          [
            0.11274444444444445,
            60.203586111111115
          ],
          [
            0.1120388888888889,
            60.20564166666667
          ],
          [
            0.11133055555555556,
            60.20769444444445
          ],
          [
            0.11062222222222223,
            60.20974722222223
          ],
          [
            0.1099138888888889,
            60.211800000000004
          ],
          [
            0.10920555555555556,
            60.21385555555556
          ],
          [
            0.10849722222222223,
            60.21590833333334
          ],
          [
            0.10779166666666667,
            60.217961111111116
          ],
          [
            0.10708333333333334,
            60.22001388888889
          ],
          [
            0.10637500000000001,
            60.22206944444444
          ],
          [
            0.10566666666666667,
            60.22412222222223
          ],
          [
            0.10495833333333333,
            60.226175000000005
          ],
          [
            0.10425000000000001,
            60.22822777777778
          ],
          [
            0.10354166666666667,
            60.23028333333333
          ],
          [
            0.10283333333333333,
            60.23233611111111
          ],
          [
            0.10212500000000001,
            60.23438888888889
          ],
          [
            0.10141666666666667,
            60.236441666666664
          ],
          [
            0.10070833333333334,
            60.23849722222222
          ],
          [
            0.09999999999999999,
            60.24055
          ],
          [
            0.09929166666666667,
            60.242602777777776
          ],
          [
            0.09858333333333333,
            60.24465555555555
          ],
          [
            0.09787499999999999,
            60.24670833333334
          ],
          [
            0.09716388888888888,
            60.24876388888889
          ],
          [
            0.09645555555555554,
            60.250816666666665
          ],
          [
            0.09574722222222222,
            60.25286944444444
          ],
          [
            0.09503888888888888,
            60.25492222222222
          ],
          [
            0.09433055555555556,
            60.25697777777778
          ],
          [
            0.09362222222222222,
            60.259030555555555
          ],
          [
            0.09291111111111111,
            60.26108333333333
          ],
          [
            0.09220277777777777,
            60.26313611111111
          ],
          [
            0.09149444444444443,
            60.26519166666667
          ],
          [
            0.09078611111111111,
            60.267244444444444
          ],
          [
            0.09007499999999999,
            60.26929722222222
          ],
          [
            0.08936666666666666,
            60.27135
          ],
          [
            0.08753055555555556,
            60.27319166666667
          ],
          [
            0.08396388888888888,
            60.27423611111111
          ],
          [
            0.079825,
            60.274141666666665
          ],
          [
            0.07646388888888889,
            60.27294166666667
          ],
          [
            0.07406388888888889,
            60.271230555555555
          ],
          [
            0.07167222222222222,
            60.26951944444444
          ],
          [
            0.06928333333333334,
            60.267805555555555
          ],
          [
            0.06689166666666667,
            60.26609166666667
          ],
          [
            0.06450277777777778,
            60.264377777777774
          ],
          [
            0.06211111111111112,
            60.26266666666667
          ],
          [
            0.059722222222222225,
            60.260952777777774
          ],
          [
            0.05733333333333333,
            60.25923888888889
          ],
          [
            0.054941666666666666,
            60.257525
          ],
          [
            0.05255277777777778,
            60.25581388888889
          ],
          [
            0.05016388888888889,
            60.2541
          ],
          [
            0.047775,
            60.252386111111115
          ],
          [
            0.04538611111111111,
            60.250675
          ],
          [
            0.04299722222222222,
            60.248961111111115
          ],
          [
            0.04060833333333333,
            60.24724722222222
          ],
          [
            0.038219444444444445,
            60.245533333333334
          ],
          [
            0.03583055555555555,
            60.24382222222222
          ],
          [
            0.03344166666666667,
            60.242108333333334
          ],
          [
            0.031052777777777776,
            60.24039444444445
          ],
          [
            0.028663888888888888,
            60.238680555555554
          ],
          [
            0.026275,
            60.23696944444445
          ],
          [
            0.02388888888888889,
            60.235255555555554
          ],
          [
            0.0215,
            60.23354166666667
          ],
          [
            0.01911111111111111,
            60.231830555555554
          ],
          [
            0.016725,
            60.23011666666667
          ],
          [
            0.01433611111111111,
            60.22840277777778
          ],
          [
            0.01195,
            60.226688888888894
          ],
          [
            0.009561111111111112,
            60.22497777777778
          ],
          [
            0.007175,
            60.223263888888894
          ],
          [
            0.0047888888888888885,
            60.22155
          ],
          [
            0.0024000000000000002,
            60.219836111111114
          ],
          [
            1.388888888888889e-05,
            60.218125
          ],
          [
            -0.002372222222222222,
            60.216411111111114
          ],
          [
            -0.004758333333333333,
            60.21469722222223
          ],
          [
            -0.007147222222222222,
            60.212986111111114
          ],
          [
            -0.009533333333333333,
            60.21127222222223
          ],
          [
            -0.011919444444444444,
            60.209558333333334
          ],
          [
            -0.014305555555555556,
            60.20784444444445
          ],
          [
            -0.016691666666666667,
            60.206133333333334
          ],
          [
            -0.019077777777777777,
            60.20441944444445
          ],
          [
            -0.02146111111111111,
            60.20270555555556
          ],
          [
            -0.02384722222222222,
            60.20099166666667
          ],
          [
            -0.02623333333333333,
            60.19928055555555
          ],
          [
            -0.028619444444444444,
            60.19756666666667
          ],
          [
            -0.031002777777777775,
            60.19585277777777
          ],
          [
            -0.03338888888888889,
            60.19413888888889
          ]
        ]
      },
      "properties": {
        "kind": "TRACK",
        "platform_id": "SUBJECT",
        "platform_name": "SUBJECT",
        "track_type": "CONTACT",
        "start_time": "2010-01-12T12:00:00+00:00",
        "end_time": "2010-01-12T14:00:00+00:00",
        "positions": [
          {
            "time": "2010-01-12T12:00:00+00:00",
            "course": 320.0,
            "speed": 9.0,
            "depth": 0.0
          },
          {
            "time": "2010-01-12T12:00:50+00:00",
            "course": 320.0,
            "speed": 9.0,
            "depth": 0.0
          },
          {
            "time": "2010-01-12T12:01:40+00:00",
            "course": 320.0,
            "speed": 9.0,
            "depth": 0.0
          },
          {
            "time": "2010-01-12T12:02:30+00:00",
            "course": 320.0,
            "speed": 9.0,
            "depth": 0.0
          },
          {
            "time": "2010-01-12T12:03:20+00:00",
            "course": 320.0,
            "speed": 9.0,
            "depth": 0.0
          },
          {
            "time": "2010-01-12T12:04:10+00:00",
            "course": 320.0,
            "speed": 9.0,
            "depth": 0.0
          },
          {
            "time": "2010-01-12T12:05:00+00:00",
            "course": 320.0,
            "speed": 9.0,
            "depth": 0.0
          },
          {
            "time": "2010-01-12T12:05:50+00:00",
            "course": 320.0,
            "speed": 9.0,
            "depth": 0.0
          },
          {
            "time": "2010-01-12T12:06:40+00:00",
            "course": 320.0,
            "speed": 9.0,
            "depth": 0.0
          },
          {
            "time": "2010-01-12T12:07:30+00:00",
            "course": 320.0,
            "speed": 9.0,
            "depth": 0.0
          },
          {
            "time": "2010-01-12T12:08:20+00:00",
            "course": 320.0,
            "speed": 9.0,
            "depth": 0.0
          },
          {
            "time": "2010-01-12T12:09:10+00:00",
            "course": 320.0,
            "speed": 9.0,
            "depth": 0.0
          },
          {
            "time": "2010-01-12T12:10:00+00:00",
            "course": 320.0,
            "speed": 9.0,
            "depth": 0.0
          },
          {
            "time": "2010-01-12T12:10:50+00:00",
            "course": 320.0,
            "speed": 9.0,
            "depth": 0.0
          },
          {
            "time": "2010-01-12T12:11:40+00:00",
            "course": 320.0,
            "speed": 9.0,
            "depth": 0.0
          },
          {
            "time": "2010-01-12T12:12:30+00:00",
            "course": 320.0,
            "speed": 9.0,
            "depth": 0.0
          },
          {
            "time": "2010-01-12T12:13:20+00:00",
            "course": 320.0,
            "speed": 9.0,
            "depth": 0.0
          },
          {
            "time": "2010-01-12T12:14:10+00:00",
            "course": 320.0,
            "speed": 9.0,
            "depth": 0.0
          },
          {
            "time": "2010-01-12T12:15:00+00:00",
            "course": 320.0,
            "speed": 9.0,
            "depth": 0.0
          },
          {
            "time": "2010-01-12T12:15:50+00:00",
            "course": 320.0,
            "speed": 9.0,
            "depth": 0.0
          },
          {
            "time": "2010-01-12T12:16:40+00:00",
            "course": 320.0,
            "speed": 9.0,
            "depth": 0.0
          },
          {
            "time": "2010-01-12T12:17:30+00:00",
            "course": 320.0,
            "speed": 9.0,
            "depth": 0.0
          },
          {
            "time": "2010-01-12T12:18:20+00:00",
            "course": 320.0,
            "speed": 9.0,
            "depth": 0.0
          },
          {
            "time": "2010-01-12T12:19:10+00:00",
            "course": 320.0,
            "speed": 9.0,
            "depth": 0.0
          },
          {
            "time": "2010-01-12T12:20:00+00:00",
            "course": 320.0,
            "speed": 9.0,
            "depth": 0.0
          },
          {
            "time": "2010-01-12T12:20:50+00:00",
            "course": 320.0,
            "speed": 9.0,
            "depth": 0.0
          },
          {
            "time": "2010-01-12T12:21:40+00:00",
            "course": 320.0,
            "speed": 9.0,
            "depth": 0.0
          },
          {
            "time": "2010-01-12T12:22:30+00:00",
            "course": 320.0,
            "speed": 9.0,
            "depth": 0.0
          },
          {
            "time": "2010-01-12T12:23:20+00:00",
            "course": 320.0,
            "speed": 9.0,
            "depth": 0.0
          },
          {
            "time": "2010-01-12T12:24:10+00:00",
            "course": 320.0,
            "speed": 9.0,
            "depth": 0.0
          },
          {
            "time": "2010-01-12T12:25:00+00:00",
            "course": 320.0,
            "speed": 9.0,
            "depth": 0.0
          },
          {
            "time": "2010-01-12T12:25:50+00:00",
            "course": 320.0,
            "speed": 9.0,
            "depth": 0.0
          },
          {
            "time": "2010-01-12T12:26:40+00:00",
            "course": 320.0,
            "speed": 9.0,
            "depth": 0.0
          },
          {
            "time": "2010-01-12T12:27:30+00:00",
            "course": 320.0,
            "speed": 9.0,
            "depth": 0.0
          },
          {
            "time": "2010-01-12T12:28:20+00:00",
            "course": 320.0,
            "speed": 9.0,
            "depth": 0.0
          },
          {
            "time": "2010-01-12T12:29:10+00:00",
            "course": 320.0,
            "speed": 9.0,
            "depth": 0.0
          },
          {
            "time": "2010-01-12T12:30:00+00:00",
            "course": 320.0,
            "speed": 9.0,
            "depth": 0.0
          },
          {
            "time": "2010-01-12T12:30:50+00:00",
            "course": 320.0,
            "speed": 9.0,
            "depth": 0.0
          },
          {
            "time": "2010-01-12T12:31:40+00:00",
            "course": 320.0,
            "speed": 9.0,
            "depth": 0.0
          },
          {
            "time": "2010-01-12T12:32:30+00:00",
            "course": 320.0,
            "speed": 9.0,
            "depth": 0.0
          },
          {
            "time": "2010-01-12T12:33:20+00:00",
            "course": 320.0,
            "speed": 9.0,
            "depth": 0.0
          },
          {
            "time": "2010-01-12T12:34:10+00:00",
            "course": 320.0,
            "speed": 9.0,
            "depth": 0.0
          },
          {
            "time": "2010-01-12T12:35:00+00:00",
            "course": 320.0,
            "speed": 9.0,
            "depth": 0.0
          },
          {
            "time": "2010-01-12T12:35:50+00:00",
            "course": 320.0,
            "speed": 9.0,
            "depth": 0.0
          },
          {
            "time": "2010-01-12T12:36:40+00:00",
            "course": 320.0,
            "speed": 9.0,
            "depth": 0.0
          },
          {
            "time": "2010-01-12T12:37:30+00:00",
            "course": 320.0,
            "speed": 9.0,
            "depth": 0.0
          },
          {
            "time": "2010-01-12T12:38:20+00:00",
            "course": 320.0,
            "speed": 9.0,
            "depth": 0.0
          },
          {
            "time": "2010-01-12T12:39:10+00:00",
            "course": 320.0,
            "speed": 9.0,
            "depth": 0.0
          },
          {
            "time": "2010-01-12T12:40:00+00:00",
            "course": 350.0,
            "speed": 9.0,
            "depth": 0.0
          },
          {
            "time": "2010-01-12T12:40:50+00:00",
            "course": 350.28,
            "speed": 9.0,
            "depth": 0.0
          },
          {
            "time": "2010-01-12T12:41:40+00:00",
            "course": 350.28,
            "speed": 9.0,
            "depth": 0.0
          },
          {
            "time": "2010-01-12T12:42:30+00:00",
            "course": 350.28,
            "speed": 9.0,
            "depth": 0.0
          },
          {
            "time": "2010-01-12T12:43:20+00:00",
            "course": 350.28,
            "speed": 9.0,
            "depth": 0.0
          },
          {
            "time": "2010-01-12T12:44:10+00:00",
            "course": 350.28,
            "speed": 9.0,
            "depth": 0.0
          },
          {
            "time": "2010-01-12T12:45:00+00:00",
            "course": 350.28,
            "speed": 9.0,
            "depth": 0.0
          },
          {
            "time": "2010-01-12T12:45:50+00:00",
            "course": 350.28,
            "speed": 9.0,
            "depth": 0.0
          },
          {
            "time": "2010-01-12T12:46:40+00:00",
            "course": 350.28,
            "speed": 9.0,
            "depth": 0.0
          },
          {
            "time": "2010-01-12T12:47:30+00:00",
            "course": 350.28,
            "speed": 9.0,
            "depth": 0.0
          },
          {
            "time": "2010-01-12T12:48:20+00:00",
            "course": 350.28,
            "speed": 9.0,
            "depth": 0.0
          },
          {
            "time": "2010-01-12T12:49:10+00:00",
            "course": 350.28,
            "speed": 9.0,
            "depth": 0.0
          },
          {
            "time": "2010-01-12T12:50:00+00:00",
            "course": 350.28,
            "speed": 9.0,
            "depth": 0.0
          },
          {
            "time": "2010-01-12T12:50:50+00:00",
            "course": 350.28,
            "speed": 9.0,
            "depth": 0.0
          },
          {
            "time": "2010-01-12T12:51:40+00:00",
            "course": 350.28,
            "speed": 9.0,
            "depth": 0.0
          },
          {
            "time": "2010-01-12T12:52:30+00:00",
            "course": 350.28,
            "speed": 9.0,
            "depth": 0.0
          },
          {
            "time": "2010-01-12T12:53:20+00:00",
            "course": 350.28,
            "speed": 9.0,
            "depth": 0.0
          },
          {
            "time": "2010-01-12T12:54:10+00:00",
            "course": 350.28,
            "speed": 9.0,
            "depth": 0.0
          },
          {
            "time": "2010-01-12T12:55:00+00:00",
            "course": 350.28,
            "speed": 9.0,
            "depth": 0.0
          },
          {
            "time": "2010-01-12T12:55:50+00:00",
            "course": 350.28,
            "speed": 9.0,
            "depth": 0.0
          },
          {
            "time": "2010-01-12T12:56:40+00:00",
            "course": 350.28,
            "speed": 9.0,
            "depth": 0.0
          },
          {
            "time": "2010-01-12T12:57:30+00:00",
            "course": 350.28,
            "speed": 9.0,
            "depth": 0.0
          },
          {
            "time": "2010-01-12T12:58:20+00:00",
            "course": 350.28,
            "speed": 9.0,
            "depth": 0.0
          },
          {
            "time": "2010-01-12T12:59:10+00:00",
            "course": 350.28,
            "speed": 9.0,
            "depth": 0.0
          },
          {
            "time": "2010-01-12T13:00:00+00:00",
            "course": 350.28,
            "speed": 9.0,
            "depth": 0.0
          },
          {
            "time": "2010-01-12T13:00:50+00:00",
            "course": 350.28,
            "speed": 9.0,
            "depth": 0.0
          },
          {
            "time": "2010-01-12T13:01:40+00:00",
            "course": 350.28,
            "speed": 9.0,
            "depth": 0.0
          },
          {
            "time": "2010-01-12T13:02:30+00:00",
            "course": 350.28,
            "speed": 9.0,
            "depth": 0.0
          },
          {
            "time": "2010-01-12T13:03:20+00:00",
            "course": 350.28,
            "speed": 9.0,
            "depth": 0.0
          },
          {
            "time": "2010-01-12T13:04:10+00:00",
            "course": 350.28,
            "speed": 9.0,
            "depth": 0.0
          },
          {
            "time": "2010-01-12T13:05:00+00:00",
            "course": 350.28,
            "speed": 9.0,
            "depth": 0.0
          },
          {
            "time": "2010-01-12T13:05:50+00:00",
            "course": 350.28,
            "speed": 9.0,
            "depth": 0.0
          },
          {
            "time": "2010-01-12T13:06:40+00:00",
            "course": 350.28,
            "speed": 9.0,
            "depth": 0.0
          },
          {
            "time": "2010-01-12T13:07:30+00:00",
            "course": 350.28,
            "speed": 9.0,
            "depth": 0.0
          },
          {
            "time": "2010-01-12T13:08:20+00:00",
            "course": 350.28,
            "speed": 9.0,
            "depth": 0.0
          },
          {
            "time": "2010-01-12T13:09:10+00:00",
            "course": 350.28,
            "speed": 9.0,
            "depth": 0.0
          },
          {
            "time": "2010-01-12T13:10:00+00:00",
            "course": 350.28,
            "speed": 9.0,
            "depth": 0.0
          },
          {
            "time": "2010-01-12T13:10:50+00:00",
            "course": 350.28,
            "speed": 9.0,
            "depth": 0.0
          },
          {
            "time": "2010-01-12T13:11:40+00:00",
            "course": 350.28,
            "speed": 9.0,
            "depth": 0.0
          },
          {
            "time": "2010-01-12T13:12:30+00:00",
            "course": 350.28,
            "speed": 9.0,
            "depth": 0.0
          },
          {
            "time": "2010-01-12T13:13:20+00:00",
            "course": 350.28,
            "speed": 9.0,
            "depth": 0.0
          },
          {
            "time": "2010-01-12T13:14:10+00:00",
            "course": 350.28,
            "speed": 9.0,
            "depth": 0.0
          },
          {
            "time": "2010-01-12T13:15:00+00:00",
            "course": 350.28,
            "speed": 9.0,
            "depth": 0.0
          },
          {
            "time": "2010-01-12T13:15:50+00:00",
            "course": 350.28,
            "speed": 9.0,
            "depth": 0.0
          },
          {
            "time": "2010-01-12T13:16:40+00:00",
            "course": 350.28,
            "speed": 9.0,
            "depth": 0.0
          },
          {
            "time": "2010-01-12T13:17:30+00:00",
            "course": 350.28,
            "speed": 9.0,
            "depth": 0.0
          },
          {
            "time": "2010-01-12T13:18:20+00:00",
            "course": 350.28,
            "speed": 9.0,
            "depth": 0.0
          },
          {
            "time": "2010-01-12T13:19:10+00:00",
            "course": 317.12,
            "speed": 9.0,
            "depth": 0.0
          },
          {
            "time": "2010-01-12T13:20:00+00:00",
            "course": 283.96,
            "speed": 9.0,
            "depth": 0.0
          },
          {
            "time": "2010-01-12T13:20:50+00:00",
            "course": 250.8,
            "speed": 9.0,
            "depth": 0.0
          },
          {
            "time": "2010-01-12T13:21:40+00:00",
            "course": 217.64,
            "speed": 9.0,
            "depth": 0.0
          },
          {
            "time": "2010-01-12T13:22:30+00:00",
            "course": 214.69,
            "speed": 9.0,
            "depth": 0.0
          },
          {
            "time": "2010-01-12T13:23:20+00:00",
            "course": 214.68,
            "speed": 9.0,
            "depth": 0.0
          },
          {
            "time": "2010-01-12T13:24:10+00:00",
            "course": 214.68,
            "speed": 9.0,
            "depth": 0.0
          },
          {
            "time": "2010-01-12T13:25:00+00:00",
            "course": 214.68,
            "speed": 9.0,
            "depth": 0.0
          },
          {
            "time": "2010-01-12T13:25:50+00:00",
            "course": 214.68,
            "speed": 9.0,
            "depth": 0.0
          },
          {
            "time": "2010-01-12T13:26:40+00:00",
            "course": 214.68,
            "speed": 9.0,
            "depth": 0.0
          },
          {
            "time": "2010-01-12T13:27:30+00:00",
            "course": 214.68,
            "speed": 9.0,
            "depth": 0.0
          },
          {
            "time": "2010-01-12T13:28:20+00:00",
            "course": 214.68,
            "speed": 9.0,
            "depth": 0.0
          },
          {
            "time": "2010-01-12T13:29:10+00:00",
            "course": 214.68,
            "speed": 9.0,
            "depth": 0.0
          },
          {
            "time": "2010-01-12T13:30:00+00:00",
            "course": 214.68,
            "speed": 9.0,
            "depth": 0.0
          },
          {
            "time": "2010-01-12T13:30:50+00:00",
            "course": 214.68,
            "speed": 9.0,
            "depth": 0.0
          },
          {
            "time": "2010-01-12T13:31:40+00:00",
            "course": 214.68,
            "speed": 9.0,
            "depth": 0.0
          },
          {
            "time": "2010-01-12T13:32:30+00:00",
            "course": 214.68,
            "speed": 9.0,
            "depth": 0.0
          },
          {
            "time": "2010-01-12T13:33:20+00:00",
            "course": 214.68,
            "speed": 9.0,
            "depth": 0.0
          },
          {
            "time": "2010-01-12T13:34:10+00:00",
            "course": 214.68,
            "speed": 9.0,
            "depth": 0.0
          },
          {
            "time": "2010-01-12T13:35:00+00:00",
            "course": 214.68,
            "speed": 9.0,
            "depth": 0.0
          },
          {
            "time": "2010-01-12T13:35:50+00:00",
            "course": 214.68,
            "speed": 9.0,
            "depth": 0.0
          },
          {
            "time": "2010-01-12T13:36:40+00:00",
            "course": 214.68,
            "speed": 9.0,
            "depth": 0.0
          },
          {
            "time": "2010-01-12T13:37:30+00:00",
            "course": 214.68,
            "speed": 9.0,
            "depth": 0.0
          },
          {
            "time": "2010-01-12T13:38:20+00:00",
            "course": 214.68,
            "speed": 9.0,
            "depth": 0.0
          },
          {
            "time": "2010-01-12T13:39:10+00:00",
            "course": 214.68,
            "speed": 9.0,
            "depth": 0.0
          },
          {
            "time": "2010-01-12T13:40:00+00:00",
            "course": 214.68,
            "speed": 9.0,
            "depth": 0.0
          },
          {
            "time": "2010-01-12T13:40:50+00:00",
            "course": 214.68,
            "speed": 9.0,
            "depth": 0.0
          },
          {
            "time": "2010-01-12T13:41:40+00:00",
            "course": 214.68,
            "speed": 9.0,
            "depth": 0.0
          },
          {
            "time": "2010-01-12T13:42:30+00:00",
            "course": 214.68,
            "speed": 9.0,
            "depth": 0.0
          },
          {
            "time": "2010-01-12T13:43:20+00:00",
            "course": 214.68,
            "speed": 9.0,
            "depth": 0.0
          },
          {
            "time": "2010-01-12T13:44:10+00:00",
            "course": 214.68,
            "speed": 9.0,
            "depth": 0.0
          },
          {
            "time": "2010-01-12T13:45:00+00:00",
            "course": 214.68,
            "speed": 9.0,
            "depth": 0.0
          },
          {
            "time": "2010-01-12T13:45:50+00:00",
            "course": 214.68,
            "speed": 9.0,
            "depth": 0.0
          },
          {
            "time": "2010-01-12T13:46:40+00:00",
            "course": 214.68,
            "speed": 9.0,
            "depth": 0.0
          },
          {
            "time": "2010-01-12T13:47:30+00:00",
            "course": 214.68,
            "speed": 9.0,
            "depth": 0.0
          },
          {
            "time": "2010-01-12T13:48:20+00:00",
            "course": 214.68,
            "speed": 9.0,
            "depth": 0.0
          },
          {
            "time": "2010-01-12T13:49:10+00:00",
            "course": 214.68,
            "speed": 9.0,
            "depth": 0.0
          },
          {
            "time": "2010-01-12T13:50:00+00:00",
            "course": 214.68,
            "speed": 9.0,
            "depth": 0.0
          },
          {
            "time": "2010-01-12T13:50:50+00:00",
            "course": 214.68,
            "speed": 9.0,
            "depth": 0.0
          },
          {
            "time": "2010-01-12T13:51:40+00:00",
            "course": 214.68,
            "speed": 9.0,
            "depth": 0.0
          },
          {
            "time": "2010-01-12T13:52:30+00:00",
            "course": 214.68,
            "speed": 9.0,
            "depth": 0.0
          },
          {
            "time": "2010-01-12T13:53:20+00:00",
            "course": 214.68,
            "speed": 9.0,
            "depth": 0.0
          },
          {
            "time": "2010-01-12T13:54:10+00:00",
            "course": 214.68,
            "speed": 9.0,
            "depth": 0.0
          },
          {
            "time": "2010-01-12T13:55:00+00:00",
            "course": 214.68,
            "speed": 9.0,
            "depth": 0.0
          },
          {
            "time": "2010-01-12T13:55:50+00:00",
            "course": 214.68,
            "speed": 9.0,
            "depth": 0.0
          },
          {
            "time": "2010-01-12T13:56:40+00:00",
            "course": 214.68,
            "speed": 9.0,
            "depth": 0.0
          },
          {
            "time": "2010-01-12T13:57:30+00:00",
            "course": 214.68,
            "speed": 9.0,
            "depth": 0.0
          },
          {
            "time": "2010-01-12T13:58:20+00:00",
            "course": 214.68,
            "speed": 9.0,
            "depth": 0.0
          },
          {
            "time": "2010-01-12T13:59:10+00:00",
            "course": 214.68,
            "speed": 9.0,
            "depth": 0.0
          },
          {
            "time": "2010-01-12T14:00:00+00:00",
            "course": 214.68,
            "speed": 9.0,
            "depth": 0.0
          }
        ],
        "style": {
          "line": {
            "color": "#FF0000"
          },
          "point": {
            "shape": "circle",
            "radius": 3.0,
            "fill_color": "#FF0000",
            "color": "#FF0000"
          }
        },
        "default_position_style": {
          "show_symbol": false,
          "symbol": "circle",
          "show_label": false
        },
        "symbol_interval": "PT10M",
        "label_interval": "PT30M",
        "provenance": [
          {
            "activity_id": "087d9570-c71a-47b9-adc5-8b740771f389",
            "timestamp": "2026-04-13T23:12:32.488117Z",
            "was_generated_by": {
              "tool": "rep-parser",
              "tool_version": "1.0.0",
              "parameters": []
            },
            "used": [],
            "generated": [
              "7d5a3d60-6c11-445b-bfb6-7832ed210c02"
            ],
            "execution_duration": "PT0.000953S"
          }
        ]
      }
    }
  ]
}