{
  "type": "FeatureCollection",
  "features": [
    {
      "type": "Feature",
      "id": "58bbeb2f-5c05-4e6d-90a6-a3676f30ff45",
      "geometry": {
        "type": "LineString",
        "coordinates": [
          [
            -0.0,
            60.2
          ],
          [
            -0.0,
            60.2016194
          ],
          [
            -0.0,
            60.2032417
          ],
          [
            -0.0,
            60.2048611
          ],
          [
            -0.0,
            60.2064806
          ],
          [
            -0.0,
            60.2081028
          ],
          [
            -0.0,
            60.2097222
          ],
          [
            -0.0,
            60.2113417
          ],
          [
            -0.0,
            60.2129639
          ],
          [
            -0.0,
            60.2145833
          ],
          [
            -0.0,
            60.2162028
          ],
          [
            -0.0,
            60.217825
          ],
          [
            -0.0,
            60.2194444
          ],
          [
            -0.0,
            60.2210639
          ],
          [
            -0.0,
            60.2226861
          ],
          [
            -0.0,
            60.2243056
          ],
          [
            -0.0,
            60.225925
          ],
          [
            -0.0,
            60.2275472
          ],
          [
            -0.0,
            60.2291667
          ],
          [
            -0.0,
            60.2307861
          ],
          [
            -0.0,
            60.2324083
          ],
          [
            -0.0,
            60.2340278
          ],
          [
            -0.0,
            60.2356472
          ],
          [
            -0.0,
            60.2372694
          ],
          [
            -0.0,
            60.2388889
          ],
          [
            -0.0,
            60.2405083
          ],
          [
            -0.0,
            60.2421306
          ],
          [
            -0.0,
            60.24375
          ],
          [
            -0.0,
            60.2453694
          ],
          [
            -0.0,
            60.2469917
          ],
          [
            -0.0,
            60.2486111
          ],
          [
            -0.0,
            60.2502306
          ],
          [
            -0.0,
            60.2518528
          ],
          [
            -0.0,
            60.2534722
          ],
          [
            -0.0,
            60.2550917
          ],
          [
            -0.0,
            60.2567139
          ],
          [
            -0.0,
            60.2583333
          ],
          [
            -0.0,
            60.2599528
          ],
          [
            -0.0,
            60.261575
          ],
          [
            -0.0,
            60.2631944
          ],
          [
            -0.0,
            60.2648139
          ],
          [
            -0.0,
            60.2664361
          ],
          [
            -0.0,
            60.2680556
          ],
          [
            -0.0,
            60.269675
          ],
          [
            -0.0,
            60.2712972
          ],
          [
            -0.0,
            60.2729167
          ],
          [
            -0.0,
            60.2745361
          ],
          [
            -0.0,
            60.2761583
          ],
          [
            -0.0,
            60.2777778
          ],
          [
            -0.0,
            60.2793972
          ],
          [
            -0.0,
            60.2810194
          ],
          [
            -0.0,
            60.2826389
          ],
          [
            -0.0,
            60.2842583
          ],
          [
            -0.0,
            60.2858806
          ],
          [
            -0.0,
            60.2875
          ],
          [
            -0.0,
            60.2891194
          ],
          [
            -0.0,
            60.2907417
          ],
          [
            -0.0,
            60.2923611
          ],
          [
            -0.0,
            60.2939806
          ],
          [
            -0.0,
            60.2956028
          ],
          [
            -0.0,
            60.2972222
          ],
          [
            -0.0,
            60.2988417
          ],
          [
            -0.0,
            60.3004639
          ],
          [
            -0.0,
            60.3020833
          ],
          [
            -0.0,
            60.3037028
          ],
          [
            -0.0,
            60.305325
          ],
          [
            -0.0,
            60.3069444
          ],
          [
            -0.0,
            60.3085639
          ],
          [
            -0.0,
            60.3101861
          ],
          [
            -0.0,
            60.3118056
          ],
          [
            -0.0,
            60.313425
          ],
          [
            -0.0,
            60.3150472
          ],
          [
            -0.0,
            60.3166667
          ]
        ]
      },
      "properties": {
        "kind": "TRACK",
        "platform_id": "SENSOR_1",
        "platform_name": "SENSOR_1",
        "track_type": "CONTACT",
        "times": [
          1263297600000,
          1263297650000,
          1263297700000,
          1263297750000,
          1263297800000,
          1263297850000,
          1263297900000,
          1263297950000,
          1263298000000,
          1263298050000,
          1263298100000,
          1263298150000,
          1263298200000,
          1263298250000,
          1263298300000,
          1263298350000,
          1263298400000,
          1263298450000,
          1263298500000,
          1263298550000,
          1263298600000,
          1263298650000,
          1263298700000,
          1263298750000,
          1263298800000,
          1263298850000,
          1263298900000,
          1263298950000,
          1263299000000,
          1263299050000,
          1263299100000,
          1263299150000,
          1263299200000,
          1263299250000,
          1263299300000,
          1263299350000,
          1263299400000,
          1263299450000,
          1263299500000,
          1263299550000,
          1263299600000,
          1263299650000,
          1263299700000,
          1263299750000,
          1263299800000,
          1263299850000,
          1263299900000,
          1263299950000,
          1263300000000,
          1263300050000,
          1263300100000,
          1263300150000,
          1263300200000,
          1263300250000,
          1263300300000,
          1263300350000,
          1263300400000,
          1263300450000,
          1263300500000,
          1263300550000,
          1263300600000,
          1263300650000,
          1263300700000,
          1263300750000,
          1263300800000,
          1263300850000,
          1263300900000,
          1263300950000,
          1263301000000,
          1263301050000,
          1263301100000,
          1263301150000,
          1263301200000
        ],
        "start_time": "2010-01-12T12:00:00+00:00",
        "end_time": "2010-01-12T13:00:00+00:00",
        "positions": [
          {
            "time": "2010-01-12T12:00:00+00:00",
            "course": 0.0,
            "speed": 7.0,
            "depth": 0.0
          },
          {
            "time": "2010-01-12T12:00:50+00:00",
            "course": 0.0,
            "speed": 7.0,
            "depth": 0.0
          },
          {
            "time": "2010-01-12T12:01:40+00:00",
            "course": 0.0,
            "speed": 7.0,
            "depth": 0.0
          },
          {
            "time": "2010-01-12T12:02:30+00:00",
            "course": 0.0,
            "speed": 7.0,
            "depth": 0.0
          },
          {
            "time": "2010-01-12T12:03:20+00:00",
            "course": 0.0,
            "speed": 7.0,
            "depth": 0.0
          },
          {
            "time": "2010-01-12T12:04:10+00:00",
            "course": 0.0,
            "speed": 7.0,
            "depth": 0.0
          },
          {
            "time": "2010-01-12T12:05:00+00:00",
            "course": 0.0,
            "speed": 7.0,
            "depth": 0.0
          },
          {
            "time": "2010-01-12T12:05:50+00:00",
            "course": 0.0,
            "speed": 7.0,
            "depth": 0.0
          },
          {
            "time": "2010-01-12T12:06:40+00:00",
            "course": 0.0,
            "speed": 7.0,
            "depth": 0.0
          },
          {
            "time": "2010-01-12T12:07:30+00:00",
            "course": 0.0,
            "speed": 7.0,
            "depth": 0.0
          },
          {
            "time": "2010-01-12T12:08:20+00:00",
            "course": 0.0,
            "speed": 7.0,
            "depth": 0.0
          },
          {
            "time": "2010-01-12T12:09:10+00:00",
            "course": 0.0,
            "speed": 7.0,
            "depth": 0.0
          },
          {
            "time": "2010-01-12T12:10:00+00:00",
            "course": 0.0,
            "speed": 7.0,
            "depth": 0.0
          },
          {
            "time": "2010-01-12T12:10:50+00:00",
            "course": 0.0,
            "speed": 7.0,
            "depth": 0.0
          },
          {
            "time": "2010-01-12T12:11:40+00:00",
            "course": 0.0,
            "speed": 7.0,
            "depth": 0.0
          },
          {
            "time": "2010-01-12T12:12:30+00:00",
            "course": 0.0,
            "speed": 7.0,
            "depth": 0.0
          },
          {
            "time": "2010-01-12T12:13:20+00:00",
            "course": 0.0,
            "speed": 7.0,
            "depth": 0.0
          },
          {
            "time": "2010-01-12T12:14:10+00:00",
            "course": 0.0,
            "speed": 7.0,
            "depth": 0.0
          },
          {
            "time": "2010-01-12T12:15:00+00:00",
            "course": 0.0,
            "speed": 7.0,
            "depth": 0.0
          },
          {
            "time": "2010-01-12T12:15:50+00:00",
            "course": 0.0,
            "speed": 7.0,
            "depth": 0.0
          },
          {
            "time": "2010-01-12T12:16:40+00:00",
            "course": 0.0,
            "speed": 7.0,
            "depth": 0.0
          },
          {
            "time": "2010-01-12T12:17:30+00:00",
            "course": 0.0,
            "speed": 7.0,
            "depth": 0.0
          },
          {
            "time": "2010-01-12T12:18:20+00:00",
            "course": 0.0,
            "speed": 7.0,
            "depth": 0.0
          },
          {
            "time": "2010-01-12T12:19:10+00:00",
            "course": 0.0,
            "speed": 7.0,
            "depth": 0.0
          },
          {
            "time": "2010-01-12T12:20:00+00:00",
            "course": 0.0,
            "speed": 7.0,
            "depth": 0.0
          },
          {
            "time": "2010-01-12T12:20:50+00:00",
            "course": 0.0,
            "speed": 7.0,
            "depth": 0.0
          },
          {
            "time": "2010-01-12T12:21:40+00:00",
            "course": 0.0,
            "speed": 7.0,
            "depth": 0.0
          },
          {
            "time": "2010-01-12T12:22:30+00:00",
            "course": 0.0,
            "speed": 7.0,
            "depth": 0.0
          },
          {
            "time": "2010-01-12T12:23:20+00:00",
            "course": 0.0,
            "speed": 7.0,
            "depth": 0.0
          },
          {
            "time": "2010-01-12T12:24:10+00:00",
            "course": 0.0,
            "speed": 7.0,
            "depth": 0.0
          },
          {
            "time": "2010-01-12T12:25:00+00:00",
            "course": 0.0,
            "speed": 7.0,
            "depth": 0.0
          },
          {
            "time": "2010-01-12T12:25:50+00:00",
            "course": 0.0,
            "speed": 7.0,
            "depth": 0.0
          },
          {
            "time": "2010-01-12T12:26:40+00:00",
            "course": 0.0,
            "speed": 7.0,
            "depth": 0.0
          },
          {
            "time": "2010-01-12T12:27:30+00:00",
            "course": 0.0,
            "speed": 7.0,
            "depth": 0.0
          },
          {
            "time": "2010-01-12T12:28:20+00:00",
            "course": 0.0,
            "speed": 7.0,
            "depth": 0.0
          },
          {
            "time": "2010-01-12T12:29:10+00:00",
            "course": 0.0,
            "speed": 7.0,
            "depth": 0.0
          },
          {
            "time": "2010-01-12T12:30:00+00:00",
            "course": 0.0,
            "speed": 7.0,
            "depth": 0.0
          },
          {
            "time": "2010-01-12T12:30:50+00:00",
            "course": 0.0,
            "speed": 7.0,
            "depth": 0.0
          },
          {
            "time": "2010-01-12T12:31:40+00:00",
            "course": 0.0,
            "speed": 7.0,
            "depth": 0.0
          },
          {
            "time": "2010-01-12T12:32:30+00:00",
            "course": 0.0,
            "speed": 7.0,
            "depth": 0.0
          },
          {
            "time": "2010-01-12T12:33:20+00:00",
            "course": 0.0,
            "speed": 7.0,
            "depth": 0.0
          },
          {
            "time": "2010-01-12T12:34:10+00:00",
            "course": 0.0,
            "speed": 7.0,
            "depth": 0.0
          },
          {
            "time": "2010-01-12T12:35:00+00:00",
            "course": 0.0,
            "speed": 7.0,
            "depth": 0.0
          },
          {
            "time": "2010-01-12T12:35:50+00:00",
            "course": 0.0,
            "speed": 7.0,
            "depth": 0.0
          },
          {
            "time": "2010-01-12T12:36:40+00:00",
            "course": 0.0,
            "speed": 7.0,
            "depth": 0.0
          },
          {
            "time": "2010-01-12T12:37:30+00:00",
            "course": 0.0,
            "speed": 7.0,
            "depth": 0.0
          },
          {
            "time": "2010-01-12T12:38:20+00:00",
            "course": 0.0,
            "speed": 7.0,
            "depth": 0.0
          },
          {
            "time": "2010-01-12T12:39:10+00:00",
            "course": 0.0,
            "speed": 7.0,
            "depth": 0.0
          },
          {
            "time": "2010-01-12T12:40:00+00:00",
            "course": 0.0,
            "speed": 7.0,
            "depth": 0.0
          },
          {
            "time": "2010-01-12T12:40:50+00:00",
            "course": 0.0,
            "speed": 7.0,
            "depth": 0.0
          },
          {
            "time": "2010-01-12T12:41:40+00:00",
            "course": 0.0,
            "speed": 7.0,
            "depth": 0.0
          },
          {
            "time": "2010-01-12T12:42:30+00:00",
            "course": 0.0,
            "speed": 7.0,
            "depth": 0.0
          },
          {
            "time": "2010-01-12T12:43:20+00:00",
            "course": 0.0,
            "speed": 7.0,
            "depth": 0.0
          },
          {
            "time": "2010-01-12T12:44:10+00:00",
            "course": 0.0,
            "speed": 7.0,
            "depth": 0.0
          },
          {
            "time": "2010-01-12T12:45:00+00:00",
            "course": 0.0,
            "speed": 7.0,
            "depth": 0.0
          },
          {
            "time": "2010-01-12T12:45:50+00:00",
            "course": 0.0,
            "speed": 7.0,
            "depth": 0.0
          },
          {
            "time": "2010-01-12T12:46:40+00:00",
            "course": 0.0,
            "speed": 7.0,
            "depth": 0.0
          },
          {
            "time": "2010-01-12T12:47:30+00:00",
            "course": 0.0,
            "speed": 7.0,
            "depth": 0.0
          },
          {
            "time": "2010-01-12T12:48:20+00:00",
            "course": 0.0,
            "speed": 7.0,
            "depth": 0.0
          },
          {
            "time": "2010-01-12T12:49:10+00:00",
            "course": 0.0,
            "speed": 7.0,
            "depth": 0.0
          },
          {
            "time": "2010-01-12T12:50:00+00:00",
            "course": 0.0,
            "speed": 7.0,
            "depth": 0.0
          },
          {
            "time": "2010-01-12T12:50:50+00:00",
            "course": 0.0,
            "speed": 7.0,
            "depth": 0.0
          },
          {
            "time": "2010-01-12T12:51:40+00:00",
            "course": 0.0,
            "speed": 7.0,
            "depth": 0.0
          },
          {
            "time": "2010-01-12T12:52:30+00:00",
            "course": 0.0,
            "speed": 7.0,
            "depth": 0.0
          },
          {
            "time": "2010-01-12T12:53:20+00:00",
            "course": 0.0,
            "speed": 7.0,
            "depth": 0.0
          },
          {
            "time": "2010-01-12T12:54:10+00:00",
            "course": 0.0,
            "speed": 7.0,
            "depth": 0.0
          },
          {
            "time": "2010-01-12T12:55:00+00:00",
            "course": 0.0,
            "speed": 7.0,
            "depth": 0.0
          },
          {
            "time": "2010-01-12T12:55:50+00:00",
            "course": 0.0,
            "speed": 7.0,
            "depth": 0.0
          },
          {
            "time": "2010-01-12T12:56:40+00:00",
            "course": 0.0,
            "speed": 7.0,
            "depth": 0.0
          },
          {
            "time": "2010-01-12T12:57:30+00:00",
            "course": 0.0,
            "speed": 7.0,
            "depth": 0.0
          },
          {
            "time": "2010-01-12T12:58:20+00:00",
            "course": 0.0,
            "speed": 7.0,
            "depth": 0.0
          },
          {
            "time": "2010-01-12T12:59:10+00:00",
            "course": 0.0,
            "speed": 7.0,
            "depth": 0.0
          },
          {
            "time": "2010-01-12T13:00:00+00:00",
            "course": 0.0,
            "speed": 7.0,
            "depth": 0.0
          }
        ],
        "default_position_style": {
          "show_symbol": false,
          "symbol": "circle",
          "show_label": false
        },
        "symbol_interval": "PT5M",
        "label_interval": "PT15M"
      }
    },
    {
      "type": "Feature",
      "id": "e021c792-f87e-4b85-afcb-fa769394e156",
      "geometry": null,
      "properties": {
        "kind": "SENSOR_CONTACT",
        "parent_track": "SENSOR_1",
        "sensor_name": "Plain",
        "bearing": 44.8,
        "time": "2010-01-12T12:00:00+00:00",
        "label": "Cookie SUBJECT held on Plain Cookie"
      }
    },
    {
      "type": "Feature",
      "id": "6fefac29-234c-4d7a-834d-c3999bc6b686",
      "geometry": null,
      "properties": {
        "kind": "SENSOR_CONTACT",
        "parent_track": "SENSOR_1",
        "sensor_name": "Plain",
        "bearing": 44.8,
        "time": "2010-01-12T12:05:50+00:00",
        "label": "Cookie SUBJECT held on Plain Cookie"
      }
    },
    {
      "type": "Feature",
      "id": "42b09df7-f555-4900-acb6-7211df2a3c1d",
      "geometry": null,
      "properties": {
        "kind": "SENSOR_CONTACT",
        "parent_track": "SENSOR_1",
        "sensor_name": "Plain",
        "bearing": 44.8,
        "time": "2010-01-12T12:11:40+00:00",
        "label": "Cookie SUBJECT held on Plain Cookie"
      }
    },
    {
      "type": "Feature",
      "id": "81c8fac6-e4a2-4a8d-a9c5-8e498534514b",
      "geometry": null,
      "properties": {
        "kind": "SENSOR_CONTACT",
        "parent_track": "SENSOR_1",
        "sensor_name": "Plain",
        "bearing": 44.8,
        "time": "2010-01-12T12:17:30+00:00",
        "label": "Cookie SUBJECT held on Plain Cookie"
      }
    },
    {
      "type": "Feature",
      "id": "8b1f3375-1446-4e8d-9c34-0cc5cf143c14",
      "geometry": null,
      "properties": {
        "kind": "SENSOR_CONTACT",
        "parent_track": "SENSOR_1",
        "sensor_name": "Plain",
        "bearing": 44.7,
        "time": "2010-01-12T12:23:20+00:00",
        "label": "Cookie SUBJECT held on Plain Cookie"
      }
    },
    {
      "type": "Feature",
      "id": "8e7132ac-edcb-41a1-8e44-409cbc80db29",
      "geometry": null,
      "properties": {
        "kind": "SENSOR_CONTACT",
        "parent_track": "SENSOR_1",
        "sensor_name": "Plain",
        "bearing": 44.7,
        "time": "2010-01-12T12:29:10+00:00",
        "label": "Cookie SUBJECT held on Plain Cookie"
      }
    },
    {
      "type": "Feature",
      "id": "2a199ef4-55d5-4e07-852f-6e5922fdedc2",
      "geometry": null,
      "properties": {
        "kind": "SENSOR_CONTACT",
        "parent_track": "SENSOR_1",
        "sensor_name": "Plain",
        "bearing": 44.7,
        "time": "2010-01-12T12:35:00+00:00",
        "label": "Cookie SUBJECT held on Plain Cookie"
      }
    },
    {
      "type": "Feature",
      "id": "ef7d21dd-e3d0-46c7-b206-162f978ae8b6",
      "geometry": null,
      "properties": {
        "kind": "SENSOR_CONTACT",
        "parent_track": "SENSOR_1",
        "sensor_name": "Plain",
        "bearing": 44.7,
        "time": "2010-01-12T12:40:50+00:00",
        "label": "Cookie SUBJECT held on Plain Cookie"
      }
    },
    {
      "type": "Feature",
      "id": "690d8ed0-b4ed-4a67-8acb-cc9b5ba16aaf",
      "geometry": null,
      "properties": {
        "kind": "SENSOR_CONTACT",
        "parent_track": "SENSOR_1",
        "sensor_name": "Plain",
        "bearing": 44.7,
        "time": "2010-01-12T12:46:40+00:00",
        "label": "Cookie SUBJECT held on Plain Cookie"
      }
    },
    {
      "type": "Feature",
      "id": "325cbb00-bf8c-4099-85fb-d09c05bf836a",
      "geometry": null,
      "properties": {
        "kind": "SENSOR_CONTACT",
        "parent_track": "SENSOR_1",
        "sensor_name": "Plain",
        "bearing": 44.7,
        "time": "2010-01-12T12:52:30+00:00",
        "label": "Cookie SUBJECT held on Plain Cookie"
      }
    },
    {
      "type": "Feature",
      "id": "acfb46eb-b9cd-4a78-a222-6584484c9898",
      "geometry": null,
      "properties": {
        "kind": "SENSOR_CONTACT",
        "parent_track": "SENSOR_1",
        "sensor_name": "Plain",
        "bearing": 44.7,
        "time": "2010-01-12T12:58:20+00:00",
        "label": "Cookie SUBJECT held on Plain Cookie"
      }
    },
    {
      "type": "Feature",
      "id": "e6e3de23-4af3-4cf3-9533-398aee888fb3",
      "geometry": {
        "type": "LineString",
        "coordinates": [
          [
            0.4,
            60.2
          ],
          [
            0.4,
            60.2016194
          ],
          [
            0.4,
            60.2032417
          ],
          [
            0.4,
            60.2048611
          ],
          [
            0.4,
            60.2064806
          ],
          [
            0.4,
            60.2081028
          ],
          [
            0.4,
            60.2097222
          ],
          [
            0.4,
            60.2113417
          ],
          [
            0.4,
            60.2129639
          ],
          [
            0.4,
            60.2145833
          ],
          [
            0.4,
            60.2162028
          ],
          [
            0.4,
            60.217825
          ],
          [
            0.4,
            60.2194444
          ],
          [
            0.4,
            60.2210639
          ],
          [
            0.4,
            60.2226861
          ],
          [
            0.4,
            60.2243056
          ],
          [
            0.4,
            60.225925
          ],
          [
            0.4,
            60.2275472
          ],
          [
            0.4,
            60.2291667
          ],
          [
            0.4,
            60.2307861
          ],
          [
            0.4,
            60.2324083
          ],
          [
            0.4,
            60.2340278
          ],
          [
            0.4,
            60.2356472
          ],
          [
            0.4,
            60.2372694
          ],
          [
            0.4,
            60.2388889
          ],
          [
            0.4,
            60.2405083
          ],
          [
            0.4,
            60.2421306
          ],
          [
            0.4,
            60.24375
          ],
          [
            0.4,
            60.2453694
          ],
          [
            0.4,
            60.2469917
          ],
          [
            0.4,
            60.2486111
          ],
          [
            0.4,
            60.2502306
          ],
          [
            0.4,
            60.2518528
          ],
          [
            0.4,
            60.2534722
          ],
          [
            0.4,
            60.2550917
          ],
          [
            0.4,
            60.2567139
          ],
          [
            0.4,
            60.2583333
          ],
          [
            0.4,
            60.2599528
          ],
          [
            0.4,
            60.261575
          ],
          [
            0.4,
            60.2631944
          ],
          [
            0.4,
            60.2648139
          ],
          [
            0.4,
            60.2664361
          ],
          [
            0.4,
            60.2680556
          ],
          [
            0.4,
            60.269675
          ],
          [
            0.4,
            60.2712972
          ],
          [
            0.4,
            60.2729167
          ],
          [
            0.4,
            60.2745361
          ],
          [
            0.4,
            60.2761583
          ],
          [
            0.4,
            60.2777778
          ],
          [
            0.4,
            60.2793972
          ],
          [
            0.4,
            60.2810194
          ],
          [
            0.4,
            60.2826389
          ],
          [
            0.4,
            60.2842583
          ],
          [
            0.4,
            60.2858806
          ],
          [
            0.4,
            60.2875
          ],
          [
            0.4,
            60.2891194
          ],
          [
            0.4,
            60.2907417
          ],
          [
            0.4,
            60.2923611
          ],
          [
            0.4,
            60.2939806
          ],
          [
            0.4,
            60.2956028
          ],
          [
            0.4,
            60.2972222
          ],
          [
            0.4,
            60.2988417
          ],
          [
            0.4,
            60.3004639
          ],
          [
            0.4,
            60.3020833
          ],
          [
            0.4,
            60.3037028
          ],
          [
            0.4,
            60.305325
          ],
          [
            0.4,
            60.3069444
          ],
          [
            0.4,
            60.3085639
          ],
          [
            0.4,
            60.3101861
          ],
          [
            0.4,
            60.3118056
          ],
          [
            0.4,
            60.313425
          ],
          [
            0.4,
            60.3150472
          ],
          [
            0.4,
            60.3166667
          ]
        ]
      },
      "properties": {
        "kind": "TRACK",
        "platform_id": "SENSOR_2",
        "platform_name": "SENSOR_2",
        "track_type": "CONTACT",
        "times": [
          1263297600000,
          1263297650000,
          1263297700000,
          1263297750000,
          1263297800000,
          1263297850000,
          1263297900000,
          1263297950000,
          1263298000000,
          1263298050000,
          1263298100000,
          1263298150000,
          1263298200000,
          1263298250000,
          1263298300000,
          1263298350000,
          1263298400000,
          1263298450000,
          1263298500000,
          1263298550000,
          1263298600000,
          1263298650000,
          1263298700000,
          1263298750000,
          1263298800000,
          1263298850000,
          1263298900000,
          1263298950000,
          1263299000000,
          1263299050000,
          1263299100000,
          1263299150000,
          1263299200000,
          1263299250000,
          1263299300000,
          1263299350000,
          1263299400000,
          1263299450000,
          1263299500000,
          1263299550000,
          1263299600000,
          1263299650000,
          1263299700000,
          1263299750000,
          1263299800000,
          1263299850000,
          1263299900000,
          1263299950000,
          1263300000000,
          1263300050000,
          1263300100000,
          1263300150000,
          1263300200000,
          1263300250000,
          1263300300000,
          1263300350000,
          1263300400000,
          1263300450000,
          1263300500000,
          1263300550000,
          1263300600000,
          1263300650000,
          1263300700000,
          1263300750000,
          1263300800000,
          1263300850000,
          1263300900000,
          1263300950000,
          1263301000000,
          1263301050000,
          1263301100000,
          1263301150000,
          1263301200000
        ],
        "start_time": "2010-01-12T12:00:00+00:00",
        "end_time": "2010-01-12T13:00:00+00:00",
        "positions": [
          {
            "time": "2010-01-12T12:00:00+00:00",
            "course": 0.0,
            "speed": 7.0,
            "depth": 0.0
          },
          {
            "time": "2010-01-12T12:00:50+00:00",
            "course": 0.0,
            "speed": 7.0,
            "depth": 0.0
          },
          {
            "time": "2010-01-12T12:01:40+00:00",
            "course": 0.0,
            "speed": 7.0,
            "depth": 0.0
          },
          {
            "time": "2010-01-12T12:02:30+00:00",
            "course": 0.0,
            "speed": 7.0,
            "depth": 0.0
          },
          {
            "time": "2010-01-12T12:03:20+00:00",
            "course": 0.0,
            "speed": 7.0,
            "depth": 0.0
          },
          {
            "time": "2010-01-12T12:04:10+00:00",
            "course": 0.0,
            "speed": 7.0,
            "depth": 0.0
          },
          {
            "time": "2010-01-12T12:05:00+00:00",
            "course": 0.0,
            "speed": 7.0,
            "depth": 0.0
          },
          {
            "time": "2010-01-12T12:05:50+00:00",
            "course": 0.0,
            "speed": 7.0,
            "depth": 0.0
          },
          {
            "time": "2010-01-12T12:06:40+00:00",
            "course": 0.0,
            "speed": 7.0,
            "depth": 0.0
          },
          {
            "time": "2010-01-12T12:07:30+00:00",
            "course": 0.0,
            "speed": 7.0,
            "depth": 0.0
          },
          {
            "time": "2010-01-12T12:08:20+00:00",
            "course": 0.0,
            "speed": 7.0,
            "depth": 0.0
          },
          {
            "time": "2010-01-12T12:09:10+00:00",
            "course": 0.0,
            "speed": 7.0,
            "depth": 0.0
          },
          {
            "time": "2010-01-12T12:10:00+00:00",
            "course": 0.0,
            "speed": 7.0,
            "depth": 0.0
          },
          {
            "time": "2010-01-12T12:10:50+00:00",
            "course": 0.0,
            "speed": 7.0,
            "depth": 0.0
          },
          {
            "time": "2010-01-12T12:11:40+00:00",
            "course": 0.0,
            "speed": 7.0,
            "depth": 0.0
          },
          {
            "time": "2010-01-12T12:12:30+00:00",
            "course": 0.0,
            "speed": 7.0,
            "depth": 0.0
          },
          {
            "time": "2010-01-12T12:13:20+00:00",
            "course": 0.0,
            "speed": 7.0,
            "depth": 0.0
          },
          {
            "time": "2010-01-12T12:14:10+00:00",
            "course": 0.0,
            "speed": 7.0,
            "depth": 0.0
          },
          {
            "time": "2010-01-12T12:15:00+00:00",
            "course": 0.0,
            "speed": 7.0,
            "depth": 0.0
          },
          {
            "time": "2010-01-12T12:15:50+00:00",
            "course": 0.0,
            "speed": 7.0,
            "depth": 0.0
          },
          {
            "time": "2010-01-12T12:16:40+00:00",
            "course": 0.0,
            "speed": 7.0,
            "depth": 0.0
          },
          {
            "time": "2010-01-12T12:17:30+00:00",
            "course": 0.0,
            "speed": 7.0,
            "depth": 0.0
          },
          {
            "time": "2010-01-12T12:18:20+00:00",
            "course": 0.0,
            "speed": 7.0,
            "depth": 0.0
          },
          {
            "time": "2010-01-12T12:19:10+00:00",
            "course": 0.0,
            "speed": 7.0,
            "depth": 0.0
          },
          {
            "time": "2010-01-12T12:20:00+00:00",
            "course": 0.0,
            "speed": 7.0,
            "depth": 0.0
          },
          {
            "time": "2010-01-12T12:20:50+00:00",
            "course": 0.0,
            "speed": 7.0,
            "depth": 0.0
          },
          {
            "time": "2010-01-12T12:21:40+00:00",
            "course": 0.0,
            "speed": 7.0,
            "depth": 0.0
          },
          {
            "time": "2010-01-12T12:22:30+00:00",
            "course": 0.0,
            "speed": 7.0,
            "depth": 0.0
          },
          {
            "time": "2010-01-12T12:23:20+00:00",
            "course": 0.0,
            "speed": 7.0,
            "depth": 0.0
          },
          {
            "time": "2010-01-12T12:24:10+00:00",
            "course": 0.0,
            "speed": 7.0,
            "depth": 0.0
          },
          {
            "time": "2010-01-12T12:25:00+00:00",
            "course": 0.0,
            "speed": 7.0,
            "depth": 0.0
          },
          {
            "time": "2010-01-12T12:25:50+00:00",
            "course": 0.0,
            "speed": 7.0,
            "depth": 0.0
          },
          {
            "time": "2010-01-12T12:26:40+00:00",
            "course": 0.0,
            "speed": 7.0,
            "depth": 0.0
          },
          {
            "time": "2010-01-12T12:27:30+00:00",
            "course": 0.0,
            "speed": 7.0,
            "depth": 0.0
          },
          {
            "time": "2010-01-12T12:28:20+00:00",
            "course": 0.0,
            "speed": 7.0,
            "depth": 0.0
          },
          {
            "time": "2010-01-12T12:29:10+00:00",
            "course": 0.0,
            "speed": 7.0,
            "depth": 0.0
          },
          {
            "time": "2010-01-12T12:30:00+00:00",
            "course": 0.0,
            "speed": 7.0,
            "depth": 0.0
          },
          {
            "time": "2010-01-12T12:30:50+00:00",
            "course": 0.0,
            "speed": 7.0,
            "depth": 0.0
          },
          {
            "time": "2010-01-12T12:31:40+00:00",
            "course": 0.0,
            "speed": 7.0,
            "depth": 0.0
          },
          {
            "time": "2010-01-12T12:32:30+00:00",
            "course": 0.0,
            "speed": 7.0,
            "depth": 0.0
          },
          {
            "time": "2010-01-12T12:33:20+00:00",
            "course": 0.0,
            "speed": 7.0,
            "depth": 0.0
          },
          {
            "time": "2010-01-12T12:34:10+00:00",
            "course": 0.0,
            "speed": 7.0,
            "depth": 0.0
          },
          {
            "time": "2010-01-12T12:35:00+00:00",
            "course": 0.0,
            "speed": 7.0,
            "depth": 0.0
          },
          {
            "time": "2010-01-12T12:35:50+00:00",
            "course": 0.0,
            "speed": 7.0,
            "depth": 0.0
          },
          {
            "time": "2010-01-12T12:36:40+00:00",
            "course": 0.0,
            "speed": 7.0,
            "depth": 0.0
          },
          {
            "time": "2010-01-12T12:37:30+00:00",
            "course": 0.0,
            "speed": 7.0,
            "depth": 0.0
          },
          {
            "time": "2010-01-12T12:38:20+00:00",
            "course": 0.0,
            "speed": 7.0,
            "depth": 0.0
          },
          {
            "time": "2010-01-12T12:39:10+00:00",
            "course": 0.0,
            "speed": 7.0,
            "depth": 0.0
          },
          {
            "time": "2010-01-12T12:40:00+00:00",
            "course": 0.0,
            "speed": 7.0,
            "depth": 0.0
          },
          {
            "time": "2010-01-12T12:40:50+00:00",
            "course": 0.0,
            "speed": 7.0,
            "depth": 0.0
          },
          {
            "time": "2010-01-12T12:41:40+00:00",
            "course": 0.0,
            "speed": 7.0,
            "depth": 0.0
          },
          {
            "time": "2010-01-12T12:42:30+00:00",
            "course": 0.0,
            "speed": 7.0,
            "depth": 0.0
          },
          {
            "time": "2010-01-12T12:43:20+00:00",
            "course": 0.0,
            "speed": 7.0,
            "depth": 0.0
          },
          {
            "time": "2010-01-12T12:44:10+00:00",
            "course": 0.0,
            "speed": 7.0,
            "depth": 0.0
          },
          {
            "time": "2010-01-12T12:45:00+00:00",
            "course": 0.0,
            "speed": 7.0,
            "depth": 0.0
          },
          {
            "time": "2010-01-12T12:45:50+00:00",
            "course": 0.0,
            "speed": 7.0,
            "depth": 0.0
          },
          {
            "time": "2010-01-12T12:46:40+00:00",
            "course": 0.0,
            "speed": 7.0,
            "depth": 0.0
          },
          {
            "time": "2010-01-12T12:47:30+00:00",
            "course": 0.0,
            "speed": 7.0,
            "depth": 0.0
          },
          {
            "time": "2010-01-12T12:48:20+00:00",
            "course": 0.0,
            "speed": 7.0,
            "depth": 0.0
          },
          {
            "time": "2010-01-12T12:49:10+00:00",
            "course": 0.0,
            "speed": 7.0,
            "depth": 0.0
          },
          {
            "time": "2010-01-12T12:50:00+00:00",
            "course": 0.0,
            "speed": 7.0,
            "depth": 0.0
          },
          {
            "time": "2010-01-12T12:50:50+00:00",
            "course": 0.0,
            "speed": 7.0,
            "depth": 0.0
          },
          {
            "time": "2010-01-12T12:51:40+00:00",
            "course": 0.0,
            "speed": 7.0,
            "depth": 0.0
          },
          {
            "time": "2010-01-12T12:52:30+00:00",
            "course": 0.0,
            "speed": 7.0,
            "depth": 0.0
          },
          {
            "time": "2010-01-12T12:53:20+00:00",
            "course": 0.0,
            "speed": 7.0,
            "depth": 0.0
          },
          {
            "time": "2010-01-12T12:54:10+00:00",
            "course": 0.0,
            "speed": 7.0,
            "depth": 0.0
          },
          {
            "time": "2010-01-12T12:55:00+00:00",
            "course": 0.0,
            "speed": 7.0,
            "depth": 0.0
          },
          {
            "time": "2010-01-12T12:55:50+00:00",
            "course": 0.0,
            "speed": 7.0,
            "depth": 0.0
          },
          {
            "time": "2010-01-12T12:56:40+00:00",
            "course": 0.0,
            "speed": 7.0,
            "depth": 0.0
          },
          {
            "time": "2010-01-12T12:57:30+00:00",
            "course": 0.0,
            "speed": 7.0,
            "depth": 0.0
          },
          {
            "time": "2010-01-12T12:58:20+00:00",
            "course": 0.0,
            "speed": 7.0,
            "depth": 0.0
          },
          {
            "time": "2010-01-12T12:59:10+00:00",
            "course": 0.0,
            "speed": 7.0,
            "depth": 0.0
          },
          {
            "time": "2010-01-12T13:00:00+00:00",
            "course": 0.0,
            "speed": 7.0,
            "depth": 0.0
          }
        ],
        "default_position_style": {
          "show_symbol": false,
          "symbol": "circle",
          "show_label": false
        },
        "symbol_interval": "PT5M",
        "label_interval": "PT15M"
      }
    },
    {
      "type": "Feature",
      "id": "65783e90-b09d-4847-a869-c46a4dfdd1ce",
      "geometry": null,
      "properties": {
        "kind": "SENSOR_CONTACT",
        "parent_track": "SENSOR_2",
        "sensor_name": "Plain",
        "bearing": -44.8,
        "time": "2010-01-12T12:00:00+00:00",
        "label": "Cookie SUBJECT held on Plain Cookie"
      }
    },
    {
      "type": "Feature",
      "id": "e2ca9643-e2c7-4bad-8aca-827bd73acd18",
      "geometry": null,
      "properties": {
        "kind": "SENSOR_CONTACT",
        "parent_track": "SENSOR_2",
        "sensor_name": "Plain",
        "bearing": -44.8,
        "time": "2010-01-12T12:10:00+00:00",
        "label": "Cookie SUBJECT held on Plain Cookie"
      }
    },
    {
      "type": "Feature",
      "id": "ccdd463c-2076-4115-9b8a-9e807590b169",
      "geometry": null,
      "properties": {
        "kind": "SENSOR_CONTACT",
        "parent_track": "SENSOR_2",
        "sensor_name": "Plain",
        "bearing": -44.7,
        "time": "2010-01-12T12:20:00+00:00",
        "label": "Cookie SUBJECT held on Plain Cookie"
      }
    },
    {
      "type": "Feature",
      "id": "460b75d7-9ede-4e58-b319-187980b83d4a",
      "geometry": null,
      "properties": {
        "kind": "SENSOR_CONTACT",
        "parent_track": "SENSOR_2",
        "sensor_name": "Plain",
        "bearing": -44.7,
        "time": "2010-01-12T12:30:00+00:00",
        "label": "Cookie SUBJECT held on Plain Cookie"
      }
    },
    {
      "type": "Feature",
      "id": "c0cc99ca-3afc-49e5-bb62-0c21dd0a9f10",
      "geometry": null,
      "properties": {
        "kind": "SENSOR_CONTACT",
        "parent_track": "SENSOR_2",
        "sensor_name": "Plain",
        "bearing": -44.7,
        "time": "2010-01-12T12:40:00+00:00",
        "label": "Cookie SUBJECT held on Plain Cookie"
      }
    },
    {
      "type": "Feature",
      "id": "f4961caa-f2c4-42f1-86a5-30f462aefedd",
      "geometry": null,
      "properties": {
        "kind": "SENSOR_CONTACT",
        "parent_track": "SENSOR_2",
        "sensor_name": "Plain",
        "bearing": -44.7,
        "time": "2010-01-12T12:50:00+00:00",
        "label": "Cookie SUBJECT held on Plain Cookie"
      }
    },
    {
      "type": "Feature",
      "id": "8e7b82bd-3112-4313-aa6e-2e87a245387e",
      "geometry": null,
      "properties": {
        "kind": "SENSOR_CONTACT",
        "parent_track": "SENSOR_2",
        "sensor_name": "Plain",
        "bearing": -44.7,
        "time": "2010-01-12T13:00:00+00:00",
        "label": "Cookie SUBJECT held on Plain Cookie"
      }
    },
    {
      "type": "Feature",
      "id": "8152fe1d-e03f-4dd9-be3a-2d7444bfe175",
      "geometry": {
        "type": "LineString",
        "coordinates": [
          [
            0.2,
            60.3
          ],
          [
            0.2,
            60.3016194
          ],
          [
            0.2,
            60.3032417
          ],
          [
            0.2,
            60.3048611
          ],
          [
            0.2,
            60.3064806
          ],
          [
            0.2,
            60.3081028
          ],
          [
            0.2,
            60.3097222
          ],
          [
            0.2,
            60.3113417
          ],
          [
            0.2,
            60.3129639
          ],
          [
            0.2,
            60.3145833
          ],
          [
            0.2,
            60.3162028
          ],
          [
            0.2,
            60.317825
          ],
          [
            0.2,
            60.3194444
          ],
          [
            0.2,
            60.3210639
          ],
          [
            0.2,
            60.3226861
          ],
          [
            0.2,
            60.3243056
          ],
          [
            0.2,
            60.325925
          ],
          [
            0.2,
            60.3275472
          ],
          [
            0.2,
            60.3291667
          ],
          [
            0.2,
            60.3307861
          ],
          [
            0.2,
            60.3324083
          ],
          [
            0.2,
            60.3340278
          ],
          [
            0.2,
            60.3356472
          ],
          [
            0.2,
            60.3372694
          ],
          [
            0.2,
            60.3388889
          ],
          [
            0.2,
            60.3405083
          ],
          [
            0.2,
            60.3421306
          ],
          [
            0.2,
            60.34375
          ],
          [
            0.2,
            60.3453694
          ],
          [
            0.2,
            60.3469917
          ],
          [
            0.2,
            60.3486111
          ],
          [
            0.2,
            60.3502306
          ],
          [
            0.2,
            60.3518528
          ],
          [
            0.2,
            60.3534722
          ],
          [
            0.2,
            60.3550917
          ],
          [
            0.2,
            60.3567139
          ],
          [
            0.2,
            60.3583333
          ],
          [
            0.2,
            60.3599528
          ],
          [
            0.2,
            60.361575
          ],
          [
            0.2,
            60.3631944
          ],
          [
            0.2,
            60.3648139
          ],
          [
            0.2,
            60.3664361
          ],
          [
            0.2,
            60.3680556
          ],
          [
            0.2,
            60.369675
          ],
          [
            0.2,
            60.3712972
          ],
          [
            0.2,
            60.3729167
          ],
          [
            0.2,
            60.3745361
          ],
          [
            0.2,
            60.3761583
          ],
          [
            0.2,
            60.3777778
          ],
          [
            0.2,
            60.3793972
          ],
          [
            0.2,
            60.3810194
          ],
          [
            0.2,
            60.3826389
          ],
          [
            0.2,
            60.3842583
          ],
          [
            0.2,
            60.3858806
          ],
          [
            0.2,
            60.3875
          ],
          [
            0.2,
            60.3891194
          ],
          [
            0.2,
            60.3907417
          ],
          [
            0.2,
            60.3923611
          ],
          [
            0.2,
            60.3939806
          ],
          [
            0.2,
            60.3956028
          ],
          [
            0.2,
            60.3972222
          ],
          [
            0.2,
            60.3988417
          ],
          [
            0.2,
            60.4004639
          ],
          [
            0.2,
            60.4020833
          ],
          [
            0.2,
            60.4037028
          ],
          [
            0.2,
            60.405325
          ],
          [
            0.2,
            60.4069444
          ],
          [
            0.2,
            60.4085639
          ],
          [
            0.2,
            60.4101861
          ],
          [
            0.2,
            60.4118056
          ],
          [
            0.2,
            60.413425
          ],
          [
            0.2,
            60.4150472
          ],
          [
            0.2,
            60.4166667
          ]
        ]
      },
      "properties": {
        "kind": "TRACK",
        "platform_id": "SUBJECT",
        "platform_name": "SUBJECT",
        "track_type": "CONTACT",
        "times": [
          1263297600000,
          1263297650000,
          1263297700000,
          1263297750000,
          1263297800000,
          1263297850000,
          1263297900000,
          1263297950000,
          1263298000000,
          1263298050000,
          1263298100000,
          1263298150000,
          1263298200000,
          1263298250000,
          1263298300000,
          1263298350000,
          1263298400000,
          1263298450000,
          1263298500000,
          1263298550000,
          1263298600000,
          1263298650000,
          1263298700000,
          1263298750000,
          1263298800000,
          1263298850000,
          1263298900000,
          1263298950000,
          1263299000000,
          1263299050000,
          1263299100000,
          1263299150000,
          1263299200000,
          1263299250000,
          1263299300000,
          1263299350000,
          1263299400000,
          1263299450000,
          1263299500000,
          1263299550000,
          1263299600000,
          1263299650000,
          1263299700000,
          1263299750000,
          1263299800000,
          1263299850000,
          1263299900000,
          1263299950000,
          1263300000000,
          1263300050000,
          1263300100000,
          1263300150000,
          1263300200000,
          1263300250000,
          1263300300000,
          1263300350000,
          1263300400000,
          1263300450000,
          1263300500000,
          1263300550000,
          1263300600000,
          1263300650000,
          1263300700000,
          1263300750000,
          1263300800000,
          1263300850000,
          1263300900000,
          1263300950000,
          1263301000000,
          1263301050000,
          1263301100000,
          1263301150000,
          1263301200000
        ],
        "start_time": "2010-01-12T12:00:00+00:00",
        "end_time": "2010-01-12T13:00:00+00:00",
        "positions": [
          {
            "time": "2010-01-12T12:00:00+00:00",
            "course": 0.0,
            "speed": 7.0,
            "depth": 0.0
          },
          {
            "time": "2010-01-12T12:00:50+00:00",
            "course": 0.0,
            "speed": 7.0,
            "depth": 0.0
          },
          {
            "time": "2010-01-12T12:01:40+00:00",
            "course": 0.0,
            "speed": 7.0,
            "depth": 0.0
          },
          {
            "time": "2010-01-12T12:02:30+00:00",
            "course": 0.0,
            "speed": 7.0,
            "depth": 0.0
          },
          {
            "time": "2010-01-12T12:03:20+00:00",
            "course": 0.0,
            "speed": 7.0,
            "depth": 0.0
          },
          {
            "time": "2010-01-12T12:04:10+00:00",
            "course": 0.0,
            "speed": 7.0,
            "depth": 0.0
          },
          {
            "time": "2010-01-12T12:05:00+00:00",
            "course": 0.0,
            "speed": 7.0,
            "depth": 0.0
          },
          {
            "time": "2010-01-12T12:05:50+00:00",
            "course": 0.0,
            "speed": 7.0,
            "depth": 0.0
          },
          {
            "time": "2010-01-12T12:06:40+00:00",
            "course": 0.0,
            "speed": 7.0,
            "depth": 0.0
          },
          {
            "time": "2010-01-12T12:07:30+00:00",
            "course": 0.0,
            "speed": 7.0,
            "depth": 0.0
          },
          {
            "time": "2010-01-12T12:08:20+00:00",
            "course": 0.0,
            "speed": 7.0,
            "depth": 0.0
          },
          {
            "time": "2010-01-12T12:09:10+00:00",
            "course": 0.0,
            "speed": 7.0,
            "depth": 0.0
          },
          {
            "time": "2010-01-12T12:10:00+00:00",
            "course": 0.0,
            "speed": 7.0,
            "depth": 0.0
          },
          {
            "time": "2010-01-12T12:10:50+00:00",
            "course": 0.0,
            "speed": 7.0,
            "depth": 0.0
          },
          {
            "time": "2010-01-12T12:11:40+00:00",
            "course": 0.0,
            "speed": 7.0,
            "depth": 0.0
          },
          {
            "time": "2010-01-12T12:12:30+00:00",
            "course": 0.0,
            "speed": 7.0,
            "depth": 0.0
          },
          {
            "time": "2010-01-12T12:13:20+00:00",
            "course": 0.0,
            "speed": 7.0,
            "depth": 0.0
          },
          {
            "time": "2010-01-12T12:14:10+00:00",
            "course": 0.0,
            "speed": 7.0,
            "depth": 0.0
          },
          {
            "time": "2010-01-12T12:15:00+00:00",
            "course": 0.0,
            "speed": 7.0,
            "depth": 0.0
          },
          {
            "time": "2010-01-12T12:15:50+00:00",
            "course": 0.0,
            "speed": 7.0,
            "depth": 0.0
          },
          {
            "time": "2010-01-12T12:16:40+00:00",
            "course": 0.0,
            "speed": 7.0,
            "depth": 0.0
          },
          {
            "time": "2010-01-12T12:17:30+00:00",
            "course": 0.0,
            "speed": 7.0,
            "depth": 0.0
          },
          {
            "time": "2010-01-12T12:18:20+00:00",
            "course": 0.0,
            "speed": 7.0,
            "depth": 0.0
          },
          {
            "time": "2010-01-12T12:19:10+00:00",
            "course": 0.0,
            "speed": 7.0,
            "depth": 0.0
          },
          {
            "time": "2010-01-12T12:20:00+00:00",
            "course": 0.0,
            "speed": 7.0,
            "depth": 0.0
          },
          {
            "time": "2010-01-12T12:20:50+00:00",
            "course": 0.0,
            "speed": 7.0,
            "depth": 0.0
          },
          {
            "time": "2010-01-12T12:21:40+00:00",
            "course": 0.0,
            "speed": 7.0,
            "depth": 0.0
          },
          {
            "time": "2010-01-12T12:22:30+00:00",
            "course": 0.0,
            "speed": 7.0,
            "depth": 0.0
          },
          {
            "time": "2010-01-12T12:23:20+00:00",
            "course": 0.0,
            "speed": 7.0,
            "depth": 0.0
          },
          {
            "time": "2010-01-12T12:24:10+00:00",
            "course": 0.0,
            "speed": 7.0,
            "depth": 0.0
          },
          {
            "time": "2010-01-12T12:25:00+00:00",
            "course": 0.0,
            "speed": 7.0,
            "depth": 0.0
          },
          {
            "time": "2010-01-12T12:25:50+00:00",
            "course": 0.0,
            "speed": 7.0,
            "depth": 0.0
          },
          {
            "time": "2010-01-12T12:26:40+00:00",
            "course": 0.0,
            "speed": 7.0,
            "depth": 0.0
          },
          {
            "time": "2010-01-12T12:27:30+00:00",
            "course": 0.0,
            "speed": 7.0,
            "depth": 0.0
          },
          {
            "time": "2010-01-12T12:28:20+00:00",
            "course": 0.0,
            "speed": 7.0,
            "depth": 0.0
          },
          {
            "time": "2010-01-12T12:29:10+00:00",
            "course": 0.0,
            "speed": 7.0,
            "depth": 0.0
          },
          {
            "time": "2010-01-12T12:30:00+00:00",
            "course": 0.0,
            "speed": 7.0,
            "depth": 0.0
          },
          {
            "time": "2010-01-12T12:30:50+00:00",
            "course": 0.0,
            "speed": 7.0,
            "depth": 0.0
          },
          {
            "time": "2010-01-12T12:31:40+00:00",
            "course": 0.0,
            "speed": 7.0,
            "depth": 0.0
          },
          {
            "time": "2010-01-12T12:32:30+00:00",
            "course": 0.0,
            "speed": 7.0,
            "depth": 0.0
          },
          {
            "time": "2010-01-12T12:33:20+00:00",
            "course": 0.0,
            "speed": 7.0,
            "depth": 0.0
          },
          {
            "time": "2010-01-12T12:34:10+00:00",
            "course": 0.0,
            "speed": 7.0,
            "depth": 0.0
          },
          {
            "time": "2010-01-12T12:35:00+00:00",
            "course": 0.0,
            "speed": 7.0,
            "depth": 0.0
          },
          {
            "time": "2010-01-12T12:35:50+00:00",
            "course": 0.0,
            "speed": 7.0,
            "depth": 0.0
          },
          {
            "time": "2010-01-12T12:36:40+00:00",
            "course": 0.0,
            "speed": 7.0,
            "depth": 0.0
          },
          {
            "time": "2010-01-12T12:37:30+00:00",
            "course": 0.0,
            "speed": 7.0,
            "depth": 0.0
          },
          {
            "time": "2010-01-12T12:38:20+00:00",
            "course": 0.0,
            "speed": 7.0,
            "depth": 0.0
          },
          {
            "time": "2010-01-12T12:39:10+00:00",
            "course": 0.0,
            "speed": 7.0,
            "depth": 0.0
          },
          {
            "time": "2010-01-12T12:40:00+00:00",
            "course": 0.0,
            "speed": 7.0,
            "depth": 0.0
          },
          {
            "time": "2010-01-12T12:40:50+00:00",
            "course": 0.0,
            "speed": 7.0,
            "depth": 0.0
          },
          {
            "time": "2010-01-12T12:41:40+00:00",
            "course": 0.0,
            "speed": 7.0,
            "depth": 0.0
          },
          {
            "time": "2010-01-12T12:42:30+00:00",
            "course": 0.0,
            "speed": 7.0,
            "depth": 0.0
          },
          {
            "time": "2010-01-12T12:43:20+00:00",
            "course": 0.0,
            "speed": 7.0,
            "depth": 0.0
          },
          {
            "time": "2010-01-12T12:44:10+00:00",
            "course": 0.0,
            "speed": 7.0,
            "depth": 0.0
          },
          {
            "time": "2010-01-12T12:45:00+00:00",
            "course": 0.0,
            "speed": 7.0,
            "depth": 0.0
          },
          {
            "time": "2010-01-12T12:45:50+00:00",
            "course": 0.0,
            "speed": 7.0,
            "depth": 0.0
          },
          {
            "time": "2010-01-12T12:46:40+00:00",
            "course": 0.0,
            "speed": 7.0,
            "depth": 0.0
          },
          {
            "time": "2010-01-12T12:47:30+00:00",
            "course": 0.0,
            "speed": 7.0,
            "depth": 0.0
          },
          {
            "time": "2010-01-12T12:48:20+00:00",
            "course": 0.0,
            "speed": 7.0,
            "depth": 0.0
          },
          {
            "time": "2010-01-12T12:49:10+00:00",
            "course": 0.0,
            "speed": 7.0,
            "depth": 0.0
          },
          {
            "time": "2010-01-12T12:50:00+00:00",
            "course": 0.0,
            "speed": 7.0,
            "depth": 0.0
          },
          {
            "time": "2010-01-12T12:50:50+00:00",
            "course": 0.0,
            "speed": 7.0,
            "depth": 0.0
          },
          {
            "time": "2010-01-12T12:51:40+00:00",
            "course": 0.0,
            "speed": 7.0,
            "depth": 0.0
          },
          {
            "time": "2010-01-12T12:52:30+00:00",
            "course": 0.0,
            "speed": 7.0,
            "depth": 0.0
          },
          {
            "time": "2010-01-12T12:53:20+00:00",
            "course": 0.0,
            "speed": 7.0,
            "depth": 0.0
          },
          {
            "time": "2010-01-12T12:54:10+00:00",
            "course": 0.0,
            "speed": 7.0,
            "depth": 0.0
          },
          {
            "time": "2010-01-12T12:55:00+00:00",
            "course": 0.0,
            "speed": 7.0,
            "depth": 0.0
          },
          {
            "time": "2010-01-12T12:55:50+00:00",
            "course": 0.0,
            "speed": 7.0,
            "depth": 0.0
          },
          {
            "time": "2010-01-12T12:56:40+00:00",
            "course": 0.0,
            "speed": 7.0,
            "depth": 0.0
          },
          {
            "time": "2010-01-12T12:57:30+00:00",
            "course": 0.0,
            "speed": 7.0,
            "depth": 0.0
          },
          {
            "time": "2010-01-12T12:58:20+00:00",
            "course": 0.0,
            "speed": 7.0,
            "depth": 0.0
          },
          {
            "time": "2010-01-12T12:59:10+00:00",
            "course": 0.0,
            "speed": 7.0,
            "depth": 0.0
          },
          {
            "time": "2010-01-12T13:00:00+00:00",
            "course": 0.0,
            "speed": 7.0,
            "depth": 0.0
          }
        ],
        "default_position_style": {
          "show_symbol": false,
          "symbol": "circle",
          "show_label": false
        },
        "symbol_interval": "PT5M",
        "label_interval": "PT15M"
      }
    }
  ]
}