{
  "type": "FeatureCollection",
  "features": [
    {
      "type": "Feature",
      "id": "3c858b22-5d98-453c-8821-7cb1249aa908",
      "geometry": null,
      "properties": {
        "kind": "SENSOR_CONTACT",
        "parent_track": "SENSOR",
        "time": "2010-01-12T12:00:00+00:00",
        "frequency": 149.589,
        "sensor_name": "NB_FREQ",
        "label": "SUBJECT held on NB_FREQ"
      }
    },
    {
      "type": "Feature",
      "id": "f14c1470-10e4-4a2a-9d29-063c1efa0089",
      "geometry": null,
      "properties": {
        "kind": "SENSOR_CONTACT",
        "parent_track": "SENSOR",
        "time": "2010-01-12T12:00:00+00:00",
        "bearing": -153.5,
        "range": 0.0,
        "sensor_name": "NB_BRG",
        "label": "SUBJECT held on NB_BRG"
      }
    },
    {
      "type": "Feature",
      "id": "8968716a-6ef1-4b2a-9068-47d2c0be5b6d",
      "geometry": null,
      "properties": {
        "kind": "SENSOR_CONTACT",
        "parent_track": "SENSOR",
        "time": "2010-01-12T12:00:50+00:00",
        "frequency": 149.842,
        "sensor_name": "NB_FREQ",
        "label": "SUBJECT held on NB_FREQ"
      }
    },
    {
      "type": "Feature",
      "id": "8db2f332-cf0e-4e25-836a-1cc3e2fa97be",
      "geometry": null,
      "properties": {
        "kind": "SENSOR_CONTACT",
        "parent_track": "SENSOR",
        "time": "2010-01-12T12:00:50+00:00",
        "bearing": -152.6,
        "range": 0.0,
        "sensor_name": "NB_BRG",
        "label": "SUBJECT held on NB_BRG"
      }
    },
    {
      "type": "Feature",
      "id": "dcf9e4f3-2bdf-4177-be14-b405766f775f",
      "geometry": null,
      "properties": {
        "kind": "SENSOR_CONTACT",
        "parent_track": "SENSOR",
        "time": "2010-01-12T12:10:50+00:00",
        "frequency": 150.705,
        "sensor_name": "NB_FREQ",
        "label": "SUBJECT held on NB_FREQ"
      }
    },
    {
      "type": "Feature",
      "id": "0acad97f-0231-4c5a-bbba-8d17d71970f4",
      "geometry": null,
      "properties": {
        "kind": "SENSOR_CONTACT",
        "parent_track": "SENSOR",
        "time": "2010-01-12T12:10:50+00:00",
        "bearing": -143.6,
        "range": 0.0,
        "sensor_name": "NB_BRG",
        "label": "SUBJECT held on NB_BRG"
      }
    },
    {
      "type": "Feature",
      "id": "c2970a2c-f4cc-417f-a24f-862567a329a2",
      "geometry": null,
      "properties": {
        "kind": "SENSOR_CONTACT",
        "parent_track": "SENSOR",
        "time": "2010-01-12T12:11:40+00:00",
        "frequency": 150.697,
        "sensor_name": "NB_FREQ",
        "label": "SUBJECT held on NB_FREQ"
      }
    },
    {
      "type": "Feature",
      "id": "b5134dbe-c168-4d21-aaea-5d37502a9909",
      "geometry": null,
      "properties": {
        "kind": "SENSOR_CONTACT",
        "parent_track": "SENSOR",
        "time": "2010-01-12T12:11:40+00:00",
        "bearing": -142.8,
        "range": 0.0,
        "sensor_name": "NB_BRG",
        "label": "SUBJECT held on NB_BRG"
      }
    },
    {
      "type": "Feature",
      "id": "0adcd688-ecdf-4b10-9980-86e7c4a6cb90",
      "geometry": null,
      "properties": {
        "kind": "SENSOR_CONTACT",
        "parent_track": "SENSOR",
        "time": "2010-01-12T12:12:30+00:00",
        "frequency": 150.689,
        "sensor_name": "NB_FREQ",
        "label": "SUBJECT held on NB_FREQ"
      }
    },
    {
      "type": "Feature",
      "id": "54685d77-3feb-41e2-810b-a54b0a23fd09",
      "geometry": null,
      "properties": {
        "kind": "SENSOR_CONTACT",
        "parent_track": "SENSOR",
        "time": "2010-01-12T12:12:30+00:00",
        "bearing": -141.9,
        "range": 0.0,
        "sensor_name": "NB_BRG",
        "label": "SUBJECT held on NB_BRG"
      }
    },
    {
      "type": "Feature",
      "id": "87de7e37-3b22-4932-b6a3-bd909e5a283b",
      "geometry": null,
      "properties": {
        "kind": "SENSOR_CONTACT",
        "parent_track": "SENSOR",
        "time": "2010-01-12T12:13:20+00:00",
        "frequency": 150.68,
        "sensor_name": "NB_FREQ",
        "label": "SUBJECT held on NB_FREQ"
      }
    },
    {
      "type": "Feature",
      "id": "1cacff86-3197-4dfb-bbf1-5d01b673856f",
      "geometry": null,
      "properties": {
        "kind": "SENSOR_CONTACT",
        "parent_track": "SENSOR",
        "time": "2010-01-12T12:13:20+00:00",
        "bearing": -141.1,
        "range": 0.0,
        "sensor_name": "NB_BRG",
        "label": "SUBJECT held on NB_BRG"
      }
    },
    {
      "type": "Feature",
      "id": "8c82c1aa-d81d-4ec5-8470-897687a0eb74",
      "geometry": null,
      "properties": {
        "kind": "SENSOR_CONTACT",
        "parent_track": "SENSOR",
        "time": "2010-01-12T12:14:10+00:00",
        "frequency": 150.671,
        "sensor_name": "NB_FREQ",
        "label": "SUBJECT held on NB_FREQ"
      }
    },
    {
      "type": "Feature",
      "id": "cac4ad5e-0447-4d07-9eb2-53dd07f9cd39",
      "geometry": null,
      "properties": {
        "kind": "SENSOR_CONTACT",
        "parent_track": "SENSOR",
        "time": "2010-01-12T12:14:10+00:00",
        "bearing": -140.2,
        "range": 0.0,
        "sensor_name": "NB_BRG",
        "label": "SUBJECT held on NB_BRG"
      }
    },
    {
      "type": "Feature",
      "id": "2e4c532f-caf5-4538-9b67-be1cfc561b6b",
      "geometry": null,
      "properties": {
        "kind": "SENSOR_CONTACT",
        "parent_track": "SENSOR",
        "time": "2010-01-12T12:15:00+00:00",
        "frequency": 150.661,
        "sensor_name": "NB_FREQ",
        "label": "SUBJECT held on NB_FREQ"
      }
    },
    {
      "type": "Feature",
      "id": "87cea1a7-ee23-40e5-a82d-a6a175a48517",
      "geometry": null,
      "properties": {
        "kind": "SENSOR_CONTACT",
        "parent_track": "SENSOR",
        "time": "2010-01-12T12:15:00+00:00",
        "bearing": -139.3,
        "range": 0.0,
        "sensor_name": "NB_BRG",
        "label": "SUBJECT held on NB_BRG"
      }
    },
    {
      "type": "Feature",
      "id": "22c8314d-0403-4756-9045-97750b9ec144",
      "geometry": null,
      "properties": {
        "kind": "SENSOR_CONTACT",
        "parent_track": "SENSOR",
        "time": "2010-01-12T12:15:50+00:00",
        "frequency": 150.651,
        "sensor_name": "NB_FREQ",
        "label": "SUBJECT held on NB_FREQ"
      }
    },
    {
      "type": "Feature",
      "id": "59a7c84e-b3d6-467a-bd70-b178b5ab816d",
      "geometry": null,
      "properties": {
        "kind": "SENSOR_CONTACT",
        "parent_track": "SENSOR",
        "time": "2010-01-12T12:15:50+00:00",
        "bearing": -138.4,
        "range": 0.0,
        "sensor_name": "NB_BRG",
        "label": "SUBJECT held on NB_BRG"
      }
    },
    {
      "type": "Feature",
      "id": "0bb8f19e-4aac-4d71-ac27-3412099d5084",
      "geometry": null,
      "properties": {
        "kind": "SENSOR_CONTACT",
        "parent_track": "SENSOR",
        "time": "2010-01-12T12:16:40+00:00",
        "frequency": 150.64,
        "sensor_name": "NB_FREQ",
        "label": "SUBJECT held on NB_FREQ"
      }
    },
    {
      "type": "Feature",
      "id": "b6296433-73ce-45b8-91aa-c4a061b666c2",
      "geometry": null,
      "properties": {
        "kind": "SENSOR_CONTACT",
        "parent_track": "SENSOR",
        "time": "2010-01-12T12:16:40+00:00",
        "bearing": -137.4,
        "range": 0.0,
        "sensor_name": "NB_BRG",
        "label": "SUBJECT held on NB_BRG"
      }
    },
    {
      "type": "Feature",
      "id": "7b7c2234-4fc6-4019-bfb3-684737e7ce7e",
      "geometry": null,
      "properties": {
        "kind": "SENSOR_CONTACT",
        "parent_track": "SENSOR",
        "time": "2010-01-12T12:17:30+00:00",
        "frequency": 150.628,
        "sensor_name": "NB_FREQ",
        "label": "SUBJECT held on NB_FREQ"
      }
    },
    {
      "type": "Feature",
      "id": "9d81ebee-1067-4c45-9e1f-9a18dcba4649",
      "geometry": null,
      "properties": {
        "kind": "SENSOR_CONTACT",
        "parent_track": "SENSOR",
        "time": "2010-01-12T12:17:30+00:00",
        "bearing": -136.4,
        "range": 0.0,
        "sensor_name": "NB_BRG",
        "label": "SUBJECT held on NB_BRG"
      }
    },
    {
      "type": "Feature",
      "id": "543af760-2156-4267-b3cb-a79121a9dd93",
      "geometry": null,
      "properties": {
        "kind": "SENSOR_CONTACT",
        "parent_track": "SENSOR",
        "time": "2010-01-12T12:18:20+00:00",
        "frequency": 150.616,
        "sensor_name": "NB_FREQ",
        "label": "SUBJECT held on NB_FREQ"
      }
    },
    {
      "type": "Feature",
      "id": "c9faa279-87af-4a18-99bc-2225ffd4f129",
      "geometry": null,
      "properties": {
        "kind": "SENSOR_CONTACT",
        "parent_track": "SENSOR",
        "time": "2010-01-12T12:18:20+00:00",
        "bearing": -135.3,
        "range": 0.0,
        "sensor_name": "NB_BRG",
        "label": "SUBJECT held on NB_BRG"
      }
    },
    {
      "type": "Feature",
      "id": "84494cf1-8bae-4953-abbf-985a584a2770",
      "geometry": null,
      "properties": {
        "kind": "SENSOR_CONTACT",
        "parent_track": "SENSOR",
        "time": "2010-01-12T12:19:10+00:00",
        "frequency": 150.604,
        "sensor_name": "NB_FREQ",
        "label": "SUBJECT held on NB_FREQ"
      }
    },
    {
      "type": "Feature",
      "id": "d3f2e246-836c-443f-8822-4c20aac9bc25",
      "geometry": null,
      "properties": {
        "kind": "SENSOR_CONTACT",
        "parent_track": "SENSOR",
        "time": "2010-01-12T12:19:10+00:00",
        "bearing": -134.2,
        "range": 0.0,
        "sensor_name": "NB_BRG",
        "label": "SUBJECT held on NB_BRG"
      }
    },
    {
      "type": "Feature",
      "id": "ed016e6b-35fc-42c7-a054-68275301d9b9",
      "geometry": null,
      "properties": {
        "kind": "SENSOR_CONTACT",
        "parent_track": "SENSOR",
        "time": "2010-01-12T12:20:00+00:00",
        "frequency": 150.59,
        "sensor_name": "NB_FREQ",
        "label": "SUBJECT held on NB_FREQ"
      }
    },
    {
      "type": "Feature",
      "id": "37dca225-dff7-4778-b3aa-53b8b0c68bc0",
      "geometry": null,
      "properties": {
        "kind": "SENSOR_CONTACT",
        "parent_track": "SENSOR",
        "time": "2010-01-12T12:20:00+00:00",
        "bearing": -133.1,
        "range": 0.0,
        "sensor_name": "NB_BRG",
        "label": "SUBJECT held on NB_BRG"
      }
    },
    {
      "type": "Feature",
      "id": "d128738f-685e-417a-b78d-9364d804c206",
      "geometry": null,
      "properties": {
        "kind": "SENSOR_CONTACT",
        "parent_track": "SENSOR",
        "time": "2010-01-12T12:20:50+00:00",
        "frequency": 150.576,
        "sensor_name": "NB_FREQ",
        "label": "SUBJECT held on NB_FREQ"
      }
    },
    {
      "type": "Feature",
      "id": "f87fae17-70dc-4edf-b44e-848e356fc266",
      "geometry": null,
      "properties": {
        "kind": "SENSOR_CONTACT",
        "parent_track": "SENSOR",
        "time": "2010-01-12T12:20:50+00:00",
        "bearing": -131.9,
        "range": 0.0,
        "sensor_name": "NB_BRG",
        "label": "SUBJECT held on NB_BRG"
      }
    },
    {
      "type": "Feature",
      "id": "38faf866-a9eb-4c6f-9630-2cf11e8a07ce",
      "geometry": null,
      "properties": {
        "kind": "SENSOR_CONTACT",
        "parent_track": "SENSOR",
        "time": "2010-01-12T12:21:40+00:00",
        "frequency": 150.561,
        "sensor_name": "NB_FREQ",
        "label": "SUBJECT held on NB_FREQ"
      }
    },
    {
      "type": "Feature",
      "id": "a3d4dae9-c087-4d7e-8f89-b12828beb4e0",
      "geometry": null,
      "properties": {
        "kind": "SENSOR_CONTACT",
        "parent_track": "SENSOR",
        "time": "2010-01-12T12:21:40+00:00",
        "bearing": -130.7,
        "range": 0.0,
        "sensor_name": "NB_BRG",
        "label": "SUBJECT held on NB_BRG"
      }
    },
    {
      "type": "Feature",
      "id": "13eec49a-9e9f-4a58-acd7-ebf7660586ba",
      "geometry": null,
      "properties": {
        "kind": "SENSOR_CONTACT",
        "parent_track": "SENSOR",
        "time": "2010-01-12T12:22:30+00:00",
        "frequency": 150.546,
        "sensor_name": "NB_FREQ",
        "label": "SUBJECT held on NB_FREQ"
      }
    },
    {
      "type": "Feature",
      "id": "7350a741-f2f8-4871-8676-b9e9e3b1a7f9",
      "geometry": null,
      "properties": {
        "kind": "SENSOR_CONTACT",
        "parent_track": "SENSOR",
        "time": "2010-01-12T12:22:30+00:00",
        "bearing": -129.5,
        "range": 0.0,
        "sensor_name": "NB_BRG",
        "label": "SUBJECT held on NB_BRG"
      }
    },
    {
      "type": "Feature",
      "id": "369a43a3-b613-4977-94c3-8e51207b30c7",
      "geometry": null,
      "properties": {
        "kind": "SENSOR_CONTACT",
        "parent_track": "SENSOR",
        "time": "2010-01-12T12:23:20+00:00",
        "frequency": 150.529,
        "sensor_name": "NB_FREQ",
        "label": "SUBJECT held on NB_FREQ"
      }
    },
    {
      "type": "Feature",
      "id": "8c7cf234-0107-44f8-80e4-2360efd6b5e3",
      "geometry": null,
      "properties": {
        "kind": "SENSOR_CONTACT",
        "parent_track": "SENSOR",
        "time": "2010-01-12T12:23:20+00:00",
        "bearing": -128.2,
        "range": 0.0,
        "sensor_name": "NB_BRG",
        "label": "SUBJECT held on NB_BRG"
      }
    },
    {
      "type": "Feature",
      "id": "293f03cb-d5e0-4d12-9746-ffaa3fcb9869",
      "geometry": null,
      "properties": {
        "kind": "SENSOR_CONTACT",
        "parent_track": "SENSOR",
        "time": "2010-01-12T12:24:10+00:00",
        "frequency": 150.512,
        "sensor_name": "NB_FREQ",
        "label": "SUBJECT held on NB_FREQ"
      }
    },
    {
      "type": "Feature",
      "id": "e5d22afe-2976-4b0d-9d89-1f9745ffbf8c",
      "geometry": null,
      "properties": {
        "kind": "SENSOR_CONTACT",
        "parent_track": "SENSOR",
        "time": "2010-01-12T12:24:10+00:00",
        "bearing": -126.9,
        "range": 0.0,
        "sensor_name": "NB_BRG",
        "label": "SUBJECT held on NB_BRG"
      }
    },
    {
      "type": "Feature",
      "id": "54c59cdf-f629-4661-8ea9-a011b5d4d9b1",
      "geometry": null,
      "properties": {
        "kind": "SENSOR_CONTACT",
        "parent_track": "SENSOR",
        "time": "2010-01-12T12:25:00+00:00",
        "frequency": 150.494,
        "sensor_name": "NB_FREQ",
        "label": "SUBJECT held on NB_FREQ"
      }
    },
    {
      "type": "Feature",
      "id": "88093e98-05f2-4f6a-a3d7-8548a82931fb",
      "geometry": null,
      "properties": {
        "kind": "SENSOR_CONTACT",
        "parent_track": "SENSOR",
        "time": "2010-01-12T12:25:00+00:00",
        "bearing": -125.5,
        "range": 0.0,
        "sensor_name": "NB_BRG",
        "label": "SUBJECT held on NB_BRG"
      }
    },
    {
      "type": "Feature",
      "id": "46f32d91-e028-45a1-bbf2-9d76a0c676be",
      "geometry": null,
      "properties": {
        "kind": "SENSOR_CONTACT",
        "parent_track": "SENSOR",
        "time": "2010-01-12T12:25:50+00:00",
        "frequency": 150.475,
        "sensor_name": "NB_FREQ",
        "label": "SUBJECT held on NB_FREQ"
      }
    },
    {
      "type": "Feature",
      "id": "845e8eee-21ec-47c0-a4ed-a8697b2471e9",
      "geometry": null,
      "properties": {
        "kind": "SENSOR_CONTACT",
        "parent_track": "SENSOR",
        "time": "2010-01-12T12:25:50+00:00",
        "bearing": -124.1,
        "range": 0.0,
        "sensor_name": "NB_BRG",
        "label": "SUBJECT held on NB_BRG"
      }
    },
    {
      "type": "Feature",
      "id": "434aea99-4218-4674-82b4-f242113d2c42",
      "geometry": null,
      "properties": {
        "kind": "SENSOR_CONTACT",
        "parent_track": "SENSOR",
        "time": "2010-01-12T12:26:40+00:00",
        "frequency": 150.455,
        "sensor_name": "NB_FREQ",
        "label": "SUBJECT held on NB_FREQ"
      }
    },
    {
      "type": "Feature",
      "id": "2c4ef3a1-77c6-4d3d-8854-43fe82331c2d",
      "geometry": null,
      "properties": {
        "kind": "SENSOR_CONTACT",
        "parent_track": "SENSOR",
        "time": "2010-01-12T12:26:40+00:00",
        "bearing": -122.6,
        "range": 0.0,
        "sensor_name": "NB_BRG",
        "label": "SUBJECT held on NB_BRG"
      }
    },
    {
      "type": "Feature",
      "id": "df91081f-8f29-4c75-8129-0ee51ea7217e",
      "geometry": null,
      "properties": {
        "kind": "SENSOR_CONTACT",
        "parent_track": "SENSOR",
        "time": "2010-01-12T12:27:30+00:00",
        "frequency": 150.532,
        "sensor_name": "NB_FREQ",
        "label": "SUBJECT held on NB_FREQ"
      }
    },
    {
      "type": "Feature",
      "id": "72feb9ad-d695-4c7f-911d-fbc575c661de",
      "geometry": null,
      "properties": {
        "kind": "SENSOR_CONTACT",
        "parent_track": "SENSOR",
        "time": "2010-01-12T12:27:30+00:00",
        "bearing": -121.5,
        "range": 0.0,
        "sensor_name": "NB_BRG",
        "label": "SUBJECT held on NB_BRG"
      }
    },
    {
      "type": "Feature",
      "id": "0d62414c-866c-4bd9-a746-3511f68b38f8",
      "geometry": null,
      "properties": {
        "kind": "SENSOR_CONTACT",
        "parent_track": "SENSOR",
        "time": "2010-01-12T12:37:30+00:00",
        "frequency": 150.326,
        "sensor_name": "NB_FREQ",
        "label": "SUBJECT held on NB_FREQ"
      }
    },
    {
      "type": "Feature",
      "id": "6a7fd4b9-0cd7-4ebd-ac41-4ebdd3ec04a2",
      "geometry": null,
      "properties": {
        "kind": "SENSOR_CONTACT",
        "parent_track": "SENSOR",
        "time": "2010-01-12T12:37:30+00:00",
        "bearing": -124.3,
        "range": 0.0,
        "sensor_name": "NB_BRG",
        "label": "SUBJECT held on NB_BRG"
      }
    },
    {
      "type": "Feature",
      "id": "1cfef54d-f0c8-4d30-80dd-57e800fa1361",
      "geometry": null,
      "properties": {
        "kind": "SENSOR_CONTACT",
        "parent_track": "SENSOR",
        "time": "2010-01-12T12:38:20+00:00",
        "frequency": 150.326,
        "sensor_name": "NB_FREQ",
        "label": "SUBJECT held on NB_FREQ"
      }
    },
    {
      "type": "Feature",
      "id": "ed66e90a-0e95-4a25-99f6-277ad6f293f5",
      "geometry": null,
      "properties": {
        "kind": "SENSOR_CONTACT",
        "parent_track": "SENSOR",
        "time": "2010-01-12T12:38:20+00:00",
        "bearing": -124.7,
        "range": 0.0,
        "sensor_name": "NB_BRG",
        "label": "SUBJECT held on NB_BRG"
      }
    },
    {
      "type": "Feature",
      "id": "d9cd27cd-05b7-433f-a368-b9bd13eb4c95",
      "geometry": null,
      "properties": {
        "kind": "SENSOR_CONTACT",
        "parent_track": "SENSOR",
        "time": "2010-01-12T12:39:10+00:00",
        "frequency": 150.325,
        "sensor_name": "NB_FREQ",
        "label": "SUBJECT held on NB_FREQ"
      }
    },
    {
      "type": "Feature",
      "id": "26d0c0eb-5eb1-43cd-8c39-e335b7107f08",
      "geometry": null,
      "properties": {
        "kind": "SENSOR_CONTACT",
        "parent_track": "SENSOR",
        "time": "2010-01-12T12:39:10+00:00",
        "bearing": -125.0,
        "range": 0.0,
        "sensor_name": "NB_BRG",
        "label": "SUBJECT held on NB_BRG"
      }
    },
    {
      "type": "Feature",
      "id": "bb98fbeb-219b-4597-9662-9ed2ab95f20d",
      "geometry": null,
      "properties": {
        "kind": "SENSOR_CONTACT",
        "parent_track": "SENSOR",
        "time": "2010-01-12T12:40:00+00:00",
        "frequency": 150.324,
        "sensor_name": "NB_FREQ",
        "label": "SUBJECT held on NB_FREQ"
      }
    },
    {
      "type": "Feature",
      "id": "d551a2da-56c1-43f1-9437-48c519883999",
      "geometry": null,
      "properties": {
        "kind": "SENSOR_CONTACT",
        "parent_track": "SENSOR",
        "time": "2010-01-12T12:40:00+00:00",
        "bearing": -125.4,
        "range": 0.0,
        "sensor_name": "NB_BRG",
        "label": "SUBJECT held on NB_BRG"
      }
    },
    {
      "type": "Feature",
      "id": "e282ceff-5a7c-4a2c-bc86-2fb7d58bfd62",
      "geometry": null,
      "properties": {
        "kind": "SENSOR_CONTACT",
        "parent_track": "SENSOR",
        "time": "2010-01-12T12:40:50+00:00",
        "frequency": 150.322,
        "sensor_name": "NB_FREQ",
        "label": "SUBJECT held on NB_FREQ"
      }
    },
    {
      "type": "Feature",
      "id": "25cdc341-20b5-4c22-820f-de39aa9cda89",
      "geometry": null,
      "properties": {
        "kind": "SENSOR_CONTACT",
        "parent_track": "SENSOR",
        "time": "2010-01-12T12:40:50+00:00",
        "bearing": -125.8,
        "range": 0.0,
        "sensor_name": "NB_BRG",
        "label": "SUBJECT held on NB_BRG"
      }
    },
    {
      "type": "Feature",
      "id": "eaa97a7e-9fe0-4595-ad12-af2b6c771d00",
      "geometry": null,
      "properties": {
        "kind": "SENSOR_CONTACT",
        "parent_track": "SENSOR",
        "time": "2010-01-12T12:41:40+00:00",
        "frequency": 150.321,
        "sensor_name": "NB_FREQ",
        "label": "SUBJECT held on NB_FREQ"
      }
    },
    {
      "type": "Feature",
      "id": "0bdc88bf-9cac-49eb-b864-63a2387b0fdc",
      "geometry": null,
      "properties": {
        "kind": "SENSOR_CONTACT",
        "parent_track": "SENSOR",
        "time": "2010-01-12T12:41:40+00:00",
        "bearing": -126.2,
        "range": 0.0,
        "sensor_name": "NB_BRG",
        "label": "SUBJECT held on NB_BRG"
      }
    },
    {
      "type": "Feature",
      "id": "8a5ad3fb-7965-488d-8a5e-4c16496b5674",
      "geometry": null,
      "properties": {
        "kind": "SENSOR_CONTACT",
        "parent_track": "SENSOR",
        "time": "2010-01-12T12:42:30+00:00",
        "frequency": 150.32,
        "sensor_name": "NB_FREQ",
        "label": "SUBJECT held on NB_FREQ"
      }
    },
    {
      "type": "Feature",
      "id": "75d887a4-7134-443c-9ac9-cf054ea3e0a5",
      "geometry": null,
      "properties": {
        "kind": "SENSOR_CONTACT",
        "parent_track": "SENSOR",
        "time": "2010-01-12T12:42:30+00:00",
        "bearing": -126.7,
        "range": 0.0,
        "sensor_name": "NB_BRG",
        "label": "SUBJECT held on NB_BRG"
      }
    },
    {
      "type": "Feature",
      "id": "6f1d621f-f861-4a45-ab42-13341e3b4b76",
      "geometry": null,
      "properties": {
        "kind": "SENSOR_CONTACT",
        "parent_track": "SENSOR",
        "time": "2010-01-12T12:43:20+00:00",
        "frequency": 150.318,
        "sensor_name": "NB_FREQ",
        "label": "SUBJECT held on NB_FREQ"
      }
    },
    {
      "type": "Feature",
      "id": "9adde915-c1eb-4a44-9d22-1668cef3cd7f",
      "geometry": null,
      "properties": {
        "kind": "SENSOR_CONTACT",
        "parent_track": "SENSOR",
        "time": "2010-01-12T12:43:20+00:00",
        "bearing": -127.1,
        "range": 0.0,
        "sensor_name": "NB_BRG",
        "label": "SUBJECT held on NB_BRG"
      }
    },
    {
      "type": "Feature",
      "id": "22712f0a-d094-4a59-b6b3-887ce6624075",
      "geometry": null,
      "properties": {
        "kind": "SENSOR_CONTACT",
        "parent_track": "SENSOR",
        "time": "2010-01-12T12:44:10+00:00",
        "frequency": 150.317,
        "sensor_name": "NB_FREQ",
        "label": "SUBJECT held on NB_FREQ"
      }
    },
    {
      "type": "Feature",
      "id": "1c90cade-92aa-431e-b782-18daebdffb7c",
      "geometry": null,
      "properties": {
        "kind": "SENSOR_CONTACT",
        "parent_track": "SENSOR",
        "time": "2010-01-12T12:44:10+00:00",
        "bearing": -127.5,
        "range": 0.0,
        "sensor_name": "NB_BRG",
        "label": "SUBJECT held on NB_BRG"
      }
    },
    {
      "type": "Feature",
      "id": "a4c506e7-a2fd-4a4f-a2de-4de5a4915d20",
      "geometry": null,
      "properties": {
        "kind": "SENSOR_CONTACT",
        "parent_track": "SENSOR",
        "time": "2010-01-12T12:45:00+00:00",
        "frequency": 150.315,
        "sensor_name": "NB_FREQ",
        "label": "SUBJECT held on NB_FREQ"
      }
    },
    {
      "type": "Feature",
      "id": "791e5a1d-1975-4782-9cee-40c7fbe87eb8",
      "geometry": null,
      "properties": {
        "kind": "SENSOR_CONTACT",
        "parent_track": "SENSOR",
        "time": "2010-01-12T12:45:00+00:00",
        "bearing": -128.0,
        "range": 0.0,
        "sensor_name": "NB_BRG",
        "label": "SUBJECT held on NB_BRG"
      }
    },
    {
      "type": "Feature",
      "id": "af15fe64-a036-40d9-945b-f9963502d440",
      "geometry": null,
      "properties": {
        "kind": "SENSOR_CONTACT",
        "parent_track": "SENSOR",
        "time": "2010-01-12T12:45:50+00:00",
        "frequency": 150.313,
        "sensor_name": "NB_FREQ",
        "label": "SUBJECT held on NB_FREQ"
      }
    },
    {
      "type": "Feature",
      "id": "56c8bfd6-7d85-4cac-8b8b-67e77d3d0d5d",
      "geometry": null,
      "properties": {
        "kind": "SENSOR_CONTACT",
        "parent_track": "SENSOR",
        "time": "2010-01-12T12:45:50+00:00",
        "bearing": -128.5,
        "range": 0.0,
        "sensor_name": "NB_BRG",
        "label": "SUBJECT held on NB_BRG"
      }
    },
    {
      "type": "Feature",
      "id": "2431b627-2877-474b-8093-901a17b2da4e",
      "geometry": null,
      "properties": {
        "kind": "SENSOR_CONTACT",
        "parent_track": "SENSOR",
        "time": "2010-01-12T12:46:40+00:00",
        "frequency": 150.312,
        "sensor_name": "NB_FREQ",
        "label": "SUBJECT held on NB_FREQ"
      }
    },
    {
      "type": "Feature",
      "id": "4485b464-ae71-438e-8d98-03826c1b1058",
      "geometry": null,
      "properties": {
        "kind": "SENSOR_CONTACT",
        "parent_track": "SENSOR",
        "time": "2010-01-12T12:46:40+00:00",
        "bearing": -128.9,
        "range": 0.0,
        "sensor_name": "NB_BRG",
        "label": "SUBJECT held on NB_BRG"
      }
    },
    {
      "type": "Feature",
      "id": "63f0c7bf-504b-46e7-aab8-93ff018cd9e7",
      "geometry": null,
      "properties": {
        "kind": "SENSOR_CONTACT",
        "parent_track": "SENSOR",
        "time": "2010-01-12T12:47:30+00:00",
        "frequency": 150.31,
        "sensor_name": "NB_FREQ",
        "label": "SUBJECT held on NB_FREQ"
      }
    },
    {
      "type": "Feature",
      "id": "8208946d-1688-4cac-a896-7fbd9ecba1e2",
      "geometry": null,
      "properties": {
        "kind": "SENSOR_CONTACT",
        "parent_track": "SENSOR",
        "time": "2010-01-12T12:47:30+00:00",
        "bearing": -129.4,
        "range": 0.0,
        "sensor_name": "NB_BRG",
        "label": "SUBJECT held on NB_BRG"
      }
    },
    {
      "type": "Feature",
      "id": "7cb095d6-587a-49c7-8775-fbc0e2c39397",
      "geometry": null,
      "properties": {
        "kind": "SENSOR_CONTACT",
        "parent_track": "SENSOR",
        "time": "2010-01-12T12:48:20+00:00",
        "frequency": 150.308,
        "sensor_name": "NB_FREQ",
        "label": "SUBJECT held on NB_FREQ"
      }
    },
    {
      "type": "Feature",
      "id": "e1086840-d611-477d-95ea-48ac5293affb",
      "geometry": null,
      "properties": {
        "kind": "SENSOR_CONTACT",
        "parent_track": "SENSOR",
        "time": "2010-01-12T12:48:20+00:00",
        "bearing": -129.9,
        "range": 0.0,
        "sensor_name": "NB_BRG",
        "label": "SUBJECT held on NB_BRG"
      }
    },
    {
      "type": "Feature",
      "id": "92a6f301-1e66-4ee4-8830-ddc42995dd5c",
      "geometry": null,
      "properties": {
        "kind": "SENSOR_CONTACT",
        "parent_track": "SENSOR",
        "time": "2010-01-12T12:49:10+00:00",
        "frequency": 150.306,
        "sensor_name": "NB_FREQ",
        "label": "SUBJECT held on NB_FREQ"
      }
    },
    {
      "type": "Feature",
      "id": "8885e167-23ce-4c82-84e3-3736aef848b1",
      "geometry": null,
      "properties": {
        "kind": "SENSOR_CONTACT",
        "parent_track": "SENSOR",
        "time": "2010-01-12T12:49:10+00:00",
        "bearing": -130.4,
        "range": 0.0,
        "sensor_name": "NB_BRG",
        "label": "SUBJECT held on NB_BRG"
      }
    },
    {
      "type": "Feature",
      "id": "4178c091-cd90-4b88-a0c0-1e0c1daa268c",
      "geometry": null,
      "properties": {
        "kind": "SENSOR_CONTACT",
        "parent_track": "SENSOR",
        "time": "2010-01-12T12:50:00+00:00",
        "frequency": 150.304,
        "sensor_name": "NB_FREQ",
        "label": "SUBJECT held on NB_FREQ"
      }
    },
    {
      "type": "Feature",
      "id": "ee0eec5f-e842-45c4-8132-5a945aa563f4",
      "geometry": null,
      "properties": {
        "kind": "SENSOR_CONTACT",
        "parent_track": "SENSOR",
        "time": "2010-01-12T12:50:00+00:00",
        "bearing": -131.0,
        "range": 0.0,
        "sensor_name": "NB_BRG",
        "label": "SUBJECT held on NB_BRG"
      }
    },
    {
      "type": "Feature",
      "id": "712df5c1-4100-4b1f-808f-a0c49eef3edf",
      "geometry": null,
      "properties": {
        "kind": "SENSOR_CONTACT",
        "parent_track": "SENSOR",
        "time": "2010-01-12T12:50:50+00:00",
        "frequency": 150.302,
        "sensor_name": "NB_FREQ",
        "label": "SUBJECT held on NB_FREQ"
      }
    },
    {
      "type": "Feature",
      "id": "119a793d-6f6c-4e9d-9b09-f841fd244f57",
      "geometry": null,
      "properties": {
        "kind": "SENSOR_CONTACT",
        "parent_track": "SENSOR",
        "time": "2010-01-12T12:50:50+00:00",
        "bearing": -131.5,
        "range": 0.0,
        "sensor_name": "NB_BRG",
        "label": "SUBJECT held on NB_BRG"
      }
    },
    {
      "type": "Feature",
      "id": "d0b0f42d-8871-43bd-8cac-2ad8a7ed49e3",
      "geometry": null,
      "properties": {
        "kind": "SENSOR_CONTACT",
        "parent_track": "SENSOR",
        "time": "2010-01-12T12:51:40+00:00",
        "frequency": 150.3,
        "sensor_name": "NB_FREQ",
        "label": "SUBJECT held on NB_FREQ"
      }
    },
    {
      "type": "Feature",
      "id": "96d686a3-54cd-4e36-a3d2-7b08d3b9ad80",
      "geometry": null,
      "properties": {
        "kind": "SENSOR_CONTACT",
        "parent_track": "SENSOR",
        "time": "2010-01-12T12:51:40+00:00",
        "bearing": -132.1,
        "range": 0.0,
        "sensor_name": "NB_BRG",
        "label": "SUBJECT held on NB_BRG"
      }
    },
    {
      "type": "Feature",
      "id": "d666bafe-7568-4c56-905e-4dfb4b8096ba",
      "geometry": null,
      "properties": {
        "kind": "SENSOR_CONTACT",
        "parent_track": "SENSOR",
        "time": "2010-01-12T12:52:30+00:00",
        "frequency": 150.298,
        "sensor_name": "NB_FREQ",
        "label": "SUBJECT held on NB_FREQ"
      }
    },
    {
      "type": "Feature",
      "id": "62fc7fc6-d86c-4c2b-9616-7d20e2ecb430",
      "geometry": null,
      "properties": {
        "kind": "SENSOR_CONTACT",
        "parent_track": "SENSOR",
        "time": "2010-01-12T12:52:30+00:00",
        "bearing": -132.6,
        "range": 0.0,
        "sensor_name": "NB_BRG",
        "label": "SUBJECT held on NB_BRG"
      }
    },
    {
      "type": "Feature",
      "id": "5376eb55-11a8-40e8-b16b-5cb3fa1e16bf",
      "geometry": null,
      "properties": {
        "kind": "SENSOR_CONTACT",
        "parent_track": "SENSOR",
        "time": "2010-01-12T12:53:20+00:00",
        "frequency": 150.296,
        "sensor_name": "NB_FREQ",
        "label": "SUBJECT held on NB_FREQ"
      }
    },
    {
      "type": "Feature",
      "id": "86c26e01-8181-400c-bebb-2b0ad4f9cdfe",
      "geometry": null,
      "properties": {
        "kind": "SENSOR_CONTACT",
        "parent_track": "SENSOR",
        "time": "2010-01-12T12:53:20+00:00",
        "bearing": -133.2,
        "range": 0.0,
        "sensor_name": "NB_BRG",
        "label": "SUBJECT held on NB_BRG"
      }
    },
    {
      "type": "Feature",
      "id": "1a570dd7-7ded-4923-a0d7-d59589904f42",
      "geometry": null,
      "properties": {
        "kind": "SENSOR_CONTACT",
        "parent_track": "SENSOR",
        "time": "2010-01-12T12:54:10+00:00",
        "frequency": 150.293,
        "sensor_name": "NB_FREQ",
        "label": "SUBJECT held on NB_FREQ"
      }
    },
    {
      "type": "Feature",
      "id": "aa62b034-0380-4b0c-88d9-4bcf92fb6d6e",
      "geometry": null,
      "properties": {
        "kind": "SENSOR_CONTACT",
        "parent_track": "SENSOR",
        "time": "2010-01-12T12:54:10+00:00",
        "bearing": -133.8,
        "range": 0.0,
        "sensor_name": "NB_BRG",
        "label": "SUBJECT held on NB_BRG"
      }
    },
    {
      "type": "Feature",
      "id": "7bcd3105-381f-4614-bedd-4f916c7583ea",
      "geometry": null,
      "properties": {
        "kind": "SENSOR_CONTACT",
        "parent_track": "SENSOR",
        "time": "2010-01-12T12:55:00+00:00",
        "frequency": 150.291,
        "sensor_name": "NB_FREQ",
        "label": "SUBJECT held on NB_FREQ"
      }
    },
    {
      "type": "Feature",
      "id": "3deb9ba5-ff2a-4f59-8cfa-524680f908bb",
      "geometry": null,
      "properties": {
        "kind": "SENSOR_CONTACT",
        "parent_track": "SENSOR",
        "time": "2010-01-12T12:55:00+00:00",
        "bearing": -134.4,
        "range": 0.0,
        "sensor_name": "NB_BRG",
        "label": "SUBJECT held on NB_BRG"
      }
    },
    {
      "type": "Feature",
      "id": "358f867c-e773-4573-a294-2e30c75ed324",
      "geometry": null,
      "properties": {
        "kind": "SENSOR_CONTACT",
        "parent_track": "SENSOR",
        "time": "2010-01-12T12:55:50+00:00",
        "frequency": 150.288,
        "sensor_name": "NB_FREQ",
        "label": "SUBJECT held on NB_FREQ"
      }
    },
    {
      "type": "Feature",
      "id": "be839ec3-c46e-4025-96ae-71a17dac77a4",
      "geometry": null,
      "properties": {
        "kind": "SENSOR_CONTACT",
        "parent_track": "SENSOR",
        "time": "2010-01-12T12:55:50+00:00",
        "bearing": -135.1,
        "range": 0.0,
        "sensor_name": "NB_BRG",
        "label": "SUBJECT held on NB_BRG"
      }
    },
    {
      "type": "Feature",
      "id": "5b55bb3a-f0f3-4605-aff7-1b9d500ecc70",
      "geometry": null,
      "properties": {
        "kind": "SENSOR_CONTACT",
        "parent_track": "SENSOR",
        "time": "2010-01-12T12:56:40+00:00",
        "frequency": 150.286,
        "sensor_name": "NB_FREQ",
        "label": "SUBJECT held on NB_FREQ"
      }
    },
    {
      "type": "Feature",
      "id": "b37c98df-7098-48e7-a014-5b5c3ae9e5f9",
      "geometry": null,
      "properties": {
        "kind": "SENSOR_CONTACT",
        "parent_track": "SENSOR",
        "time": "2010-01-12T12:56:40+00:00",
        "bearing": -135.7,
        "range": 0.0,
        "sensor_name": "NB_BRG",
        "label": "SUBJECT held on NB_BRG"
      }
    },
    {
      "type": "Feature",
      "id": "936e23e5-13d2-440f-a22f-f91d38379d1d",
      "geometry": null,
      "properties": {
        "kind": "SENSOR_CONTACT",
        "parent_track": "SENSOR",
        "time": "2010-01-12T12:57:30+00:00",
        "frequency": 149.854,
        "sensor_name": "NB_FREQ",
        "label": "SUBJECT held on NB_FREQ"
      }
    },
    {
      "type": "Feature",
      "id": "4d5c696f-0095-4311-a186-ec702fdac394",
      "geometry": null,
      "properties": {
        "kind": "SENSOR_CONTACT",
        "parent_track": "SENSOR",
        "time": "2010-01-12T12:57:30+00:00",
        "bearing": -136.2,
        "range": 0.0,
        "sensor_name": "NB_BRG",
        "label": "SUBJECT held on NB_BRG"
      }
    },
    {
      "type": "Feature",
      "id": "0f681b8c-9342-4e84-ae36-3b40fc22b2bf",
      "geometry": null,
      "properties": {
        "kind": "SENSOR_CONTACT",
        "parent_track": "SENSOR",
        "time": "2010-01-12T13:06:40+00:00",
        "frequency": 149.572,
        "sensor_name": "NB_FREQ",
        "label": "SUBJECT held on NB_FREQ"
      }
    },
    {
      "type": "Feature",
      "id": "1778f0b1-9928-4bcf-9103-8f9a6e7b63b2",
      "geometry": null,
      "properties": {
        "kind": "SENSOR_CONTACT",
        "parent_track": "SENSOR",
        "time": "2010-01-12T13:06:40+00:00",
        "bearing": -123.1,
        "range": 0.0,
        "sensor_name": "NB_BRG",
        "label": "SUBJECT held on NB_BRG"
      }
    },
    {
      "type": "Feature",
      "id": "e507813b-62ac-464e-a447-abf33d2e2e30",
      "geometry": null,
      "properties": {
        "kind": "SENSOR_CONTACT",
        "parent_track": "SENSOR",
        "time": "2010-01-12T13:07:30+00:00",
        "frequency": 149.564,
        "sensor_name": "NB_FREQ",
        "label": "SUBJECT held on NB_FREQ"
      }
    },
    {
      "type": "Feature",
      "id": "e5633eb2-1096-440e-b78b-3155d7e7db7e",
      "geometry": null,
      "properties": {
        "kind": "SENSOR_CONTACT",
        "parent_track": "SENSOR",
        "time": "2010-01-12T13:07:30+00:00",
        "bearing": -122.0,
        "range": 0.0,
        "sensor_name": "NB_BRG",
        "label": "SUBJECT held on NB_BRG"
      }
    },
    {
      "type": "Feature",
      "id": "dae1eaab-9e99-416c-9116-e659243096a1",
      "geometry": null,
      "properties": {
        "kind": "SENSOR_CONTACT",
        "parent_track": "SENSOR",
        "time": "2010-01-12T13:08:20+00:00",
        "frequency": 149.555,
        "sensor_name": "NB_FREQ",
        "label": "SUBJECT held on NB_FREQ"
      }
    },
    {
      "type": "Feature",
      "id": "337c8e1f-4f6e-4acf-a8f6-e3db8e95b91c",
      "geometry": null,
      "properties": {
        "kind": "SENSOR_CONTACT",
        "parent_track": "SENSOR",
        "time": "2010-01-12T13:08:20+00:00",
        "bearing": -121.0,
        "range": 0.0,
        "sensor_name": "NB_BRG",
        "label": "SUBJECT held on NB_BRG"
      }
    },
    {
      "type": "Feature",
      "id": "2ba7beaf-2014-4acd-9cb2-17a451a8cfae",
      "geometry": null,
      "properties": {
        "kind": "SENSOR_CONTACT",
        "parent_track": "SENSOR",
        "time": "2010-01-12T13:09:10+00:00",
        "frequency": 149.548,
        "sensor_name": "NB_FREQ",
        "label": "SUBJECT held on NB_FREQ"
      }
    },
    {
      "type": "Feature",
      "id": "3887accc-553c-40e2-a8ca-0121220ed7d5",
      "geometry": null,
      "properties": {
        "kind": "SENSOR_CONTACT",
        "parent_track": "SENSOR",
        "time": "2010-01-12T13:09:10+00:00",
        "bearing": -120.0,
        "range": 0.0,
        "sensor_name": "NB_BRG",
        "label": "SUBJECT held on NB_BRG"
      }
    },
    {
      "type": "Feature",
      "id": "f7c2d653-a0b6-48a8-8e47-14bd5acd88a6",
      "geometry": null,
      "properties": {
        "kind": "SENSOR_CONTACT",
        "parent_track": "SENSOR",
        "time": "2010-01-12T13:10:00+00:00",
        "frequency": 149.54,
        "sensor_name": "NB_FREQ",
        "label": "SUBJECT held on NB_FREQ"
      }
    },
    {
      "type": "Feature",
      "id": "b991d44c-0a06-41fe-ae22-34db1db5c9e0",
      "geometry": null,
      "properties": {
        "kind": "SENSOR_CONTACT",
        "parent_track": "SENSOR",
        "time": "2010-01-12T13:10:00+00:00",
        "bearing": -119.0,
        "range": 0.0,
        "sensor_name": "NB_BRG",
        "label": "SUBJECT held on NB_BRG"
      }
    },
    {
      "type": "Feature",
      "id": "d0ffb4a9-9825-4d5c-a9ee-e264b2c8f804",
      "geometry": null,
      "properties": {
        "kind": "SENSOR_CONTACT",
        "parent_track": "SENSOR",
        "time": "2010-01-12T13:10:50+00:00",
        "frequency": 149.533,
        "sensor_name": "NB_FREQ",
        "label": "SUBJECT held on NB_FREQ"
      }
    },
    {
      "type": "Feature",
      "id": "ffd038e7-56c7-483c-8fd6-0794b90abae6",
      "geometry": null,
      "properties": {
        "kind": "SENSOR_CONTACT",
        "parent_track": "SENSOR",
        "time": "2010-01-12T13:10:50+00:00",
        "bearing": -118.1,
        "range": 0.0,
        "sensor_name": "NB_BRG",
        "label": "SUBJECT held on NB_BRG"
      }
    },
    {
      "type": "Feature",
      "id": "9c3ecd42-bbc8-4456-aa81-cfc10aeb5ea5",
      "geometry": null,
      "properties": {
        "kind": "SENSOR_CONTACT",
        "parent_track": "SENSOR",
        "time": "2010-01-12T13:11:40+00:00",
        "frequency": 149.526,
        "sensor_name": "NB_FREQ",
        "label": "SUBJECT held on NB_FREQ"
      }
    },
    {
      "type": "Feature",
      "id": "a36a6ce7-52c8-407d-a60e-522b342804eb",
      "geometry": null,
      "properties": {
        "kind": "SENSOR_CONTACT",
        "parent_track": "SENSOR",
        "time": "2010-01-12T13:11:40+00:00",
        "bearing": -117.2,
        "range": 0.0,
        "sensor_name": "NB_BRG",
        "label": "SUBJECT held on NB_BRG"
      }
    },
    {
      "type": "Feature",
      "id": "37ced893-e252-4abc-ba7a-8c5bbcf72703",
      "geometry": null,
      "properties": {
        "kind": "SENSOR_CONTACT",
        "parent_track": "SENSOR",
        "time": "2010-01-12T13:12:30+00:00",
        "frequency": 149.52,
        "sensor_name": "NB_FREQ",
        "label": "SUBJECT held on NB_FREQ"
      }
    },
    {
      "type": "Feature",
      "id": "da4eb568-9af8-470f-bc15-8a26ac41b1ae",
      "geometry": null,
      "properties": {
        "kind": "SENSOR_CONTACT",
        "parent_track": "SENSOR",
        "time": "2010-01-12T13:12:30+00:00",
        "bearing": -116.3,
        "range": 0.0,
        "sensor_name": "NB_BRG",
        "label": "SUBJECT held on NB_BRG"
      }
    },
    {
      "type": "Feature",
      "id": "8f1e4d57-d47c-44dd-80d3-0f549388e9bd",
      "geometry": null,
      "properties": {
        "kind": "SENSOR_CONTACT",
        "parent_track": "SENSOR",
        "time": "2010-01-12T13:13:20+00:00",
        "frequency": 149.514,
        "sensor_name": "NB_FREQ",
        "label": "SUBJECT held on NB_FREQ"
      }
    },
    {
      "type": "Feature",
      "id": "9a0b064e-cea0-40ee-832c-a5e159c9c8a7",
      "geometry": null,
      "properties": {
        "kind": "SENSOR_CONTACT",
        "parent_track": "SENSOR",
        "time": "2010-01-12T13:13:20+00:00",
        "bearing": -115.5,
        "range": 0.0,
        "sensor_name": "NB_BRG",
        "label": "SUBJECT held on NB_BRG"
      }
    },
    {
      "type": "Feature",
      "id": "5be007a2-9e95-40e6-b7ea-6339ea9010b0",
      "geometry": null,
      "properties": {
        "kind": "SENSOR_CONTACT",
        "parent_track": "SENSOR",
        "time": "2010-01-12T13:14:10+00:00",
        "frequency": 149.508,
        "sensor_name": "NB_FREQ",
        "label": "SUBJECT held on NB_FREQ"
      }
    },
    {
      "type": "Feature",
      "id": "073bfc00-d84e-4c89-b810-7f6f0be85a87",
      "geometry": null,
      "properties": {
        "kind": "SENSOR_CONTACT",
        "parent_track": "SENSOR",
        "time": "2010-01-12T13:14:10+00:00",
        "bearing": -114.7,
        "range": 0.0,
        "sensor_name": "NB_BRG",
        "label": "SUBJECT held on NB_BRG"
      }
    },
    {
      "type": "Feature",
      "id": "1d714f15-f8d1-4745-9a60-bfd1cce10412",
      "geometry": null,
      "properties": {
        "kind": "SENSOR_CONTACT",
        "parent_track": "SENSOR",
        "time": "2010-01-12T13:15:00+00:00",
        "frequency": 149.503,
        "sensor_name": "NB_FREQ",
        "label": "SUBJECT held on NB_FREQ"
      }
    },
    {
      "type": "Feature",
      "id": "56ac5a1a-9b7d-4cee-b652-b81c716daa4f",
      "geometry": null,
      "properties": {
        "kind": "SENSOR_CONTACT",
        "parent_track": "SENSOR",
        "time": "2010-01-12T13:15:00+00:00",
        "bearing": -113.9,
        "range": 0.0,
        "sensor_name": "NB_BRG",
        "label": "SUBJECT held on NB_BRG"
      }
    },
    {
      "type": "Feature",
      "id": "929bc93a-3b8d-48ec-9c63-75cfe22bf38e",
      "geometry": null,
      "properties": {
        "kind": "SENSOR_CONTACT",
        "parent_track": "SENSOR",
        "time": "2010-01-12T13:15:50+00:00",
        "frequency": 149.497,
        "sensor_name": "NB_FREQ",
        "label": "SUBJECT held on NB_FREQ"
      }
    },
    {
      "type": "Feature",
      "id": "744cb13a-f92f-43f0-aa0f-2b442448700a",
      "geometry": null,
      "properties": {
        "kind": "SENSOR_CONTACT",
        "parent_track": "SENSOR",
        "time": "2010-01-12T13:15:50+00:00",
        "bearing": -113.1,
        "range": 0.0,
        "sensor_name": "NB_BRG",
        "label": "SUBJECT held on NB_BRG"
      }
    },
    {
      "type": "Feature",
      "id": "6ad589fa-0abe-4cd2-820e-74d3a79c17ce",
      "geometry": null,
      "properties": {
        "kind": "SENSOR_CONTACT",
        "parent_track": "SENSOR",
        "time": "2010-01-12T13:16:40+00:00",
        "frequency": 149.493,
        "sensor_name": "NB_FREQ",
        "label": "SUBJECT held on NB_FREQ"
      }
    },
    {
      "type": "Feature",
      "id": "d3df0920-be5e-4424-bd6f-065229607d4b",
      "geometry": null,
      "properties": {
        "kind": "SENSOR_CONTACT",
        "parent_track": "SENSOR",
        "time": "2010-01-12T13:16:40+00:00",
        "bearing": -112.4,
        "range": 0.0,
        "sensor_name": "NB_BRG",
        "label": "SUBJECT held on NB_BRG"
      }
    },
    {
      "type": "Feature",
      "id": "d90df7e8-f0cd-419f-bf03-827f311c489e",
      "geometry": null,
      "properties": {
        "kind": "SENSOR_CONTACT",
        "parent_track": "SENSOR",
        "time": "2010-01-12T13:17:30+00:00",
        "frequency": 149.488,
        "sensor_name": "NB_FREQ",
        "label": "SUBJECT held on NB_FREQ"
      }
    },
    {
      "type": "Feature",
      "id": "df7ffec4-4be1-4649-a3ea-ceab4ac89078",
      "geometry": null,
      "properties": {
        "kind": "SENSOR_CONTACT",
        "parent_track": "SENSOR",
        "time": "2010-01-12T13:17:30+00:00",
        "bearing": -111.7,
        "range": 0.0,
        "sensor_name": "NB_BRG",
        "label": "SUBJECT held on NB_BRG"
      }
    },
    {
      "type": "Feature",
      "id": "ea778c25-2168-48be-9ae9-f6c05a25ee24",
      "geometry": null,
      "properties": {
        "kind": "SENSOR_CONTACT",
        "parent_track": "SENSOR",
        "time": "2010-01-12T13:18:20+00:00",
        "frequency": 149.483,
        "sensor_name": "NB_FREQ",
        "label": "SUBJECT held on NB_FREQ"
      }
    },
    {
      "type": "Feature",
      "id": "b82b640c-9697-4b82-9258-7950eba7e807",
      "geometry": null,
      "properties": {
        "kind": "SENSOR_CONTACT",
        "parent_track": "SENSOR",
        "time": "2010-01-12T13:18:20+00:00",
        "bearing": -111.0,
        "range": 0.0,
        "sensor_name": "NB_BRG",
        "label": "SUBJECT held on NB_BRG"
      }
    },
    {
      "type": "Feature",
      "id": "b510821b-5345-4091-844f-e87f646a66c0",
      "geometry": null,
      "properties": {
        "kind": "SENSOR_CONTACT",
        "parent_track": "SENSOR",
        "time": "2010-01-12T13:19:10+00:00",
        "frequency": 149.479,
        "sensor_name": "NB_FREQ",
        "label": "SUBJECT held on NB_FREQ"
      }
    },
    {
      "type": "Feature",
      "id": "39d432dc-2eef-42ea-8b14-f876cab42eb5",
      "geometry": null,
      "properties": {
        "kind": "SENSOR_CONTACT",
        "parent_track": "SENSOR",
        "time": "2010-01-12T13:19:10+00:00",
        "bearing": -110.3,
        "range": 0.0,
        "sensor_name": "NB_BRG",
        "label": "SUBJECT held on NB_BRG"
      }
    },
    {
      "type": "Feature",
      "id": "26b72940-51c5-4091-9ea1-9e29f4e7d720",
      "geometry": null,
      "properties": {
        "kind": "SENSOR_CONTACT",
        "parent_track": "SENSOR",
        "time": "2010-01-12T13:20:00+00:00",
        "frequency": 149.475,
        "sensor_name": "NB_FREQ",
        "label": "SUBJECT held on NB_FREQ"
      }
    },
    {
      "type": "Feature",
      "id": "19592d19-bd13-42b0-b85a-28a0471d6052",
      "geometry": null,
      "properties": {
        "kind": "SENSOR_CONTACT",
        "parent_track": "SENSOR",
        "time": "2010-01-12T13:20:00+00:00",
        "bearing": -109.7,
        "range": 0.0,
        "sensor_name": "NB_BRG",
        "label": "SUBJECT held on NB_BRG"
      }
    },
    {
      "type": "Feature",
      "id": "a996ff4b-90e3-4c65-9809-7db4511d40b4",
      "geometry": null,
      "properties": {
        "kind": "SENSOR_CONTACT",
        "parent_track": "SENSOR",
        "time": "2010-01-12T13:20:50+00:00",
        "frequency": 149.471,
        "sensor_name": "NB_FREQ",
        "label": "SUBJECT held on NB_FREQ"
      }
    },
    {
      "type": "Feature",
      "id": "c3f04feb-93f4-46f7-8a7f-7789101f411f",
      "geometry": null,
      "properties": {
        "kind": "SENSOR_CONTACT",
        "parent_track": "SENSOR",
        "time": "2010-01-12T13:20:50+00:00",
        "bearing": -109.1,
        "range": 0.0,
        "sensor_name": "NB_BRG",
        "label": "SUBJECT held on NB_BRG"
      }
    },
    {
      "type": "Feature",
      "id": "39a128c8-f0ae-4c6a-8f9d-89f0ea631690",
      "geometry": null,
      "properties": {
        "kind": "SENSOR_CONTACT",
        "parent_track": "SENSOR",
        "time": "2010-01-12T13:21:40+00:00",
        "frequency": 149.468,
        "sensor_name": "NB_FREQ",
        "label": "SUBJECT held on NB_FREQ"
      }
    },
    {
      "type": "Feature",
      "id": "d9eca5a1-4697-44f3-8d4b-af76e93dd3fd",
      "geometry": null,
      "properties": {
        "kind": "SENSOR_CONTACT",
        "parent_track": "SENSOR",
        "time": "2010-01-12T13:21:40+00:00",
        "bearing": -108.5,
        "range": 0.0,
        "sensor_name": "NB_BRG",
        "label": "SUBJECT held on NB_BRG"
      }
    },
    {
      "type": "Feature",
      "id": "8d0bd881-2604-4577-bfd0-34d035308c96",
      "geometry": null,
      "properties": {
        "kind": "SENSOR_CONTACT",
        "parent_track": "SENSOR",
        "time": "2010-01-12T13:22:30+00:00",
        "frequency": 149.464,
        "sensor_name": "NB_FREQ",
        "label": "SUBJECT held on NB_FREQ"
      }
    },
    {
      "type": "Feature",
      "id": "3cb33e46-84e1-4a6a-9cf2-629fec06d5e1",
      "geometry": null,
      "properties": {
        "kind": "SENSOR_CONTACT",
        "parent_track": "SENSOR",
        "time": "2010-01-12T13:22:30+00:00",
        "bearing": -107.9,
        "range": 0.0,
        "sensor_name": "NB_BRG",
        "label": "SUBJECT held on NB_BRG"
      }
    },
    {
      "type": "Feature",
      "id": "5f905fc9-0fb4-4cf5-ac45-4b6073b68a15",
      "geometry": null,
      "properties": {
        "kind": "SENSOR_CONTACT",
        "parent_track": "SENSOR",
        "time": "2010-01-12T13:23:20+00:00",
        "frequency": 149.461,
        "sensor_name": "NB_FREQ",
        "label": "SUBJECT held on NB_FREQ"
      }
    },
    {
      "type": "Feature",
      "id": "1dfaf542-b92d-440c-8883-c53b4764612a",
      "geometry": null,
      "properties": {
        "kind": "SENSOR_CONTACT",
        "parent_track": "SENSOR",
        "time": "2010-01-12T13:23:20+00:00",
        "bearing": -107.3,
        "range": 0.0,
        "sensor_name": "NB_BRG",
        "label": "SUBJECT held on NB_BRG"
      }
    },
    {
      "type": "Feature",
      "id": "9a837005-c58c-4df9-aa65-3c8bd1abcdef",
      "geometry": null,
      "properties": {
        "kind": "SENSOR_CONTACT",
        "parent_track": "SENSOR",
        "time": "2010-01-12T13:24:10+00:00",
        "frequency": 149.457,
        "sensor_name": "NB_FREQ",
        "label": "SUBJECT held on NB_FREQ"
      }
    },
    {
      "type": "Feature",
      "id": "a9f1fbab-b44a-4f82-a708-efcebc5e13da",
      "geometry": null,
      "properties": {
        "kind": "SENSOR_CONTACT",
        "parent_track": "SENSOR",
        "time": "2010-01-12T13:24:10+00:00",
        "bearing": -106.8,
        "range": 0.0,
        "sensor_name": "NB_BRG",
        "label": "SUBJECT held on NB_BRG"
      }
    },
    {
      "type": "Feature",
      "id": "edc522d4-a3b3-46f1-bb45-81a8fca68053",
      "geometry": null,
      "properties": {
        "kind": "SENSOR_CONTACT",
        "parent_track": "SENSOR",
        "time": "2010-01-12T13:25:00+00:00",
        "frequency": 149.454,
        "sensor_name": "NB_FREQ",
        "label": "SUBJECT held on NB_FREQ"
      }
    },
    {
      "type": "Feature",
      "id": "0f7bbf64-2bf7-463d-9508-cc41718ad66f",
      "geometry": null,
      "properties": {
        "kind": "SENSOR_CONTACT",
        "parent_track": "SENSOR",
        "time": "2010-01-12T13:25:00+00:00",
        "bearing": -106.2,
        "range": 0.0,
        "sensor_name": "NB_BRG",
        "label": "SUBJECT held on NB_BRG"
      }
    },
    {
      "type": "Feature",
      "id": "f15f4edf-8d26-4ac5-ad8a-e3eeb41b2ae2",
      "geometry": null,
      "properties": {
        "kind": "SENSOR_CONTACT",
        "parent_track": "SENSOR",
        "time": "2010-01-12T13:25:50+00:00",
        "frequency": 149.452,
        "sensor_name": "NB_FREQ",
        "label": "SUBJECT held on NB_FREQ"
      }
    },
    {
      "type": "Feature",
      "id": "a18d13e6-ef14-4129-a503-97fc1dd69e21",
      "geometry": null,
      "properties": {
        "kind": "SENSOR_CONTACT",
        "parent_track": "SENSOR",
        "time": "2010-01-12T13:25:50+00:00",
        "bearing": -105.7,
        "range": 0.0,
        "sensor_name": "NB_BRG",
        "label": "SUBJECT held on NB_BRG"
      }
    },
    {
      "type": "Feature",
      "id": "7b378b79-734a-49f4-b50f-c659d97feb35",
      "geometry": null,
      "properties": {
        "kind": "SENSOR_CONTACT",
        "parent_track": "SENSOR",
        "time": "2010-01-12T13:26:40+00:00",
        "frequency": 149.449,
        "sensor_name": "NB_FREQ",
        "label": "SUBJECT held on NB_FREQ"
      }
    },
    {
      "type": "Feature",
      "id": "a78763e3-97eb-4c32-a6e6-ec388a91219e",
      "geometry": null,
      "properties": {
        "kind": "SENSOR_CONTACT",
        "parent_track": "SENSOR",
        "time": "2010-01-12T13:26:40+00:00",
        "bearing": -105.2,
        "range": 0.0,
        "sensor_name": "NB_BRG",
        "label": "SUBJECT held on NB_BRG"
      }
    },
    {
      "type": "Feature",
      "id": "4d531d77-752a-4f15-8975-c5884813a053",
      "geometry": null,
      "properties": {
        "kind": "SENSOR_CONTACT",
        "parent_track": "SENSOR",
        "time": "2010-01-12T13:27:30+00:00",
        "frequency": 149.446,
        "sensor_name": "NB_FREQ",
        "label": "SUBJECT held on NB_FREQ"
      }
    },
    {
      "type": "Feature",
      "id": "ab9d8581-dcfe-4b0e-97e7-6fc0bd25d879",
      "geometry": null,
      "properties": {
        "kind": "SENSOR_CONTACT",
        "parent_track": "SENSOR",
        "time": "2010-01-12T13:27:30+00:00",
        "bearing": -104.7,
        "range": 0.0,
        "sensor_name": "NB_BRG",
        "label": "SUBJECT held on NB_BRG"
      }
    },
    {
      "type": "Feature",
      "id": "11ce4fe7-7fee-4bf8-a050-9daf61cf4cdc",
      "geometry": null,
      "properties": {
        "kind": "SENSOR_CONTACT",
        "parent_track": "SENSOR",
        "time": "2010-01-12T13:28:20+00:00",
        "frequency": 149.444,
        "sensor_name": "NB_FREQ",
        "label": "SUBJECT held on NB_FREQ"
      }
    },
    {
      "type": "Feature",
      "id": "69756c9b-ffb0-4e56-8a89-27c992beb808",
      "geometry": null,
      "properties": {
        "kind": "SENSOR_CONTACT",
        "parent_track": "SENSOR",
        "time": "2010-01-12T13:28:20+00:00",
        "bearing": -104.2,
        "range": 0.0,
        "sensor_name": "NB_BRG",
        "label": "SUBJECT held on NB_BRG"
      }
    },
    {
      "type": "Feature",
      "id": "4435137c-ca79-4877-85c9-26a7ab1fc56f",
      "geometry": null,
      "properties": {
        "kind": "SENSOR_CONTACT",
        "parent_track": "SENSOR",
        "time": "2010-01-12T13:29:10+00:00",
        "frequency": 149.441,
        "sensor_name": "NB_FREQ",
        "label": "SUBJECT held on NB_FREQ"
      }
    },
    {
      "type": "Feature",
      "id": "49dc0939-8584-459d-b0d0-bcba862a4b1b",
      "geometry": null,
      "properties": {
        "kind": "SENSOR_CONTACT",
        "parent_track": "SENSOR",
        "time": "2010-01-12T13:29:10+00:00",
        "bearing": -103.8,
        "range": 0.0,
        "sensor_name": "NB_BRG",
        "label": "SUBJECT held on NB_BRG"
      }
    },
    {
      "type": "Feature",
      "id": "254a6e02-eca9-4f44-8c4e-b0a5cb3d3132",
      "geometry": null,
      "properties": {
        "kind": "SENSOR_CONTACT",
        "parent_track": "SENSOR",
        "time": "2010-01-12T13:30:00+00:00",
        "frequency": 149.439,
        "sensor_name": "NB_FREQ",
        "label": "SUBJECT held on NB_FREQ"
      }
    },
    {
      "type": "Feature",
      "id": "8855a89f-3cf8-4cef-b02e-3071692f0b0b",
      "geometry": null,
      "properties": {
        "kind": "SENSOR_CONTACT",
        "parent_track": "SENSOR",
        "time": "2010-01-12T13:30:00+00:00",
        "bearing": -103.3,
        "range": 0.0,
        "sensor_name": "NB_BRG",
        "label": "SUBJECT held on NB_BRG"
      }
    },
    {
      "type": "Feature",
      "id": "555e9195-e07e-4ca4-87c8-c0f39563c4c9",
      "geometry": null,
      "properties": {
        "kind": "SENSOR_CONTACT",
        "parent_track": "SENSOR",
        "time": "2010-01-12T13:30:50+00:00",
        "frequency": 149.437,
        "sensor_name": "NB_FREQ",
        "label": "SUBJECT held on NB_FREQ"
      }
    },
    {
      "type": "Feature",
      "id": "9532bd65-d8c4-47b9-a9f4-5966ea8ab3d7",
      "geometry": null,
      "properties": {
        "kind": "SENSOR_CONTACT",
        "parent_track": "SENSOR",
        "time": "2010-01-12T13:30:50+00:00",
        "bearing": -102.9,
        "range": 0.0,
        "sensor_name": "NB_BRG",
        "label": "SUBJECT held on NB_BRG"
      }
    },
    {
      "type": "Feature",
      "id": "9d41ed04-8b6b-402d-8246-59b071389ad7",
      "geometry": null,
      "properties": {
        "kind": "SENSOR_CONTACT",
        "parent_track": "SENSOR",
        "time": "2010-01-12T13:31:40+00:00",
        "frequency": 149.434,
        "sensor_name": "NB_FREQ",
        "label": "SUBJECT held on NB_FREQ"
      }
    },
    {
      "type": "Feature",
      "id": "b2a2046e-db6e-457f-97c9-2efcd878d466",
      "geometry": null,
      "properties": {
        "kind": "SENSOR_CONTACT",
        "parent_track": "SENSOR",
        "time": "2010-01-12T13:31:40+00:00",
        "bearing": -102.5,
        "range": 0.0,
        "sensor_name": "NB_BRG",
        "label": "SUBJECT held on NB_BRG"
      }
    },
    {
      "type": "Feature",
      "id": "78bc59c5-dae0-4cda-91a6-2b5bfd57f571",
      "geometry": null,
      "properties": {
        "kind": "SENSOR_CONTACT",
        "parent_track": "SENSOR",
        "time": "2010-01-12T13:32:30+00:00",
        "frequency": 149.432,
        "sensor_name": "NB_FREQ",
        "label": "SUBJECT held on NB_FREQ"
      }
    },
    {
      "type": "Feature",
      "id": "129dbc63-c801-43e9-90ad-09b597adb762",
      "geometry": null,
      "properties": {
        "kind": "SENSOR_CONTACT",
        "parent_track": "SENSOR",
        "time": "2010-01-12T13:32:30+00:00",
        "bearing": -102.1,
        "range": 0.0,
        "sensor_name": "NB_BRG",
        "label": "SUBJECT held on NB_BRG"
      }
    },
    {
      "type": "Feature",
      "id": "61c73b89-6de4-4834-b170-b3f26933dabb",
      "geometry": null,
      "properties": {
        "kind": "SENSOR_CONTACT",
        "parent_track": "SENSOR",
        "time": "2010-01-12T13:33:20+00:00",
        "frequency": 149.43,
        "sensor_name": "NB_FREQ",
        "label": "SUBJECT held on NB_FREQ"
      }
    },
    {
      "type": "Feature",
      "id": "1dfc6f39-59e6-40ec-8b2b-90ddb2c5db9e",
      "geometry": null,
      "properties": {
        "kind": "SENSOR_CONTACT",
        "parent_track": "SENSOR",
        "time": "2010-01-12T13:33:20+00:00",
        "bearing": -101.7,
        "range": 0.0,
        "sensor_name": "NB_BRG",
        "label": "SUBJECT held on NB_BRG"
      }
    },
    {
      "type": "Feature",
      "id": "1ea19f17-5418-4a6c-b363-e944c47f7107",
      "geometry": null,
      "properties": {
        "kind": "SENSOR_CONTACT",
        "parent_track": "SENSOR",
        "time": "2010-01-12T13:34:10+00:00",
        "frequency": 149.429,
        "sensor_name": "NB_FREQ",
        "label": "SUBJECT held on NB_FREQ"
      }
    },
    {
      "type": "Feature",
      "id": "7d72242f-f6ca-46ce-bc41-eb8f9c5ca989",
      "geometry": null,
      "properties": {
        "kind": "SENSOR_CONTACT",
        "parent_track": "SENSOR",
        "time": "2010-01-12T13:34:10+00:00",
        "bearing": -101.3,
        "range": 0.0,
        "sensor_name": "NB_BRG",
        "label": "SUBJECT held on NB_BRG"
      }
    },
    {
      "type": "Feature",
      "id": "07448117-017c-4237-9e63-fed43ae94ef8",
      "geometry": null,
      "properties": {
        "kind": "SENSOR_CONTACT",
        "parent_track": "SENSOR",
        "time": "2010-01-12T13:35:00+00:00",
        "frequency": 149.427,
        "sensor_name": "NB_FREQ",
        "label": "SUBJECT held on NB_FREQ"
      }
    },
    {
      "type": "Feature",
      "id": "4874cd5c-1c0b-4958-8b54-6548336bc300",
      "geometry": null,
      "properties": {
        "kind": "SENSOR_CONTACT",
        "parent_track": "SENSOR",
        "time": "2010-01-12T13:35:00+00:00",
        "bearing": -100.9,
        "range": 0.0,
        "sensor_name": "NB_BRG",
        "label": "SUBJECT held on NB_BRG"
      }
    },
    {
      "type": "Feature",
      "id": "193c6e19-e91a-4ae3-baa8-64ece0668335",
      "geometry": null,
      "properties": {
        "kind": "SENSOR_CONTACT",
        "parent_track": "SENSOR",
        "time": "2010-01-12T13:35:50+00:00",
        "frequency": 149.425,
        "sensor_name": "NB_FREQ",
        "label": "SUBJECT held on NB_FREQ"
      }
    },
    {
      "type": "Feature",
      "id": "4490d707-284e-4843-ae46-b1186a6d97bc",
      "geometry": null,
      "properties": {
        "kind": "SENSOR_CONTACT",
        "parent_track": "SENSOR",
        "time": "2010-01-12T13:35:50+00:00",
        "bearing": -100.6,
        "range": 0.0,
        "sensor_name": "NB_BRG",
        "label": "SUBJECT held on NB_BRG"
      }
    },
    {
      "type": "Feature",
      "id": "49e361c4-947c-40d1-b611-5bddba0fadf4",
      "geometry": null,
      "properties": {
        "kind": "SENSOR_CONTACT",
        "parent_track": "SENSOR",
        "time": "2010-01-12T13:36:40+00:00",
        "frequency": 149.423,
        "sensor_name": "NB_FREQ",
        "label": "SUBJECT held on NB_FREQ"
      }
    },
    {
      "type": "Feature",
      "id": "668361f2-c73f-4c73-989a-00c61e72119b",
      "geometry": null,
      "properties": {
        "kind": "SENSOR_CONTACT",
        "parent_track": "SENSOR",
        "time": "2010-01-12T13:36:40+00:00",
        "bearing": -100.2,
        "range": 0.0,
        "sensor_name": "NB_BRG",
        "label": "SUBJECT held on NB_BRG"
      }
    },
    {
      "type": "Feature",
      "id": "0bc97fa7-9fd9-45db-ba5f-ce7083267e76",
      "geometry": null,
      "properties": {
        "kind": "SENSOR_CONTACT",
        "parent_track": "SENSOR",
        "time": "2010-01-12T13:37:30+00:00",
        "frequency": 149.422,
        "sensor_name": "NB_FREQ",
        "label": "SUBJECT held on NB_FREQ"
      }
    },
    {
      "type": "Feature",
      "id": "f8ded05e-1c5f-4dc3-97a0-5b3979b05522",
      "geometry": null,
      "properties": {
        "kind": "SENSOR_CONTACT",
        "parent_track": "SENSOR",
        "time": "2010-01-12T13:37:30+00:00",
        "bearing": -99.9,
        "range": 0.0,
        "sensor_name": "NB_BRG",
        "label": "SUBJECT held on NB_BRG"
      }
    },
    {
      "type": "Feature",
      "id": "bad6dec3-5c17-4531-89fd-8337db679556",
      "geometry": null,
      "properties": {
        "kind": "SENSOR_CONTACT",
        "parent_track": "SENSOR",
        "time": "2010-01-12T13:38:20+00:00",
        "frequency": 149.42,
        "sensor_name": "NB_FREQ",
        "label": "SUBJECT held on NB_FREQ"
      }
    },
    {
      "type": "Feature",
      "id": "773c7496-1155-4073-8c0e-b821b64cb155",
      "geometry": null,
      "properties": {
        "kind": "SENSOR_CONTACT",
        "parent_track": "SENSOR",
        "time": "2010-01-12T13:38:20+00:00",
        "bearing": -99.5,
        "range": 0.0,
        "sensor_name": "NB_BRG",
        "label": "SUBJECT held on NB_BRG"
      }
    },
    {
      "type": "Feature",
      "id": "ade70091-1272-448c-9653-cef938417576",
      "geometry": null,
      "properties": {
        "kind": "SENSOR_CONTACT",
        "parent_track": "SENSOR",
        "time": "2010-01-12T13:39:10+00:00",
        "frequency": 149.419,
        "sensor_name": "NB_FREQ",
        "label": "SUBJECT held on NB_FREQ"
      }
    },
    {
      "type": "Feature",
      "id": "8fdf83e0-0196-445e-91ab-68c17f089bee",
      "geometry": null,
      "properties": {
        "kind": "SENSOR_CONTACT",
        "parent_track": "SENSOR",
        "time": "2010-01-12T13:39:10+00:00",
        "bearing": -99.2,
        "range": 0.0,
        "sensor_name": "NB_BRG",
        "label": "SUBJECT held on NB_BRG"
      }
    },
    {
      "type": "Feature",
      "id": "1d2d1d79-a380-4be0-867d-970b08304aad",
      "geometry": null,
      "properties": {
        "kind": "SENSOR_CONTACT",
        "parent_track": "SENSOR",
        "time": "2010-01-12T13:40:00+00:00",
        "frequency": 149.417,
        "sensor_name": "NB_FREQ",
        "label": "SUBJECT held on NB_FREQ"
      }
    },
    {
      "type": "Feature",
      "id": "b99bc536-af97-4df5-bdbd-d94d2e2f08f7",
      "geometry": null,
      "properties": {
        "kind": "SENSOR_CONTACT",
        "parent_track": "SENSOR",
        "time": "2010-01-12T13:40:00+00:00",
        "bearing": -98.9,
        "range": 0.0,
        "sensor_name": "NB_BRG",
        "label": "SUBJECT held on NB_BRG"
      }
    },
    {
      "type": "Feature",
      "id": "41ad125b-f3c5-40de-a357-de6641a91ca0",
      "geometry": null,
      "properties": {
        "kind": "SENSOR_CONTACT",
        "parent_track": "SENSOR",
        "time": "2010-01-12T13:40:50+00:00",
        "frequency": 149.416,
        "sensor_name": "NB_FREQ",
        "label": "SUBJECT held on NB_FREQ"
      }
    },
    {
      "type": "Feature",
      "id": "5f697087-1b31-4d54-85b6-f23c920ef31b",
      "geometry": null,
      "properties": {
        "kind": "SENSOR_CONTACT",
        "parent_track": "SENSOR",
        "time": "2010-01-12T13:40:50+00:00",
        "bearing": -98.6,
        "range": 0.0,
        "sensor_name": "NB_BRG",
        "label": "SUBJECT held on NB_BRG"
      }
    },
    {
      "type": "Feature",
      "id": "6f4b9ce5-c122-4aed-9c1c-5a704e5777ad",
      "geometry": null,
      "properties": {
        "kind": "SENSOR_CONTACT",
        "parent_track": "SENSOR",
        "time": "2010-01-12T13:41:40+00:00",
        "frequency": 149.168,
        "sensor_name": "NB_FREQ",
        "label": "SUBJECT held on NB_FREQ"
      }
    },
    {
      "type": "Feature",
      "id": "80b18c74-37f8-4061-bd0a-dc9e3f806c56",
      "geometry": null,
      "properties": {
        "kind": "SENSOR_CONTACT",
        "parent_track": "SENSOR",
        "time": "2010-01-12T13:41:40+00:00",
        "bearing": -98.3,
        "range": 0.0,
        "sensor_name": "NB_BRG",
        "label": "SUBJECT held on NB_BRG"
      }
    },
    {
      "type": "Feature",
      "id": "d9a9fe1d-7a64-4d52-972d-85765dd3a8d6",
      "geometry": null,
      "properties": {
        "kind": "SENSOR_CONTACT",
        "parent_track": "SENSOR",
        "time": "2010-01-12T13:42:30+00:00",
        "frequency": 149.12,
        "sensor_name": "NB_FREQ",
        "label": "SUBJECT held on NB_FREQ"
      }
    },
    {
      "type": "Feature",
      "id": "3e8739ce-7298-4a65-b3f8-19df6ceb833b",
      "geometry": null,
      "properties": {
        "kind": "SENSOR_CONTACT",
        "parent_track": "SENSOR",
        "time": "2010-01-12T13:42:30+00:00",
        "bearing": -98.1,
        "range": 0.0,
        "sensor_name": "NB_BRG",
        "label": "SUBJECT held on NB_BRG"
      }
    },
    {
      "type": "Feature",
      "id": "93d81bdd-93f7-4566-be10-f35136d3ca1e",
      "geometry": null,
      "properties": {
        "kind": "SENSOR_CONTACT",
        "parent_track": "SENSOR",
        "time": "2010-01-12T13:43:20+00:00",
        "frequency": 149.119,
        "sensor_name": "NB_FREQ",
        "label": "SUBJECT held on NB_FREQ"
      }
    },
    {
      "type": "Feature",
      "id": "d94b7afb-e227-4760-9e7d-7754bc4f5ed3",
      "geometry": null,
      "properties": {
        "kind": "SENSOR_CONTACT",
        "parent_track": "SENSOR",
        "time": "2010-01-12T13:43:20+00:00",
        "bearing": -98.0,
        "range": 0.0,
        "sensor_name": "NB_BRG",
        "label": "SUBJECT held on NB_BRG"
      }
    },
    {
      "type": "Feature",
      "id": "9a559df2-2f37-46ce-ab1b-9497448f2f88",
      "geometry": null,
      "properties": {
        "kind": "SENSOR_CONTACT",
        "parent_track": "SENSOR",
        "time": "2010-01-12T13:44:10+00:00",
        "frequency": 149.119,
        "sensor_name": "NB_FREQ",
        "label": "SUBJECT held on NB_FREQ"
      }
    },
    {
      "type": "Feature",
      "id": "9de90624-be76-4de9-b8fa-822f1dbb305c",
      "geometry": null,
      "properties": {
        "kind": "SENSOR_CONTACT",
        "parent_track": "SENSOR",
        "time": "2010-01-12T13:44:10+00:00",
        "bearing": -97.8,
        "range": 0.0,
        "sensor_name": "NB_BRG",
        "label": "SUBJECT held on NB_BRG"
      }
    },
    {
      "type": "Feature",
      "id": "9e282e01-591b-4b67-89d7-1d473372a555",
      "geometry": null,
      "properties": {
        "kind": "SENSOR_CONTACT",
        "parent_track": "SENSOR",
        "time": "2010-01-12T13:45:00+00:00",
        "frequency": 149.119,
        "sensor_name": "NB_FREQ",
        "label": "SUBJECT held on NB_FREQ"
      }
    },
    {
      "type": "Feature",
      "id": "de50feb0-cef4-4508-a496-31e805c4267d",
      "geometry": null,
      "properties": {
        "kind": "SENSOR_CONTACT",
        "parent_track": "SENSOR",
        "time": "2010-01-12T13:45:00+00:00",
        "bearing": -97.7,
        "range": 0.0,
        "sensor_name": "NB_BRG",
        "label": "SUBJECT held on NB_BRG"
      }
    },
    {
      "type": "Feature",
      "id": "cb4ea4ce-bcf2-45fb-b00c-ca6c4d6eff07",
      "geometry": null,
      "properties": {
        "kind": "SENSOR_CONTACT",
        "parent_track": "SENSOR",
        "time": "2010-01-12T13:45:50+00:00",
        "frequency": 149.118,
        "sensor_name": "NB_FREQ",
        "label": "SUBJECT held on NB_FREQ"
      }
    },
    {
      "type": "Feature",
      "id": "72a933bf-06b9-4e66-b5d1-af04f5d6f9b6",
      "geometry": null,
      "properties": {
        "kind": "SENSOR_CONTACT",
        "parent_track": "SENSOR",
        "time": "2010-01-12T13:45:50+00:00",
        "bearing": -97.6,
        "range": 0.0,
        "sensor_name": "NB_BRG",
        "label": "SUBJECT held on NB_BRG"
      }
    },
    {
      "type": "Feature",
      "id": "92610a2f-3742-40e2-95b9-f44de6d0a6a7",
      "geometry": null,
      "properties": {
        "kind": "SENSOR_CONTACT",
        "parent_track": "SENSOR",
        "time": "2010-01-12T13:46:40+00:00",
        "frequency": 149.118,
        "sensor_name": "NB_FREQ",
        "label": "SUBJECT held on NB_FREQ"
      }
    },
    {
      "type": "Feature",
      "id": "5072e238-bcc0-4271-a896-330991f8cd44",
      "geometry": null,
      "properties": {
        "kind": "SENSOR_CONTACT",
        "parent_track": "SENSOR",
        "time": "2010-01-12T13:46:40+00:00",
        "bearing": -97.4,
        "range": 0.0,
        "sensor_name": "NB_BRG",
        "label": "SUBJECT held on NB_BRG"
      }
    },
    {
      "type": "Feature",
      "id": "04235349-44f8-443e-a7a1-40fe21e431a4",
      "geometry": null,
      "properties": {
        "kind": "SENSOR_CONTACT",
        "parent_track": "SENSOR",
        "time": "2010-01-12T13:47:30+00:00",
        "frequency": 149.118,
        "sensor_name": "NB_FREQ",
        "label": "SUBJECT held on NB_FREQ"
      }
    },
    {
      "type": "Feature",
      "id": "25e1ad25-fb6e-4eca-9e1e-c5ad5d8bec0d",
      "geometry": null,
      "properties": {
        "kind": "SENSOR_CONTACT",
        "parent_track": "SENSOR",
        "time": "2010-01-12T13:47:30+00:00",
        "bearing": -97.3,
        "range": 0.0,
        "sensor_name": "NB_BRG",
        "label": "SUBJECT held on NB_BRG"
      }
    },
    {
      "type": "Feature",
      "id": "b9bf19f7-424e-462f-a5a2-04713968bded",
      "geometry": null,
      "properties": {
        "kind": "SENSOR_CONTACT",
        "parent_track": "SENSOR",
        "time": "2010-01-12T13:48:20+00:00",
        "frequency": 149.118,
        "sensor_name": "NB_FREQ",
        "label": "SUBJECT held on NB_FREQ"
      }
    },
    {
      "type": "Feature",
      "id": "02d358b5-1d6b-4820-a1a6-7a80d10b3f70",
      "geometry": null,
      "properties": {
        "kind": "SENSOR_CONTACT",
        "parent_track": "SENSOR",
        "time": "2010-01-12T13:48:20+00:00",
        "bearing": -97.2,
        "range": 0.0,
        "sensor_name": "NB_BRG",
        "label": "SUBJECT held on NB_BRG"
      }
    },
    {
      "type": "Feature",
      "id": "5faf6b5c-62e5-4bf6-8c16-33d9f330bdb1",
      "geometry": null,
      "properties": {
        "kind": "SENSOR_CONTACT",
        "parent_track": "SENSOR",
        "time": "2010-01-12T13:49:10+00:00",
        "frequency": 149.118,
        "sensor_name": "NB_FREQ",
        "label": "SUBJECT held on NB_FREQ"
      }
    },
    {
      "type": "Feature",
      "id": "f82dc5a4-d88f-4fa0-b465-8cf55518ce93",
      "geometry": null,
      "properties": {
        "kind": "SENSOR_CONTACT",
        "parent_track": "SENSOR",
        "time": "2010-01-12T13:49:10+00:00",
        "bearing": -97.1,
        "range": 0.0,
        "sensor_name": "NB_BRG",
        "label": "SUBJECT held on NB_BRG"
      }
    },
    {
      "type": "Feature",
      "id": "2c8c2b29-18ab-454c-a6fb-64a81b29211b",
      "geometry": null,
      "properties": {
        "kind": "SENSOR_CONTACT",
        "parent_track": "SENSOR",
        "time": "2010-01-12T13:50:00+00:00",
        "frequency": 149.117,
        "sensor_name": "NB_FREQ",
        "label": "SUBJECT held on NB_FREQ"
      }
    },
    {
      "type": "Feature",
      "id": "fc9cba09-6753-48fe-a596-eb31ed9e4bb7",
      "geometry": null,
      "properties": {
        "kind": "SENSOR_CONTACT",
        "parent_track": "SENSOR",
        "time": "2010-01-12T13:50:00+00:00",
        "bearing": -97.0,
        "range": 0.0,
        "sensor_name": "NB_BRG",
        "label": "SUBJECT held on NB_BRG"
      }
    },
    {
      "type": "Feature",
      "id": "58663d14-a666-4382-9367-85f32730335d",
      "geometry": null,
      "properties": {
        "kind": "SENSOR_CONTACT",
        "parent_track": "SENSOR",
        "time": "2010-01-12T13:50:50+00:00",
        "frequency": 149.117,
        "sensor_name": "NB_FREQ",
        "label": "SUBJECT held on NB_FREQ"
      }
    },
    {
      "type": "Feature",
      "id": "cab8bdbb-6884-4040-b487-9c98f97d287b",
      "geometry": null,
      "properties": {
        "kind": "SENSOR_CONTACT",
        "parent_track": "SENSOR",
        "time": "2010-01-12T13:50:50+00:00",
        "bearing": -96.9,
        "range": 0.0,
        "sensor_name": "NB_BRG",
        "label": "SUBJECT held on NB_BRG"
      }
    },
    {
      "type": "Feature",
      "id": "e694c51f-d270-46a0-a237-6db455e718d5",
      "geometry": null,
      "properties": {
        "kind": "SENSOR_CONTACT",
        "parent_track": "SENSOR",
        "time": "2010-01-12T13:51:40+00:00",
        "frequency": 149.117,
        "sensor_name": "NB_FREQ",
        "label": "SUBJECT held on NB_FREQ"
      }
    },
    {
      "type": "Feature",
      "id": "f6a95604-877a-4d08-a263-dc589a44b2e0",
      "geometry": null,
      "properties": {
        "kind": "SENSOR_CONTACT",
        "parent_track": "SENSOR",
        "time": "2010-01-12T13:51:40+00:00",
        "bearing": -96.8,
        "range": 0.0,
        "sensor_name": "NB_BRG",
        "label": "SUBJECT held on NB_BRG"
      }
    },
    {
      "type": "Feature",
      "id": "54bdca93-aedc-471e-a500-01b458ba0748",
      "geometry": null,
      "properties": {
        "kind": "SENSOR_CONTACT",
        "parent_track": "SENSOR",
        "time": "2010-01-12T13:52:30+00:00",
        "frequency": 149.117,
        "sensor_name": "NB_FREQ",
        "label": "SUBJECT held on NB_FREQ"
      }
    },
    {
      "type": "Feature",
      "id": "096ce004-cadd-46ad-ac47-33f2d97748dd",
      "geometry": null,
      "properties": {
        "kind": "SENSOR_CONTACT",
        "parent_track": "SENSOR",
        "time": "2010-01-12T13:52:30+00:00",
        "bearing": -96.6,
        "range": 0.0,
        "sensor_name": "NB_BRG",
        "label": "SUBJECT held on NB_BRG"
      }
    },
    {
      "type": "Feature",
      "id": "b0d77454-65a3-48a6-9353-b296fd73ffaa",
      "geometry": null,
      "properties": {
        "kind": "SENSOR_CONTACT",
        "parent_track": "SENSOR",
        "time": "2010-01-12T13:53:20+00:00",
        "frequency": 149.117,
        "sensor_name": "NB_FREQ",
        "label": "SUBJECT held on NB_FREQ"
      }
    },
    {
      "type": "Feature",
      "id": "931d08b6-acb7-454b-b88e-3f2f23484b0a",
      "geometry": null,
      "properties": {
        "kind": "SENSOR_CONTACT",
        "parent_track": "SENSOR",
        "time": "2010-01-12T13:53:20+00:00",
        "bearing": -96.6,
        "range": 0.0,
        "sensor_name": "NB_BRG",
        "label": "SUBJECT held on NB_BRG"
      }
    },
    {
      "type": "Feature",
      "id": "3ded1552-007d-4696-95df-0ef9d2d27791",
      "geometry": null,
      "properties": {
        "kind": "SENSOR_CONTACT",
        "parent_track": "SENSOR",
        "time": "2010-01-12T13:54:10+00:00",
        "frequency": 149.116,
        "sensor_name": "NB_FREQ",
        "label": "SUBJECT held on NB_FREQ"
      }
    },
    {
      "type": "Feature",
      "id": "b4486e54-0f85-4804-8362-4d5ed47e988d",
      "geometry": null,
      "properties": {
        "kind": "SENSOR_CONTACT",
        "parent_track": "SENSOR",
        "time": "2010-01-12T13:54:10+00:00",
        "bearing": -96.5,
        "range": 0.0,
        "sensor_name": "NB_BRG",
        "label": "SUBJECT held on NB_BRG"
      }
    },
    {
      "type": "Feature",
      "id": "5e49be4b-ffc9-42b7-9d6f-a2ea06659312",
      "geometry": null,
      "properties": {
        "kind": "SENSOR_CONTACT",
        "parent_track": "SENSOR",
        "time": "2010-01-12T13:55:00+00:00",
        "frequency": 149.116,
        "sensor_name": "NB_FREQ",
        "label": "SUBJECT held on NB_FREQ"
      }
    },
    {
      "type": "Feature",
      "id": "129774e5-edac-4b4e-bc7f-6fe5a07e01e7",
      "geometry": null,
      "properties": {
        "kind": "SENSOR_CONTACT",
        "parent_track": "SENSOR",
        "time": "2010-01-12T13:55:00+00:00",
        "bearing": -96.4,
        "range": 0.0,
        "sensor_name": "NB_BRG",
        "label": "SUBJECT held on NB_BRG"
      }
    },
    {
      "type": "Feature",
      "id": "9cc3e8db-ad3a-4617-bc48-5e6e61638933",
      "geometry": null,
      "properties": {
        "kind": "SENSOR_CONTACT",
        "parent_track": "SENSOR",
        "time": "2010-01-12T13:55:50+00:00",
        "frequency": 149.116,
        "sensor_name": "NB_FREQ",
        "label": "SUBJECT held on NB_FREQ"
      }
    },
    {
      "type": "Feature",
      "id": "665b67bc-46bc-4efb-9c4a-e69414d9a7b4",
      "geometry": null,
      "properties": {
        "kind": "SENSOR_CONTACT",
        "parent_track": "SENSOR",
        "time": "2010-01-12T13:55:50+00:00",
        "bearing": -96.3,
        "range": 0.0,
        "sensor_name": "NB_BRG",
        "label": "SUBJECT held on NB_BRG"
      }
    },
    {
      "type": "Feature",
      "id": "ac3a3be9-e7ee-4a24-b5b3-a92fb3937c68",
      "geometry": null,
      "properties": {
        "kind": "SENSOR_CONTACT",
        "parent_track": "SENSOR",
        "time": "2010-01-12T13:56:40+00:00",
        "frequency": 149.116,
        "sensor_name": "NB_FREQ",
        "label": "SUBJECT held on NB_FREQ"
      }
    },
    {
      "type": "Feature",
      "id": "f2784494-311d-4087-93f7-17d5464f28e9",
      "geometry": null,
      "properties": {
        "kind": "SENSOR_CONTACT",
        "parent_track": "SENSOR",
        "time": "2010-01-12T13:56:40+00:00",
        "bearing": -96.2,
        "range": 0.0,
        "sensor_name": "NB_BRG",
        "label": "SUBJECT held on NB_BRG"
      }
    },
    {
      "type": "Feature",
      "id": "a7613c13-86f3-4db4-b083-3418e2ac6acd",
      "geometry": null,
      "properties": {
        "kind": "SENSOR_CONTACT",
        "parent_track": "SENSOR",
        "time": "2010-01-12T13:57:30+00:00",
        "frequency": 149.116,
        "sensor_name": "NB_FREQ",
        "label": "SUBJECT held on NB_FREQ"
      }
    },
    {
      "type": "Feature",
      "id": "5e641b06-72a6-4776-bc2c-7fc56123eda6",
      "geometry": null,
      "properties": {
        "kind": "SENSOR_CONTACT",
        "parent_track": "SENSOR",
        "time": "2010-01-12T13:57:30+00:00",
        "bearing": -96.1,
        "range": 0.0,
        "sensor_name": "NB_BRG",
        "label": "SUBJECT held on NB_BRG"
      }
    },
    {
      "type": "Feature",
      "id": "37aec395-df0f-4e3b-8926-bab6cc59c3e1",
      "geometry": null,
      "properties": {
        "kind": "SENSOR_CONTACT",
        "parent_track": "SENSOR",
        "time": "2010-01-12T13:58:20+00:00",
        "frequency": 149.116,
        "sensor_name": "NB_FREQ",
        "label": "SUBJECT held on NB_FREQ"
      }
    },
    {
      "type": "Feature",
      "id": "ed3b19cb-beed-49b4-8e8b-22c39c804c4e",
      "geometry": null,
      "properties": {
        "kind": "SENSOR_CONTACT",
        "parent_track": "SENSOR",
        "time": "2010-01-12T13:58:20+00:00",
        "bearing": -96.0,
        "range": 0.0,
        "sensor_name": "NB_BRG",
        "label": "SUBJECT held on NB_BRG"
      }
    },
    {
      "type": "Feature",
      "id": "7c251256-8d02-409c-b722-58feb4c42cc7",
      "geometry": null,
      "properties": {
        "kind": "SENSOR_CONTACT",
        "parent_track": "SENSOR",
        "time": "2010-01-12T13:59:10+00:00",
        "frequency": 149.116,
        "sensor_name": "NB_FREQ",
        "label": "SUBJECT held on NB_FREQ"
      }
    },
    {
      "type": "Feature",
      "id": "e479d7d8-065f-49fe-a85d-497e36b07976",
      "geometry": null,
      "properties": {
        "kind": "SENSOR_CONTACT",
        "parent_track": "SENSOR",
        "time": "2010-01-12T13:59:10+00:00",
        "bearing": -95.9,
        "range": 0.0,
        "sensor_name": "NB_BRG",
        "label": "SUBJECT held on NB_BRG"
      }
    },
    {
      "type": "Feature",
      "id": "f21ae22b-60e4-4ef1-a9c9-4d7a8628face",
      "geometry": null,
      "properties": {
        "kind": "SENSOR_CONTACT",
        "parent_track": "SENSOR",
        "time": "2010-01-12T14:00:00+00:00",
        "frequency": 149.115,
        "sensor_name": "NB_FREQ",
        "label": "SUBJECT held on NB_FREQ"
      }
    },
    {
      "type": "Feature",
      "id": "9fa7cf41-628f-4928-9757-9f44d089fa0b",
      "geometry": null,
      "properties": {
        "kind": "SENSOR_CONTACT",
        "parent_track": "SENSOR",
        "time": "2010-01-12T14:00:00+00:00",
        "bearing": -95.9,
        "range": 0.0,
        "sensor_name": "NB_BRG",
        "label": "SUBJECT held on NB_BRG"
      }
    }
  ]
}