{
  "type": "FeatureCollection",
  "features": [
    {
      "type": "Feature",
      "id": "35d1a0ac-05bc-403f-aa59-c485694c8dad",
      "geometry": {
        "type": "LineString",
        "coordinates": [
          [
            -30.0,
            -0.0
          ],
          [
            -30.0,
            -0.0
          ],
          [
            -30.000625,
            -0.0
          ],
          [
            -30.00125,
            -0.0
          ],
          [
            -30.001875,
            -0.0
          ],
          [
            -30.0025,
            -0.0
          ],
          [
            -30.003125,
            -0.0
          ],
          [
            -30.00375,
            -0.0
          ],
          [
            -30.004375,
            -0.0
          ],
          [
            -30.005,
            -0.0
          ],
          [
            -30.005625,
            -0.0
          ],
          [
            -30.00625,
            -0.0
          ],
          [
            -30.006875,
            -0.0
          ],
          [
            -30.0075,
            -0.0
          ],
          [
            -30.008125,
            -0.0
          ],
          [
            -30.00875,
            -0.0
          ],
          [
            -30.009375,
            -0.0
          ],
          [
            -30.01,
            -0.0
          ],
          [
            -30.010625,
            -0.0
          ],
          [
            -30.01125,
            -0.0
          ],
          [
            -30.011875,
            -0.0
          ],
          [
            -30.0125,
            -0.0
          ],
          [
            -30.013125,
            -0.0
          ],
          [
            -30.01375,
            -0.0
          ],
          [
            -30.014375,
            -0.0
          ],
          [
            -30.015,
            -0.0
          ],
          [
            -30.015625,
            -0.0
          ],
          [
            -30.01625,
            -0.0
          ],
          [
            -30.016875,
            -0.0
          ],
          [
            -30.0175,
            -0.0
          ],
          [
            -30.018124999999998,
            -0.0
          ],
          [
            -30.01875,
            -0.0
          ],
          [
            -30.019375,
            -0.0
          ],
          [
            -30.02,
            -0.0
          ],
          [
            -30.020625,
            -0.0
          ],
          [
            -30.02125,
            -0.0
          ],
          [
            -30.021874999999998,
            -0.0
          ],
          [
            -30.022499999999997,
            -0.0
          ],
          [
            -30.023125,
            -0.0
          ],
          [
            -30.02375,
            -0.0
          ],
          [
            -30.024375,
            -0.0
          ],
          [
            -30.025,
            -0.0
          ],
          [
            -30.025624999999998,
            -0.0
          ],
          [
            -30.026249999999997,
            -0.0
          ],
          [
            -30.026875,
            -0.0
          ],
          [
            -30.0275,
            -0.0
          ],
          [
            -30.028125,
            -0.0
          ],
          [
            -30.02875,
            -0.0
          ],
          [
            -30.029374999999998,
            -0.0
          ],
          [
            -30.029999999999998,
            -0.0
          ],
          [
            -30.030625,
            -0.0
          ],
          [
            -30.03125,
            -0.0
          ],
          [
            -30.031875,
            -0.0
          ],
          [
            -30.0325,
            -0.0
          ],
          [
            -30.033125,
            -0.0
          ],
          [
            -30.03375,
            -0.0
          ],
          [
            -30.034375,
            -0.0
          ],
          [
            -30.035,
            -0.0
          ],
          [
            -30.035625000000003,
            -0.0
          ],
          [
            -30.036250000000003,
            -0.0
          ],
          [
            -30.036875000000002,
            -0.0
          ],
          [
            -30.0375,
            -0.0
          ],
          [
            -30.038125,
            -0.0
          ],
          [
            -30.03875,
            -0.0
          ],
          [
            -30.039375000000003,
            -0.0
          ],
          [
            -30.040000000000003,
            -0.0
          ],
          [
            -30.040625000000002,
            -0.0
          ],
          [
            -30.04125,
            -0.0
          ],
          [
            -30.041875,
            -0.0
          ],
          [
            -30.0425,
            -0.0
          ],
          [
            -30.043125000000003,
            -0.0
          ],
          [
            -30.043750000000003,
            -0.0
          ],
          [
            -30.044375000000002,
            -0.0
          ],
          [
            -30.045,
            -0.0
          ],
          [
            -30.045625,
            -0.0
          ],
          [
            -30.04625,
            -0.0
          ],
          [
            -30.046875,
            -0.0
          ],
          [
            -30.047500000000003,
            -0.0
          ],
          [
            -30.048122222222222,
            -5.277777777777778e-05
          ],
          [
            -30.048725,
            -0.0002138888888888889
          ],
          [
            -30.04929166666667,
            -0.00047777777777777776
          ],
          [
            -30.049802777777778,
            -0.0008333333333333334
          ],
          [
            -30.05025277777778,
            -0.0012666666666666666
          ],
          [
            -30.05069166666667,
            -0.001713888888888889
          ],
          [
            -30.05112777777778,
            -0.002161111111111111
          ],
          [
            -30.05156388888889,
            -0.0026083333333333336
          ],
          [
            -30.05200277777778,
            -0.003052777777777778
          ],
          [
            -30.05243888888889,
            -0.0035
          ],
          [
            -30.052877777777777,
            -0.003947222222222223
          ],
          [
            -30.05331388888889,
            -0.004394444444444445
          ],
          [
            -30.05375,
            -0.004841666666666667
          ],
          [
            -30.05418888888889,
            -0.005286111111111111
          ],
          [
            -30.054625,
            -0.005733333333333333
          ],
          [
            -30.05506111111111,
            -0.0061805555555555555
          ],
          [
            -30.055500000000002,
            -0.006627777777777778
          ],
          [
            -30.055936111111112,
            -0.007075
          ],
          [
            -30.056375,
            -0.007519444444444445
          ],
          [
            -30.056811111111113,
            -0.007966666666666667
          ],
          [
            -30.057247222222223,
            -0.00841388888888889
          ],
          [
            -30.057686111111114,
            -0.008861111111111111
          ],
          [
            -30.058122222222224,
            -0.009308333333333333
          ],
          [
            -30.058558333333334,
            -0.009755555555555556
          ],
          [
            -30.058997222222224,
            -0.010199999999999999
          ],
          [
            -30.059433333333335,
            -0.010647222222222221
          ],
          [
            -30.059869444444445,
            -0.011094444444444443
          ],
          [
            -30.060308333333335,
            -0.011541666666666665
          ],
          [
            -30.060744444444445,
            -0.011988888888888887
          ],
          [
            -30.061183333333336,
            -0.012433333333333333
          ],
          [
            -30.061619444444446,
            -0.012880555555555555
          ],
          [
            -30.062055555555556,
            -0.013327777777777777
          ],
          [
            -30.062494444444447,
            -0.013775
          ],
          [
            -30.062930555555557,
            -0.014222222222222223
          ],
          [
            -30.063366666666667,
            -0.014666666666666666
          ],
          [
            -30.063805555555557,
            -0.015113888888888889
          ],
          [
            -30.064241666666668,
            -0.015561111111111112
          ],
          [
            -30.064680555555555,
            -0.016008333333333333
          ],
          [
            -30.06511666666667,
            -0.016455555555555557
          ],
          [
            -30.06555277777778,
            -0.016902777777777777
          ],
          [
            -30.06599166666667,
            -0.017347222222222222
          ],
          [
            -30.06642777777778,
            -0.017794444444444443
          ],
          [
            -30.06686388888889,
            -0.018241666666666666
          ],
          [
            -30.067302777777776,
            -0.018688888888888887
          ],
          [
            -30.06773888888889,
            -0.01913611111111111
          ],
          [
            -30.068175,
            -0.019580555555555556
          ],
          [
            -30.068613888888887,
            -0.020027777777777776
          ],
          [
            -30.06905,
            -0.020475
          ],
          [
            -30.069488888888888,
            -0.020922222222222224
          ],
          [
            -30.069925,
            -0.021369444444444444
          ],
          [
            -30.07036111111111,
            -0.02181388888888889
          ],
          [
            -30.0708,
            -0.02226111111111111
          ],
          [
            -30.071236111111112,
            -0.022708333333333334
          ],
          [
            -30.071672222222222,
            -0.023155555555555554
          ],
          [
            -30.07211111111111,
            -0.023602777777777778
          ],
          [
            -30.072547222222223,
            -0.024047222222222223
          ],
          [
            -30.07298611111111,
            -0.024494444444444444
          ],
          [
            -30.073422222222224,
            -0.024941666666666668
          ],
          [
            -30.073858333333334,
            -0.025388888888888888
          ],
          [
            -30.07429722222222,
            -0.02583611111111111
          ],
          [
            -30.074733333333334,
            -0.026283333333333332
          ],
          [
            -30.075169444444445,
            -0.026727777777777777
          ],
          [
            -30.07560833333333,
            -0.027174999999999998
          ],
          [
            -30.076044444444445,
            -0.02762222222222222
          ],
          [
            -30.076480555555555,
            -0.028069444444444445
          ],
          [
            -30.076919444444446,
            -0.028516666666666666
          ],
          [
            -30.077355555555556,
            -0.02896111111111111
          ],
          [
            -30.077794444444443,
            -0.029408333333333335
          ],
          [
            -30.078230555555557,
            -0.029855555555555555
          ],
          [
            -30.078666666666667,
            -0.03030277777777778
          ],
          [
            -30.079105555555554,
            -0.03075
          ],
          [
            -30.079541666666668,
            -0.03119444444444444
          ],
          [
            -30.079977777777778,
            -0.031641666666666665
          ],
          [
            -30.080416666666668,
            -0.03208888888888889
          ],
          [
            -30.08085277777778,
            -0.03253611111111111
          ],
          [
            -30.081291666666665,
            -0.03298333333333334
          ],
          [
            -30.08172777777778,
            -0.033430555555555554
          ],
          [
            -30.08216388888889,
            -0.033875
          ],
          [
            -30.082602777777776,
            -0.03432222222222222
          ],
          [
            -30.08303888888889,
            -0.03476944444444444
          ],
          [
            -30.083475,
            -0.03521666666666667
          ],
          [
            -30.083913888888887,
            -0.03566388888888889
          ],
          [
            -30.08435,
            -0.03610833333333333
          ],
          [
            -30.08478611111111,
            -0.036555555555555556
          ],
          [
            -30.085224999999998,
            -0.03700277777777778
          ],
          [
            -30.08566111111111,
            -0.03745
          ],
          [
            -30.0861,
            -0.03789722222222222
          ],
          [
            -30.08653611111111,
            -0.03834166666666666
          ],
          [
            -30.086972222222222,
            -0.03878888888888889
          ],
          [
            -30.08741111111111,
            -0.03923611111111111
          ],
          [
            -30.08784722222222,
            -0.039683333333333334
          ],
          [
            -30.088283333333333,
            -0.04013055555555556
          ],
          [
            -30.08872222222222,
            -0.040577777777777775
          ],
          [
            -30.089158333333334,
            -0.041022222222222224
          ],
          [
            -30.08959722222222,
            -0.04146944444444445
          ],
          [
            -30.09003333333333,
            -0.041916666666666665
          ],
          [
            -30.090469444444444,
            -0.04236388888888889
          ],
          [
            -30.09090833333333,
            -0.04281111111111111
          ],
          [
            -30.09134444444444,
            -0.043255555555555554
          ],
          [
            -30.091780555555555,
            -0.04370277777777778
          ],
          [
            -30.092219444444442,
            -0.044149999999999995
          ],
          [
            -30.092655555555556,
            -0.04459722222222222
          ],
          [
            -30.093091666666666,
            -0.04504444444444444
          ],
          [
            -30.093530555555553,
            -0.045488888888888884
          ],
          [
            -30.093966666666667,
            -0.04593611111111111
          ],
          [
            -30.094405555555554,
            -0.04638333333333333
          ],
          [
            -30.094841666666664,
            -0.046830555555555556
          ],
          [
            -30.095277777777778,
            -0.04727777777777778
          ],
          [
            -30.095716666666664,
            -0.04772222222222222
          ],
          [
            -30.096152777777778,
            -0.048169444444444445
          ],
          [
            -30.09658888888889,
            -0.04861666666666667
          ],
          [
            -30.097027777777775,
            -0.04906388888888889
          ],
          [
            -30.09746388888889,
            -0.04951111111111111
          ],
          [
            -30.097902777777776,
            -0.049958333333333334
          ],
          [
            -30.098338888888886,
            -0.05040277777777778
          ],
          [
            -30.098775,
            -0.050850000000000006
          ],
          [
            -30.099213888888887,
            -0.05129722222222222
          ],
          [
            -30.09965,
            -0.05174444444444445
          ],
          [
            -30.100086111111114,
            -0.05219166666666667
          ],
          [
            -30.100525,
            -0.05263611111111111
          ],
          [
            -30.10096111111111,
            -0.05308333333333334
          ],
          [
            -30.101397222222225,
            -0.05353055555555556
          ],
          [
            -30.101836111111112,
            -0.05397777777777778
          ],
          [
            -30.102272222222222,
            -0.054425
          ],
          [
            -30.102711111111113,
            -0.05486944444444445
          ],
          [
            -30.103147222222223,
            -0.05531666666666667
          ],
          [
            -30.103583333333336,
            -0.05576388888888889
          ],
          [
            -30.104022222222223,
            -0.056211111111111114
          ],
          [
            -30.104458333333334,
            -0.05665833333333334
          ],
          [
            -30.104894444444447,
            -0.057105555555555555
          ],
          [
            -30.105333333333334,
            -0.057550000000000004
          ],
          [
            -30.105769444444444,
            -0.05799722222222223
          ],
          [
            -30.106208333333335,
            -0.058444444444444445
          ],
          [
            -30.106644444444445,
            -0.05889166666666667
          ],
          [
            -30.10708055555556,
            -0.05933888888888889
          ],
          [
            -30.107519444444446,
            -0.059783333333333334
          ],
          [
            -30.107955555555556,
            -0.06023055555555556
          ],
          [
            -30.10839166666667,
            -0.06067777777777778
          ],
          [
            -30.108830555555556,
            -0.061125
          ],
          [
            -30.109266666666667,
            -0.06157222222222222
          ],
          [
            -30.10970277777778,
            -0.06201666666666667
          ],
          [
            -30.110141666666667,
            -0.06246388888888889
          ],
          [
            -30.110577777777777,
            -0.06291111111111111
          ],
          [
            -30.111016666666668,
            -0.06335833333333334
          ],
          [
            -30.111452777777778,
            -0.06380555555555556
          ],
          [
            -30.111888888888892,
            -0.06425277777777778
          ],
          [
            -30.11232777777778,
            -0.06469722222222223
          ],
          [
            -30.11276388888889,
            -0.06514444444444445
          ],
          [
            -30.113200000000003,
            -0.06559166666666667
          ],
          [
            -30.11363888888889,
            -0.0660388888888889
          ],
          [
            -30.114075,
            -0.06648611111111111
          ],
          [
            -30.11451388888889,
            -0.06693055555555555
          ],
          [
            -30.11495,
            -0.06737777777777777
          ],
          [
            -30.115386111111114,
            -0.067825
          ],
          [
            -30.115825,
            -0.06827222222222222
          ],
          [
            -30.11626111111111,
            -0.06871944444444444
          ],
          [
            -30.11669722222222,
            -0.06916388888888889
          ],
          [
            -30.11713611111111,
            -0.06961111111111111
          ],
          [
            -30.117572222222222,
            -0.07005833333333333
          ],
          [
            -30.118008333333332,
            -0.07050555555555556
          ],
          [
            -30.118447222222223,
            -0.07095277777777778
          ],
          [
            -30.118883333333333,
            -0.07139722222222222
          ],
          [
            -30.119322222222223,
            -0.07184444444444445
          ],
          [
            -30.119758333333333,
            -0.07229166666666667
          ]
        ]
      },
      "properties": {
        "kind": "TRACK",
        "platform_id": "SUBJECT",
        "platform_name": "SUBJECT",
        "track_type": "CONTACT",
        "start_time": "2010-01-12T12:13:14+00:00",
        "end_time": "2010-01-12T13:13:14+00:00",
        "positions": [
          {
            "time": "2010-01-12T12:13:14+00:00",
            "course": 270.0,
            "speed": 9.0,
            "depth": 0.0
          },
          {
            "time": "2010-01-12T12:13:14+00:00",
            "course": 270.0,
            "speed": 9.0,
            "depth": 0.0
          },
          {
            "time": "2010-01-12T12:13:29+00:00",
            "course": 270.0,
            "speed": 9.0,
            "depth": 0.0
          },
          {
            "time": "2010-01-12T12:13:44+00:00",
            "course": 270.0,
            "speed": 9.0,
            "depth": 0.0
          },
          {
            "time": "2010-01-12T12:13:59+00:00",
            "course": 270.0,
            "speed": 9.0,
            "depth": 0.0
          },
          {
            "time": "2010-01-12T12:14:14+00:00",
            "course": 270.0,
            "speed": 9.0,
            "depth": 0.0
          },
          {
            "time": "2010-01-12T12:14:29+00:00",
            "course": 270.0,
            "speed": 9.0,
            "depth": 0.0
          },
          {
            "time": "2010-01-12T12:14:44+00:00",
            "course": 270.0,
            "speed": 9.0,
            "depth": 0.0
          },
          {
            "time": "2010-01-12T12:14:59+00:00",
            "course": 270.0,
            "speed": 9.0,
            "depth": 0.0
          },
          {
            "time": "2010-01-12T12:15:14+00:00",
            "course": 270.0,
            "speed": 9.0,
            "depth": 0.0
          },
          {
            "time": "2010-01-12T12:15:29+00:00",
            "course": 270.0,
            "speed": 9.0,
            "depth": 0.0
          },
          {
            "time": "2010-01-12T12:15:44+00:00",
            "course": 270.0,
            "speed": 9.0,
            "depth": 0.0
          },
          {
            "time": "2010-01-12T12:15:59+00:00",
            "course": 270.0,
            "speed": 9.0,
            "depth": 0.0
          },
          {
            "time": "2010-01-12T12:16:14+00:00",
            "course": 270.0,
            "speed": 9.0,
            "depth": 0.0
          },
          {
            "time": "2010-01-12T12:16:29+00:00",
            "course": 270.0,
            "speed": 9.0,
            "depth": 0.0
          },
          {
            "time": "2010-01-12T12:16:44+00:00",
            "course": 270.0,
            "speed": 9.0,
            "depth": 0.0
          },
          {
            "time": "2010-01-12T12:16:59+00:00",
            "course": 270.0,
            "speed": 9.0,
            "depth": 0.0
          },
          {
            "time": "2010-01-12T12:17:14+00:00",
            "course": 270.0,
            "speed": 9.0,
            "depth": 0.0
          },
          {
            "time": "2010-01-12T12:17:29+00:00",
            "course": 270.0,
            "speed": 9.0,
            "depth": 0.0
          },
          {
            "time": "2010-01-12T12:17:44+00:00",
            "course": 270.0,
            "speed": 9.0,
            "depth": 0.0
          },
          {
            "time": "2010-01-12T12:17:59+00:00",
            "course": 270.0,
            "speed": 9.0,
            "depth": 0.0
          },
          {
            "time": "2010-01-12T12:18:14+00:00",
            "course": 270.0,
            "speed": 9.0,
            "depth": 0.0
          },
          {
            "time": "2010-01-12T12:18:29+00:00",
            "course": 270.0,
            "speed": 9.0,
            "depth": 0.0
          },
          {
            "time": "2010-01-12T12:18:44+00:00",
            "course": 270.0,
            "speed": 9.0,
            "depth": 0.0
          },
          {
            "time": "2010-01-12T12:18:59+00:00",
            "course": 270.0,
            "speed": 9.0,
            "depth": 0.0
          },
          {
            "time": "2010-01-12T12:19:14+00:00",
            "course": 270.0,
            "speed": 9.0,
            "depth": 0.0
          },
          {
            "time": "2010-01-12T12:19:29+00:00",
            "course": 270.0,
            "speed": 9.0,
            "depth": 0.0
          },
          {
            "time": "2010-01-12T12:19:44+00:00",
            "course": 270.0,
            "speed": 9.0,
            "depth": 0.0
          },
          {
            "time": "2010-01-12T12:19:59+00:00",
            "course": 270.0,
            "speed": 9.0,
            "depth": 0.0
          },
          {
            "time": "2010-01-12T12:20:14+00:00",
            "course": 270.0,
            "speed": 9.0,
            "depth": 0.0
          },
          {
            "time": "2010-01-12T12:20:29+00:00",
            "course": 270.0,
            "speed": 9.0,
            "depth": 0.0
          },
          {
            "time": "2010-01-12T12:20:44+00:00",
            "course": 270.0,
            "speed": 9.0,
            "depth": 0.0
          },
          {
            "time": "2010-01-12T12:20:59+00:00",
            "course": 270.0,
            "speed": 9.0,
            "depth": 0.0
          },
          {
            "time": "2010-01-12T12:21:14+00:00",
            "course": 270.0,
            "speed": 9.0,
            "depth": 0.0
          },
          {
            "time": "2010-01-12T12:21:29+00:00",
            "course": 270.0,
            "speed": 9.0,
            "depth": 0.0
          },
          {
            "time": "2010-01-12T12:21:44+00:00",
            "course": 270.0,
            "speed": 9.0,
            "depth": 0.0
          },
          {
            "time": "2010-01-12T12:21:59+00:00",
            "course": 270.0,
            "speed": 9.0,
            "depth": 0.0
          },
          {
            "time": "2010-01-12T12:22:14+00:00",
            "course": 270.0,
            "speed": 9.0,
            "depth": 0.0
          },
          {
            "time": "2010-01-12T12:22:29+00:00",
            "course": 270.0,
            "speed": 9.0,
            "depth": 0.0
          },
          {
            "time": "2010-01-12T12:22:44+00:00",
            "course": 270.0,
            "speed": 9.0,
            "depth": 0.0
          },
          {
            "time": "2010-01-12T12:22:59+00:00",
            "course": 270.0,
            "speed": 9.0,
            "depth": 0.0
          },
          {
            "time": "2010-01-12T12:23:14+00:00",
            "course": 270.0,
            "speed": 9.0,
            "depth": 0.0
          },
          {
            "time": "2010-01-12T12:23:29+00:00",
            "course": 270.0,
            "speed": 9.0,
            "depth": 0.0
          },
          {
            "time": "2010-01-12T12:23:44+00:00",
            "course": 270.0,
            "speed": 9.0,
            "depth": 0.0
          },
          {
            "time": "2010-01-12T12:23:59+00:00",
            "course": 270.0,
            "speed": 9.0,
            "depth": 0.0
          },
          {
            "time": "2010-01-12T12:24:14+00:00",
            "course": 270.0,
            "speed": 9.0,
            "depth": 0.0
          },
          {
            "time": "2010-01-12T12:24:29+00:00",
            "course": 270.0,
            "speed": 9.0,
            "depth": 0.0
          },
          {
            "time": "2010-01-12T12:24:44+00:00",
            "course": 270.0,
            "speed": 9.0,
            "depth": 0.0
          },
          {
            "time": "2010-01-12T12:24:59+00:00",
            "course": 270.0,
            "speed": 9.0,
            "depth": 0.0
          },
          {
            "time": "2010-01-12T12:25:14+00:00",
            "course": 270.0,
            "speed": 9.0,
            "depth": 0.0
          },
          {
            "time": "2010-01-12T12:25:29+00:00",
            "course": 270.0,
            "speed": 9.0,
            "depth": 0.0
          },
          {
            "time": "2010-01-12T12:25:44+00:00",
            "course": 270.0,
            "speed": 9.0,
            "depth": 0.0
          },
          {
            "time": "2010-01-12T12:25:59+00:00",
            "course": 270.0,
            "speed": 9.0,
            "depth": 0.0
          },
          {
            "time": "2010-01-12T12:26:14+00:00",
            "course": 270.0,
            "speed": 9.0,
            "depth": 0.0
          },
          {
            "time": "2010-01-12T12:26:29+00:00",
            "course": 270.0,
            "speed": 9.0,
            "depth": 0.0
          },
          {
            "time": "2010-01-12T12:26:44+00:00",
            "course": 270.0,
            "speed": 9.0,
            "depth": 0.0
          },
          {
            "time": "2010-01-12T12:26:59+00:00",
            "course": 270.0,
            "speed": 9.0,
            "depth": 0.0
          },
          {
            "time": "2010-01-12T12:27:14+00:00",
            "course": 270.0,
            "speed": 9.0,
            "depth": 0.0
          },
          {
            "time": "2010-01-12T12:27:29+00:00",
            "course": 270.0,
            "speed": 9.0,
            "depth": 0.0
          },
          {
            "time": "2010-01-12T12:27:44+00:00",
            "course": 270.0,
            "speed": 9.0,
            "depth": 0.0
          },
          {
            "time": "2010-01-12T12:27:59+00:00",
            "course": 270.0,
            "speed": 9.0,
            "depth": 0.0
          },
          {
            "time": "2010-01-12T12:28:14+00:00",
            "course": 270.0,
            "speed": 9.0,
            "depth": 0.0
          },
          {
            "time": "2010-01-12T12:28:29+00:00",
            "course": 270.0,
            "speed": 9.0,
            "depth": 0.0
          },
          {
            "time": "2010-01-12T12:28:44+00:00",
            "course": 270.0,
            "speed": 9.0,
            "depth": 0.0
          },
          {
            "time": "2010-01-12T12:28:59+00:00",
            "course": 270.0,
            "speed": 9.0,
            "depth": 0.0
          },
          {
            "time": "2010-01-12T12:29:14+00:00",
            "course": 270.0,
            "speed": 9.0,
            "depth": 0.0
          },
          {
            "time": "2010-01-12T12:29:29+00:00",
            "course": 270.0,
            "speed": 9.0,
            "depth": 0.0
          },
          {
            "time": "2010-01-12T12:29:44+00:00",
            "course": 270.0,
            "speed": 9.0,
            "depth": 0.0
          },
          {
            "time": "2010-01-12T12:29:59+00:00",
            "course": 270.0,
            "speed": 9.0,
            "depth": 0.0
          },
          {
            "time": "2010-01-12T12:30:14+00:00",
            "course": 270.0,
            "speed": 9.0,
            "depth": 0.0
          },
          {
            "time": "2010-01-12T12:30:29+00:00",
            "course": 270.0,
            "speed": 9.0,
            "depth": 0.0
          },
          {
            "time": "2010-01-12T12:30:44+00:00",
            "course": 270.0,
            "speed": 9.0,
            "depth": 0.0
          },
          {
            "time": "2010-01-12T12:30:59+00:00",
            "course": 270.0,
            "speed": 9.0,
            "depth": 0.0
          },
          {
            "time": "2010-01-12T12:31:14+00:00",
            "course": 270.0,
            "speed": 9.0,
            "depth": 0.0
          },
          {
            "time": "2010-01-12T12:31:29+00:00",
            "course": 270.0,
            "speed": 9.0,
            "depth": 0.0
          },
          {
            "time": "2010-01-12T12:31:44+00:00",
            "course": 270.0,
            "speed": 9.0,
            "depth": 0.0
          },
          {
            "time": "2010-01-12T12:31:59+00:00",
            "course": 270.0,
            "speed": 9.0,
            "depth": 0.0
          },
          {
            "time": "2010-01-12T12:32:14+00:00",
            "course": 270.0,
            "speed": 9.0,
            "depth": 0.0
          },
          {
            "time": "2010-01-12T12:32:29+00:00",
            "course": 260.05,
            "speed": 9.0,
            "depth": 0.0
          },
          {
            "time": "2010-01-12T12:32:44+00:00",
            "course": 250.1,
            "speed": 9.0,
            "depth": 0.0
          },
          {
            "time": "2010-01-12T12:32:59+00:00",
            "course": 240.16,
            "speed": 9.0,
            "depth": 0.0
          },
          {
            "time": "2010-01-12T12:33:14+00:00",
            "course": 230.21,
            "speed": 9.0,
            "depth": 0.0
          },
          {
            "time": "2010-01-12T12:33:29+00:00",
            "course": 224.39,
            "speed": 9.0,
            "depth": 0.0
          },
          {
            "time": "2010-01-12T12:33:44+00:00",
            "course": 224.38,
            "speed": 9.0,
            "depth": 0.0
          },
          {
            "time": "2010-01-12T12:33:59+00:00",
            "course": 224.38,
            "speed": 9.0,
            "depth": 0.0
          },
          {
            "time": "2010-01-12T12:34:14+00:00",
            "course": 224.38,
            "speed": 9.0,
            "depth": 0.0
          },
          {
            "time": "2010-01-12T12:34:29+00:00",
            "course": 224.38,
            "speed": 9.0,
            "depth": 0.0
          },
          {
            "time": "2010-01-12T12:34:44+00:00",
            "course": 224.38,
            "speed": 9.0,
            "depth": 0.0
          },
          {
            "time": "2010-01-12T12:34:59+00:00",
            "course": 224.38,
            "speed": 9.0,
            "depth": 0.0
          },
          {
            "time": "2010-01-12T12:35:14+00:00",
            "course": 224.38,
            "speed": 9.0,
            "depth": 0.0
          },
          {
            "time": "2010-01-12T12:35:29+00:00",
            "course": 224.38,
            "speed": 9.0,
            "depth": 0.0
          },
          {
            "time": "2010-01-12T12:35:44+00:00",
            "course": 224.38,
            "speed": 9.0,
            "depth": 0.0
          },
          {
            "time": "2010-01-12T12:35:59+00:00",
            "course": 224.38,
            "speed": 9.0,
            "depth": 0.0
          },
          {
            "time": "2010-01-12T12:36:14+00:00",
            "course": 224.38,
            "speed": 9.0,
            "depth": 0.0
          },
          {
            "time": "2010-01-12T12:36:29+00:00",
            "course": 224.38,
            "speed": 9.0,
            "depth": 0.0
          },
          {
            "time": "2010-01-12T12:36:44+00:00",
            "course": 224.38,
            "speed": 9.0,
            "depth": 0.0
          },
          {
            "time": "2010-01-12T12:36:59+00:00",
            "course": 224.38,
            "speed": 9.0,
            "depth": 0.0
          },
          {
            "time": "2010-01-12T12:37:14+00:00",
            "course": 224.38,
            "speed": 9.0,
            "depth": 0.0
          },
          {
            "time": "2010-01-12T12:37:29+00:00",
            "course": 224.38,
            "speed": 9.0,
            "depth": 0.0
          },
          {
            "time": "2010-01-12T12:37:44+00:00",
            "course": 224.38,
            "speed": 9.0,
            "depth": 0.0
          },
          {
            "time": "2010-01-12T12:37:59+00:00",
            "course": 224.38,
            "speed": 9.0,
            "depth": 0.0
          },
          {
            "time": "2010-01-12T12:38:14+00:00",
            "course": 224.38,
            "speed": 9.0,
            "depth": 0.0
          },
          {
            "time": "2010-01-12T12:38:29+00:00",
            "course": 224.38,
            "speed": 9.0,
            "depth": 0.0
          },
          {
            "time": "2010-01-12T12:38:44+00:00",
            "course": 224.38,
            "speed": 9.0,
            "depth": 0.0
          },
          {
            "time": "2010-01-12T12:38:59+00:00",
            "course": 224.38,
            "speed": 9.0,
            "depth": 0.0
          },
          {
            "time": "2010-01-12T12:39:14+00:00",
            "course": 224.38,
            "speed": 9.0,
            "depth": 0.0
          },
          {
            "time": "2010-01-12T12:39:29+00:00",
            "course": 224.38,
            "speed": 9.0,
            "depth": 0.0
          },
          {
            "time": "2010-01-12T12:39:44+00:00",
            "course": 224.38,
            "speed": 9.0,
            "depth": 0.0
          },
          {
            "time": "2010-01-12T12:39:59+00:00",
            "course": 224.38,
            "speed": 9.0,
            "depth": 0.0
          },
          {
            "time": "2010-01-12T12:40:14+00:00",
            "course": 224.38,
            "speed": 9.0,
            "depth": 0.0
          },
          {
            "time": "2010-01-12T12:40:29+00:00",
            "course": 224.38,
            "speed": 9.0,
            "depth": 0.0
          },
          {
            "time": "2010-01-12T12:40:44+00:00",
            "course": 224.38,
            "speed": 9.0,
            "depth": 0.0
          },
          {
            "time": "2010-01-12T12:40:59+00:00",
            "course": 224.38,
            "speed": 9.0,
            "depth": 0.0
          },
          {
            "time": "2010-01-12T12:41:14+00:00",
            "course": 224.38,
            "speed": 9.0,
            "depth": 0.0
          },
          {
            "time": "2010-01-12T12:41:29+00:00",
            "course": 224.38,
            "speed": 9.0,
            "depth": 0.0
          },
          {
            "time": "2010-01-12T12:41:44+00:00",
            "course": 224.38,
            "speed": 9.0,
            "depth": 0.0
          },
          {
            "time": "2010-01-12T12:41:59+00:00",
            "course": 224.38,
            "speed": 9.0,
            "depth": 0.0
          },
          {
            "time": "2010-01-12T12:42:14+00:00",
            "course": 224.38,
            "speed": 9.0,
            "depth": 0.0
          },
          {
            "time": "2010-01-12T12:42:29+00:00",
            "course": 224.38,
            "speed": 9.0,
            "depth": 0.0
          },
          {
            "time": "2010-01-12T12:42:44+00:00",
            "course": 224.38,
            "speed": 9.0,
            "depth": 0.0
          },
          {
            "time": "2010-01-12T12:42:59+00:00",
            "course": 224.38,
            "speed": 9.0,
            "depth": 0.0
          },
          {
            "time": "2010-01-12T12:43:14+00:00",
            "course": 224.38,
            "speed": 9.0,
            "depth": 0.0
          },
          {
            "time": "2010-01-12T12:43:29+00:00",
            "course": 224.38,
            "speed": 9.0,
            "depth": 0.0
          },
          {
            "time": "2010-01-12T12:43:44+00:00",
            "course": 224.38,
            "speed": 9.0,
            "depth": 0.0
          },
          {
            "time": "2010-01-12T12:43:59+00:00",
            "course": 224.38,
            "speed": 9.0,
            "depth": 0.0
          },
          {
            "time": "2010-01-12T12:44:14+00:00",
            "course": 224.38,
            "speed": 9.0,
            "depth": 0.0
          },
          {
            "time": "2010-01-12T12:44:29+00:00",
            "course": 224.38,
            "speed": 9.0,
            "depth": 0.0
          },
          {
            "time": "2010-01-12T12:44:44+00:00",
            "course": 224.38,
            "speed": 9.0,
            "depth": 0.0
          },
          {
            "time": "2010-01-12T12:44:59+00:00",
            "course": 224.38,
            "speed": 9.0,
            "depth": 0.0
          },
          {
            "time": "2010-01-12T12:45:14+00:00",
            "course": 224.38,
            "speed": 9.0,
            "depth": 0.0
          },
          {
            "time": "2010-01-12T12:45:29+00:00",
            "course": 224.38,
            "speed": 9.0,
            "depth": 0.0
          },
          {
            "time": "2010-01-12T12:45:44+00:00",
            "course": 224.38,
            "speed": 9.0,
            "depth": 0.0
          },
          {
            "time": "2010-01-12T12:45:59+00:00",
            "course": 224.38,
            "speed": 9.0,
            "depth": 0.0
          },
          {
            "time": "2010-01-12T12:46:14+00:00",
            "course": 224.38,
            "speed": 9.0,
            "depth": 0.0
          },
          {
            "time": "2010-01-12T12:46:29+00:00",
            "course": 224.38,
            "speed": 9.0,
            "depth": 0.0
          },
          {
            "time": "2010-01-12T12:46:44+00:00",
            "course": 224.38,
            "speed": 9.0,
            "depth": 0.0
          },
          {
            "time": "2010-01-12T12:46:59+00:00",
            "course": 224.38,
            "speed": 9.0,
            "depth": 0.0
          },
          {
            "time": "2010-01-12T12:47:14+00:00",
            "course": 224.38,
            "speed": 9.0,
            "depth": 0.0
          },
          {
            "time": "2010-01-12T12:47:29+00:00",
            "course": 224.38,
            "speed": 9.0,
            "depth": 0.0
          },
          {
            "time": "2010-01-12T12:47:44+00:00",
            "course": 224.38,
            "speed": 9.0,
            "depth": 0.0
          },
          {
            "time": "2010-01-12T12:47:59+00:00",
            "course": 224.38,
            "speed": 9.0,
            "depth": 0.0
          },
          {
            "time": "2010-01-12T12:48:14+00:00",
            "course": 224.38,
            "speed": 9.0,
            "depth": 0.0
          },
          {
            "time": "2010-01-12T12:48:29+00:00",
            "course": 224.38,
            "speed": 9.0,
            "depth": 0.0
          },
          {
            "time": "2010-01-12T12:48:44+00:00",
            "course": 224.38,
            "speed": 9.0,
            "depth": 0.0
          },
          {
            "time": "2010-01-12T12:48:59+00:00",
            "course": 224.38,
            "speed": 9.0,
            "depth": 0.0
          },
          {
            "time": "2010-01-12T12:49:14+00:00",
            "course": 224.38,
            "speed": 9.0,
            "depth": 0.0
          },
          {
            "time": "2010-01-12T12:49:29+00:00",
            "course": 224.38,
            "speed": 9.0,
            "depth": 0.0
          },
          {
            "time": "2010-01-12T12:49:44+00:00",
            "course": 224.38,
            "speed": 9.0,
            "depth": 0.0
          },
          {
            "time": "2010-01-12T12:49:59+00:00",
            "course": 224.38,
            "speed": 9.0,
            "depth": 0.0
          },
          {
            "time": "2010-01-12T12:50:14+00:00",
            "course": 224.38,
            "speed": 9.0,
            "depth": 0.0
          },
          {
            "time": "2010-01-12T12:50:29+00:00",
            "course": 224.38,
            "speed": 9.0,
            "depth": 0.0
          },
          {
            "time": "2010-01-12T12:50:44+00:00",
            "course": 224.38,
            "speed": 9.0,
            "depth": 0.0
          },
          {
            "time": "2010-01-12T12:50:59+00:00",
            "course": 224.38,
            "speed": 9.0,
            "depth": 0.0
          },
          {
            "time": "2010-01-12T12:51:14+00:00",
            "course": 224.38,
            "speed": 9.0,
            "depth": 0.0
          },
          {
            "time": "2010-01-12T12:51:29+00:00",
            "course": 224.38,
            "speed": 9.0,
            "depth": 0.0
          },
          {
            "time": "2010-01-12T12:51:44+00:00",
            "course": 224.38,
            "speed": 9.0,
            "depth": 0.0
          },
          {
            "time": "2010-01-12T12:51:59+00:00",
            "course": 224.38,
            "speed": 9.0,
            "depth": 0.0
          },
          {
            "time": "2010-01-12T12:52:14+00:00",
            "course": 224.38,
            "speed": 9.0,
            "depth": 0.0
          },
          {
            "time": "2010-01-12T12:52:29+00:00",
            "course": 224.38,
            "speed": 9.0,
            "depth": 0.0
          },
          {
            "time": "2010-01-12T12:52:44+00:00",
            "course": 224.38,
            "speed": 9.0,
            "depth": 0.0
          },
          {
            "time": "2010-01-12T12:52:59+00:00",
            "course": 224.38,
            "speed": 9.0,
            "depth": 0.0
          },
          {
            "time": "2010-01-12T12:53:14+00:00",
            "course": 224.38,
            "speed": 9.0,
            "depth": 0.0
          },
          {
            "time": "2010-01-12T12:53:29+00:00",
            "course": 224.38,
            "speed": 9.0,
            "depth": 0.0
          },
          {
            "time": "2010-01-12T12:53:44+00:00",
            "course": 224.38,
            "speed": 9.0,
            "depth": 0.0
          },
          {
            "time": "2010-01-12T12:53:59+00:00",
            "course": 224.38,
            "speed": 9.0,
            "depth": 0.0
          },
          {
            "time": "2010-01-12T12:54:14+00:00",
            "course": 224.38,
            "speed": 9.0,
            "depth": 0.0
          },
          {
            "time": "2010-01-12T12:54:29+00:00",
            "course": 224.38,
            "speed": 9.0,
            "depth": 0.0
          },
          {
            "time": "2010-01-12T12:54:44+00:00",
            "course": 224.38,
            "speed": 9.0,
            "depth": 0.0
          },
          {
            "time": "2010-01-12T12:54:59+00:00",
            "course": 224.38,
            "speed": 9.0,
            "depth": 0.0
          },
          {
            "time": "2010-01-12T12:55:14+00:00",
            "course": 224.38,
            "speed": 9.0,
            "depth": 0.0
          },
          {
            "time": "2010-01-12T12:55:29+00:00",
            "course": 224.38,
            "speed": 9.0,
            "depth": 0.0
          },
          {
            "time": "2010-01-12T12:55:44+00:00",
            "course": 224.38,
            "speed": 9.0,
            "depth": 0.0
          },
          {
            "time": "2010-01-12T12:55:59+00:00",
            "course": 224.38,
            "speed": 9.0,
            "depth": 0.0
          },
          {
            "time": "2010-01-12T12:56:14+00:00",
            "course": 224.38,
            "speed": 9.0,
            "depth": 0.0
          },
          {
            "time": "2010-01-12T12:56:29+00:00",
            "course": 224.38,
            "speed": 9.0,
            "depth": 0.0
          },
          {
            "time": "2010-01-12T12:56:44+00:00",
            "course": 224.38,
            "speed": 9.0,
            "depth": 0.0
          },
          {
            "time": "2010-01-12T12:56:59+00:00",
            "course": 224.38,
            "speed": 9.0,
            "depth": 0.0
          },
          {
            "time": "2010-01-12T12:57:14+00:00",
            "course": 224.38,
            "speed": 9.0,
            "depth": 0.0
          },
          {
            "time": "2010-01-12T12:57:29+00:00",
            "course": 224.38,
            "speed": 9.0,
            "depth": 0.0
          },
          {
            "time": "2010-01-12T12:57:44+00:00",
            "course": 224.38,
            "speed": 9.0,
            "depth": 0.0
          },
          {
            "time": "2010-01-12T12:57:59+00:00",
            "course": 224.38,
            "speed": 9.0,
            "depth": 0.0
          },
          {
            "time": "2010-01-12T12:58:14+00:00",
            "course": 224.38,
            "speed": 9.0,
            "depth": 0.0
          },
          {
            "time": "2010-01-12T12:58:29+00:00",
            "course": 224.38,
            "speed": 9.0,
            "depth": 0.0
          },
          {
            "time": "2010-01-12T12:58:44+00:00",
            "course": 224.38,
            "speed": 9.0,
            "depth": 0.0
          },
          {
            "time": "2010-01-12T12:58:59+00:00",
            "course": 224.38,
            "speed": 9.0,
            "depth": 0.0
          },
          {
            "time": "2010-01-12T12:59:14+00:00",
            "course": 224.38,
            "speed": 9.0,
            "depth": 0.0
          },
          {
            "time": "2010-01-12T12:59:29+00:00",
            "course": 224.38,
            "speed": 9.0,
            "depth": 0.0
          },
          {
            "time": "2010-01-12T12:59:44+00:00",
            "course": 224.38,
            "speed": 9.0,
            "depth": 0.0
          },
          {
            "time": "2010-01-12T12:59:59+00:00",
            "course": 224.38,
            "speed": 9.0,
            "depth": 0.0
          },
          {
            "time": "2010-01-12T13:00:14+00:00",
            "course": 224.38,
            "speed": 9.0,
            "depth": 0.0
          },
          {
            "time": "2010-01-12T13:00:29+00:00",
            "course": 224.38,
            "speed": 9.0,
            "depth": 0.0
          },
          {
            "time": "2010-01-12T13:00:44+00:00",
            "course": 224.38,
            "speed": 9.0,
            "depth": 0.0
          },
          {
            "time": "2010-01-12T13:00:59+00:00",
            "course": 224.38,
            "speed": 9.0,
            "depth": 0.0
          },
          {
            "time": "2010-01-12T13:01:14+00:00",
            "course": 224.38,
            "speed": 9.0,
            "depth": 0.0
          },
          {
            "time": "2010-01-12T13:01:29+00:00",
            "course": 224.38,
            "speed": 9.0,
            "depth": 0.0
          },
          {
            "time": "2010-01-12T13:01:44+00:00",
            "course": 224.38,
            "speed": 9.0,
            "depth": 0.0
          },
          {
            "time": "2010-01-12T13:01:59+00:00",
            "course": 224.38,
            "speed": 9.0,
            "depth": 0.0
          },
          {
            "time": "2010-01-12T13:02:14+00:00",
            "course": 224.38,
            "speed": 9.0,
            "depth": 0.0
          },
          {
            "time": "2010-01-12T13:02:29+00:00",
            "course": 224.38,
            "speed": 9.0,
            "depth": 0.0
          },
          {
            "time": "2010-01-12T13:02:44+00:00",
            "course": 224.38,
            "speed": 9.0,
            "depth": 0.0
          },
          {
            "time": "2010-01-12T13:02:59+00:00",
            "course": 224.38,
            "speed": 9.0,
            "depth": 0.0
          },
          {
            "time": "2010-01-12T13:03:14+00:00",
            "course": 224.38,
            "speed": 9.0,
            "depth": 0.0
          },
          {
            "time": "2010-01-12T13:03:29+00:00",
            "course": 224.38,
            "speed": 9.0,
            "depth": 0.0
          },
          {
            "time": "2010-01-12T13:03:44+00:00",
            "course": 224.38,
            "speed": 9.0,
            "depth": 0.0
          },
          {
            "time": "2010-01-12T13:03:59+00:00",
            "course": 224.38,
            "speed": 9.0,
            "depth": 0.0
          },
          {
            "time": "2010-01-12T13:04:14+00:00",
            "course": 224.38,
            "speed": 9.0,
            "depth": 0.0
          },
          {
            "time": "2010-01-12T13:04:29+00:00",
            "course": 224.38,
            "speed": 9.0,
            "depth": 0.0
          },
          {
            "time": "2010-01-12T13:04:44+00:00",
            "course": 224.38,
            "speed": 9.0,
            "depth": 0.0
          },
          {
            "time": "2010-01-12T13:04:59+00:00",
            "course": 224.38,
            "speed": 9.0,
            "depth": 0.0
          },
          {
            "time": "2010-01-12T13:05:14+00:00",
            "course": 224.38,
            "speed": 9.0,
            "depth": 0.0
          },
          {
            "time": "2010-01-12T13:05:29+00:00",
            "course": 224.38,
            "speed": 9.0,
            "depth": 0.0
          },
          {
            "time": "2010-01-12T13:05:44+00:00",
            "course": 224.38,
            "speed": 9.0,
            "depth": 0.0
          },
          {
            "time": "2010-01-12T13:05:59+00:00",
            "course": 224.38,
            "speed": 9.0,
            "depth": 0.0
          },
          {
            "time": "2010-01-12T13:06:14+00:00",
            "course": 224.38,
            "speed": 9.0,
            "depth": 0.0
          },
          {
            "time": "2010-01-12T13:06:29+00:00",
            "course": 224.38,
            "speed": 9.0,
            "depth": 0.0
          },
          {
            "time": "2010-01-12T13:06:44+00:00",
            "course": 224.38,
            "speed": 9.0,
            "depth": 0.0
          },
          {
            "time": "2010-01-12T13:06:59+00:00",
            "course": 224.38,
            "speed": 9.0,
            "depth": 0.0
          },
          {
            "time": "2010-01-12T13:07:14+00:00",
            "course": 224.38,
            "speed": 9.0,
            "depth": 0.0
          },
          {
            "time": "2010-01-12T13:07:29+00:00",
            "course": 224.38,
            "speed": 9.0,
            "depth": 0.0
          },
          {
            "time": "2010-01-12T13:07:44+00:00",
            "course": 224.38,
            "speed": 9.0,
            "depth": 0.0
          },
          {
            "time": "2010-01-12T13:07:59+00:00",
            "course": 224.38,
            "speed": 9.0,
            "depth": 0.0
          },
          {
            "time": "2010-01-12T13:08:14+00:00",
            "course": 224.38,
            "speed": 9.0,
            "depth": 0.0
          },
          {
            "time": "2010-01-12T13:08:29+00:00",
            "course": 224.38,
            "speed": 9.0,
            "depth": 0.0
          },
          {
            "time": "2010-01-12T13:08:44+00:00",
            "course": 224.38,
            "speed": 9.0,
            "depth": 0.0
          },
          {
            "time": "2010-01-12T13:08:59+00:00",
            "course": 224.38,
            "speed": 9.0,
            "depth": 0.0
          },
          {
            "time": "2010-01-12T13:09:14+00:00",
            "course": 224.38,
            "speed": 9.0,
            "depth": 0.0
          },
          {
            "time": "2010-01-12T13:09:29+00:00",
            "course": 224.38,
            "speed": 9.0,
            "depth": 0.0
          },
          {
            "time": "2010-01-12T13:09:44+00:00",
            "course": 224.38,
            "speed": 9.0,
            "depth": 0.0
          },
          {
            "time": "2010-01-12T13:09:59+00:00",
            "course": 224.38,
            "speed": 9.0,
            "depth": 0.0
          },
          {
            "time": "2010-01-12T13:10:14+00:00",
            "course": 224.38,
            "speed": 9.0,
            "depth": 0.0
          },
          {
            "time": "2010-01-12T13:10:29+00:00",
            "course": 224.38,
            "speed": 9.0,
            "depth": 0.0
          },
          {
            "time": "2010-01-12T13:10:44+00:00",
            "course": 224.38,
            "speed": 9.0,
            "depth": 0.0
          },
          {
            "time": "2010-01-12T13:10:59+00:00",
            "course": 224.38,
            "speed": 9.0,
            "depth": 0.0
          },
          {
            "time": "2010-01-12T13:11:14+00:00",
            "course": 224.38,
            "speed": 9.0,
            "depth": 0.0
          },
          {
            "time": "2010-01-12T13:11:29+00:00",
            "course": 224.38,
            "speed": 9.0,
            "depth": 0.0
          },
          {
            "time": "2010-01-12T13:11:44+00:00",
            "course": 224.38,
            "speed": 9.0,
            "depth": 0.0
          },
          {
            "time": "2010-01-12T13:11:59+00:00",
            "course": 224.38,
            "speed": 9.0,
            "depth": 0.0
          },
          {
            "time": "2010-01-12T13:12:14+00:00",
            "course": 224.38,
            "speed": 9.0,
            "depth": 0.0
          },
          {
            "time": "2010-01-12T13:12:29+00:00",
            "course": 224.38,
            "speed": 9.0,
            "depth": 0.0
          },
          {
            "time": "2010-01-12T13:12:44+00:00",
            "course": 224.38,
            "speed": 9.0,
            "depth": 0.0
          },
          {
            "time": "2010-01-12T13:12:59+00:00",
            "course": 224.38,
            "speed": 9.0,
            "depth": 0.0
          },
          {
            "time": "2010-01-12T13:13:14+00:00",
            "course": 224.38,
            "speed": 9.0,
            "depth": 0.0
          }
        ],
        "style": {
          "line": {
            "color": "#FF0000"
          },
          "point": {
            "shape": "circle",
            "radius": 3.0,
            "fill_color": "#FF0000",
            "color": "#FF0000"
          }
        },
        "default_position_style": {
          "show_symbol": false,
          "symbol": "circle",
          "show_label": false
        },
        "symbol_interval": "PT5M",
        "label_interval": "PT15M",
        "provenance": [
          {
            "activity_id": "be4c7905-7c38-4c92-8e6f-53bab72bf195",
            "timestamp": "2026-04-13T23:12:33.658537Z",
            "was_generated_by": {
              "tool": "rep-parser",
              "tool_version": "1.0.0",
              "parameters": []
            },
            "used": [],
            "generated": [
              "35d1a0ac-05bc-403f-aa59-c485694c8dad"
            ],
            "execution_duration": "PT0.001435S"
          }
        ]
      }
    }
  ]
}