{
  "type": "FeatureCollection",
  "features": [
    {
      "type": "Feature",
      "id": "1b9cd09c-b2fe-48c7-97cd-4dcbec404c5b",
      "geometry": {
        "type": "LineString",
        "coordinates": [
          [
            -21.697880555555557,
            22.186286111111112
          ],
          [
            -21.70082777777778,
            22.18627222222222
          ],
          [
            -21.704113888888887,
            22.186252777777778
          ]
        ]
      },
      "properties": {
        "kind": "TRACK",
        "platform_id": "NELSON",
        "platform_name": "NELSON",
        "track_type": "CONTACT",
        "times": [
          818744400000,
          818744460000,
          818744520000
        ],
        "start_time": "1995-12-12T05:00:00+00:00",
        "end_time": "1995-12-12T05:02:00+00:00",
        "positions": [
          {
            "time": "1995-12-12T05:00:00+00:00",
            "course": 269.7,
            "speed": 2.0,
            "depth": 0.0
          },
          {
            "time": "1995-12-12T05:01:00+00:00",
            "course": 269.7,
            "speed": 2.0,
            "depth": 0.0
          },
          {
            "time": "1995-12-12T05:02:00+00:00",
            "course": 269.9,
            "speed": 2.0,
            "depth": 0.0
          }
        ],
        "default_position_style": {
          "show_symbol": false,
          "symbol": "circle",
          "show_label": false
        },
        "symbol_interval": "PT1M",
        "label_interval": "PT5M"
      }
    }
  ]
}