{
  "type": "FeatureCollection",
  "features": [
    {
      "type": "Feature",
      "id": "2fa30d7b-fe08-4104-a03b-5f0fe87858a2",
      "geometry": {
        "type": "LineString",
        "coordinates": [
          [
            8.1202679,
            54.47309
          ],
          [
            8.1236189,
            54.4702234
          ],
          [
            8.1269654,
            54.4673595
          ],
          [
            8.130316,
            54.4644928
          ],
          [
            8.1336649,
            54.4616289
          ],
          [
            8.1370151,
            54.4587622
          ],
          [
            8.1403651,
            54.4558956
          ],
          [
            8.1437107,
            54.4530317
          ],
          [
            8.1470602,
            54.450165
          ],
          [
            8.1504082,
            54.4473011
          ],
          [
            8.1537574,
            54.4444345
          ],
          [
            8.1571022,
            54.4415706
          ],
          [
            8.160451,
            54.4387039
          ],
          [
            8.1637981,
            54.43584
          ],
          [
            8.1671438,
            54.4329734
          ],
          [
            8.1704906,
            54.4301095
          ],
          [
            8.1738386,
            54.4272428
          ],
          [
            8.1771822,
            54.4243789
          ],
          [
            8.1805298,
            54.4215122
          ],
          [
            8.183873,
            54.4186484
          ],
          [
            8.1872202,
            54.4157817
          ],
          [
            8.1905631,
            54.4129178
          ],
          [
            8.1939099,
            54.4100511
          ],
          [
            8.1972523,
            54.4071872
          ],
          [
            8.2005988,
            54.4043206
          ],
          [
            8.2039408,
            54.4014567
          ],
          [
            8.2072869,
            54.39859
          ],
          [
            8.2106285,
            54.3957261
          ],
          [
            8.2139742,
            54.3928595
          ],
          [
            8.2173154,
            54.3899956
          ],
          [
            8.2206579,
            54.3871289
          ],
          [
            8.2240016,
            54.384265
          ],
          [
            8.2273437,
            54.3813984
          ],
          [
            8.2306842,
            54.3785345
          ],
          [
            8.2340286,
            54.3756678
          ],
          [
            8.2373687,
            54.3728039
          ],
          [
            8.24071,
            54.3699372
          ],
          [
            8.2440539,
            54.3670706
          ],
          [
            8.2473934,
            54.3642067
          ],
          [
            8.2507341,
            54.36134
          ],
          [
            8.2540732,
            54.3584761
          ],
          [
            8.2574136,
            54.3556095
          ],
          [
            8.2607551,
            54.3527456
          ],
          [
            8.264095,
            54.3498789
          ],
          [
            8.2674333,
            54.347015
          ],
          [
            8.2707729,
            54.3441484
          ],
          [
            8.2741108,
            54.3412845
          ],
          [
            8.27745,
            54.3384178
          ],
          [
            8.2807875,
            54.3355539
          ],
          [
            8.2841263,
            54.3326872
          ],
          [
            8.2874634,
            54.3298234
          ],
          [
            8.2908018,
            54.3269567
          ],
          [
            8.2941386,
            54.3240928
          ],
          [
            8.2974766,
            54.3212261
          ],
          [
            8.3008129,
            54.3183622
          ],
          [
            8.3041505,
            54.3154956
          ],
          [
            8.3074865,
            54.3126317
          ],
          [
            8.3108237,
            54.309765
          ],
          [
            8.3141593,
            54.3069011
          ],
          [
            8.3174961,
            54.3040345
          ],
          [
            8.3208313,
            54.3011706
          ],
          [
            8.3241677,
            54.2983039
          ],
          [
            8.3275026,
            54.29544
          ],
          [
            8.3308358,
            54.2925734
          ],
          [
            8.3341702,
            54.2897095
          ],
          [
            8.3375059,
            54.2868428
          ],
          [
            8.3408399,
            54.2839789
          ],
          [
            8.3441751,
            54.2811122
          ],
          [
            8.3475074,
            54.2782456
          ],
          [
            8.3508409,
            54.2753817
          ],
          [
            8.3541755,
            54.272515
          ],
          [
            8.3579778,
            54.2702456
          ],
          [
            8.3619909,
            54.2684372
          ],
          [
            8.3660498,
            54.266815
          ],
          [
            8.3701072,
            54.26519
          ],
          [
            8.3741659,
            54.2635678
          ],
          [
            8.3782231,
            54.2619428
          ],
          [
            8.3822817,
            54.2603206
          ],
          [
            8.3863389,
            54.2586956
          ],
          [
            8.3903973,
            54.2570734
          ],
          [
            8.3944529,
            54.2554511
          ],
          [
            8.3985127,
            54.2538261
          ],
          [
            8.4025682,
            54.2522039
          ],
          [
            8.4066278,
            54.2505789
          ],
          [
            8.4106831,
            54.2489567
          ],
          [
            8.4147398,
            54.2473317
          ],
          [
            8.4187979,
            54.2457095
          ],
          [
            8.4228544,
            54.2440845
          ],
          [
            8.4269096,
            54.2424622
          ],
          [
            8.4309674,
            54.24084
          ],
          [
            8.4350238,
            54.239215
          ],
          [
            8.4390787,
            54.2375928
          ],
          [
            8.443135,
            54.2359678
          ],
          [
            8.4471926,
            54.2343456
          ],
          [
            8.4512487,
            54.2327206
          ],
          [
            8.4553034,
            54.2310984
          ],
          [
            8.459358,
            54.2294761
          ],
          [
            8.4634139,
            54.2278511
          ],
          [
            8.4674712,
            54.2262289
          ],
          [
            8.471527,
            54.2246039
          ],
          [
            8.4755814,
            54.2229817
          ],
          [
            8.4796371,
            54.2213567
          ],
          [
            8.4836914,
            54.2197345
          ],
          [
            8.4877455,
            54.2181122
          ],
          [
            8.491801,
            54.2164872
          ],
          [
            8.4958551,
            54.214865
          ],
          [
            8.4999105,
            54.21324
          ],
          [
            8.5039644,
            54.2116178
          ],
          [
            8.5080197,
            54.2099928
          ],
          [
            8.5120735,
            54.2083706
          ],
          [
            8.5161286,
            54.2067456
          ],
          [
            8.5201823,
            54.2051234
          ],
          [
            8.5242359,
            54.2035011
          ],
          [
            8.5282909,
            54.2018761
          ],
          [
            8.5323444,
            54.2002539
          ],
          [
            8.5363992,
            54.1986289
          ],
          [
            8.5404526,
            54.1970067
          ],
          [
            8.5445045,
            54.1953817
          ],
          [
            8.5485577,
            54.1937595
          ],
          [
            8.5526109,
            54.1921372
          ],
          [
            8.5566654,
            54.1905122
          ],
          [
            8.5607185,
            54.18889
          ],
          [
            8.5647701,
            54.187265
          ],
          [
            8.5688231,
            54.1856428
          ],
          [
            8.5728773,
            54.1840178
          ],
          [
            8.5769301,
            54.1823956
          ],
          [
            8.5809815,
            54.1807706
          ],
          [
            8.5850342,
            54.1791484
          ],
          [
            8.5890868,
            54.1775261
          ],
          [
            8.593138,
            54.1759011
          ],
          [
            8.5971905,
            54.1742789
          ],
          [
            8.6012443,
            54.1726539
          ],
          [
            8.6052939,
            54.1710317
          ],
          [
            8.6093476,
            54.1694067
          ],
          [
            8.6133971,
            54.1677845
          ],
          [
            8.6174493,
            54.1661622
          ],
          [
            8.6215,
            54.1645372
          ],
          [
            8.6255521,
            54.162915
          ],
          [
            8.6296027,
            54.16129
          ],
          [
            8.6336546,
            54.1596678
          ],
          [
            8.6377051,
            54.1580428
          ],
          [
            8.6417569,
            54.1564206
          ],
          [
            8.6458059,
            54.1547984
          ],
          [
            8.649859,
            54.1531734
          ],
          [
            8.6539078,
            54.1515511
          ],
          [
            8.657958,
            54.1499261
          ],
          [
            8.6620095,
            54.1483039
          ],
          [
            8.6660595,
            54.1466789
          ],
          [
            8.6701081,
            54.1450567
          ],
          [
            8.6741608,
            54.1434317
          ],
          [
            8.6782093,
            54.1418095
          ],
          [
            8.6822577,
            54.1401872
          ],
          [
            8.6863102,
            54.1385622
          ],
          [
            8.6903585,
            54.13694
          ],
          [
            8.6944082,
            54.135315
          ],
          [
            8.6984563,
            54.1336928
          ],
          [
            8.7025086,
            54.1320678
          ],
          [
            8.7065566,
            54.1304456
          ],
          [
            8.7106046,
            54.1288234
          ],
          [
            8.7146539,
            54.1271984
          ],
          [
            8.7187018,
            54.1255761
          ],
          [
            8.7227509,
            54.1239511
          ],
          [
            8.7268015,
            54.1223289
          ],
          [
            8.7308505,
            54.1207039
          ]
        ]
      },
      "properties": {
        "kind": "TRACK",
        "platform_id": "Frigate",
        "platform_name": "Frigate",
        "track_type": "CONTACT",
        "start_time": "1970-01-03T01:34:25+00:00",
        "end_time": "1970-01-03T04:17:25+00:00",
        "positions": [
          {
            "time": "1970-01-03T01:34:25+00:00",
            "course": 149.3,
            "speed": 12.0,
            "depth": 0.0
          },
          {
            "time": "1970-01-03T01:35:25+00:00",
            "course": 149.3,
            "speed": 12.0,
            "depth": 0.0
          },
          {
            "time": "1970-01-03T01:36:25+00:00",
            "course": 149.3,
            "speed": 12.0,
            "depth": 0.0
          },
          {
            "time": "1970-01-03T01:37:25+00:00",
            "course": 149.3,
            "speed": 12.0,
            "depth": 0.0
          },
          {
            "time": "1970-01-03T01:38:25+00:00",
            "course": 149.3,
            "speed": 12.0,
            "depth": 0.0
          },
          {
            "time": "1970-01-03T01:39:25+00:00",
            "course": 149.3,
            "speed": 12.0,
            "depth": 0.0
          },
          {
            "time": "1970-01-03T01:40:25+00:00",
            "course": 149.3,
            "speed": 12.0,
            "depth": 0.0
          },
          {
            "time": "1970-01-03T01:41:25+00:00",
            "course": 149.3,
            "speed": 12.0,
            "depth": 0.0
          },
          {
            "time": "1970-01-03T01:42:25+00:00",
            "course": 149.3,
            "speed": 12.0,
            "depth": 0.0
          },
          {
            "time": "1970-01-03T01:43:25+00:00",
            "course": 149.3,
            "speed": 12.0,
            "depth": 0.0
          },
          {
            "time": "1970-01-03T01:44:25+00:00",
            "course": 149.3,
            "speed": 12.0,
            "depth": 0.0
          },
          {
            "time": "1970-01-03T01:45:25+00:00",
            "course": 149.3,
            "speed": 12.0,
            "depth": 0.0
          },
          {
            "time": "1970-01-03T01:46:25+00:00",
            "course": 149.3,
            "speed": 12.0,
            "depth": 0.0
          },
          {
            "time": "1970-01-03T01:47:25+00:00",
            "course": 149.3,
            "speed": 12.0,
            "depth": 0.0
          },
          {
            "time": "1970-01-03T01:48:25+00:00",
            "course": 149.3,
            "speed": 12.0,
            "depth": 0.0
          },
          {
            "time": "1970-01-03T01:49:25+00:00",
            "course": 149.3,
            "speed": 12.0,
            "depth": 0.0
          },
          {
            "time": "1970-01-03T01:50:25+00:00",
            "course": 149.3,
            "speed": 12.0,
            "depth": 0.0
          },
          {
            "time": "1970-01-03T01:51:25+00:00",
            "course": 149.3,
            "speed": 12.0,
            "depth": 0.0
          },
          {
            "time": "1970-01-03T01:52:25+00:00",
            "course": 149.3,
            "speed": 12.0,
            "depth": 0.0
          },
          {
            "time": "1970-01-03T01:53:25+00:00",
            "course": 149.3,
            "speed": 12.0,
            "depth": 0.0
          },
          {
            "time": "1970-01-03T01:54:25+00:00",
            "course": 149.3,
            "speed": 12.0,
            "depth": 0.0
          },
          {
            "time": "1970-01-03T01:55:25+00:00",
            "course": 149.3,
            "speed": 12.0,
            "depth": 0.0
          },
          {
            "time": "1970-01-03T01:56:25+00:00",
            "course": 149.3,
            "speed": 12.0,
            "depth": 0.0
          },
          {
            "time": "1970-01-03T01:57:25+00:00",
            "course": 149.3,
            "speed": 12.0,
            "depth": 0.0
          },
          {
            "time": "1970-01-03T01:58:25+00:00",
            "course": 149.3,
            "speed": 12.0,
            "depth": 0.0
          },
          {
            "time": "1970-01-03T01:59:25+00:00",
            "course": 149.3,
            "speed": 12.0,
            "depth": 0.0
          },
          {
            "time": "1970-01-03T02:00:25+00:00",
            "course": 149.3,
            "speed": 12.0,
            "depth": 0.0
          },
          {
            "time": "1970-01-03T02:01:25+00:00",
            "course": 149.3,
            "speed": 12.0,
            "depth": 0.0
          },
          {
            "time": "1970-01-03T02:02:25+00:00",
            "course": 149.3,
            "speed": 12.0,
            "depth": 0.0
          },
          {
            "time": "1970-01-03T02:03:25+00:00",
            "course": 149.3,
            "speed": 12.0,
            "depth": 0.0
          },
          {
            "time": "1970-01-03T02:04:25+00:00",
            "course": 149.3,
            "speed": 12.0,
            "depth": 0.0
          },
          {
            "time": "1970-01-03T02:05:25+00:00",
            "course": 149.3,
            "speed": 12.0,
            "depth": 0.0
          },
          {
            "time": "1970-01-03T02:06:25+00:00",
            "course": 149.3,
            "speed": 12.0,
            "depth": 0.0
          },
          {
            "time": "1970-01-03T02:07:25+00:00",
            "course": 149.3,
            "speed": 12.0,
            "depth": 0.0
          },
          {
            "time": "1970-01-03T02:08:25+00:00",
            "course": 149.3,
            "speed": 12.0,
            "depth": 0.0
          },
          {
            "time": "1970-01-03T02:09:25+00:00",
            "course": 149.3,
            "speed": 12.0,
            "depth": 0.0
          },
          {
            "time": "1970-01-03T02:10:25+00:00",
            "course": 149.3,
            "speed": 12.0,
            "depth": 0.0
          },
          {
            "time": "1970-01-03T02:11:25+00:00",
            "course": 149.3,
            "speed": 12.0,
            "depth": 0.0
          },
          {
            "time": "1970-01-03T02:12:25+00:00",
            "course": 149.3,
            "speed": 12.0,
            "depth": 0.0
          },
          {
            "time": "1970-01-03T02:13:25+00:00",
            "course": 149.3,
            "speed": 12.0,
            "depth": 0.0
          },
          {
            "time": "1970-01-03T02:14:25+00:00",
            "course": 149.3,
            "speed": 12.0,
            "depth": 0.0
          },
          {
            "time": "1970-01-03T02:15:25+00:00",
            "course": 149.3,
            "speed": 12.0,
            "depth": 0.0
          },
          {
            "time": "1970-01-03T02:16:25+00:00",
            "course": 149.3,
            "speed": 12.0,
            "depth": 0.0
          },
          {
            "time": "1970-01-03T02:17:25+00:00",
            "course": 149.3,
            "speed": 12.0,
            "depth": 0.0
          },
          {
            "time": "1970-01-03T02:18:25+00:00",
            "course": 149.3,
            "speed": 12.0,
            "depth": 0.0
          },
          {
            "time": "1970-01-03T02:19:25+00:00",
            "course": 149.3,
            "speed": 12.0,
            "depth": 0.0
          },
          {
            "time": "1970-01-03T02:20:25+00:00",
            "course": 149.3,
            "speed": 12.0,
            "depth": 0.0
          },
          {
            "time": "1970-01-03T02:21:25+00:00",
            "course": 149.3,
            "speed": 12.0,
            "depth": 0.0
          },
          {
            "time": "1970-01-03T02:22:25+00:00",
            "course": 149.3,
            "speed": 12.0,
            "depth": 0.0
          },
          {
            "time": "1970-01-03T02:23:25+00:00",
            "course": 149.3,
            "speed": 12.0,
            "depth": 0.0
          },
          {
            "time": "1970-01-03T02:24:25+00:00",
            "course": 149.3,
            "speed": 12.0,
            "depth": 0.0
          },
          {
            "time": "1970-01-03T02:25:25+00:00",
            "course": 149.3,
            "speed": 12.0,
            "depth": 0.0
          },
          {
            "time": "1970-01-03T02:26:25+00:00",
            "course": 149.3,
            "speed": 12.0,
            "depth": 0.0
          },
          {
            "time": "1970-01-03T02:27:25+00:00",
            "course": 149.3,
            "speed": 12.0,
            "depth": 0.0
          },
          {
            "time": "1970-01-03T02:28:25+00:00",
            "course": 149.3,
            "speed": 12.0,
            "depth": 0.0
          },
          {
            "time": "1970-01-03T02:29:25+00:00",
            "course": 149.3,
            "speed": 12.0,
            "depth": 0.0
          },
          {
            "time": "1970-01-03T02:30:25+00:00",
            "course": 149.3,
            "speed": 12.0,
            "depth": 0.0
          },
          {
            "time": "1970-01-03T02:31:25+00:00",
            "course": 149.3,
            "speed": 12.0,
            "depth": 0.0
          },
          {
            "time": "1970-01-03T02:32:25+00:00",
            "course": 149.3,
            "speed": 12.0,
            "depth": 0.0
          },
          {
            "time": "1970-01-03T02:33:25+00:00",
            "course": 149.3,
            "speed": 12.0,
            "depth": 0.0
          },
          {
            "time": "1970-01-03T02:34:25+00:00",
            "course": 149.3,
            "speed": 12.0,
            "depth": 0.0
          },
          {
            "time": "1970-01-03T02:35:25+00:00",
            "course": 149.3,
            "speed": 12.0,
            "depth": 0.0
          },
          {
            "time": "1970-01-03T02:36:25+00:00",
            "course": 149.3,
            "speed": 12.0,
            "depth": 0.0
          },
          {
            "time": "1970-01-03T02:37:25+00:00",
            "course": 149.3,
            "speed": 12.0,
            "depth": 0.0
          },
          {
            "time": "1970-01-03T02:38:25+00:00",
            "course": 149.3,
            "speed": 12.0,
            "depth": 0.0
          },
          {
            "time": "1970-01-03T02:39:25+00:00",
            "course": 149.3,
            "speed": 12.0,
            "depth": 0.0
          },
          {
            "time": "1970-01-03T02:40:25+00:00",
            "course": 149.3,
            "speed": 12.0,
            "depth": 0.0
          },
          {
            "time": "1970-01-03T02:41:25+00:00",
            "course": 149.3,
            "speed": 12.0,
            "depth": 0.0
          },
          {
            "time": "1970-01-03T02:42:25+00:00",
            "course": 149.3,
            "speed": 12.0,
            "depth": 0.0
          },
          {
            "time": "1970-01-03T02:43:25+00:00",
            "course": 149.3,
            "speed": 12.0,
            "depth": 0.0
          },
          {
            "time": "1970-01-03T02:44:25+00:00",
            "course": 149.3,
            "speed": 12.0,
            "depth": 0.0
          },
          {
            "time": "1970-01-03T02:45:25+00:00",
            "course": 129.2,
            "speed": 12.0,
            "depth": 0.0
          },
          {
            "time": "1970-01-03T02:46:25+00:00",
            "course": 122.5,
            "speed": 12.0,
            "depth": 0.0
          },
          {
            "time": "1970-01-03T02:47:25+00:00",
            "course": 119.1,
            "speed": 12.0,
            "depth": 0.0
          },
          {
            "time": "1970-01-03T02:48:25+00:00",
            "course": 119.1,
            "speed": 12.0,
            "depth": 0.0
          },
          {
            "time": "1970-01-03T02:49:25+00:00",
            "course": 119.1,
            "speed": 12.0,
            "depth": 0.0
          },
          {
            "time": "1970-01-03T02:50:25+00:00",
            "course": 119.1,
            "speed": 12.0,
            "depth": 0.0
          },
          {
            "time": "1970-01-03T02:51:25+00:00",
            "course": 119.1,
            "speed": 12.0,
            "depth": 0.0
          },
          {
            "time": "1970-01-03T02:52:25+00:00",
            "course": 119.1,
            "speed": 12.0,
            "depth": 0.0
          },
          {
            "time": "1970-01-03T02:53:25+00:00",
            "course": 119.1,
            "speed": 12.0,
            "depth": 0.0
          },
          {
            "time": "1970-01-03T02:54:25+00:00",
            "course": 119.1,
            "speed": 12.0,
            "depth": 0.0
          },
          {
            "time": "1970-01-03T02:55:25+00:00",
            "course": 119.1,
            "speed": 12.0,
            "depth": 0.0
          },
          {
            "time": "1970-01-03T02:56:25+00:00",
            "course": 119.1,
            "speed": 12.0,
            "depth": 0.0
          },
          {
            "time": "1970-01-03T02:57:25+00:00",
            "course": 119.1,
            "speed": 12.0,
            "depth": 0.0
          },
          {
            "time": "1970-01-03T02:58:25+00:00",
            "course": 119.1,
            "speed": 12.0,
            "depth": 0.0
          },
          {
            "time": "1970-01-03T02:59:25+00:00",
            "course": 119.1,
            "speed": 12.0,
            "depth": 0.0
          },
          {
            "time": "1970-01-03T03:00:25+00:00",
            "course": 119.1,
            "speed": 12.0,
            "depth": 0.0
          },
          {
            "time": "1970-01-03T03:01:25+00:00",
            "course": 119.1,
            "speed": 12.0,
            "depth": 0.0
          },
          {
            "time": "1970-01-03T03:02:25+00:00",
            "course": 119.1,
            "speed": 12.0,
            "depth": 0.0
          },
          {
            "time": "1970-01-03T03:03:25+00:00",
            "course": 119.1,
            "speed": 12.0,
            "depth": 0.0
          },
          {
            "time": "1970-01-03T03:04:25+00:00",
            "course": 119.1,
            "speed": 12.0,
            "depth": 0.0
          },
          {
            "time": "1970-01-03T03:05:25+00:00",
            "course": 119.1,
            "speed": 12.0,
            "depth": 0.0
          },
          {
            "time": "1970-01-03T03:06:25+00:00",
            "course": 119.1,
            "speed": 12.0,
            "depth": 0.0
          },
          {
            "time": "1970-01-03T03:07:25+00:00",
            "course": 119.1,
            "speed": 12.0,
            "depth": 0.0
          },
          {
            "time": "1970-01-03T03:08:25+00:00",
            "course": 119.1,
            "speed": 12.0,
            "depth": 0.0
          },
          {
            "time": "1970-01-03T03:09:25+00:00",
            "course": 119.1,
            "speed": 12.0,
            "depth": 0.0
          },
          {
            "time": "1970-01-03T03:10:25+00:00",
            "course": 119.1,
            "speed": 12.0,
            "depth": 0.0
          },
          {
            "time": "1970-01-03T03:11:25+00:00",
            "course": 119.1,
            "speed": 12.0,
            "depth": 0.0
          },
          {
            "time": "1970-01-03T03:12:25+00:00",
            "course": 119.1,
            "speed": 12.0,
            "depth": 0.0
          },
          {
            "time": "1970-01-03T03:13:25+00:00",
            "course": 119.1,
            "speed": 12.0,
            "depth": 0.0
          },
          {
            "time": "1970-01-03T03:14:25+00:00",
            "course": 119.1,
            "speed": 12.0,
            "depth": 0.0
          },
          {
            "time": "1970-01-03T03:15:25+00:00",
            "course": 119.1,
            "speed": 12.0,
            "depth": 0.0
          },
          {
            "time": "1970-01-03T03:16:25+00:00",
            "course": 119.1,
            "speed": 12.0,
            "depth": 0.0
          },
          {
            "time": "1970-01-03T03:17:25+00:00",
            "course": 119.1,
            "speed": 12.0,
            "depth": 0.0
          },
          {
            "time": "1970-01-03T03:18:25+00:00",
            "course": 119.1,
            "speed": 12.0,
            "depth": 0.0
          },
          {
            "time": "1970-01-03T03:19:25+00:00",
            "course": 119.1,
            "speed": 12.0,
            "depth": 0.0
          },
          {
            "time": "1970-01-03T03:20:25+00:00",
            "course": 119.1,
            "speed": 12.0,
            "depth": 0.0
          },
          {
            "time": "1970-01-03T03:21:25+00:00",
            "course": 119.1,
            "speed": 12.0,
            "depth": 0.0
          },
          {
            "time": "1970-01-03T03:22:25+00:00",
            "course": 119.1,
            "speed": 12.0,
            "depth": 0.0
          },
          {
            "time": "1970-01-03T03:23:25+00:00",
            "course": 119.1,
            "speed": 12.0,
            "depth": 0.0
          },
          {
            "time": "1970-01-03T03:24:25+00:00",
            "course": 119.1,
            "speed": 12.0,
            "depth": 0.0
          },
          {
            "time": "1970-01-03T03:25:25+00:00",
            "course": 119.1,
            "speed": 12.0,
            "depth": 0.0
          },
          {
            "time": "1970-01-03T03:26:25+00:00",
            "course": 119.1,
            "speed": 12.0,
            "depth": 0.0
          },
          {
            "time": "1970-01-03T03:27:25+00:00",
            "course": 119.1,
            "speed": 12.0,
            "depth": 0.0
          },
          {
            "time": "1970-01-03T03:28:25+00:00",
            "course": 119.1,
            "speed": 12.0,
            "depth": 0.0
          },
          {
            "time": "1970-01-03T03:29:25+00:00",
            "course": 119.1,
            "speed": 12.0,
            "depth": 0.0
          },
          {
            "time": "1970-01-03T03:30:25+00:00",
            "course": 119.1,
            "speed": 12.0,
            "depth": 0.0
          },
          {
            "time": "1970-01-03T03:31:25+00:00",
            "course": 119.1,
            "speed": 12.0,
            "depth": 0.0
          },
          {
            "time": "1970-01-03T03:32:25+00:00",
            "course": 119.1,
            "speed": 12.0,
            "depth": 0.0
          },
          {
            "time": "1970-01-03T03:33:25+00:00",
            "course": 119.1,
            "speed": 12.0,
            "depth": 0.0
          },
          {
            "time": "1970-01-03T03:34:25+00:00",
            "course": 119.1,
            "speed": 12.0,
            "depth": 0.0
          },
          {
            "time": "1970-01-03T03:35:25+00:00",
            "course": 119.1,
            "speed": 12.0,
            "depth": 0.0
          },
          {
            "time": "1970-01-03T03:36:25+00:00",
            "course": 119.1,
            "speed": 12.0,
            "depth": 0.0
          },
          {
            "time": "1970-01-03T03:37:25+00:00",
            "course": 119.1,
            "speed": 12.0,
            "depth": 0.0
          },
          {
            "time": "1970-01-03T03:38:25+00:00",
            "course": 119.1,
            "speed": 12.0,
            "depth": 0.0
          },
          {
            "time": "1970-01-03T03:39:25+00:00",
            "course": 119.1,
            "speed": 12.0,
            "depth": 0.0
          },
          {
            "time": "1970-01-03T03:40:25+00:00",
            "course": 119.1,
            "speed": 12.0,
            "depth": 0.0
          },
          {
            "time": "1970-01-03T03:41:25+00:00",
            "course": 119.1,
            "speed": 12.0,
            "depth": 0.0
          },
          {
            "time": "1970-01-03T03:42:25+00:00",
            "course": 119.1,
            "speed": 12.0,
            "depth": 0.0
          },
          {
            "time": "1970-01-03T03:43:25+00:00",
            "course": 119.1,
            "speed": 12.0,
            "depth": 0.0
          },
          {
            "time": "1970-01-03T03:44:25+00:00",
            "course": 119.1,
            "speed": 12.0,
            "depth": 0.0
          },
          {
            "time": "1970-01-03T03:45:25+00:00",
            "course": 119.1,
            "speed": 12.0,
            "depth": 0.0
          },
          {
            "time": "1970-01-03T03:46:25+00:00",
            "course": 119.1,
            "speed": 12.0,
            "depth": 0.0
          },
          {
            "time": "1970-01-03T03:47:25+00:00",
            "course": 119.1,
            "speed": 12.0,
            "depth": 0.0
          },
          {
            "time": "1970-01-03T03:48:25+00:00",
            "course": 119.1,
            "speed": 12.0,
            "depth": 0.0
          },
          {
            "time": "1970-01-03T03:49:25+00:00",
            "course": 119.1,
            "speed": 12.0,
            "depth": 0.0
          },
          {
            "time": "1970-01-03T03:50:25+00:00",
            "course": 119.1,
            "speed": 12.0,
            "depth": 0.0
          },
          {
            "time": "1970-01-03T03:51:25+00:00",
            "course": 119.1,
            "speed": 12.0,
            "depth": 0.0
          },
          {
            "time": "1970-01-03T03:52:25+00:00",
            "course": 119.1,
            "speed": 12.0,
            "depth": 0.0
          },
          {
            "time": "1970-01-03T03:53:25+00:00",
            "course": 119.1,
            "speed": 12.0,
            "depth": 0.0
          },
          {
            "time": "1970-01-03T03:54:25+00:00",
            "course": 119.1,
            "speed": 12.0,
            "depth": 0.0
          },
          {
            "time": "1970-01-03T03:55:25+00:00",
            "course": 119.1,
            "speed": 12.0,
            "depth": 0.0
          },
          {
            "time": "1970-01-03T03:56:25+00:00",
            "course": 119.1,
            "speed": 12.0,
            "depth": 0.0
          },
          {
            "time": "1970-01-03T03:57:25+00:00",
            "course": 119.1,
            "speed": 12.0,
            "depth": 0.0
          },
          {
            "time": "1970-01-03T03:58:25+00:00",
            "course": 119.1,
            "speed": 12.0,
            "depth": 0.0
          },
          {
            "time": "1970-01-03T03:59:25+00:00",
            "course": 119.1,
            "speed": 12.0,
            "depth": 0.0
          },
          {
            "time": "1970-01-03T04:00:25+00:00",
            "course": 119.1,
            "speed": 12.0,
            "depth": 0.0
          },
          {
            "time": "1970-01-03T04:01:25+00:00",
            "course": 119.1,
            "speed": 12.0,
            "depth": 0.0
          },
          {
            "time": "1970-01-03T04:02:25+00:00",
            "course": 119.1,
            "speed": 12.0,
            "depth": 0.0
          },
          {
            "time": "1970-01-03T04:03:25+00:00",
            "course": 119.1,
            "speed": 12.0,
            "depth": 0.0
          },
          {
            "time": "1970-01-03T04:04:25+00:00",
            "course": 119.1,
            "speed": 12.0,
            "depth": 0.0
          },
          {
            "time": "1970-01-03T04:05:25+00:00",
            "course": 119.1,
            "speed": 12.0,
            "depth": 0.0
          },
          {
            "time": "1970-01-03T04:06:25+00:00",
            "course": 119.1,
            "speed": 12.0,
            "depth": 0.0
          },
          {
            "time": "1970-01-03T04:07:25+00:00",
            "course": 119.1,
            "speed": 12.0,
            "depth": 0.0
          },
          {
            "time": "1970-01-03T04:08:25+00:00",
            "course": 119.1,
            "speed": 12.0,
            "depth": 0.0
          },
          {
            "time": "1970-01-03T04:09:25+00:00",
            "course": 119.1,
            "speed": 12.0,
            "depth": 0.0
          },
          {
            "time": "1970-01-03T04:10:25+00:00",
            "course": 119.1,
            "speed": 12.0,
            "depth": 0.0
          },
          {
            "time": "1970-01-03T04:11:25+00:00",
            "course": 119.1,
            "speed": 12.0,
            "depth": 0.0
          },
          {
            "time": "1970-01-03T04:12:25+00:00",
            "course": 119.1,
            "speed": 12.0,
            "depth": 0.0
          },
          {
            "time": "1970-01-03T04:13:25+00:00",
            "course": 119.1,
            "speed": 12.0,
            "depth": 0.0
          },
          {
            "time": "1970-01-03T04:14:25+00:00",
            "course": 119.1,
            "speed": 12.0,
            "depth": 0.0
          },
          {
            "time": "1970-01-03T04:15:25+00:00",
            "course": 119.1,
            "speed": 12.0,
            "depth": 0.0
          },
          {
            "time": "1970-01-03T04:16:25+00:00",
            "course": 119.1,
            "speed": 12.0,
            "depth": 0.0
          },
          {
            "time": "1970-01-03T04:17:25+00:00",
            "course": 119.1,
            "speed": 12.0,
            "depth": 0.0
          }
        ],
        "style": {
          "line": {
            "color": "#808080"
          },
          "point": {
            "shape": "circle",
            "radius": 3.0,
            "fill_color": "#808080",
            "color": "#808080"
          }
        },
        "default_position_style": {
          "show_symbol": false,
          "symbol": "circle",
          "show_label": false
        },
        "symbol_interval": "PT10M",
        "label_interval": "PT30M",
        "provenance": [
          {
            "activity_id": "d9cdb253-7b0b-47fe-b56e-1086ff888f72",
            "timestamp": "2026-04-13T23:12:33.682780Z",
            "was_generated_by": {
              "tool": "dpf-parser",
              "tool_version": "1.0.0",
              "parameters": []
            },
            "used": [],
            "generated": [
              "2fa30d7b-fe08-4104-a03b-5f0fe87858a2"
            ],
            "execution_duration": "PT0.005316S"
          }
        ]
      }
    },
    {
      "type": "Feature",
      "id": "6d210ec5-e46a-43ba-a733-b2c31be17918",
      "geometry": {
        "type": "LineString",
        "coordinates": [
          [
            8.9350469,
            54.3037537
          ],
          [
            8.9324933,
            54.3022482
          ],
          [
            8.9299397,
            54.3007426
          ],
          [
            8.9273902,
            54.2992343
          ],
          [
            8.9248365,
            54.2977287
          ],
          [
            8.9222827,
            54.2962232
          ],
          [
            8.9197289,
            54.2947176
          ],
          [
            8.9171764,
            54.2932093
          ],
          [
            8.9146252,
            54.2917037
          ],
          [
            8.9120712,
            54.2901982
          ],
          [
            8.9095186,
            54.2886898
          ],
          [
            8.9069645,
            54.2871843
          ],
          [
            8.9044131,
            54.2856787
          ],
          [
            8.9018603,
            54.2841704
          ],
          [
            8.899306,
            54.2826648
          ],
          [
            8.8967545,
            54.2811593
          ],
          [
            8.8942015,
            54.2796509
          ],
          [
            8.8916471,
            54.2781454
          ],
          [
            8.8890954,
            54.2766398
          ],
          [
            8.8865423,
            54.2751315
          ],
          [
            8.8839877,
            54.2736259
          ],
          [
            8.8814358,
            54.2721204
          ],
          [
            8.8788811,
            54.2706148
          ],
          [
            8.8763306,
            54.2691065
          ],
          [
            8.8737758,
            54.2676009
          ],
          [
            8.8712237,
            54.2660954
          ],
          [
            8.8686702,
            54.2645871
          ],
          [
            8.866118,
            54.2630815
          ],
          [
            8.863563,
            54.2615759
          ],
          [
            8.8610121,
            54.2600676
          ],
          [
            8.858457,
            54.2585621
          ],
          [
            8.8559046,
            54.2570565
          ],
          [
            8.8533535,
            54.2555482
          ],
          [
            8.8507982,
            54.2540426
          ],
          [
            8.8482457,
            54.2525371
          ],
          [
            8.8456917,
            54.2510287
          ],
          [
            8.843139,
            54.2495232
          ],
          [
            8.8405863,
            54.2480176
          ],
          [
            8.8380349,
            54.2465093
          ],
          [
            8.8354793,
            54.2450037
          ],
          [
            8.8329264,
            54.2434982
          ],
          [
            8.8303749,
            54.2419898
          ],
          [
            8.8278191,
            54.2404843
          ],
          [
            8.8252661,
            54.2389787
          ],
          [
            8.8227144,
            54.2374704
          ],
          [
            8.8201613,
            54.2359648
          ],
          [
            8.8176081,
            54.2344593
          ],
          [
            8.8150534,
            54.2329509
          ],
          [
            8.8125001,
            54.2314454
          ],
          [
            8.8099468,
            54.2299398
          ],
          [
            8.8073947,
            54.2284315
          ],
          [
            8.8048413,
            54.2269259
          ],
          [
            8.8022877,
            54.2254204
          ],
          [
            8.7997356,
            54.2239121
          ],
          [
            8.7971819,
            54.2224065
          ],
          [
            8.7946283,
            54.2209009
          ],
          [
            8.7920759,
            54.2193926
          ],
          [
            8.7895221,
            54.2178871
          ],
          [
            8.7869683,
            54.2163815
          ],
          [
            8.7834693,
            54.2161759
          ],
          [
            8.7797142,
            54.2183704
          ],
          [
            8.7780317,
            54.2216093
          ],
          [
            8.7771156,
            54.2248593
          ],
          [
            8.7757808,
            54.2281732
          ],
          [
            8.7743026,
            54.2315009
          ],
          [
            8.7715257,
            54.2345454
          ],
          [
            8.7675703,
            54.2358259
          ],
          [
            8.7644065,
            54.2350121
          ],
          [
            8.7632544,
            54.2346259
          ],
          [
            8.7622478,
            54.2342871
          ],
          [
            8.7612399,
            54.2339454
          ],
          [
            8.7602333,
            54.2336065
          ],
          [
            8.7592254,
            54.2332648
          ],
          [
            8.7582188,
            54.2329259
          ],
          [
            8.7572109,
            54.2325843
          ],
          [
            8.7562043,
            54.2322454
          ],
          [
            8.7551991,
            54.2319037
          ],
          [
            8.7541898,
            54.2315648
          ],
          [
            8.7531846,
            54.2312232
          ],
          [
            8.7521752,
            54.2308843
          ],
          [
            8.75117,
            54.2305426
          ],
          [
            8.7501635,
            54.2302037
          ],
          [
            8.7491555,
            54.2298621
          ],
          [
            8.7481489,
            54.2295232
          ],
          [
            8.7472246,
            54.2291037
          ],
          [
            8.746373,
            54.2286009
          ],
          [
            8.7456804,
            54.2279759
          ],
          [
            8.7453194,
            54.2271287
          ],
          [
            8.7453231,
            54.2261259
          ],
          [
            8.7456925,
            54.2250315
          ],
          [
            8.7463813,
            54.2239371
          ],
          [
            8.7473544,
            54.2229176
          ],
          [
            8.74841,
            54.2217898
          ],
          [
            8.7491525,
            54.2204843
          ],
          [
            8.7494009,
            54.2191176
          ],
          [
            8.7489943,
            54.2178926
          ],
          [
            8.74784,
            54.2170537
          ],
          [
            8.7460315,
            54.2168065
          ],
          [
            8.7439299,
            54.2168482
          ],
          [
            8.7416669,
            54.2169565
          ],
          [
            8.7392817,
            54.2170537
          ],
          [
            8.7367771,
            54.2171454
          ],
          [
            8.7341448,
            54.2172259
          ],
          [
            8.7313889,
            54.2172926
          ],
          [
            8.7285025,
            54.2173426
          ],
          [
            8.7254885,
            54.2173759
          ],
          [
            8.7223315,
            54.2173843
          ],
          [
            8.7190274,
            54.2173759
          ],
          [
            8.7155762,
            54.2173343
          ],
          [
            8.7119668,
            54.2172593
          ],
          [
            8.708191,
            54.2171454
          ],
          [
            8.7042598,
            54.2169815
          ],
          [
            8.7001539,
            54.2167676
          ],
          [
            8.6958678,
            54.2164871
          ],
          [
            8.6914305,
            54.2161426
          ],
          [
            8.6870228,
            54.2157232
          ],
          [
            8.6826571,
            54.2152371
          ],
          [
            8.6783348,
            54.2146815
          ],
          [
            8.674067,
            54.2140454
          ],
          [
            8.6698551,
            54.2133259
          ],
          [
            8.6657131,
            54.2125121
          ],
          [
            8.6616452,
            54.2115954
          ],
          [
            8.6576695,
            54.2105621
          ],
          [
            8.6537943,
            54.2094009
          ],
          [
            8.6500434,
            54.2080982
          ],
          [
            8.6464363,
            54.2066315
          ],
          [
            8.6430091,
            54.2049787
          ],
          [
            8.6397981,
            54.2031121
          ],
          [
            8.6368631,
            54.2010009
          ],
          [
            8.6342765,
            54.1986009
          ],
          [
            8.631992,
            54.1959926
          ],
          [
            8.6302046,
            54.1930482
          ],
          [
            8.6291535,
            54.1897009
          ],
          [
            8.6290871,
            54.1859426
          ],
          [
            8.630266,
            54.1818732
          ],
          [
            8.63268,
            54.1779759
          ],
          [
            8.636003,
            54.1745454
          ],
          [
            8.6398261,
            54.1717593
          ],
          [
            8.643776,
            54.1695537
          ],
          [
            8.6476284,
            54.1677621
          ],
          [
            8.6513477,
            54.1662732
          ],
          [
            8.654875,
            54.1648676
          ],
          [
            8.6582257,
            54.1635259
          ],
          [
            8.6614149,
            54.1622509
          ],
          [
            8.6646125,
            54.1609704
          ],
          [
            8.6678114,
            54.1596871
          ],
          [
            8.6710117,
            54.1584065
          ],
          [
            8.6742091,
            54.1571259
          ],
          [
            8.6774093,
            54.1558454
          ],
          [
            8.6806053,
            54.1545676
          ],
          [
            8.6838054,
            54.1532871
          ],
          [
            8.6870027,
            54.1520065
          ],
          [
            8.6902013,
            54.1507287
          ],
          [
            8.6933985,
            54.1494482
          ],
          [
            8.6965971,
            54.1481704
          ],
          [
            8.699797,
            54.1468898
          ],
          [
            8.7029927,
            54.1456121
          ],
          [
            8.7061925,
            54.1443315
          ],
          [
            8.7095369,
            54.1430009
          ],
          [
            8.713044,
            54.1416009
          ],
          [
            8.7167318,
            54.1401287
          ],
          [
            8.7206059,
            54.1385843
          ],
          [
            8.7246662,
            54.1369565
          ],
          [
            8.7289435,
            54.1352454
          ]
        ]
      },
      "properties": {
        "kind": "TRACK",
        "platform_id": "New_SSK",
        "platform_name": "New_SSK",
        "track_type": "CONTACT",
        "start_time": "1970-01-03T01:34:25+00:00",
        "end_time": "1970-01-03T04:17:25+00:00",
        "positions": [
          {
            "time": "1970-01-03T01:34:25+00:00",
            "course": 243.1,
            "speed": 12.0,
            "depth": 40.0
          },
          {
            "time": "1970-01-03T01:35:25+00:00",
            "course": 243.1,
            "speed": 12.0,
            "depth": 40.0
          },
          {
            "time": "1970-01-03T01:36:25+00:00",
            "course": 243.1,
            "speed": 12.0,
            "depth": 40.0
          },
          {
            "time": "1970-01-03T01:37:25+00:00",
            "course": 243.1,
            "speed": 12.0,
            "depth": 40.0
          },
          {
            "time": "1970-01-03T01:38:25+00:00",
            "course": 243.1,
            "speed": 12.0,
            "depth": 40.0
          },
          {
            "time": "1970-01-03T01:39:25+00:00",
            "course": 243.1,
            "speed": 12.0,
            "depth": 40.0
          },
          {
            "time": "1970-01-03T01:40:25+00:00",
            "course": 243.1,
            "speed": 12.0,
            "depth": 40.0
          },
          {
            "time": "1970-01-03T01:41:25+00:00",
            "course": 243.1,
            "speed": 12.0,
            "depth": 40.0
          },
          {
            "time": "1970-01-03T01:42:25+00:00",
            "course": 243.1,
            "speed": 12.0,
            "depth": 40.0
          },
          {
            "time": "1970-01-03T01:43:25+00:00",
            "course": 243.1,
            "speed": 12.0,
            "depth": 40.0
          },
          {
            "time": "1970-01-03T01:44:25+00:00",
            "course": 243.1,
            "speed": 12.0,
            "depth": 40.0
          },
          {
            "time": "1970-01-03T01:45:25+00:00",
            "course": 243.1,
            "speed": 12.0,
            "depth": 40.0
          },
          {
            "time": "1970-01-03T01:46:25+00:00",
            "course": 243.1,
            "speed": 12.0,
            "depth": 40.0
          },
          {
            "time": "1970-01-03T01:47:25+00:00",
            "course": 243.1,
            "speed": 12.0,
            "depth": 40.0
          },
          {
            "time": "1970-01-03T01:48:25+00:00",
            "course": 243.1,
            "speed": 12.0,
            "depth": 40.0
          },
          {
            "time": "1970-01-03T01:49:25+00:00",
            "course": 243.1,
            "speed": 12.0,
            "depth": 40.0
          },
          {
            "time": "1970-01-03T01:50:25+00:00",
            "course": 243.1,
            "speed": 12.0,
            "depth": 40.0
          },
          {
            "time": "1970-01-03T01:51:25+00:00",
            "course": 243.1,
            "speed": 12.0,
            "depth": 40.0
          },
          {
            "time": "1970-01-03T01:52:25+00:00",
            "course": 243.1,
            "speed": 12.0,
            "depth": 40.0
          },
          {
            "time": "1970-01-03T01:53:25+00:00",
            "course": 243.1,
            "speed": 12.0,
            "depth": 40.0
          },
          {
            "time": "1970-01-03T01:54:25+00:00",
            "course": 243.1,
            "speed": 12.0,
            "depth": 40.0
          },
          {
            "time": "1970-01-03T01:55:25+00:00",
            "course": 243.1,
            "speed": 12.0,
            "depth": 40.0
          },
          {
            "time": "1970-01-03T01:56:25+00:00",
            "course": 243.1,
            "speed": 12.0,
            "depth": 40.0
          },
          {
            "time": "1970-01-03T01:57:25+00:00",
            "course": 243.1,
            "speed": 12.0,
            "depth": 40.0
          },
          {
            "time": "1970-01-03T01:58:25+00:00",
            "course": 243.1,
            "speed": 12.0,
            "depth": 40.0
          },
          {
            "time": "1970-01-03T01:59:25+00:00",
            "course": 243.1,
            "speed": 12.0,
            "depth": 40.0
          },
          {
            "time": "1970-01-03T02:00:25+00:00",
            "course": 243.1,
            "speed": 12.0,
            "depth": 40.0
          },
          {
            "time": "1970-01-03T02:01:25+00:00",
            "course": 243.1,
            "speed": 12.0,
            "depth": 40.0
          },
          {
            "time": "1970-01-03T02:02:25+00:00",
            "course": 243.1,
            "speed": 12.0,
            "depth": 40.0
          },
          {
            "time": "1970-01-03T02:03:25+00:00",
            "course": 243.1,
            "speed": 12.0,
            "depth": 40.0
          },
          {
            "time": "1970-01-03T02:04:25+00:00",
            "course": 243.1,
            "speed": 12.0,
            "depth": 40.0
          },
          {
            "time": "1970-01-03T02:05:25+00:00",
            "course": 243.1,
            "speed": 12.0,
            "depth": 40.0
          },
          {
            "time": "1970-01-03T02:06:25+00:00",
            "course": 243.1,
            "speed": 12.0,
            "depth": 40.0
          },
          {
            "time": "1970-01-03T02:07:25+00:00",
            "course": 243.1,
            "speed": 12.0,
            "depth": 40.0
          },
          {
            "time": "1970-01-03T02:08:25+00:00",
            "course": 243.1,
            "speed": 12.0,
            "depth": 40.0
          },
          {
            "time": "1970-01-03T02:09:25+00:00",
            "course": 243.1,
            "speed": 12.0,
            "depth": 40.0
          },
          {
            "time": "1970-01-03T02:10:25+00:00",
            "course": 243.1,
            "speed": 12.0,
            "depth": 40.0
          },
          {
            "time": "1970-01-03T02:11:25+00:00",
            "course": 243.1,
            "speed": 12.0,
            "depth": 40.0
          },
          {
            "time": "1970-01-03T02:12:25+00:00",
            "course": 243.1,
            "speed": 12.0,
            "depth": 40.0
          },
          {
            "time": "1970-01-03T02:13:25+00:00",
            "course": 243.1,
            "speed": 12.0,
            "depth": 40.0
          },
          {
            "time": "1970-01-03T02:14:25+00:00",
            "course": 243.1,
            "speed": 12.0,
            "depth": 40.0
          },
          {
            "time": "1970-01-03T02:15:25+00:00",
            "course": 243.1,
            "speed": 12.0,
            "depth": 40.0
          },
          {
            "time": "1970-01-03T02:16:25+00:00",
            "course": 243.1,
            "speed": 12.0,
            "depth": 40.0
          },
          {
            "time": "1970-01-03T02:17:25+00:00",
            "course": 243.1,
            "speed": 12.0,
            "depth": 40.0
          },
          {
            "time": "1970-01-03T02:18:25+00:00",
            "course": 243.1,
            "speed": 12.0,
            "depth": 40.0
          },
          {
            "time": "1970-01-03T02:19:25+00:00",
            "course": 243.1,
            "speed": 12.0,
            "depth": 40.0
          },
          {
            "time": "1970-01-03T02:20:25+00:00",
            "course": 243.1,
            "speed": 12.0,
            "depth": 40.0
          },
          {
            "time": "1970-01-03T02:21:25+00:00",
            "course": 243.1,
            "speed": 12.0,
            "depth": 40.0
          },
          {
            "time": "1970-01-03T02:22:25+00:00",
            "course": 243.1,
            "speed": 12.0,
            "depth": 40.0
          },
          {
            "time": "1970-01-03T02:23:25+00:00",
            "course": 243.1,
            "speed": 12.0,
            "depth": 40.0
          },
          {
            "time": "1970-01-03T02:24:25+00:00",
            "course": 243.1,
            "speed": 12.0,
            "depth": 40.0
          },
          {
            "time": "1970-01-03T02:25:25+00:00",
            "course": 243.1,
            "speed": 12.0,
            "depth": 40.0
          },
          {
            "time": "1970-01-03T02:26:25+00:00",
            "course": 243.1,
            "speed": 12.0,
            "depth": 40.0
          },
          {
            "time": "1970-01-03T02:27:25+00:00",
            "course": 243.1,
            "speed": 12.0,
            "depth": 40.0
          },
          {
            "time": "1970-01-03T02:28:25+00:00",
            "course": 243.1,
            "speed": 12.0,
            "depth": 40.0
          },
          {
            "time": "1970-01-03T02:29:25+00:00",
            "course": 243.1,
            "speed": 12.0,
            "depth": 40.0
          },
          {
            "time": "1970-01-03T02:30:25+00:00",
            "course": 243.1,
            "speed": 12.0,
            "depth": 40.0
          },
          {
            "time": "1970-01-03T02:31:25+00:00",
            "course": 243.1,
            "speed": 12.0,
            "depth": 40.0
          },
          {
            "time": "1970-01-03T02:32:25+00:00",
            "course": 243.1,
            "speed": 12.0,
            "depth": 40.0
          },
          {
            "time": "1970-01-03T02:33:25+00:00",
            "course": 289.6,
            "speed": 12.0,
            "depth": 40.0
          },
          {
            "time": "1970-01-03T02:34:25+00:00",
            "course": 336.0,
            "speed": 12.0,
            "depth": 40.0
          },
          {
            "time": "1970-01-03T02:35:25+00:00",
            "course": 22.5,
            "speed": 12.0,
            "depth": 40.0
          },
          {
            "time": "1970-01-03T02:36:25+00:00",
            "course": 9.6,
            "speed": 12.0,
            "depth": 40.0
          },
          {
            "time": "1970-01-03T02:37:25+00:00",
            "course": 5.3,
            "speed": 12.0,
            "depth": 40.0
          },
          {
            "time": "1970-01-03T02:38:25+00:00",
            "course": 3.1,
            "speed": 12.0,
            "depth": 40.0
          },
          {
            "time": "1970-01-03T02:39:25+00:00",
            "course": 316.7,
            "speed": 12.0,
            "depth": 40.0
          },
          {
            "time": "1970-01-03T02:40:25+00:00",
            "course": 270.2,
            "speed": 12.0,
            "depth": 40.0
          },
          {
            "time": "1970-01-03T02:41:25+00:00",
            "course": 252.2,
            "speed": 12.0,
            "depth": 40.0
          },
          {
            "time": "1970-01-03T02:42:25+00:00",
            "course": 252.2,
            "speed": 4.0,
            "depth": 15.0
          },
          {
            "time": "1970-01-03T02:43:25+00:00",
            "course": 252.2,
            "speed": 4.0,
            "depth": 15.0
          },
          {
            "time": "1970-01-03T02:44:25+00:00",
            "course": 252.2,
            "speed": 4.0,
            "depth": 15.0
          },
          {
            "time": "1970-01-03T02:45:25+00:00",
            "course": 252.2,
            "speed": 4.0,
            "depth": 15.0
          },
          {
            "time": "1970-01-03T02:46:25+00:00",
            "course": 252.2,
            "speed": 4.0,
            "depth": 15.0
          },
          {
            "time": "1970-01-03T02:47:25+00:00",
            "course": 252.2,
            "speed": 4.0,
            "depth": 15.0
          },
          {
            "time": "1970-01-03T02:48:25+00:00",
            "course": 252.2,
            "speed": 4.0,
            "depth": 15.0
          },
          {
            "time": "1970-01-03T02:49:25+00:00",
            "course": 252.2,
            "speed": 4.0,
            "depth": 15.0
          },
          {
            "time": "1970-01-03T02:50:25+00:00",
            "course": 252.2,
            "speed": 4.0,
            "depth": 15.0
          },
          {
            "time": "1970-01-03T02:51:25+00:00",
            "course": 252.2,
            "speed": 4.0,
            "depth": 15.0
          },
          {
            "time": "1970-01-03T02:52:25+00:00",
            "course": 252.2,
            "speed": 4.0,
            "depth": 15.0
          },
          {
            "time": "1970-01-03T02:53:25+00:00",
            "course": 252.2,
            "speed": 4.0,
            "depth": 15.0
          },
          {
            "time": "1970-01-03T02:54:25+00:00",
            "course": 252.2,
            "speed": 4.0,
            "depth": 15.0
          },
          {
            "time": "1970-01-03T02:55:25+00:00",
            "course": 252.2,
            "speed": 4.0,
            "depth": 15.0
          },
          {
            "time": "1970-01-03T02:56:25+00:00",
            "course": 252.2,
            "speed": 4.0,
            "depth": 15.0
          },
          {
            "time": "1970-01-03T02:57:25+00:00",
            "course": 252.2,
            "speed": 4.0,
            "depth": 15.0
          },
          {
            "time": "1970-01-03T02:58:25+00:00",
            "course": 246.1,
            "speed": 4.0,
            "depth": 15.0
          },
          {
            "time": "1970-01-03T02:59:25+00:00",
            "course": 243.1,
            "speed": 4.0,
            "depth": 15.0
          },
          {
            "time": "1970-01-03T03:00:25+00:00",
            "course": 227.6,
            "speed": 4.0,
            "depth": 15.0
          },
          {
            "time": "1970-01-03T03:01:25+00:00",
            "course": 212.2,
            "speed": 4.0,
            "depth": 15.0
          },
          {
            "time": "1970-01-03T03:02:25+00:00",
            "course": 196.7,
            "speed": 4.0,
            "depth": 15.0
          },
          {
            "time": "1970-01-03T03:03:25+00:00",
            "course": 181.2,
            "speed": 4.0,
            "depth": 15.0
          },
          {
            "time": "1970-01-03T03:04:25+00:00",
            "course": 165.7,
            "speed": 4.0,
            "depth": 15.0
          },
          {
            "time": "1970-01-03T03:05:25+00:00",
            "course": 150.2,
            "speed": 4.0,
            "depth": 15.0
          },
          {
            "time": "1970-01-03T03:06:25+00:00",
            "course": 167.3,
            "speed": 4.4,
            "depth": 15.0
          },
          {
            "time": "1970-01-03T03:07:25+00:00",
            "course": 185.8,
            "speed": 4.8,
            "depth": 15.0
          },
          {
            "time": "1970-01-03T03:08:25+00:00",
            "course": 205.9,
            "speed": 5.2,
            "depth": 15.0
          },
          {
            "time": "1970-01-03T03:09:25+00:00",
            "course": 227.6,
            "speed": 5.6,
            "depth": 15.0
          },
          {
            "time": "1970-01-03T03:10:25+00:00",
            "course": 250.8,
            "speed": 6.0,
            "depth": 15.0
          },
          {
            "time": "1970-01-03T03:11:25+00:00",
            "course": 266.9,
            "speed": 6.4,
            "depth": 15.0
          },
          {
            "time": "1970-01-03T03:12:25+00:00",
            "course": 271.6,
            "speed": 6.8,
            "depth": 15.0
          },
          {
            "time": "1970-01-03T03:13:25+00:00",
            "course": 273.3,
            "speed": 7.2,
            "depth": 15.0
          },
          {
            "time": "1970-01-03T03:14:25+00:00",
            "course": 272.9,
            "speed": 7.6,
            "depth": 15.0
          },
          {
            "time": "1970-01-03T03:15:25+00:00",
            "course": 272.5,
            "speed": 8.0,
            "depth": 15.0
          },
          {
            "time": "1970-01-03T03:16:25+00:00",
            "course": 272.1,
            "speed": 8.4,
            "depth": 15.0
          },
          {
            "time": "1970-01-03T03:17:25+00:00",
            "course": 271.7,
            "speed": 8.8,
            "depth": 15.0
          },
          {
            "time": "1970-01-03T03:18:25+00:00",
            "course": 271.2,
            "speed": 9.3,
            "depth": 15.0
          },
          {
            "time": "1970-01-03T03:19:25+00:00",
            "course": 270.7,
            "speed": 9.7,
            "depth": 15.0
          },
          {
            "time": "1970-01-03T03:20:25+00:00",
            "course": 270.2,
            "speed": 10.2,
            "depth": 15.0
          },
          {
            "time": "1970-01-03T03:21:25+00:00",
            "course": 269.7,
            "speed": 10.7,
            "depth": 15.0
          },
          {
            "time": "1970-01-03T03:22:25+00:00",
            "course": 269.2,
            "speed": 11.3,
            "depth": 15.0
          },
          {
            "time": "1970-01-03T03:23:25+00:00",
            "course": 268.6,
            "speed": 11.8,
            "depth": 15.0
          },
          {
            "time": "1970-01-03T03:24:25+00:00",
            "course": 268.0,
            "speed": 12.4,
            "depth": 15.0
          },
          {
            "time": "1970-01-03T03:25:25+00:00",
            "course": 267.3,
            "speed": 13.0,
            "depth": 15.0
          },
          {
            "time": "1970-01-03T03:26:25+00:00",
            "course": 266.6,
            "speed": 13.7,
            "depth": 15.0
          },
          {
            "time": "1970-01-03T03:27:25+00:00",
            "course": 265.9,
            "speed": 14.4,
            "depth": 15.0
          },
          {
            "time": "1970-01-03T03:28:25+00:00",
            "course": 265.1,
            "speed": 15.0,
            "depth": 15.0
          },
          {
            "time": "1970-01-03T03:29:25+00:00",
            "course": 264.2,
            "speed": 15.0,
            "depth": 15.0
          },
          {
            "time": "1970-01-03T03:30:25+00:00",
            "course": 263.3,
            "speed": 15.0,
            "depth": 15.0
          },
          {
            "time": "1970-01-03T03:31:25+00:00",
            "course": 262.3,
            "speed": 15.0,
            "depth": 15.0
          },
          {
            "time": "1970-01-03T03:32:25+00:00",
            "course": 261.2,
            "speed": 15.0,
            "depth": 15.0
          },
          {
            "time": "1970-01-03T03:33:25+00:00",
            "course": 260.0,
            "speed": 15.0,
            "depth": 15.0
          },
          {
            "time": "1970-01-03T03:34:25+00:00",
            "course": 258.7,
            "speed": 15.0,
            "depth": 15.0
          },
          {
            "time": "1970-01-03T03:35:25+00:00",
            "course": 257.3,
            "speed": 15.0,
            "depth": 15.0
          },
          {
            "time": "1970-01-03T03:36:25+00:00",
            "course": 255.7,
            "speed": 15.0,
            "depth": 15.0
          },
          {
            "time": "1970-01-03T03:37:25+00:00",
            "course": 253.8,
            "speed": 15.0,
            "depth": 15.0
          },
          {
            "time": "1970-01-03T03:38:25+00:00",
            "course": 251.8,
            "speed": 15.0,
            "depth": 15.0
          },
          {
            "time": "1970-01-03T03:39:25+00:00",
            "course": 249.4,
            "speed": 15.0,
            "depth": 15.0
          },
          {
            "time": "1970-01-03T03:40:25+00:00",
            "course": 246.6,
            "speed": 15.0,
            "depth": 15.0
          },
          {
            "time": "1970-01-03T03:41:25+00:00",
            "course": 243.4,
            "speed": 15.0,
            "depth": 15.0
          },
          {
            "time": "1970-01-03T03:42:25+00:00",
            "course": 239.5,
            "speed": 15.0,
            "depth": 15.0
          },
          {
            "time": "1970-01-03T03:43:25+00:00",
            "course": 234.8,
            "speed": 15.0,
            "depth": 15.0
          },
          {
            "time": "1970-01-03T03:44:25+00:00",
            "course": 231.0,
            "speed": 15.0,
            "depth": 15.0
          },
          {
            "time": "1970-01-03T03:45:25+00:00",
            "course": 224.6,
            "speed": 15.0,
            "depth": 15.0
          },
          {
            "time": "1970-01-03T03:46:25+00:00",
            "course": 215.7,
            "speed": 15.0,
            "depth": 15.0
          },
          {
            "time": "1970-01-03T03:47:25+00:00",
            "course": 204.0,
            "speed": 15.0,
            "depth": 15.0
          },
          {
            "time": "1970-01-03T03:48:25+00:00",
            "course": 189.1,
            "speed": 15.0,
            "depth": 15.0
          },
          {
            "time": "1970-01-03T03:49:25+00:00",
            "course": 172.2,
            "speed": 14.3,
            "depth": 15.0
          },
          {
            "time": "1970-01-03T03:50:25+00:00",
            "course": 155.2,
            "speed": 13.5,
            "depth": 15.0
          },
          {
            "time": "1970-01-03T03:51:25+00:00",
            "course": 140.7,
            "speed": 12.9,
            "depth": 15.0
          },
          {
            "time": "1970-01-03T03:52:25+00:00",
            "course": 130.5,
            "speed": 12.2,
            "depth": 15.0
          },
          {
            "time": "1970-01-03T03:53:25+00:00",
            "course": 124.2,
            "speed": 11.6,
            "depth": 15.0
          },
          {
            "time": "1970-01-03T03:54:25+00:00",
            "course": 119.2,
            "speed": 11.0,
            "depth": 15.0
          },
          {
            "time": "1970-01-03T03:55:25+00:00",
            "course": 119.2,
            "speed": 10.5,
            "depth": 15.0
          },
          {
            "time": "1970-01-03T03:56:25+00:00",
            "course": 119.2,
            "speed": 10.0,
            "depth": 15.0
          },
          {
            "time": "1970-01-03T03:57:25+00:00",
            "course": 119.2,
            "speed": 9.5,
            "depth": 15.0
          },
          {
            "time": "1970-01-03T03:58:25+00:00",
            "course": 119.2,
            "speed": 9.5,
            "depth": 15.0
          },
          {
            "time": "1970-01-03T03:59:25+00:00",
            "course": 119.2,
            "speed": 9.5,
            "depth": 15.0
          },
          {
            "time": "1970-01-03T04:00:25+00:00",
            "course": 119.2,
            "speed": 9.5,
            "depth": 15.0
          },
          {
            "time": "1970-01-03T04:01:25+00:00",
            "course": 119.2,
            "speed": 9.5,
            "depth": 15.0
          },
          {
            "time": "1970-01-03T04:02:25+00:00",
            "course": 119.2,
            "speed": 9.5,
            "depth": 15.0
          },
          {
            "time": "1970-01-03T04:03:25+00:00",
            "course": 119.2,
            "speed": 9.5,
            "depth": 15.0
          },
          {
            "time": "1970-01-03T04:04:25+00:00",
            "course": 119.2,
            "speed": 9.5,
            "depth": 15.0
          },
          {
            "time": "1970-01-03T04:05:25+00:00",
            "course": 119.2,
            "speed": 9.5,
            "depth": 15.0
          },
          {
            "time": "1970-01-03T04:06:25+00:00",
            "course": 119.2,
            "speed": 9.5,
            "depth": 15.0
          },
          {
            "time": "1970-01-03T04:07:25+00:00",
            "course": 119.2,
            "speed": 9.5,
            "depth": 15.0
          },
          {
            "time": "1970-01-03T04:08:25+00:00",
            "course": 119.2,
            "speed": 9.5,
            "depth": 15.0
          },
          {
            "time": "1970-01-03T04:09:25+00:00",
            "course": 119.2,
            "speed": 9.5,
            "depth": 15.0
          },
          {
            "time": "1970-01-03T04:10:25+00:00",
            "course": 119.2,
            "speed": 9.5,
            "depth": 15.0
          },
          {
            "time": "1970-01-03T04:11:25+00:00",
            "course": 119.1,
            "speed": 9.5,
            "depth": 15.0
          },
          {
            "time": "1970-01-03T04:12:25+00:00",
            "course": 119.1,
            "speed": 9.9,
            "depth": 15.0
          },
          {
            "time": "1970-01-03T04:13:25+00:00",
            "course": 119.2,
            "speed": 10.4,
            "depth": 15.0
          },
          {
            "time": "1970-01-03T04:14:25+00:00",
            "course": 119.2,
            "speed": 10.9,
            "depth": 15.0
          },
          {
            "time": "1970-01-03T04:15:25+00:00",
            "course": 119.2,
            "speed": 11.5,
            "depth": 15.0
          },
          {
            "time": "1970-01-03T04:16:25+00:00",
            "course": 119.2,
            "speed": 12.1,
            "depth": 15.0
          },
          {
            "time": "1970-01-03T04:17:25+00:00",
            "course": 119.2,
            "speed": 12.7,
            "depth": 15.0
          }
        ],
        "style": {
          "line": {
            "color": "#808080"
          },
          "point": {
            "shape": "circle",
            "radius": 3.0,
            "fill_color": "#808080",
            "color": "#808080"
          }
        },
        "default_position_style": {
          "show_symbol": false,
          "symbol": "circle",
          "show_label": false
        },
        "symbol_interval": "PT10M",
        "label_interval": "PT30M",
        "provenance": [
          {
            "activity_id": "d9cdb253-7b0b-47fe-b56e-1086ff888f72",
            "timestamp": "2026-04-13T23:12:33.682780Z",
            "was_generated_by": {
              "tool": "dpf-parser",
              "tool_version": "1.0.0",
              "parameters": []
            },
            "used": [],
            "generated": [
              "6d210ec5-e46a-43ba-a733-b2c31be17918"
            ],
            "execution_duration": "PT0.005316S"
          }
        ]
      }
    },
    {
      "type": "Feature",
      "id": "65fc8697-2e54-403f-8a62-7c7a87ce54a3",
      "geometry": null,
      "properties": {
        "kind": "NARRATIVE",
        "time": "1970-01-03T01:34:00+00:00",
        "text": "COMEX PHASE DELTA",
        "style": {
          "shape": "circle",
          "radius": 4,
          "fill_color": "#888888",
          "color": "#888888"
        },
        "track_id": "Frigate",
        "provenance": [
          {
            "activity_id": "d9cdb253-7b0b-47fe-b56e-1086ff888f72",
            "timestamp": "2026-04-13T23:12:33.682780Z",
            "was_generated_by": {
              "tool": "dpf-parser",
              "tool_version": "1.0.0",
              "parameters": []
            },
            "used": [],
            "generated": [
              "65fc8697-2e54-403f-8a62-7c7a87ce54a3"
            ],
            "execution_duration": "PT0.005316S"
          }
        ]
      }
    },
    {
      "type": "Feature",
      "id": "182a7d13-049a-463e-b443-1f41a84399bf",
      "geometry": null,
      "properties": {
        "kind": "NARRATIVE",
        "time": "1970-01-03T02:31:00+00:00",
        "text": "AVOID PINNACLE",
        "style": {
          "shape": "circle",
          "radius": 4,
          "fill_color": "#888888",
          "color": "#888888"
        },
        "track_id": "New_SSK",
        "provenance": [
          {
            "activity_id": "d9cdb253-7b0b-47fe-b56e-1086ff888f72",
            "timestamp": "2026-04-13T23:12:33.682780Z",
            "was_generated_by": {
              "tool": "dpf-parser",
              "tool_version": "1.0.0",
              "parameters": []
            },
            "used": [],
            "generated": [
              "182a7d13-049a-463e-b443-1f41a84399bf"
            ],
            "execution_duration": "PT0.005316S"
          }
        ]
      }
    },
    {
      "type": "Feature",
      "id": "35e06e85-e2dc-4bb6-ad20-5ee2feca8edf",
      "geometry": null,
      "properties": {
        "kind": "NARRATIVE",
        "time": "1970-01-03T02:43:00+00:00",
        "text": "ENTERING CONSTRAINED CHANNEL",
        "style": {
          "shape": "circle",
          "radius": 4,
          "fill_color": "#888888",
          "color": "#888888"
        },
        "track_id": "Frigate",
        "provenance": [
          {
            "activity_id": "d9cdb253-7b0b-47fe-b56e-1086ff888f72",
            "timestamp": "2026-04-13T23:12:33.682780Z",
            "was_generated_by": {
              "tool": "dpf-parser",
              "tool_version": "1.0.0",
              "parameters": []
            },
            "used": [],
            "generated": [
              "35e06e85-e2dc-4bb6-ad20-5ee2feca8edf"
            ],
            "execution_duration": "PT0.005316S"
          }
        ]
      }
    },
    {
      "type": "Feature",
      "id": "34c97001-02b8-4f18-85c7-4cf8413bbd45",
      "geometry": null,
      "properties": {
        "kind": "NARRATIVE",
        "time": "1970-01-03T03:29:00+00:00",
        "text": "TARGET ACQUIRED",
        "style": {
          "shape": "circle",
          "radius": 4,
          "fill_color": "#888888",
          "color": "#888888"
        },
        "track_id": "New_SSK",
        "provenance": [
          {
            "activity_id": "d9cdb253-7b0b-47fe-b56e-1086ff888f72",
            "timestamp": "2026-04-13T23:12:33.682780Z",
            "was_generated_by": {
              "tool": "dpf-parser",
              "tool_version": "1.0.0",
              "parameters": []
            },
            "used": [],
            "generated": [
              "34c97001-02b8-4f18-85c7-4cf8413bbd45"
            ],
            "execution_duration": "PT0.005316S"
          }
        ]
      }
    },
    {
      "type": "Feature",
      "id": "09dfb538-ede0-4ca9-a1b4-e9841da8b28f",
      "geometry": null,
      "properties": {
        "kind": "NARRATIVE",
        "time": "1970-01-03T03:48:00+00:00",
        "text": "FEEL LIKE I'M BEING WATCHED",
        "style": {
          "shape": "circle",
          "radius": 4,
          "fill_color": "#888888",
          "color": "#888888"
        },
        "track_id": "Frigate",
        "provenance": [
          {
            "activity_id": "d9cdb253-7b0b-47fe-b56e-1086ff888f72",
            "timestamp": "2026-04-13T23:12:33.682780Z",
            "was_generated_by": {
              "tool": "dpf-parser",
              "tool_version": "1.0.0",
              "parameters": []
            },
            "used": [],
            "generated": [
              "09dfb538-ede0-4ca9-a1b4-e9841da8b28f"
            ],
            "execution_duration": "PT0.005316S"
          }
        ]
      }
    },
    {
      "type": "Feature",
      "id": "47efe7e0-c0a7-48a2-a8a2-3b80c6f383a0",
      "geometry": null,
      "properties": {
        "kind": "NARRATIVE",
        "time": "1970-01-03T04:17:25+00:00",
        "text": "Start defensive measures\n",
        "style": {
          "shape": "circle",
          "radius": 4,
          "fill_color": "#888888",
          "color": "#888888"
        },
        "track_id": "Frigate",
        "provenance": [
          {
            "activity_id": "d9cdb253-7b0b-47fe-b56e-1086ff888f72",
            "timestamp": "2026-04-13T23:12:33.682780Z",
            "was_generated_by": {
              "tool": "dpf-parser",
              "tool_version": "1.0.0",
              "parameters": []
            },
            "used": [],
            "generated": [
              "47efe7e0-c0a7-48a2-a8a2-3b80c6f383a0"
            ],
            "execution_duration": "PT0.005316S"
          }
        ]
      }
    }
  ]
}