{
  "type": "FeatureCollection",
  "features": [
    {
      "type": "Feature",
      "id": "2c426732-df29-4493-a0cb-5dda0ee5e2c5",
      "geometry": null,
      "properties": {
        "kind": "SENSOR_CONTACT",
        "parent_track": "SENSOR",
        "time": "2010-01-12T12:00:00+00:00",
        "frequency": 149.589,
        "sensor_name": "NB_FREQ",
        "label": "SUBJECT held on NB_FREQ"
      }
    },
    {
      "type": "Feature",
      "id": "4b7235c6-2072-4be3-a7a8-35f628287eb5",
      "geometry": null,
      "properties": {
        "kind": "SENSOR_CONTACT",
        "parent_track": "SENSOR",
        "time": "2010-01-12T12:00:00+00:00",
        "bearing": -153.5,
        "range": 0.0,
        "sensor_name": "NB_BRG",
        "label": "SUBJECT held on NB_BRG"
      }
    },
    {
      "type": "Feature",
      "id": "87a96517-f528-4afb-b8e4-c5e11f784c79",
      "geometry": null,
      "properties": {
        "kind": "SENSOR_CONTACT",
        "parent_track": "SENSOR",
        "time": "2010-01-12T12:00:50+00:00",
        "frequency": 149.842,
        "sensor_name": "NB_FREQ",
        "label": "SUBJECT held on NB_FREQ"
      }
    },
    {
      "type": "Feature",
      "id": "f71c2504-a269-4efb-a300-286627ae01be",
      "geometry": null,
      "properties": {
        "kind": "SENSOR_CONTACT",
        "parent_track": "SENSOR",
        "time": "2010-01-12T12:00:50+00:00",
        "bearing": -152.6,
        "range": 0.0,
        "sensor_name": "NB_BRG",
        "label": "SUBJECT held on NB_BRG"
      }
    },
    {
      "type": "Feature",
      "id": "b68e27f1-b799-40a3-8e22-fbbfbae7dc19",
      "geometry": null,
      "properties": {
        "kind": "SENSOR_CONTACT",
        "parent_track": "SENSOR",
        "time": "2010-01-12T12:10:50+00:00",
        "frequency": 150.705,
        "sensor_name": "NB_FREQ",
        "label": "SUBJECT held on NB_FREQ"
      }
    },
    {
      "type": "Feature",
      "id": "f7db1005-a796-473d-b731-35f0d20e5de3",
      "geometry": null,
      "properties": {
        "kind": "SENSOR_CONTACT",
        "parent_track": "SENSOR",
        "time": "2010-01-12T12:10:50+00:00",
        "bearing": -143.6,
        "range": 0.0,
        "sensor_name": "NB_BRG",
        "label": "SUBJECT held on NB_BRG"
      }
    },
    {
      "type": "Feature",
      "id": "f66e9672-1e15-4253-be8d-439cb5946f67",
      "geometry": null,
      "properties": {
        "kind": "SENSOR_CONTACT",
        "parent_track": "SENSOR",
        "time": "2010-01-12T12:11:40+00:00",
        "frequency": 150.697,
        "sensor_name": "NB_FREQ",
        "label": "SUBJECT held on NB_FREQ"
      }
    },
    {
      "type": "Feature",
      "id": "6bbf93f5-6a8e-40d6-bf55-0d205cc728cd",
      "geometry": null,
      "properties": {
        "kind": "SENSOR_CONTACT",
        "parent_track": "SENSOR",
        "time": "2010-01-12T12:11:40+00:00",
        "bearing": -142.8,
        "range": 0.0,
        "sensor_name": "NB_BRG",
        "label": "SUBJECT held on NB_BRG"
      }
    },
    {
      "type": "Feature",
      "id": "3fa80b11-964b-4cfe-938f-28a27dec7681",
      "geometry": null,
      "properties": {
        "kind": "SENSOR_CONTACT",
        "parent_track": "SENSOR",
        "time": "2010-01-12T12:12:30+00:00",
        "frequency": 150.689,
        "sensor_name": "NB_FREQ",
        "label": "SUBJECT held on NB_FREQ"
      }
    },
    {
      "type": "Feature",
      "id": "4c9e0d7a-5fa8-42db-9413-fb68b3ddde89",
      "geometry": null,
      "properties": {
        "kind": "SENSOR_CONTACT",
        "parent_track": "SENSOR",
        "time": "2010-01-12T12:12:30+00:00",
        "bearing": -141.9,
        "range": 0.0,
        "sensor_name": "NB_BRG",
        "label": "SUBJECT held on NB_BRG"
      }
    },
    {
      "type": "Feature",
      "id": "6a66d933-6c8c-4b92-a219-e2521118501d",
      "geometry": null,
      "properties": {
        "kind": "SENSOR_CONTACT",
        "parent_track": "SENSOR",
        "time": "2010-01-12T12:13:20+00:00",
        "frequency": 150.68,
        "sensor_name": "NB_FREQ",
        "label": "SUBJECT held on NB_FREQ"
      }
    },
    {
      "type": "Feature",
      "id": "7ddfb2c1-d10a-43f9-b5cd-aeaf49f7c5b9",
      "geometry": null,
      "properties": {
        "kind": "SENSOR_CONTACT",
        "parent_track": "SENSOR",
        "time": "2010-01-12T12:13:20+00:00",
        "bearing": -141.1,
        "range": 0.0,
        "sensor_name": "NB_BRG",
        "label": "SUBJECT held on NB_BRG"
      }
    },
    {
      "type": "Feature",
      "id": "3b69c8e3-674b-413e-93e0-bc7d3085fbd1",
      "geometry": null,
      "properties": {
        "kind": "SENSOR_CONTACT",
        "parent_track": "SENSOR",
        "time": "2010-01-12T12:14:10+00:00",
        "frequency": 150.671,
        "sensor_name": "NB_FREQ",
        "label": "SUBJECT held on NB_FREQ"
      }
    },
    {
      "type": "Feature",
      "id": "446da15d-84c1-4bf8-9e81-68436fb01bbf",
      "geometry": null,
      "properties": {
        "kind": "SENSOR_CONTACT",
        "parent_track": "SENSOR",
        "time": "2010-01-12T12:14:10+00:00",
        "bearing": -140.2,
        "range": 0.0,
        "sensor_name": "NB_BRG",
        "label": "SUBJECT held on NB_BRG"
      }
    },
    {
      "type": "Feature",
      "id": "f7f2c068-97be-4c7d-9419-0ac1bfaf3abd",
      "geometry": null,
      "properties": {
        "kind": "SENSOR_CONTACT",
        "parent_track": "SENSOR",
        "time": "2010-01-12T12:15:00+00:00",
        "frequency": 150.661,
        "sensor_name": "NB_FREQ",
        "label": "SUBJECT held on NB_FREQ"
      }
    },
    {
      "type": "Feature",
      "id": "59179239-c0aa-4e58-888d-93d763054dd3",
      "geometry": null,
      "properties": {
        "kind": "SENSOR_CONTACT",
        "parent_track": "SENSOR",
        "time": "2010-01-12T12:15:00+00:00",
        "bearing": -139.3,
        "range": 0.0,
        "sensor_name": "NB_BRG",
        "label": "SUBJECT held on NB_BRG"
      }
    },
    {
      "type": "Feature",
      "id": "46d5f5d4-72b6-4c80-af3c-133970aa25a8",
      "geometry": null,
      "properties": {
        "kind": "SENSOR_CONTACT",
        "parent_track": "SENSOR",
        "time": "2010-01-12T12:15:50+00:00",
        "frequency": 150.651,
        "sensor_name": "NB_FREQ",
        "label": "SUBJECT held on NB_FREQ"
      }
    },
    {
      "type": "Feature",
      "id": "0ea19702-cf75-4f11-a854-9d8980495c58",
      "geometry": null,
      "properties": {
        "kind": "SENSOR_CONTACT",
        "parent_track": "SENSOR",
        "time": "2010-01-12T12:15:50+00:00",
        "bearing": -138.4,
        "range": 0.0,
        "sensor_name": "NB_BRG",
        "label": "SUBJECT held on NB_BRG"
      }
    },
    {
      "type": "Feature",
      "id": "c10d03b1-d888-49e6-bded-e1b2ba80865d",
      "geometry": null,
      "properties": {
        "kind": "SENSOR_CONTACT",
        "parent_track": "SENSOR",
        "time": "2010-01-12T12:16:40+00:00",
        "frequency": 150.64,
        "sensor_name": "NB_FREQ",
        "label": "SUBJECT held on NB_FREQ"
      }
    },
    {
      "type": "Feature",
      "id": "85833eea-fe3a-4762-98e8-9640a33c5024",
      "geometry": null,
      "properties": {
        "kind": "SENSOR_CONTACT",
        "parent_track": "SENSOR",
        "time": "2010-01-12T12:16:40+00:00",
        "bearing": -137.4,
        "range": 0.0,
        "sensor_name": "NB_BRG",
        "label": "SUBJECT held on NB_BRG"
      }
    },
    {
      "type": "Feature",
      "id": "bdf6dcec-79ce-4651-ae4a-7e265dc0f81c",
      "geometry": null,
      "properties": {
        "kind": "SENSOR_CONTACT",
        "parent_track": "SENSOR",
        "time": "2010-01-12T12:17:30+00:00",
        "frequency": 150.628,
        "sensor_name": "NB_FREQ",
        "label": "SUBJECT held on NB_FREQ"
      }
    },
    {
      "type": "Feature",
      "id": "792e39bc-95b5-42f7-a818-56282f622546",
      "geometry": null,
      "properties": {
        "kind": "SENSOR_CONTACT",
        "parent_track": "SENSOR",
        "time": "2010-01-12T12:17:30+00:00",
        "bearing": -136.4,
        "range": 0.0,
        "sensor_name": "NB_BRG",
        "label": "SUBJECT held on NB_BRG"
      }
    },
    {
      "type": "Feature",
      "id": "e30d4add-5305-441e-8262-d7532fda1dd1",
      "geometry": null,
      "properties": {
        "kind": "SENSOR_CONTACT",
        "parent_track": "SENSOR",
        "time": "2010-01-12T12:18:20+00:00",
        "frequency": 150.616,
        "sensor_name": "NB_FREQ",
        "label": "SUBJECT held on NB_FREQ"
      }
    },
    {
      "type": "Feature",
      "id": "4c982f5b-4899-4940-996a-91ae51484200",
      "geometry": null,
      "properties": {
        "kind": "SENSOR_CONTACT",
        "parent_track": "SENSOR",
        "time": "2010-01-12T12:18:20+00:00",
        "bearing": -135.3,
        "range": 0.0,
        "sensor_name": "NB_BRG",
        "label": "SUBJECT held on NB_BRG"
      }
    },
    {
      "type": "Feature",
      "id": "f2978473-b635-4b27-a1d8-fc461c3d5719",
      "geometry": null,
      "properties": {
        "kind": "SENSOR_CONTACT",
        "parent_track": "SENSOR",
        "time": "2010-01-12T12:19:10+00:00",
        "frequency": 150.604,
        "sensor_name": "NB_FREQ",
        "label": "SUBJECT held on NB_FREQ"
      }
    },
    {
      "type": "Feature",
      "id": "0e0d1335-cdd4-4c4a-9f33-fb0b705238dc",
      "geometry": null,
      "properties": {
        "kind": "SENSOR_CONTACT",
        "parent_track": "SENSOR",
        "time": "2010-01-12T12:19:10+00:00",
        "bearing": -134.2,
        "range": 0.0,
        "sensor_name": "NB_BRG",
        "label": "SUBJECT held on NB_BRG"
      }
    },
    {
      "type": "Feature",
      "id": "9bf24271-1df6-4978-a5a6-0f3a1c53c273",
      "geometry": null,
      "properties": {
        "kind": "SENSOR_CONTACT",
        "parent_track": "SENSOR",
        "time": "2010-01-12T12:20:00+00:00",
        "frequency": 150.59,
        "sensor_name": "NB_FREQ",
        "label": "SUBJECT held on NB_FREQ"
      }
    },
    {
      "type": "Feature",
      "id": "c463b0fa-5385-4c90-96ab-0b5c87326132",
      "geometry": null,
      "properties": {
        "kind": "SENSOR_CONTACT",
        "parent_track": "SENSOR",
        "time": "2010-01-12T12:20:00+00:00",
        "bearing": -133.1,
        "range": 0.0,
        "sensor_name": "NB_BRG",
        "label": "SUBJECT held on NB_BRG"
      }
    },
    {
      "type": "Feature",
      "id": "51ac0f44-b47e-4eb8-95c5-1094fdceec54",
      "geometry": null,
      "properties": {
        "kind": "SENSOR_CONTACT",
        "parent_track": "SENSOR",
        "time": "2010-01-12T12:20:50+00:00",
        "frequency": 150.576,
        "sensor_name": "NB_FREQ",
        "label": "SUBJECT held on NB_FREQ"
      }
    },
    {
      "type": "Feature",
      "id": "fb529865-f58c-43fc-b7c7-743bc1a337b2",
      "geometry": null,
      "properties": {
        "kind": "SENSOR_CONTACT",
        "parent_track": "SENSOR",
        "time": "2010-01-12T12:20:50+00:00",
        "bearing": -131.9,
        "range": 0.0,
        "sensor_name": "NB_BRG",
        "label": "SUBJECT held on NB_BRG"
      }
    },
    {
      "type": "Feature",
      "id": "43cb4b53-a171-456d-8aa4-b6acc95a72a8",
      "geometry": null,
      "properties": {
        "kind": "SENSOR_CONTACT",
        "parent_track": "SENSOR",
        "time": "2010-01-12T12:21:40+00:00",
        "frequency": 150.561,
        "sensor_name": "NB_FREQ",
        "label": "SUBJECT held on NB_FREQ"
      }
    },
    {
      "type": "Feature",
      "id": "a8021120-582f-4d43-aacf-d89e5bbdefc3",
      "geometry": null,
      "properties": {
        "kind": "SENSOR_CONTACT",
        "parent_track": "SENSOR",
        "time": "2010-01-12T12:21:40+00:00",
        "bearing": -130.7,
        "range": 0.0,
        "sensor_name": "NB_BRG",
        "label": "SUBJECT held on NB_BRG"
      }
    },
    {
      "type": "Feature",
      "id": "0d459fb0-e3e8-4bc2-aafb-7c34a0b73de5",
      "geometry": null,
      "properties": {
        "kind": "SENSOR_CONTACT",
        "parent_track": "SENSOR",
        "time": "2010-01-12T12:22:30+00:00",
        "frequency": 150.546,
        "sensor_name": "NB_FREQ",
        "label": "SUBJECT held on NB_FREQ"
      }
    },
    {
      "type": "Feature",
      "id": "e8d11c53-c03b-4a22-bfd8-80d2bca3e42c",
      "geometry": null,
      "properties": {
        "kind": "SENSOR_CONTACT",
        "parent_track": "SENSOR",
        "time": "2010-01-12T12:22:30+00:00",
        "bearing": -129.5,
        "range": 0.0,
        "sensor_name": "NB_BRG",
        "label": "SUBJECT held on NB_BRG"
      }
    },
    {
      "type": "Feature",
      "id": "4bacc3b7-68b5-4d61-bc90-378f98f5c98c",
      "geometry": null,
      "properties": {
        "kind": "SENSOR_CONTACT",
        "parent_track": "SENSOR",
        "time": "2010-01-12T12:23:20+00:00",
        "frequency": 150.529,
        "sensor_name": "NB_FREQ",
        "label": "SUBJECT held on NB_FREQ"
      }
    },
    {
      "type": "Feature",
      "id": "4ecdcb70-0a17-4fee-b343-a2d0bd90f764",
      "geometry": null,
      "properties": {
        "kind": "SENSOR_CONTACT",
        "parent_track": "SENSOR",
        "time": "2010-01-12T12:23:20+00:00",
        "bearing": -128.2,
        "range": 0.0,
        "sensor_name": "NB_BRG",
        "label": "SUBJECT held on NB_BRG"
      }
    },
    {
      "type": "Feature",
      "id": "86c51e57-4fde-4c38-b11c-5d6cc075f865",
      "geometry": null,
      "properties": {
        "kind": "SENSOR_CONTACT",
        "parent_track": "SENSOR",
        "time": "2010-01-12T12:24:10+00:00",
        "frequency": 150.512,
        "sensor_name": "NB_FREQ",
        "label": "SUBJECT held on NB_FREQ"
      }
    },
    {
      "type": "Feature",
      "id": "abdd2642-21d1-4951-80ad-faab8e0ff7b3",
      "geometry": null,
      "properties": {
        "kind": "SENSOR_CONTACT",
        "parent_track": "SENSOR",
        "time": "2010-01-12T12:24:10+00:00",
        "bearing": -126.9,
        "range": 0.0,
        "sensor_name": "NB_BRG",
        "label": "SUBJECT held on NB_BRG"
      }
    },
    {
      "type": "Feature",
      "id": "d5a0c395-b3ae-4cc0-a4be-3e7165060701",
      "geometry": null,
      "properties": {
        "kind": "SENSOR_CONTACT",
        "parent_track": "SENSOR",
        "time": "2010-01-12T12:25:00+00:00",
        "frequency": 150.494,
        "sensor_name": "NB_FREQ",
        "label": "SUBJECT held on NB_FREQ"
      }
    },
    {
      "type": "Feature",
      "id": "3dee8302-57eb-466a-9236-29753cc7207d",
      "geometry": null,
      "properties": {
        "kind": "SENSOR_CONTACT",
        "parent_track": "SENSOR",
        "time": "2010-01-12T12:25:00+00:00",
        "bearing": -125.5,
        "range": 0.0,
        "sensor_name": "NB_BRG",
        "label": "SUBJECT held on NB_BRG"
      }
    },
    {
      "type": "Feature",
      "id": "120091f3-4f0d-40b7-abe1-895a9fea8604",
      "geometry": null,
      "properties": {
        "kind": "SENSOR_CONTACT",
        "parent_track": "SENSOR",
        "time": "2010-01-12T12:25:50+00:00",
        "frequency": 150.475,
        "sensor_name": "NB_FREQ",
        "label": "SUBJECT held on NB_FREQ"
      }
    },
    {
      "type": "Feature",
      "id": "bf704a2e-026e-4504-bb0f-e4a43d298f7c",
      "geometry": null,
      "properties": {
        "kind": "SENSOR_CONTACT",
        "parent_track": "SENSOR",
        "time": "2010-01-12T12:25:50+00:00",
        "bearing": -124.1,
        "range": 0.0,
        "sensor_name": "NB_BRG",
        "label": "SUBJECT held on NB_BRG"
      }
    },
    {
      "type": "Feature",
      "id": "4a186d26-b4d3-4806-976c-07c260ccd470",
      "geometry": null,
      "properties": {
        "kind": "SENSOR_CONTACT",
        "parent_track": "SENSOR",
        "time": "2010-01-12T12:26:40+00:00",
        "frequency": 150.455,
        "sensor_name": "NB_FREQ",
        "label": "SUBJECT held on NB_FREQ"
      }
    },
    {
      "type": "Feature",
      "id": "8acfecd9-ad7b-4ccc-abaa-cf8823982020",
      "geometry": null,
      "properties": {
        "kind": "SENSOR_CONTACT",
        "parent_track": "SENSOR",
        "time": "2010-01-12T12:26:40+00:00",
        "bearing": -122.6,
        "range": 0.0,
        "sensor_name": "NB_BRG",
        "label": "SUBJECT held on NB_BRG"
      }
    },
    {
      "type": "Feature",
      "id": "daa40937-fb0c-4c21-8308-e409dee66b4a",
      "geometry": null,
      "properties": {
        "kind": "SENSOR_CONTACT",
        "parent_track": "SENSOR",
        "time": "2010-01-12T12:27:30+00:00",
        "frequency": 150.532,
        "sensor_name": "NB_FREQ",
        "label": "SUBJECT held on NB_FREQ"
      }
    },
    {
      "type": "Feature",
      "id": "2f9c1fea-ab69-4371-be5f-563acdad72b5",
      "geometry": null,
      "properties": {
        "kind": "SENSOR_CONTACT",
        "parent_track": "SENSOR",
        "time": "2010-01-12T12:27:30+00:00",
        "bearing": -121.5,
        "range": 0.0,
        "sensor_name": "NB_BRG",
        "label": "SUBJECT held on NB_BRG"
      }
    },
    {
      "type": "Feature",
      "id": "254576fb-724b-45a5-896d-9f7c9545784f",
      "geometry": null,
      "properties": {
        "kind": "SENSOR_CONTACT",
        "parent_track": "SENSOR",
        "time": "2010-01-12T12:37:30+00:00",
        "frequency": 150.326,
        "sensor_name": "NB_FREQ",
        "label": "SUBJECT held on NB_FREQ"
      }
    },
    {
      "type": "Feature",
      "id": "406f305d-358a-49e1-8c3b-2b432c41ae16",
      "geometry": null,
      "properties": {
        "kind": "SENSOR_CONTACT",
        "parent_track": "SENSOR",
        "time": "2010-01-12T12:37:30+00:00",
        "bearing": -124.3,
        "range": 0.0,
        "sensor_name": "NB_BRG",
        "label": "SUBJECT held on NB_BRG"
      }
    },
    {
      "type": "Feature",
      "id": "f73cb38f-02ed-40d7-830f-d213d9f0ac34",
      "geometry": null,
      "properties": {
        "kind": "SENSOR_CONTACT",
        "parent_track": "SENSOR",
        "time": "2010-01-12T12:38:20+00:00",
        "frequency": 150.326,
        "sensor_name": "NB_FREQ",
        "label": "SUBJECT held on NB_FREQ"
      }
    },
    {
      "type": "Feature",
      "id": "d57da433-1cca-410f-ac99-35b2ec800060",
      "geometry": null,
      "properties": {
        "kind": "SENSOR_CONTACT",
        "parent_track": "SENSOR",
        "time": "2010-01-12T12:38:20+00:00",
        "bearing": -124.7,
        "range": 0.0,
        "sensor_name": "NB_BRG",
        "label": "SUBJECT held on NB_BRG"
      }
    },
    {
      "type": "Feature",
      "id": "78e1be62-c487-4aa9-9501-c9baead04f95",
      "geometry": null,
      "properties": {
        "kind": "SENSOR_CONTACT",
        "parent_track": "SENSOR",
        "time": "2010-01-12T12:39:10+00:00",
        "frequency": 150.325,
        "sensor_name": "NB_FREQ",
        "label": "SUBJECT held on NB_FREQ"
      }
    },
    {
      "type": "Feature",
      "id": "8b137a89-fa0a-42da-a06e-7983c6e388fb",
      "geometry": null,
      "properties": {
        "kind": "SENSOR_CONTACT",
        "parent_track": "SENSOR",
        "time": "2010-01-12T12:39:10+00:00",
        "bearing": -125.0,
        "range": 0.0,
        "sensor_name": "NB_BRG",
        "label": "SUBJECT held on NB_BRG"
      }
    },
    {
      "type": "Feature",
      "id": "b397504e-31d9-415f-81c4-daddb8dfaf4c",
      "geometry": null,
      "properties": {
        "kind": "SENSOR_CONTACT",
        "parent_track": "SENSOR",
        "time": "2010-01-12T12:40:00+00:00",
        "frequency": 150.324,
        "sensor_name": "NB_FREQ",
        "label": "SUBJECT held on NB_FREQ"
      }
    },
    {
      "type": "Feature",
      "id": "38f35be9-7961-4c76-8b19-1ef7ae1db4d9",
      "geometry": null,
      "properties": {
        "kind": "SENSOR_CONTACT",
        "parent_track": "SENSOR",
        "time": "2010-01-12T12:40:00+00:00",
        "bearing": -125.4,
        "range": 0.0,
        "sensor_name": "NB_BRG",
        "label": "SUBJECT held on NB_BRG"
      }
    },
    {
      "type": "Feature",
      "id": "8323ea12-887d-444a-bbc0-8430b9830a4e",
      "geometry": null,
      "properties": {
        "kind": "SENSOR_CONTACT",
        "parent_track": "SENSOR",
        "time": "2010-01-12T12:40:50+00:00",
        "frequency": 150.322,
        "sensor_name": "NB_FREQ",
        "label": "SUBJECT held on NB_FREQ"
      }
    },
    {
      "type": "Feature",
      "id": "3a3c82ae-b53b-4b4f-837e-501b1af8e510",
      "geometry": null,
      "properties": {
        "kind": "SENSOR_CONTACT",
        "parent_track": "SENSOR",
        "time": "2010-01-12T12:40:50+00:00",
        "bearing": -125.8,
        "range": 0.0,
        "sensor_name": "NB_BRG",
        "label": "SUBJECT held on NB_BRG"
      }
    },
    {
      "type": "Feature",
      "id": "b6bf9812-8555-4997-857a-92441b90a9b4",
      "geometry": null,
      "properties": {
        "kind": "SENSOR_CONTACT",
        "parent_track": "SENSOR",
        "time": "2010-01-12T12:41:40+00:00",
        "frequency": 150.321,
        "sensor_name": "NB_FREQ",
        "label": "SUBJECT held on NB_FREQ"
      }
    },
    {
      "type": "Feature",
      "id": "27de9cb5-44bc-4fc1-bfa5-4cab9bdfb508",
      "geometry": null,
      "properties": {
        "kind": "SENSOR_CONTACT",
        "parent_track": "SENSOR",
        "time": "2010-01-12T12:41:40+00:00",
        "bearing": -126.2,
        "range": 0.0,
        "sensor_name": "NB_BRG",
        "label": "SUBJECT held on NB_BRG"
      }
    },
    {
      "type": "Feature",
      "id": "d1b8dd62-b125-4556-99ad-27bf7e278b8f",
      "geometry": null,
      "properties": {
        "kind": "SENSOR_CONTACT",
        "parent_track": "SENSOR",
        "time": "2010-01-12T12:42:30+00:00",
        "frequency": 150.32,
        "sensor_name": "NB_FREQ",
        "label": "SUBJECT held on NB_FREQ"
      }
    },
    {
      "type": "Feature",
      "id": "ad47e586-da0d-4ff0-bd28-e3da598c69e9",
      "geometry": null,
      "properties": {
        "kind": "SENSOR_CONTACT",
        "parent_track": "SENSOR",
        "time": "2010-01-12T12:42:30+00:00",
        "bearing": -126.7,
        "range": 0.0,
        "sensor_name": "NB_BRG",
        "label": "SUBJECT held on NB_BRG"
      }
    },
    {
      "type": "Feature",
      "id": "45ed2d9e-3658-445e-84df-177af82bd2e5",
      "geometry": null,
      "properties": {
        "kind": "SENSOR_CONTACT",
        "parent_track": "SENSOR",
        "time": "2010-01-12T12:43:20+00:00",
        "frequency": 150.318,
        "sensor_name": "NB_FREQ",
        "label": "SUBJECT held on NB_FREQ"
      }
    },
    {
      "type": "Feature",
      "id": "1a2899b7-7667-4e83-850a-2c2ca9791e14",
      "geometry": null,
      "properties": {
        "kind": "SENSOR_CONTACT",
        "parent_track": "SENSOR",
        "time": "2010-01-12T12:43:20+00:00",
        "bearing": -127.1,
        "range": 0.0,
        "sensor_name": "NB_BRG",
        "label": "SUBJECT held on NB_BRG"
      }
    },
    {
      "type": "Feature",
      "id": "0d753428-40af-4b7c-9013-22ce96b704a0",
      "geometry": null,
      "properties": {
        "kind": "SENSOR_CONTACT",
        "parent_track": "SENSOR",
        "time": "2010-01-12T12:44:10+00:00",
        "frequency": 150.317,
        "sensor_name": "NB_FREQ",
        "label": "SUBJECT held on NB_FREQ"
      }
    },
    {
      "type": "Feature",
      "id": "81183184-2c7a-4100-beec-041b9ee2e8e9",
      "geometry": null,
      "properties": {
        "kind": "SENSOR_CONTACT",
        "parent_track": "SENSOR",
        "time": "2010-01-12T12:44:10+00:00",
        "bearing": -127.5,
        "range": 0.0,
        "sensor_name": "NB_BRG",
        "label": "SUBJECT held on NB_BRG"
      }
    },
    {
      "type": "Feature",
      "id": "b6f62c69-6dd7-4bc6-8ac6-bce2e06b0b19",
      "geometry": null,
      "properties": {
        "kind": "SENSOR_CONTACT",
        "parent_track": "SENSOR",
        "time": "2010-01-12T12:45:00+00:00",
        "frequency": 150.315,
        "sensor_name": "NB_FREQ",
        "label": "SUBJECT held on NB_FREQ"
      }
    },
    {
      "type": "Feature",
      "id": "b20d2f80-3cd2-447d-bee9-ad5e5a12dd94",
      "geometry": null,
      "properties": {
        "kind": "SENSOR_CONTACT",
        "parent_track": "SENSOR",
        "time": "2010-01-12T12:45:00+00:00",
        "bearing": -128.0,
        "range": 0.0,
        "sensor_name": "NB_BRG",
        "label": "SUBJECT held on NB_BRG"
      }
    },
    {
      "type": "Feature",
      "id": "6dba6ddc-b1ca-4e01-8daa-36c093dbf3d1",
      "geometry": null,
      "properties": {
        "kind": "SENSOR_CONTACT",
        "parent_track": "SENSOR",
        "time": "2010-01-12T12:45:50+00:00",
        "frequency": 150.313,
        "sensor_name": "NB_FREQ",
        "label": "SUBJECT held on NB_FREQ"
      }
    },
    {
      "type": "Feature",
      "id": "547152a2-a40b-4081-a80c-4bb91c2e202a",
      "geometry": null,
      "properties": {
        "kind": "SENSOR_CONTACT",
        "parent_track": "SENSOR",
        "time": "2010-01-12T12:45:50+00:00",
        "bearing": -128.5,
        "range": 0.0,
        "sensor_name": "NB_BRG",
        "label": "SUBJECT held on NB_BRG"
      }
    },
    {
      "type": "Feature",
      "id": "996aea33-2718-485c-b910-28514bdf9e00",
      "geometry": null,
      "properties": {
        "kind": "SENSOR_CONTACT",
        "parent_track": "SENSOR",
        "time": "2010-01-12T12:46:40+00:00",
        "frequency": 150.312,
        "sensor_name": "NB_FREQ",
        "label": "SUBJECT held on NB_FREQ"
      }
    },
    {
      "type": "Feature",
      "id": "701a9c21-d6a0-44ea-b77e-49f63ccf7452",
      "geometry": null,
      "properties": {
        "kind": "SENSOR_CONTACT",
        "parent_track": "SENSOR",
        "time": "2010-01-12T12:46:40+00:00",
        "bearing": -128.9,
        "range": 0.0,
        "sensor_name": "NB_BRG",
        "label": "SUBJECT held on NB_BRG"
      }
    },
    {
      "type": "Feature",
      "id": "b44ba182-1c26-426f-82a3-b9eac99fe231",
      "geometry": null,
      "properties": {
        "kind": "SENSOR_CONTACT",
        "parent_track": "SENSOR",
        "time": "2010-01-12T12:47:30+00:00",
        "frequency": 150.31,
        "sensor_name": "NB_FREQ",
        "label": "SUBJECT held on NB_FREQ"
      }
    },
    {
      "type": "Feature",
      "id": "27a51aed-2a4b-437e-b9c3-f6d846352cbb",
      "geometry": null,
      "properties": {
        "kind": "SENSOR_CONTACT",
        "parent_track": "SENSOR",
        "time": "2010-01-12T12:47:30+00:00",
        "bearing": -129.4,
        "range": 0.0,
        "sensor_name": "NB_BRG",
        "label": "SUBJECT held on NB_BRG"
      }
    },
    {
      "type": "Feature",
      "id": "921703e8-cec0-49cc-92ed-c52f9aee328e",
      "geometry": null,
      "properties": {
        "kind": "SENSOR_CONTACT",
        "parent_track": "SENSOR",
        "time": "2010-01-12T12:48:20+00:00",
        "frequency": 150.308,
        "sensor_name": "NB_FREQ",
        "label": "SUBJECT held on NB_FREQ"
      }
    },
    {
      "type": "Feature",
      "id": "3419e0e5-2728-45f8-856b-3e91776879e4",
      "geometry": null,
      "properties": {
        "kind": "SENSOR_CONTACT",
        "parent_track": "SENSOR",
        "time": "2010-01-12T12:48:20+00:00",
        "bearing": -129.9,
        "range": 0.0,
        "sensor_name": "NB_BRG",
        "label": "SUBJECT held on NB_BRG"
      }
    },
    {
      "type": "Feature",
      "id": "54c1e3c7-058b-49b6-9c26-44be7deb6a75",
      "geometry": null,
      "properties": {
        "kind": "SENSOR_CONTACT",
        "parent_track": "SENSOR",
        "time": "2010-01-12T12:49:10+00:00",
        "frequency": 150.306,
        "sensor_name": "NB_FREQ",
        "label": "SUBJECT held on NB_FREQ"
      }
    },
    {
      "type": "Feature",
      "id": "44be9c03-bb2a-42ea-a75d-ee28d3f13ee6",
      "geometry": null,
      "properties": {
        "kind": "SENSOR_CONTACT",
        "parent_track": "SENSOR",
        "time": "2010-01-12T12:49:10+00:00",
        "bearing": -130.4,
        "range": 0.0,
        "sensor_name": "NB_BRG",
        "label": "SUBJECT held on NB_BRG"
      }
    },
    {
      "type": "Feature",
      "id": "0ee02fb4-c81d-4192-ac9a-2a66af9c1c6d",
      "geometry": null,
      "properties": {
        "kind": "SENSOR_CONTACT",
        "parent_track": "SENSOR",
        "time": "2010-01-12T12:50:00+00:00",
        "frequency": 150.304,
        "sensor_name": "NB_FREQ",
        "label": "SUBJECT held on NB_FREQ"
      }
    },
    {
      "type": "Feature",
      "id": "a649de09-48b9-4200-ba32-cfeea4a9e6cc",
      "geometry": null,
      "properties": {
        "kind": "SENSOR_CONTACT",
        "parent_track": "SENSOR",
        "time": "2010-01-12T12:50:00+00:00",
        "bearing": -131.0,
        "range": 0.0,
        "sensor_name": "NB_BRG",
        "label": "SUBJECT held on NB_BRG"
      }
    },
    {
      "type": "Feature",
      "id": "c83fe550-8d61-4a6a-9b7d-8301e6e8a03a",
      "geometry": null,
      "properties": {
        "kind": "SENSOR_CONTACT",
        "parent_track": "SENSOR",
        "time": "2010-01-12T12:50:50+00:00",
        "frequency": 150.302,
        "sensor_name": "NB_FREQ",
        "label": "SUBJECT held on NB_FREQ"
      }
    },
    {
      "type": "Feature",
      "id": "4f0b9aac-ef91-4668-9afd-b7ad9c6613b3",
      "geometry": null,
      "properties": {
        "kind": "SENSOR_CONTACT",
        "parent_track": "SENSOR",
        "time": "2010-01-12T12:50:50+00:00",
        "bearing": -131.5,
        "range": 0.0,
        "sensor_name": "NB_BRG",
        "label": "SUBJECT held on NB_BRG"
      }
    },
    {
      "type": "Feature",
      "id": "f40e68c4-6178-4d07-9ad8-d119b188f766",
      "geometry": null,
      "properties": {
        "kind": "SENSOR_CONTACT",
        "parent_track": "SENSOR",
        "time": "2010-01-12T12:51:40+00:00",
        "frequency": 150.3,
        "sensor_name": "NB_FREQ",
        "label": "SUBJECT held on NB_FREQ"
      }
    },
    {
      "type": "Feature",
      "id": "0a896c4d-b1cf-435c-8776-41e57a33a3a1",
      "geometry": null,
      "properties": {
        "kind": "SENSOR_CONTACT",
        "parent_track": "SENSOR",
        "time": "2010-01-12T12:51:40+00:00",
        "bearing": -132.1,
        "range": 0.0,
        "sensor_name": "NB_BRG",
        "label": "SUBJECT held on NB_BRG"
      }
    },
    {
      "type": "Feature",
      "id": "33bef8e8-1736-45f8-882b-a48b5ff87ec5",
      "geometry": null,
      "properties": {
        "kind": "SENSOR_CONTACT",
        "parent_track": "SENSOR",
        "time": "2010-01-12T12:52:30+00:00",
        "frequency": 150.298,
        "sensor_name": "NB_FREQ",
        "label": "SUBJECT held on NB_FREQ"
      }
    },
    {
      "type": "Feature",
      "id": "38327981-3065-433f-8a54-c8c0d0f30d64",
      "geometry": null,
      "properties": {
        "kind": "SENSOR_CONTACT",
        "parent_track": "SENSOR",
        "time": "2010-01-12T12:52:30+00:00",
        "bearing": -132.6,
        "range": 0.0,
        "sensor_name": "NB_BRG",
        "label": "SUBJECT held on NB_BRG"
      }
    },
    {
      "type": "Feature",
      "id": "0a8f7421-5bdd-4ee4-9a5f-023b9ae2d4da",
      "geometry": null,
      "properties": {
        "kind": "SENSOR_CONTACT",
        "parent_track": "SENSOR",
        "time": "2010-01-12T12:53:20+00:00",
        "frequency": 150.296,
        "sensor_name": "NB_FREQ",
        "label": "SUBJECT held on NB_FREQ"
      }
    },
    {
      "type": "Feature",
      "id": "86872848-4c3f-4b42-aa0b-bfdfda4c9777",
      "geometry": null,
      "properties": {
        "kind": "SENSOR_CONTACT",
        "parent_track": "SENSOR",
        "time": "2010-01-12T12:53:20+00:00",
        "bearing": -133.2,
        "range": 0.0,
        "sensor_name": "NB_BRG",
        "label": "SUBJECT held on NB_BRG"
      }
    },
    {
      "type": "Feature",
      "id": "b2c6a6ad-989b-4110-8e6b-24f1678c77ac",
      "geometry": null,
      "properties": {
        "kind": "SENSOR_CONTACT",
        "parent_track": "SENSOR",
        "time": "2010-01-12T12:54:10+00:00",
        "frequency": 150.293,
        "sensor_name": "NB_FREQ",
        "label": "SUBJECT held on NB_FREQ"
      }
    },
    {
      "type": "Feature",
      "id": "f2c78ea0-d080-4331-b7e9-78c4dbf8078a",
      "geometry": null,
      "properties": {
        "kind": "SENSOR_CONTACT",
        "parent_track": "SENSOR",
        "time": "2010-01-12T12:54:10+00:00",
        "bearing": -133.8,
        "range": 0.0,
        "sensor_name": "NB_BRG",
        "label": "SUBJECT held on NB_BRG"
      }
    },
    {
      "type": "Feature",
      "id": "47b2ed13-7aa0-48fb-94ab-79694653428f",
      "geometry": null,
      "properties": {
        "kind": "SENSOR_CONTACT",
        "parent_track": "SENSOR",
        "time": "2010-01-12T12:55:00+00:00",
        "frequency": 150.291,
        "sensor_name": "NB_FREQ",
        "label": "SUBJECT held on NB_FREQ"
      }
    },
    {
      "type": "Feature",
      "id": "060377a6-0d4c-4700-9361-514f73434b22",
      "geometry": null,
      "properties": {
        "kind": "SENSOR_CONTACT",
        "parent_track": "SENSOR",
        "time": "2010-01-12T12:55:00+00:00",
        "bearing": -134.4,
        "range": 0.0,
        "sensor_name": "NB_BRG",
        "label": "SUBJECT held on NB_BRG"
      }
    },
    {
      "type": "Feature",
      "id": "efbf4124-dc52-45a2-9c34-9b51b1fb2780",
      "geometry": null,
      "properties": {
        "kind": "SENSOR_CONTACT",
        "parent_track": "SENSOR",
        "time": "2010-01-12T12:55:50+00:00",
        "frequency": 150.288,
        "sensor_name": "NB_FREQ",
        "label": "SUBJECT held on NB_FREQ"
      }
    },
    {
      "type": "Feature",
      "id": "5333f78e-d349-41be-adf1-130b9822a05f",
      "geometry": null,
      "properties": {
        "kind": "SENSOR_CONTACT",
        "parent_track": "SENSOR",
        "time": "2010-01-12T12:55:50+00:00",
        "bearing": -135.1,
        "range": 0.0,
        "sensor_name": "NB_BRG",
        "label": "SUBJECT held on NB_BRG"
      }
    },
    {
      "type": "Feature",
      "id": "c8881a80-9b17-4726-8401-186a1ee4619f",
      "geometry": null,
      "properties": {
        "kind": "SENSOR_CONTACT",
        "parent_track": "SENSOR",
        "time": "2010-01-12T12:56:40+00:00",
        "frequency": 150.286,
        "sensor_name": "NB_FREQ",
        "label": "SUBJECT held on NB_FREQ"
      }
    },
    {
      "type": "Feature",
      "id": "65d567c2-62ec-4528-8f6a-99889144988f",
      "geometry": null,
      "properties": {
        "kind": "SENSOR_CONTACT",
        "parent_track": "SENSOR",
        "time": "2010-01-12T12:56:40+00:00",
        "bearing": -135.7,
        "range": 0.0,
        "sensor_name": "NB_BRG",
        "label": "SUBJECT held on NB_BRG"
      }
    },
    {
      "type": "Feature",
      "id": "2a1bd64a-cf18-484d-bb74-fe96c25f49b8",
      "geometry": null,
      "properties": {
        "kind": "SENSOR_CONTACT",
        "parent_track": "SENSOR",
        "time": "2010-01-12T12:57:30+00:00",
        "frequency": 149.854,
        "sensor_name": "NB_FREQ",
        "label": "SUBJECT held on NB_FREQ"
      }
    },
    {
      "type": "Feature",
      "id": "bffcec32-6a0f-4e3e-9d72-f11af6fc51a8",
      "geometry": null,
      "properties": {
        "kind": "SENSOR_CONTACT",
        "parent_track": "SENSOR",
        "time": "2010-01-12T12:57:30+00:00",
        "bearing": -136.2,
        "range": 0.0,
        "sensor_name": "NB_BRG",
        "label": "SUBJECT held on NB_BRG"
      }
    },
    {
      "type": "Feature",
      "id": "d342d67c-3121-4f6e-9f86-56ce4c5c77fc",
      "geometry": null,
      "properties": {
        "kind": "SENSOR_CONTACT",
        "parent_track": "SENSOR",
        "time": "2010-01-12T13:06:40+00:00",
        "frequency": 149.572,
        "sensor_name": "NB_FREQ",
        "label": "SUBJECT held on NB_FREQ"
      }
    },
    {
      "type": "Feature",
      "id": "8a00d826-b610-456a-9627-ababbec45f34",
      "geometry": null,
      "properties": {
        "kind": "SENSOR_CONTACT",
        "parent_track": "SENSOR",
        "time": "2010-01-12T13:06:40+00:00",
        "bearing": -123.1,
        "range": 0.0,
        "sensor_name": "NB_BRG",
        "label": "SUBJECT held on NB_BRG"
      }
    },
    {
      "type": "Feature",
      "id": "349531d7-860a-4bdd-9d3b-44f51a6f2013",
      "geometry": null,
      "properties": {
        "kind": "SENSOR_CONTACT",
        "parent_track": "SENSOR",
        "time": "2010-01-12T13:07:30+00:00",
        "frequency": 149.564,
        "sensor_name": "NB_FREQ",
        "label": "SUBJECT held on NB_FREQ"
      }
    },
    {
      "type": "Feature",
      "id": "a008dbbb-b15b-41db-a25e-7551d631c337",
      "geometry": null,
      "properties": {
        "kind": "SENSOR_CONTACT",
        "parent_track": "SENSOR",
        "time": "2010-01-12T13:07:30+00:00",
        "bearing": -122.0,
        "range": 0.0,
        "sensor_name": "NB_BRG",
        "label": "SUBJECT held on NB_BRG"
      }
    },
    {
      "type": "Feature",
      "id": "eaa59016-5cbe-42d2-917d-43634175dfb3",
      "geometry": null,
      "properties": {
        "kind": "SENSOR_CONTACT",
        "parent_track": "SENSOR",
        "time": "2010-01-12T13:08:20+00:00",
        "frequency": 149.555,
        "sensor_name": "NB_FREQ",
        "label": "SUBJECT held on NB_FREQ"
      }
    },
    {
      "type": "Feature",
      "id": "8d319c9f-a153-4b18-b39e-24ed181b38f8",
      "geometry": null,
      "properties": {
        "kind": "SENSOR_CONTACT",
        "parent_track": "SENSOR",
        "time": "2010-01-12T13:08:20+00:00",
        "bearing": -121.0,
        "range": 0.0,
        "sensor_name": "NB_BRG",
        "label": "SUBJECT held on NB_BRG"
      }
    },
    {
      "type": "Feature",
      "id": "cd6dfdaf-17c2-4c1a-897b-594536dc620a",
      "geometry": null,
      "properties": {
        "kind": "SENSOR_CONTACT",
        "parent_track": "SENSOR",
        "time": "2010-01-12T13:09:10+00:00",
        "frequency": 149.548,
        "sensor_name": "NB_FREQ",
        "label": "SUBJECT held on NB_FREQ"
      }
    },
    {
      "type": "Feature",
      "id": "0d731825-ada0-4e1b-b0e0-5a931bdc3841",
      "geometry": null,
      "properties": {
        "kind": "SENSOR_CONTACT",
        "parent_track": "SENSOR",
        "time": "2010-01-12T13:09:10+00:00",
        "bearing": -120.0,
        "range": 0.0,
        "sensor_name": "NB_BRG",
        "label": "SUBJECT held on NB_BRG"
      }
    },
    {
      "type": "Feature",
      "id": "5e4d60a7-92ed-441c-ba3d-768a9d0f7f8e",
      "geometry": null,
      "properties": {
        "kind": "SENSOR_CONTACT",
        "parent_track": "SENSOR",
        "time": "2010-01-12T13:10:00+00:00",
        "frequency": 149.54,
        "sensor_name": "NB_FREQ",
        "label": "SUBJECT held on NB_FREQ"
      }
    },
    {
      "type": "Feature",
      "id": "be9bae74-afe4-4d27-884a-2b40c58e19fd",
      "geometry": null,
      "properties": {
        "kind": "SENSOR_CONTACT",
        "parent_track": "SENSOR",
        "time": "2010-01-12T13:10:00+00:00",
        "bearing": -119.0,
        "range": 0.0,
        "sensor_name": "NB_BRG",
        "label": "SUBJECT held on NB_BRG"
      }
    },
    {
      "type": "Feature",
      "id": "d8f1ce63-3115-430a-be9f-804e6479e488",
      "geometry": null,
      "properties": {
        "kind": "SENSOR_CONTACT",
        "parent_track": "SENSOR",
        "time": "2010-01-12T13:10:50+00:00",
        "frequency": 149.533,
        "sensor_name": "NB_FREQ",
        "label": "SUBJECT held on NB_FREQ"
      }
    },
    {
      "type": "Feature",
      "id": "d3cb1900-b157-4320-af22-8f867c400800",
      "geometry": null,
      "properties": {
        "kind": "SENSOR_CONTACT",
        "parent_track": "SENSOR",
        "time": "2010-01-12T13:10:50+00:00",
        "bearing": -118.1,
        "range": 0.0,
        "sensor_name": "NB_BRG",
        "label": "SUBJECT held on NB_BRG"
      }
    },
    {
      "type": "Feature",
      "id": "66ff9c7c-909a-47be-8f16-d34bf5e4cb8a",
      "geometry": null,
      "properties": {
        "kind": "SENSOR_CONTACT",
        "parent_track": "SENSOR",
        "time": "2010-01-12T13:11:40+00:00",
        "frequency": 149.526,
        "sensor_name": "NB_FREQ",
        "label": "SUBJECT held on NB_FREQ"
      }
    },
    {
      "type": "Feature",
      "id": "02faa72d-e1fd-4dbb-8fec-b938bf225f4f",
      "geometry": null,
      "properties": {
        "kind": "SENSOR_CONTACT",
        "parent_track": "SENSOR",
        "time": "2010-01-12T13:11:40+00:00",
        "bearing": -117.2,
        "range": 0.0,
        "sensor_name": "NB_BRG",
        "label": "SUBJECT held on NB_BRG"
      }
    },
    {
      "type": "Feature",
      "id": "00395dc1-eacd-4496-a30f-e1b21b270389",
      "geometry": null,
      "properties": {
        "kind": "SENSOR_CONTACT",
        "parent_track": "SENSOR",
        "time": "2010-01-12T13:12:30+00:00",
        "frequency": 149.52,
        "sensor_name": "NB_FREQ",
        "label": "SUBJECT held on NB_FREQ"
      }
    },
    {
      "type": "Feature",
      "id": "a04262c4-a88a-430a-9a62-4e3c2b356ff3",
      "geometry": null,
      "properties": {
        "kind": "SENSOR_CONTACT",
        "parent_track": "SENSOR",
        "time": "2010-01-12T13:12:30+00:00",
        "bearing": -116.3,
        "range": 0.0,
        "sensor_name": "NB_BRG",
        "label": "SUBJECT held on NB_BRG"
      }
    },
    {
      "type": "Feature",
      "id": "3e4ca799-115f-4381-9940-6fc76a350e71",
      "geometry": null,
      "properties": {
        "kind": "SENSOR_CONTACT",
        "parent_track": "SENSOR",
        "time": "2010-01-12T13:13:20+00:00",
        "frequency": 149.514,
        "sensor_name": "NB_FREQ",
        "label": "SUBJECT held on NB_FREQ"
      }
    },
    {
      "type": "Feature",
      "id": "d4d1aba8-9047-4b39-8a49-2043660eb651",
      "geometry": null,
      "properties": {
        "kind": "SENSOR_CONTACT",
        "parent_track": "SENSOR",
        "time": "2010-01-12T13:13:20+00:00",
        "bearing": -115.5,
        "range": 0.0,
        "sensor_name": "NB_BRG",
        "label": "SUBJECT held on NB_BRG"
      }
    },
    {
      "type": "Feature",
      "id": "1f48fbe6-d668-4c15-948f-76e62bc3b9af",
      "geometry": null,
      "properties": {
        "kind": "SENSOR_CONTACT",
        "parent_track": "SENSOR",
        "time": "2010-01-12T13:14:10+00:00",
        "frequency": 149.508,
        "sensor_name": "NB_FREQ",
        "label": "SUBJECT held on NB_FREQ"
      }
    },
    {
      "type": "Feature",
      "id": "2e3b44a9-fc6c-4a17-8fb2-86df1ed29352",
      "geometry": null,
      "properties": {
        "kind": "SENSOR_CONTACT",
        "parent_track": "SENSOR",
        "time": "2010-01-12T13:14:10+00:00",
        "bearing": -114.7,
        "range": 0.0,
        "sensor_name": "NB_BRG",
        "label": "SUBJECT held on NB_BRG"
      }
    },
    {
      "type": "Feature",
      "id": "2c643155-22b1-4dbb-930d-eb23c625a55a",
      "geometry": null,
      "properties": {
        "kind": "SENSOR_CONTACT",
        "parent_track": "SENSOR",
        "time": "2010-01-12T13:15:00+00:00",
        "frequency": 149.503,
        "sensor_name": "NB_FREQ",
        "label": "SUBJECT held on NB_FREQ"
      }
    },
    {
      "type": "Feature",
      "id": "e3a8706b-207d-4b77-9d94-3e53c8cdd9c5",
      "geometry": null,
      "properties": {
        "kind": "SENSOR_CONTACT",
        "parent_track": "SENSOR",
        "time": "2010-01-12T13:15:00+00:00",
        "bearing": -113.9,
        "range": 0.0,
        "sensor_name": "NB_BRG",
        "label": "SUBJECT held on NB_BRG"
      }
    },
    {
      "type": "Feature",
      "id": "c952b03b-8a56-4a1a-ab95-a2cacfed1a1f",
      "geometry": null,
      "properties": {
        "kind": "SENSOR_CONTACT",
        "parent_track": "SENSOR",
        "time": "2010-01-12T13:15:50+00:00",
        "frequency": 149.497,
        "sensor_name": "NB_FREQ",
        "label": "SUBJECT held on NB_FREQ"
      }
    },
    {
      "type": "Feature",
      "id": "9d134ab9-7111-4b6c-8856-d383fa35092d",
      "geometry": null,
      "properties": {
        "kind": "SENSOR_CONTACT",
        "parent_track": "SENSOR",
        "time": "2010-01-12T13:15:50+00:00",
        "bearing": -113.1,
        "range": 0.0,
        "sensor_name": "NB_BRG",
        "label": "SUBJECT held on NB_BRG"
      }
    },
    {
      "type": "Feature",
      "id": "37c058d1-b765-491d-a42a-aba65b0f5dac",
      "geometry": null,
      "properties": {
        "kind": "SENSOR_CONTACT",
        "parent_track": "SENSOR",
        "time": "2010-01-12T13:16:40+00:00",
        "frequency": 149.493,
        "sensor_name": "NB_FREQ",
        "label": "SUBJECT held on NB_FREQ"
      }
    },
    {
      "type": "Feature",
      "id": "3a7b6263-9a06-46f2-8f92-2c926716c8c2",
      "geometry": null,
      "properties": {
        "kind": "SENSOR_CONTACT",
        "parent_track": "SENSOR",
        "time": "2010-01-12T13:16:40+00:00",
        "bearing": -112.4,
        "range": 0.0,
        "sensor_name": "NB_BRG",
        "label": "SUBJECT held on NB_BRG"
      }
    },
    {
      "type": "Feature",
      "id": "f8cae3ad-22f3-41a3-bd46-c13a2a522df9",
      "geometry": null,
      "properties": {
        "kind": "SENSOR_CONTACT",
        "parent_track": "SENSOR",
        "time": "2010-01-12T13:17:30+00:00",
        "frequency": 149.488,
        "sensor_name": "NB_FREQ",
        "label": "SUBJECT held on NB_FREQ"
      }
    },
    {
      "type": "Feature",
      "id": "75939b6b-23fe-4083-a9a7-fd8d80f1e5be",
      "geometry": null,
      "properties": {
        "kind": "SENSOR_CONTACT",
        "parent_track": "SENSOR",
        "time": "2010-01-12T13:17:30+00:00",
        "bearing": -111.7,
        "range": 0.0,
        "sensor_name": "NB_BRG",
        "label": "SUBJECT held on NB_BRG"
      }
    },
    {
      "type": "Feature",
      "id": "e64dae66-318e-422d-93dd-cdef87e389d8",
      "geometry": null,
      "properties": {
        "kind": "SENSOR_CONTACT",
        "parent_track": "SENSOR",
        "time": "2010-01-12T13:18:20+00:00",
        "frequency": 149.483,
        "sensor_name": "NB_FREQ",
        "label": "SUBJECT held on NB_FREQ"
      }
    },
    {
      "type": "Feature",
      "id": "d6b07fa2-622d-4679-a632-c5e15a56e4ad",
      "geometry": null,
      "properties": {
        "kind": "SENSOR_CONTACT",
        "parent_track": "SENSOR",
        "time": "2010-01-12T13:18:20+00:00",
        "bearing": -111.0,
        "range": 0.0,
        "sensor_name": "NB_BRG",
        "label": "SUBJECT held on NB_BRG"
      }
    },
    {
      "type": "Feature",
      "id": "42193030-d3dc-4113-bca2-3885d9d17a13",
      "geometry": null,
      "properties": {
        "kind": "SENSOR_CONTACT",
        "parent_track": "SENSOR",
        "time": "2010-01-12T13:19:10+00:00",
        "frequency": 149.479,
        "sensor_name": "NB_FREQ",
        "label": "SUBJECT held on NB_FREQ"
      }
    },
    {
      "type": "Feature",
      "id": "1b94557f-222c-4636-ac40-d9e49fa45fa7",
      "geometry": null,
      "properties": {
        "kind": "SENSOR_CONTACT",
        "parent_track": "SENSOR",
        "time": "2010-01-12T13:19:10+00:00",
        "bearing": -110.3,
        "range": 0.0,
        "sensor_name": "NB_BRG",
        "label": "SUBJECT held on NB_BRG"
      }
    },
    {
      "type": "Feature",
      "id": "96829df8-e9e2-4f72-a0ad-4280d4e368af",
      "geometry": null,
      "properties": {
        "kind": "SENSOR_CONTACT",
        "parent_track": "SENSOR",
        "time": "2010-01-12T13:20:00+00:00",
        "frequency": 149.475,
        "sensor_name": "NB_FREQ",
        "label": "SUBJECT held on NB_FREQ"
      }
    },
    {
      "type": "Feature",
      "id": "59ff0428-a22a-4983-a122-ed51a2620380",
      "geometry": null,
      "properties": {
        "kind": "SENSOR_CONTACT",
        "parent_track": "SENSOR",
        "time": "2010-01-12T13:20:00+00:00",
        "bearing": -109.7,
        "range": 0.0,
        "sensor_name": "NB_BRG",
        "label": "SUBJECT held on NB_BRG"
      }
    },
    {
      "type": "Feature",
      "id": "ae3c5fa3-22e7-4467-8208-5c2529c815b6",
      "geometry": null,
      "properties": {
        "kind": "SENSOR_CONTACT",
        "parent_track": "SENSOR",
        "time": "2010-01-12T13:20:50+00:00",
        "frequency": 149.471,
        "sensor_name": "NB_FREQ",
        "label": "SUBJECT held on NB_FREQ"
      }
    },
    {
      "type": "Feature",
      "id": "022131e5-46f5-4e8e-a6f1-06392b02e7fd",
      "geometry": null,
      "properties": {
        "kind": "SENSOR_CONTACT",
        "parent_track": "SENSOR",
        "time": "2010-01-12T13:20:50+00:00",
        "bearing": -109.1,
        "range": 0.0,
        "sensor_name": "NB_BRG",
        "label": "SUBJECT held on NB_BRG"
      }
    },
    {
      "type": "Feature",
      "id": "ffcb9c14-f855-43aa-ac9a-ace794bf7683",
      "geometry": null,
      "properties": {
        "kind": "SENSOR_CONTACT",
        "parent_track": "SENSOR",
        "time": "2010-01-12T13:21:40+00:00",
        "frequency": 149.468,
        "sensor_name": "NB_FREQ",
        "label": "SUBJECT held on NB_FREQ"
      }
    },
    {
      "type": "Feature",
      "id": "0b07c42d-01b1-43ac-9d50-0610abbdc180",
      "geometry": null,
      "properties": {
        "kind": "SENSOR_CONTACT",
        "parent_track": "SENSOR",
        "time": "2010-01-12T13:21:40+00:00",
        "bearing": -108.5,
        "range": 0.0,
        "sensor_name": "NB_BRG",
        "label": "SUBJECT held on NB_BRG"
      }
    },
    {
      "type": "Feature",
      "id": "2134c88b-bdda-4a46-b5bc-814ab802a6a5",
      "geometry": null,
      "properties": {
        "kind": "SENSOR_CONTACT",
        "parent_track": "SENSOR",
        "time": "2010-01-12T13:22:30+00:00",
        "frequency": 149.464,
        "sensor_name": "NB_FREQ",
        "label": "SUBJECT held on NB_FREQ"
      }
    },
    {
      "type": "Feature",
      "id": "c8dbf3fd-b12b-4f4c-906c-02d7b707b925",
      "geometry": null,
      "properties": {
        "kind": "SENSOR_CONTACT",
        "parent_track": "SENSOR",
        "time": "2010-01-12T13:22:30+00:00",
        "bearing": -107.9,
        "range": 0.0,
        "sensor_name": "NB_BRG",
        "label": "SUBJECT held on NB_BRG"
      }
    },
    {
      "type": "Feature",
      "id": "f17ea9bc-5d51-4ef2-8280-e28bea8361db",
      "geometry": null,
      "properties": {
        "kind": "SENSOR_CONTACT",
        "parent_track": "SENSOR",
        "time": "2010-01-12T13:23:20+00:00",
        "frequency": 149.461,
        "sensor_name": "NB_FREQ",
        "label": "SUBJECT held on NB_FREQ"
      }
    },
    {
      "type": "Feature",
      "id": "0c09df88-8a17-4122-93a0-e61b6c90c6ee",
      "geometry": null,
      "properties": {
        "kind": "SENSOR_CONTACT",
        "parent_track": "SENSOR",
        "time": "2010-01-12T13:23:20+00:00",
        "bearing": -107.3,
        "range": 0.0,
        "sensor_name": "NB_BRG",
        "label": "SUBJECT held on NB_BRG"
      }
    },
    {
      "type": "Feature",
      "id": "b3fbfd95-8150-4d50-ab99-c7644d94ccc4",
      "geometry": null,
      "properties": {
        "kind": "SENSOR_CONTACT",
        "parent_track": "SENSOR",
        "time": "2010-01-12T13:24:10+00:00",
        "frequency": 149.457,
        "sensor_name": "NB_FREQ",
        "label": "SUBJECT held on NB_FREQ"
      }
    },
    {
      "type": "Feature",
      "id": "4108929d-d74c-49f2-b818-f98f91d3d63a",
      "geometry": null,
      "properties": {
        "kind": "SENSOR_CONTACT",
        "parent_track": "SENSOR",
        "time": "2010-01-12T13:24:10+00:00",
        "bearing": -106.8,
        "range": 0.0,
        "sensor_name": "NB_BRG",
        "label": "SUBJECT held on NB_BRG"
      }
    },
    {
      "type": "Feature",
      "id": "64ed374e-a9dd-4392-abb4-2e0b7865c8b6",
      "geometry": null,
      "properties": {
        "kind": "SENSOR_CONTACT",
        "parent_track": "SENSOR",
        "time": "2010-01-12T13:25:00+00:00",
        "frequency": 149.454,
        "sensor_name": "NB_FREQ",
        "label": "SUBJECT held on NB_FREQ"
      }
    },
    {
      "type": "Feature",
      "id": "4e01bc00-d865-431a-8417-0fe6629196d1",
      "geometry": null,
      "properties": {
        "kind": "SENSOR_CONTACT",
        "parent_track": "SENSOR",
        "time": "2010-01-12T13:25:00+00:00",
        "bearing": -106.2,
        "range": 0.0,
        "sensor_name": "NB_BRG",
        "label": "SUBJECT held on NB_BRG"
      }
    },
    {
      "type": "Feature",
      "id": "99351ef4-b1a8-4677-aabb-ecfc63f64eeb",
      "geometry": null,
      "properties": {
        "kind": "SENSOR_CONTACT",
        "parent_track": "SENSOR",
        "time": "2010-01-12T13:25:50+00:00",
        "frequency": 149.452,
        "sensor_name": "NB_FREQ",
        "label": "SUBJECT held on NB_FREQ"
      }
    },
    {
      "type": "Feature",
      "id": "babe0e41-8895-4127-92b0-c9f16a3b5e8c",
      "geometry": null,
      "properties": {
        "kind": "SENSOR_CONTACT",
        "parent_track": "SENSOR",
        "time": "2010-01-12T13:25:50+00:00",
        "bearing": -105.7,
        "range": 0.0,
        "sensor_name": "NB_BRG",
        "label": "SUBJECT held on NB_BRG"
      }
    },
    {
      "type": "Feature",
      "id": "5738bbfd-0f64-4dc5-b9fe-1440809d84df",
      "geometry": null,
      "properties": {
        "kind": "SENSOR_CONTACT",
        "parent_track": "SENSOR",
        "time": "2010-01-12T13:26:40+00:00",
        "frequency": 149.449,
        "sensor_name": "NB_FREQ",
        "label": "SUBJECT held on NB_FREQ"
      }
    },
    {
      "type": "Feature",
      "id": "fa26ae35-be91-4580-bcbc-796ce45920fc",
      "geometry": null,
      "properties": {
        "kind": "SENSOR_CONTACT",
        "parent_track": "SENSOR",
        "time": "2010-01-12T13:26:40+00:00",
        "bearing": -105.2,
        "range": 0.0,
        "sensor_name": "NB_BRG",
        "label": "SUBJECT held on NB_BRG"
      }
    },
    {
      "type": "Feature",
      "id": "fb0fd540-6411-4ef2-a9ba-190a2de75f13",
      "geometry": null,
      "properties": {
        "kind": "SENSOR_CONTACT",
        "parent_track": "SENSOR",
        "time": "2010-01-12T13:27:30+00:00",
        "frequency": 149.446,
        "sensor_name": "NB_FREQ",
        "label": "SUBJECT held on NB_FREQ"
      }
    },
    {
      "type": "Feature",
      "id": "b856ae40-4e8a-4956-8a8d-0261970f138e",
      "geometry": null,
      "properties": {
        "kind": "SENSOR_CONTACT",
        "parent_track": "SENSOR",
        "time": "2010-01-12T13:27:30+00:00",
        "bearing": -104.7,
        "range": 0.0,
        "sensor_name": "NB_BRG",
        "label": "SUBJECT held on NB_BRG"
      }
    },
    {
      "type": "Feature",
      "id": "62275092-d85b-43e7-9aca-f4e62e63fa03",
      "geometry": null,
      "properties": {
        "kind": "SENSOR_CONTACT",
        "parent_track": "SENSOR",
        "time": "2010-01-12T13:28:20+00:00",
        "frequency": 149.444,
        "sensor_name": "NB_FREQ",
        "label": "SUBJECT held on NB_FREQ"
      }
    },
    {
      "type": "Feature",
      "id": "bf6761b5-39bb-4f4e-ba6b-d6e1a72251a5",
      "geometry": null,
      "properties": {
        "kind": "SENSOR_CONTACT",
        "parent_track": "SENSOR",
        "time": "2010-01-12T13:28:20+00:00",
        "bearing": -104.2,
        "range": 0.0,
        "sensor_name": "NB_BRG",
        "label": "SUBJECT held on NB_BRG"
      }
    },
    {
      "type": "Feature",
      "id": "099c985a-f0c9-4dc8-acbe-d7d027357d23",
      "geometry": null,
      "properties": {
        "kind": "SENSOR_CONTACT",
        "parent_track": "SENSOR",
        "time": "2010-01-12T13:29:10+00:00",
        "frequency": 149.441,
        "sensor_name": "NB_FREQ",
        "label": "SUBJECT held on NB_FREQ"
      }
    },
    {
      "type": "Feature",
      "id": "b2a67de8-dc18-452f-b4f2-f5039368ff6e",
      "geometry": null,
      "properties": {
        "kind": "SENSOR_CONTACT",
        "parent_track": "SENSOR",
        "time": "2010-01-12T13:29:10+00:00",
        "bearing": -103.8,
        "range": 0.0,
        "sensor_name": "NB_BRG",
        "label": "SUBJECT held on NB_BRG"
      }
    },
    {
      "type": "Feature",
      "id": "b479a91c-a64c-48d4-9216-d6004740f979",
      "geometry": null,
      "properties": {
        "kind": "SENSOR_CONTACT",
        "parent_track": "SENSOR",
        "time": "2010-01-12T13:30:00+00:00",
        "frequency": 149.439,
        "sensor_name": "NB_FREQ",
        "label": "SUBJECT held on NB_FREQ"
      }
    },
    {
      "type": "Feature",
      "id": "7ff84598-fe92-4106-b623-01cdcef48ace",
      "geometry": null,
      "properties": {
        "kind": "SENSOR_CONTACT",
        "parent_track": "SENSOR",
        "time": "2010-01-12T13:30:00+00:00",
        "bearing": -103.3,
        "range": 0.0,
        "sensor_name": "NB_BRG",
        "label": "SUBJECT held on NB_BRG"
      }
    },
    {
      "type": "Feature",
      "id": "9b65622a-174c-45ff-aa04-b0ff0d8be995",
      "geometry": null,
      "properties": {
        "kind": "SENSOR_CONTACT",
        "parent_track": "SENSOR",
        "time": "2010-01-12T13:30:50+00:00",
        "frequency": 149.437,
        "sensor_name": "NB_FREQ",
        "label": "SUBJECT held on NB_FREQ"
      }
    },
    {
      "type": "Feature",
      "id": "ef0ffce6-4401-4f57-8132-6ea85b1bb56c",
      "geometry": null,
      "properties": {
        "kind": "SENSOR_CONTACT",
        "parent_track": "SENSOR",
        "time": "2010-01-12T13:30:50+00:00",
        "bearing": -102.9,
        "range": 0.0,
        "sensor_name": "NB_BRG",
        "label": "SUBJECT held on NB_BRG"
      }
    },
    {
      "type": "Feature",
      "id": "8dafcd2b-bb55-4668-9ac1-eb13db79510b",
      "geometry": null,
      "properties": {
        "kind": "SENSOR_CONTACT",
        "parent_track": "SENSOR",
        "time": "2010-01-12T13:31:40+00:00",
        "frequency": 149.434,
        "sensor_name": "NB_FREQ",
        "label": "SUBJECT held on NB_FREQ"
      }
    },
    {
      "type": "Feature",
      "id": "1bed6a97-e6ea-4f40-92c7-fa725d6fa096",
      "geometry": null,
      "properties": {
        "kind": "SENSOR_CONTACT",
        "parent_track": "SENSOR",
        "time": "2010-01-12T13:31:40+00:00",
        "bearing": -102.5,
        "range": 0.0,
        "sensor_name": "NB_BRG",
        "label": "SUBJECT held on NB_BRG"
      }
    },
    {
      "type": "Feature",
      "id": "d3af77f9-fd2d-4372-a2ac-703c0f593d21",
      "geometry": null,
      "properties": {
        "kind": "SENSOR_CONTACT",
        "parent_track": "SENSOR",
        "time": "2010-01-12T13:32:30+00:00",
        "frequency": 149.432,
        "sensor_name": "NB_FREQ",
        "label": "SUBJECT held on NB_FREQ"
      }
    },
    {
      "type": "Feature",
      "id": "fb523886-0ea2-4212-bc4b-40247608c34b",
      "geometry": null,
      "properties": {
        "kind": "SENSOR_CONTACT",
        "parent_track": "SENSOR",
        "time": "2010-01-12T13:32:30+00:00",
        "bearing": -102.1,
        "range": 0.0,
        "sensor_name": "NB_BRG",
        "label": "SUBJECT held on NB_BRG"
      }
    },
    {
      "type": "Feature",
      "id": "f73bae05-08fc-4d80-8ff2-96be895796db",
      "geometry": null,
      "properties": {
        "kind": "SENSOR_CONTACT",
        "parent_track": "SENSOR",
        "time": "2010-01-12T13:33:20+00:00",
        "frequency": 149.43,
        "sensor_name": "NB_FREQ",
        "label": "SUBJECT held on NB_FREQ"
      }
    },
    {
      "type": "Feature",
      "id": "1bd46f11-afd5-417b-ae91-77e34729f962",
      "geometry": null,
      "properties": {
        "kind": "SENSOR_CONTACT",
        "parent_track": "SENSOR",
        "time": "2010-01-12T13:33:20+00:00",
        "bearing": -101.7,
        "range": 0.0,
        "sensor_name": "NB_BRG",
        "label": "SUBJECT held on NB_BRG"
      }
    },
    {
      "type": "Feature",
      "id": "58dd3e45-e084-4d41-86a2-293db7fef346",
      "geometry": null,
      "properties": {
        "kind": "SENSOR_CONTACT",
        "parent_track": "SENSOR",
        "time": "2010-01-12T13:34:10+00:00",
        "frequency": 149.429,
        "sensor_name": "NB_FREQ",
        "label": "SUBJECT held on NB_FREQ"
      }
    },
    {
      "type": "Feature",
      "id": "c91e9e35-6d5b-4320-954e-a7572ebc1c64",
      "geometry": null,
      "properties": {
        "kind": "SENSOR_CONTACT",
        "parent_track": "SENSOR",
        "time": "2010-01-12T13:34:10+00:00",
        "bearing": -101.3,
        "range": 0.0,
        "sensor_name": "NB_BRG",
        "label": "SUBJECT held on NB_BRG"
      }
    },
    {
      "type": "Feature",
      "id": "6d3f3fe4-71f1-434a-915d-18b68399ae95",
      "geometry": null,
      "properties": {
        "kind": "SENSOR_CONTACT",
        "parent_track": "SENSOR",
        "time": "2010-01-12T13:35:00+00:00",
        "frequency": 149.427,
        "sensor_name": "NB_FREQ",
        "label": "SUBJECT held on NB_FREQ"
      }
    },
    {
      "type": "Feature",
      "id": "96a489c5-f2bb-445e-ac5d-962f561ec92b",
      "geometry": null,
      "properties": {
        "kind": "SENSOR_CONTACT",
        "parent_track": "SENSOR",
        "time": "2010-01-12T13:35:00+00:00",
        "bearing": -100.9,
        "range": 0.0,
        "sensor_name": "NB_BRG",
        "label": "SUBJECT held on NB_BRG"
      }
    },
    {
      "type": "Feature",
      "id": "76e3c7ec-0923-42fb-918d-db01773b8fbc",
      "geometry": null,
      "properties": {
        "kind": "SENSOR_CONTACT",
        "parent_track": "SENSOR",
        "time": "2010-01-12T13:35:50+00:00",
        "frequency": 149.425,
        "sensor_name": "NB_FREQ",
        "label": "SUBJECT held on NB_FREQ"
      }
    },
    {
      "type": "Feature",
      "id": "64e0220e-64b5-4cc2-b812-bac00141a5b8",
      "geometry": null,
      "properties": {
        "kind": "SENSOR_CONTACT",
        "parent_track": "SENSOR",
        "time": "2010-01-12T13:35:50+00:00",
        "bearing": -100.6,
        "range": 0.0,
        "sensor_name": "NB_BRG",
        "label": "SUBJECT held on NB_BRG"
      }
    },
    {
      "type": "Feature",
      "id": "29f7b9a1-9125-455c-b408-535614f0d0da",
      "geometry": null,
      "properties": {
        "kind": "SENSOR_CONTACT",
        "parent_track": "SENSOR",
        "time": "2010-01-12T13:36:40+00:00",
        "frequency": 149.423,
        "sensor_name": "NB_FREQ",
        "label": "SUBJECT held on NB_FREQ"
      }
    },
    {
      "type": "Feature",
      "id": "a3a63cd0-560b-4f69-a97a-4e254077306e",
      "geometry": null,
      "properties": {
        "kind": "SENSOR_CONTACT",
        "parent_track": "SENSOR",
        "time": "2010-01-12T13:36:40+00:00",
        "bearing": -100.2,
        "range": 0.0,
        "sensor_name": "NB_BRG",
        "label": "SUBJECT held on NB_BRG"
      }
    },
    {
      "type": "Feature",
      "id": "7522de4a-0468-44ec-a9ca-9f928c367a3d",
      "geometry": null,
      "properties": {
        "kind": "SENSOR_CONTACT",
        "parent_track": "SENSOR",
        "time": "2010-01-12T13:37:30+00:00",
        "frequency": 149.422,
        "sensor_name": "NB_FREQ",
        "label": "SUBJECT held on NB_FREQ"
      }
    },
    {
      "type": "Feature",
      "id": "cca23193-686d-419c-8c9a-06ff78eb6650",
      "geometry": null,
      "properties": {
        "kind": "SENSOR_CONTACT",
        "parent_track": "SENSOR",
        "time": "2010-01-12T13:37:30+00:00",
        "bearing": -99.9,
        "range": 0.0,
        "sensor_name": "NB_BRG",
        "label": "SUBJECT held on NB_BRG"
      }
    },
    {
      "type": "Feature",
      "id": "3abac687-dadf-4078-a0c8-1f4f748f9e96",
      "geometry": null,
      "properties": {
        "kind": "SENSOR_CONTACT",
        "parent_track": "SENSOR",
        "time": "2010-01-12T13:38:20+00:00",
        "frequency": 149.42,
        "sensor_name": "NB_FREQ",
        "label": "SUBJECT held on NB_FREQ"
      }
    },
    {
      "type": "Feature",
      "id": "243b4fad-625c-446e-9b9a-bc5a63477fc9",
      "geometry": null,
      "properties": {
        "kind": "SENSOR_CONTACT",
        "parent_track": "SENSOR",
        "time": "2010-01-12T13:38:20+00:00",
        "bearing": -99.5,
        "range": 0.0,
        "sensor_name": "NB_BRG",
        "label": "SUBJECT held on NB_BRG"
      }
    },
    {
      "type": "Feature",
      "id": "3c058c47-8a6f-4a9f-b5ed-c372d0ecf730",
      "geometry": null,
      "properties": {
        "kind": "SENSOR_CONTACT",
        "parent_track": "SENSOR",
        "time": "2010-01-12T13:39:10+00:00",
        "frequency": 149.419,
        "sensor_name": "NB_FREQ",
        "label": "SUBJECT held on NB_FREQ"
      }
    },
    {
      "type": "Feature",
      "id": "6225d817-1699-4352-8f2f-2afc8b06463f",
      "geometry": null,
      "properties": {
        "kind": "SENSOR_CONTACT",
        "parent_track": "SENSOR",
        "time": "2010-01-12T13:39:10+00:00",
        "bearing": -99.2,
        "range": 0.0,
        "sensor_name": "NB_BRG",
        "label": "SUBJECT held on NB_BRG"
      }
    },
    {
      "type": "Feature",
      "id": "6fb011dc-4ef0-4349-b4bf-77961efed927",
      "geometry": null,
      "properties": {
        "kind": "SENSOR_CONTACT",
        "parent_track": "SENSOR",
        "time": "2010-01-12T13:40:00+00:00",
        "frequency": 149.417,
        "sensor_name": "NB_FREQ",
        "label": "SUBJECT held on NB_FREQ"
      }
    },
    {
      "type": "Feature",
      "id": "7bb32c4b-6462-441b-b6a6-7a8b5f38b6f9",
      "geometry": null,
      "properties": {
        "kind": "SENSOR_CONTACT",
        "parent_track": "SENSOR",
        "time": "2010-01-12T13:40:00+00:00",
        "bearing": -98.9,
        "range": 0.0,
        "sensor_name": "NB_BRG",
        "label": "SUBJECT held on NB_BRG"
      }
    },
    {
      "type": "Feature",
      "id": "2b689fe1-06ed-4abc-b2d2-c2e9e6cafa13",
      "geometry": null,
      "properties": {
        "kind": "SENSOR_CONTACT",
        "parent_track": "SENSOR",
        "time": "2010-01-12T13:40:50+00:00",
        "frequency": 149.416,
        "sensor_name": "NB_FREQ",
        "label": "SUBJECT held on NB_FREQ"
      }
    },
    {
      "type": "Feature",
      "id": "450cb111-5c7c-4038-879f-a248a29bde5f",
      "geometry": null,
      "properties": {
        "kind": "SENSOR_CONTACT",
        "parent_track": "SENSOR",
        "time": "2010-01-12T13:40:50+00:00",
        "bearing": -98.6,
        "range": 0.0,
        "sensor_name": "NB_BRG",
        "label": "SUBJECT held on NB_BRG"
      }
    },
    {
      "type": "Feature",
      "id": "08f387a9-e1ab-4b13-bba9-738b8958ab60",
      "geometry": null,
      "properties": {
        "kind": "SENSOR_CONTACT",
        "parent_track": "SENSOR",
        "time": "2010-01-12T13:41:40+00:00",
        "frequency": 149.168,
        "sensor_name": "NB_FREQ",
        "label": "SUBJECT held on NB_FREQ"
      }
    },
    {
      "type": "Feature",
      "id": "3a00c288-4ef4-4a78-87b6-3e789686e02c",
      "geometry": null,
      "properties": {
        "kind": "SENSOR_CONTACT",
        "parent_track": "SENSOR",
        "time": "2010-01-12T13:41:40+00:00",
        "bearing": -98.3,
        "range": 0.0,
        "sensor_name": "NB_BRG",
        "label": "SUBJECT held on NB_BRG"
      }
    },
    {
      "type": "Feature",
      "id": "a1e1d724-17ce-4b21-a0c3-5341147b76c5",
      "geometry": null,
      "properties": {
        "kind": "SENSOR_CONTACT",
        "parent_track": "SENSOR",
        "time": "2010-01-12T13:42:30+00:00",
        "frequency": 149.12,
        "sensor_name": "NB_FREQ",
        "label": "SUBJECT held on NB_FREQ"
      }
    },
    {
      "type": "Feature",
      "id": "3cc5cf48-4d15-4c0b-843f-077d2cbf30e5",
      "geometry": null,
      "properties": {
        "kind": "SENSOR_CONTACT",
        "parent_track": "SENSOR",
        "time": "2010-01-12T13:42:30+00:00",
        "bearing": -98.1,
        "range": 0.0,
        "sensor_name": "NB_BRG",
        "label": "SUBJECT held on NB_BRG"
      }
    },
    {
      "type": "Feature",
      "id": "f0d73de8-8d75-427f-817d-97308ed95503",
      "geometry": null,
      "properties": {
        "kind": "SENSOR_CONTACT",
        "parent_track": "SENSOR",
        "time": "2010-01-12T13:43:20+00:00",
        "frequency": 149.119,
        "sensor_name": "NB_FREQ",
        "label": "SUBJECT held on NB_FREQ"
      }
    },
    {
      "type": "Feature",
      "id": "7659e12d-2462-437f-847c-e0626479be0f",
      "geometry": null,
      "properties": {
        "kind": "SENSOR_CONTACT",
        "parent_track": "SENSOR",
        "time": "2010-01-12T13:43:20+00:00",
        "bearing": -98.0,
        "range": 0.0,
        "sensor_name": "NB_BRG",
        "label": "SUBJECT held on NB_BRG"
      }
    },
    {
      "type": "Feature",
      "id": "5bebff2c-f0a1-4364-9138-e163299544e3",
      "geometry": null,
      "properties": {
        "kind": "SENSOR_CONTACT",
        "parent_track": "SENSOR",
        "time": "2010-01-12T13:44:10+00:00",
        "frequency": 149.119,
        "sensor_name": "NB_FREQ",
        "label": "SUBJECT held on NB_FREQ"
      }
    },
    {
      "type": "Feature",
      "id": "7a49d4e3-c090-4f31-bbc1-0181d096fef1",
      "geometry": null,
      "properties": {
        "kind": "SENSOR_CONTACT",
        "parent_track": "SENSOR",
        "time": "2010-01-12T13:44:10+00:00",
        "bearing": -97.8,
        "range": 0.0,
        "sensor_name": "NB_BRG",
        "label": "SUBJECT held on NB_BRG"
      }
    },
    {
      "type": "Feature",
      "id": "55f94d57-2287-410a-8d47-c32e03f0e784",
      "geometry": null,
      "properties": {
        "kind": "SENSOR_CONTACT",
        "parent_track": "SENSOR",
        "time": "2010-01-12T13:45:00+00:00",
        "frequency": 149.119,
        "sensor_name": "NB_FREQ",
        "label": "SUBJECT held on NB_FREQ"
      }
    },
    {
      "type": "Feature",
      "id": "82d103ed-8815-47b4-ae08-55743ff35295",
      "geometry": null,
      "properties": {
        "kind": "SENSOR_CONTACT",
        "parent_track": "SENSOR",
        "time": "2010-01-12T13:45:00+00:00",
        "bearing": -97.7,
        "range": 0.0,
        "sensor_name": "NB_BRG",
        "label": "SUBJECT held on NB_BRG"
      }
    },
    {
      "type": "Feature",
      "id": "52f46a79-bb3a-4077-92b9-154628ab4611",
      "geometry": null,
      "properties": {
        "kind": "SENSOR_CONTACT",
        "parent_track": "SENSOR",
        "time": "2010-01-12T13:45:50+00:00",
        "frequency": 149.118,
        "sensor_name": "NB_FREQ",
        "label": "SUBJECT held on NB_FREQ"
      }
    },
    {
      "type": "Feature",
      "id": "edd2ed8d-e45d-49ca-b9b5-e1662e6b8cee",
      "geometry": null,
      "properties": {
        "kind": "SENSOR_CONTACT",
        "parent_track": "SENSOR",
        "time": "2010-01-12T13:45:50+00:00",
        "bearing": -97.6,
        "range": 0.0,
        "sensor_name": "NB_BRG",
        "label": "SUBJECT held on NB_BRG"
      }
    },
    {
      "type": "Feature",
      "id": "c6a5d551-99eb-457d-9c08-37b729d720b7",
      "geometry": null,
      "properties": {
        "kind": "SENSOR_CONTACT",
        "parent_track": "SENSOR",
        "time": "2010-01-12T13:46:40+00:00",
        "frequency": 149.118,
        "sensor_name": "NB_FREQ",
        "label": "SUBJECT held on NB_FREQ"
      }
    },
    {
      "type": "Feature",
      "id": "43493037-efb7-4768-98eb-65cfcabd0330",
      "geometry": null,
      "properties": {
        "kind": "SENSOR_CONTACT",
        "parent_track": "SENSOR",
        "time": "2010-01-12T13:46:40+00:00",
        "bearing": -97.4,
        "range": 0.0,
        "sensor_name": "NB_BRG",
        "label": "SUBJECT held on NB_BRG"
      }
    },
    {
      "type": "Feature",
      "id": "49a4584f-0f80-4bef-bf51-9b9a4d17eb85",
      "geometry": null,
      "properties": {
        "kind": "SENSOR_CONTACT",
        "parent_track": "SENSOR",
        "time": "2010-01-12T13:47:30+00:00",
        "frequency": 149.118,
        "sensor_name": "NB_FREQ",
        "label": "SUBJECT held on NB_FREQ"
      }
    },
    {
      "type": "Feature",
      "id": "c2e1adc6-889b-4d8b-b967-9365b49c536b",
      "geometry": null,
      "properties": {
        "kind": "SENSOR_CONTACT",
        "parent_track": "SENSOR",
        "time": "2010-01-12T13:47:30+00:00",
        "bearing": -97.3,
        "range": 0.0,
        "sensor_name": "NB_BRG",
        "label": "SUBJECT held on NB_BRG"
      }
    },
    {
      "type": "Feature",
      "id": "5afc7a7b-746a-470b-a3db-256dfbaed024",
      "geometry": null,
      "properties": {
        "kind": "SENSOR_CONTACT",
        "parent_track": "SENSOR",
        "time": "2010-01-12T13:48:20+00:00",
        "frequency": 149.118,
        "sensor_name": "NB_FREQ",
        "label": "SUBJECT held on NB_FREQ"
      }
    },
    {
      "type": "Feature",
      "id": "0c8efeb7-ff0f-47be-8ce1-cacec1967e87",
      "geometry": null,
      "properties": {
        "kind": "SENSOR_CONTACT",
        "parent_track": "SENSOR",
        "time": "2010-01-12T13:48:20+00:00",
        "bearing": -97.2,
        "range": 0.0,
        "sensor_name": "NB_BRG",
        "label": "SUBJECT held on NB_BRG"
      }
    },
    {
      "type": "Feature",
      "id": "221bd3a0-e34a-4d58-b373-ca742557f0a9",
      "geometry": null,
      "properties": {
        "kind": "SENSOR_CONTACT",
        "parent_track": "SENSOR",
        "time": "2010-01-12T13:49:10+00:00",
        "frequency": 149.118,
        "sensor_name": "NB_FREQ",
        "label": "SUBJECT held on NB_FREQ"
      }
    },
    {
      "type": "Feature",
      "id": "1cb637c2-8012-4275-abec-95955b341810",
      "geometry": null,
      "properties": {
        "kind": "SENSOR_CONTACT",
        "parent_track": "SENSOR",
        "time": "2010-01-12T13:49:10+00:00",
        "bearing": -97.1,
        "range": 0.0,
        "sensor_name": "NB_BRG",
        "label": "SUBJECT held on NB_BRG"
      }
    },
    {
      "type": "Feature",
      "id": "ce8eb30c-02d7-475c-bdba-96e1494502d4",
      "geometry": null,
      "properties": {
        "kind": "SENSOR_CONTACT",
        "parent_track": "SENSOR",
        "time": "2010-01-12T13:50:00+00:00",
        "frequency": 149.117,
        "sensor_name": "NB_FREQ",
        "label": "SUBJECT held on NB_FREQ"
      }
    },
    {
      "type": "Feature",
      "id": "271d6d3a-5d1f-4a9a-83b9-2b454862a8cf",
      "geometry": null,
      "properties": {
        "kind": "SENSOR_CONTACT",
        "parent_track": "SENSOR",
        "time": "2010-01-12T13:50:00+00:00",
        "bearing": -97.0,
        "range": 0.0,
        "sensor_name": "NB_BRG",
        "label": "SUBJECT held on NB_BRG"
      }
    },
    {
      "type": "Feature",
      "id": "b8bdeed1-07a2-47f9-adac-a6bf9ab146c7",
      "geometry": null,
      "properties": {
        "kind": "SENSOR_CONTACT",
        "parent_track": "SENSOR",
        "time": "2010-01-12T13:50:50+00:00",
        "frequency": 149.117,
        "sensor_name": "NB_FREQ",
        "label": "SUBJECT held on NB_FREQ"
      }
    },
    {
      "type": "Feature",
      "id": "cb6e6085-b775-4241-9556-6c86f9f9df2b",
      "geometry": null,
      "properties": {
        "kind": "SENSOR_CONTACT",
        "parent_track": "SENSOR",
        "time": "2010-01-12T13:50:50+00:00",
        "bearing": -96.9,
        "range": 0.0,
        "sensor_name": "NB_BRG",
        "label": "SUBJECT held on NB_BRG"
      }
    },
    {
      "type": "Feature",
      "id": "24418524-fd8e-4d3e-ba54-e203578d55c0",
      "geometry": null,
      "properties": {
        "kind": "SENSOR_CONTACT",
        "parent_track": "SENSOR",
        "time": "2010-01-12T13:51:40+00:00",
        "frequency": 149.117,
        "sensor_name": "NB_FREQ",
        "label": "SUBJECT held on NB_FREQ"
      }
    },
    {
      "type": "Feature",
      "id": "95fc46f0-4de3-4284-9f4a-ff8799122ca7",
      "geometry": null,
      "properties": {
        "kind": "SENSOR_CONTACT",
        "parent_track": "SENSOR",
        "time": "2010-01-12T13:51:40+00:00",
        "bearing": -96.8,
        "range": 0.0,
        "sensor_name": "NB_BRG",
        "label": "SUBJECT held on NB_BRG"
      }
    },
    {
      "type": "Feature",
      "id": "88b1857a-37b6-48e7-bbbf-d4fe72cb332c",
      "geometry": null,
      "properties": {
        "kind": "SENSOR_CONTACT",
        "parent_track": "SENSOR",
        "time": "2010-01-12T13:52:30+00:00",
        "frequency": 149.117,
        "sensor_name": "NB_FREQ",
        "label": "SUBJECT held on NB_FREQ"
      }
    },
    {
      "type": "Feature",
      "id": "68630036-d7c5-4c33-b427-e729f083660b",
      "geometry": null,
      "properties": {
        "kind": "SENSOR_CONTACT",
        "parent_track": "SENSOR",
        "time": "2010-01-12T13:52:30+00:00",
        "bearing": -96.6,
        "range": 0.0,
        "sensor_name": "NB_BRG",
        "label": "SUBJECT held on NB_BRG"
      }
    },
    {
      "type": "Feature",
      "id": "c2b8afac-edec-4a67-b3e2-f38ef9e691c0",
      "geometry": null,
      "properties": {
        "kind": "SENSOR_CONTACT",
        "parent_track": "SENSOR",
        "time": "2010-01-12T13:53:20+00:00",
        "frequency": 149.117,
        "sensor_name": "NB_FREQ",
        "label": "SUBJECT held on NB_FREQ"
      }
    },
    {
      "type": "Feature",
      "id": "131c8172-9303-4599-9c02-c3ef91139b56",
      "geometry": null,
      "properties": {
        "kind": "SENSOR_CONTACT",
        "parent_track": "SENSOR",
        "time": "2010-01-12T13:53:20+00:00",
        "bearing": -96.6,
        "range": 0.0,
        "sensor_name": "NB_BRG",
        "label": "SUBJECT held on NB_BRG"
      }
    },
    {
      "type": "Feature",
      "id": "563d45f1-e60c-422e-a6a2-92baaab9f300",
      "geometry": null,
      "properties": {
        "kind": "SENSOR_CONTACT",
        "parent_track": "SENSOR",
        "time": "2010-01-12T13:54:10+00:00",
        "frequency": 149.116,
        "sensor_name": "NB_FREQ",
        "label": "SUBJECT held on NB_FREQ"
      }
    },
    {
      "type": "Feature",
      "id": "ca6e7afc-09b7-4b92-ae4b-28e0e8b6a907",
      "geometry": null,
      "properties": {
        "kind": "SENSOR_CONTACT",
        "parent_track": "SENSOR",
        "time": "2010-01-12T13:54:10+00:00",
        "bearing": -96.5,
        "range": 0.0,
        "sensor_name": "NB_BRG",
        "label": "SUBJECT held on NB_BRG"
      }
    },
    {
      "type": "Feature",
      "id": "a75106b7-f201-453e-a59d-ca597339a74d",
      "geometry": null,
      "properties": {
        "kind": "SENSOR_CONTACT",
        "parent_track": "SENSOR",
        "time": "2010-01-12T13:55:00+00:00",
        "frequency": 149.116,
        "sensor_name": "NB_FREQ",
        "label": "SUBJECT held on NB_FREQ"
      }
    },
    {
      "type": "Feature",
      "id": "507fc7ff-7947-413a-86d1-21e3750ecc43",
      "geometry": null,
      "properties": {
        "kind": "SENSOR_CONTACT",
        "parent_track": "SENSOR",
        "time": "2010-01-12T13:55:00+00:00",
        "bearing": -96.4,
        "range": 0.0,
        "sensor_name": "NB_BRG",
        "label": "SUBJECT held on NB_BRG"
      }
    },
    {
      "type": "Feature",
      "id": "c37ce769-3688-4790-96eb-58021955a478",
      "geometry": null,
      "properties": {
        "kind": "SENSOR_CONTACT",
        "parent_track": "SENSOR",
        "time": "2010-01-12T13:55:50+00:00",
        "frequency": 149.116,
        "sensor_name": "NB_FREQ",
        "label": "SUBJECT held on NB_FREQ"
      }
    },
    {
      "type": "Feature",
      "id": "0e85d249-c40e-4dbd-a70c-6440b96d1e22",
      "geometry": null,
      "properties": {
        "kind": "SENSOR_CONTACT",
        "parent_track": "SENSOR",
        "time": "2010-01-12T13:55:50+00:00",
        "bearing": -96.3,
        "range": 0.0,
        "sensor_name": "NB_BRG",
        "label": "SUBJECT held on NB_BRG"
      }
    },
    {
      "type": "Feature",
      "id": "12965f43-da52-4cd1-b98e-a502529867b9",
      "geometry": null,
      "properties": {
        "kind": "SENSOR_CONTACT",
        "parent_track": "SENSOR",
        "time": "2010-01-12T13:56:40+00:00",
        "frequency": 149.116,
        "sensor_name": "NB_FREQ",
        "label": "SUBJECT held on NB_FREQ"
      }
    },
    {
      "type": "Feature",
      "id": "af37a654-3e8b-44aa-9498-04bd49eba398",
      "geometry": null,
      "properties": {
        "kind": "SENSOR_CONTACT",
        "parent_track": "SENSOR",
        "time": "2010-01-12T13:56:40+00:00",
        "bearing": -96.2,
        "range": 0.0,
        "sensor_name": "NB_BRG",
        "label": "SUBJECT held on NB_BRG"
      }
    },
    {
      "type": "Feature",
      "id": "adb70c3d-2f3a-4598-aef4-64d5650b7732",
      "geometry": null,
      "properties": {
        "kind": "SENSOR_CONTACT",
        "parent_track": "SENSOR",
        "time": "2010-01-12T13:57:30+00:00",
        "frequency": 149.116,
        "sensor_name": "NB_FREQ",
        "label": "SUBJECT held on NB_FREQ"
      }
    },
    {
      "type": "Feature",
      "id": "009d44fd-3e60-45c4-8e5c-774812aced57",
      "geometry": null,
      "properties": {
        "kind": "SENSOR_CONTACT",
        "parent_track": "SENSOR",
        "time": "2010-01-12T13:57:30+00:00",
        "bearing": -96.1,
        "range": 0.0,
        "sensor_name": "NB_BRG",
        "label": "SUBJECT held on NB_BRG"
      }
    },
    {
      "type": "Feature",
      "id": "61236b53-090e-4706-a9cc-ddf19c56fe0c",
      "geometry": null,
      "properties": {
        "kind": "SENSOR_CONTACT",
        "parent_track": "SENSOR",
        "time": "2010-01-12T13:58:20+00:00",
        "frequency": 149.116,
        "sensor_name": "NB_FREQ",
        "label": "SUBJECT held on NB_FREQ"
      }
    },
    {
      "type": "Feature",
      "id": "751e7f8b-f028-4fd8-9054-bc4e4e69fd71",
      "geometry": null,
      "properties": {
        "kind": "SENSOR_CONTACT",
        "parent_track": "SENSOR",
        "time": "2010-01-12T13:58:20+00:00",
        "bearing": -96.0,
        "range": 0.0,
        "sensor_name": "NB_BRG",
        "label": "SUBJECT held on NB_BRG"
      }
    },
    {
      "type": "Feature",
      "id": "aa1b3ddf-6d74-4a54-b30c-bf77035e07ee",
      "geometry": null,
      "properties": {
        "kind": "SENSOR_CONTACT",
        "parent_track": "SENSOR",
        "time": "2010-01-12T13:59:10+00:00",
        "frequency": 149.116,
        "sensor_name": "NB_FREQ",
        "label": "SUBJECT held on NB_FREQ"
      }
    },
    {
      "type": "Feature",
      "id": "f142b184-0bc5-41df-8eea-2dfb76f27a38",
      "geometry": null,
      "properties": {
        "kind": "SENSOR_CONTACT",
        "parent_track": "SENSOR",
        "time": "2010-01-12T13:59:10+00:00",
        "bearing": -95.9,
        "range": 0.0,
        "sensor_name": "NB_BRG",
        "label": "SUBJECT held on NB_BRG"
      }
    },
    {
      "type": "Feature",
      "id": "5da60223-94b8-49d5-b497-9cf840e2bc1a",
      "geometry": null,
      "properties": {
        "kind": "SENSOR_CONTACT",
        "parent_track": "SENSOR",
        "time": "2010-01-12T14:00:00+00:00",
        "frequency": 149.115,
        "sensor_name": "NB_FREQ",
        "label": "SUBJECT held on NB_FREQ"
      }
    },
    {
      "type": "Feature",
      "id": "3b5f5184-1b3b-461f-89e0-a099af271428",
      "geometry": null,
      "properties": {
        "kind": "SENSOR_CONTACT",
        "parent_track": "SENSOR",
        "time": "2010-01-12T14:00:00+00:00",
        "bearing": -95.9,
        "range": 0.0,
        "sensor_name": "NB_BRG",
        "label": "SUBJECT held on NB_BRG"
      }
    }
  ]
}