{
  "type": "FeatureCollection",
  "features": [
    {
      "type": "Feature",
      "id": "db743624-4ce7-4d6d-b950-00bbd3b633b3",
      "geometry": null,
      "properties": {
        "kind": "SENSOR_CONTACT",
        "parent_track": "OWNSHIP",
        "time": "1900-12-12T06:38:38+00:00",
        "bearing": 213.0,
        "sensor_name": "ARRAY",
        "label": "Label"
      }
    },
    {
      "type": "Feature",
      "id": "a1e4e5e9-e07f-4948-84b1-7ed29ecef380",
      "geometry": null,
      "properties": {
        "kind": "SENSOR_CONTACT",
        "parent_track": "OWNSHIP",
        "time": "1900-12-12T06:38:56+00:00",
        "bearing": 216.4,
        "sensor_name": "ARRAY",
        "label": "Label"
      }
    },
    {
      "type": "Feature",
      "id": "beb7c35e-0c07-4fb9-ab54-e0f1befaa726",
      "geometry": null,
      "properties": {
        "kind": "SENSOR_CONTACT",
        "parent_track": "OWNSHIP",
        "time": "1900-12-12T06:39:12+00:00",
        "bearing": 219.7,
        "sensor_name": "ARRAY",
        "label": "Label"
      }
    },
    {
      "type": "Feature",
      "id": "8ed2ebfd-3603-45c1-9563-af85f73ec044",
      "geometry": null,
      "properties": {
        "kind": "SENSOR_CONTACT",
        "parent_track": "OWNSHIP",
        "time": "1900-12-12T06:39:26+00:00",
        "bearing": 222.7,
        "sensor_name": "ARRAY",
        "label": "Label"
      }
    },
    {
      "type": "Feature",
      "id": "1d3ecdd1-301a-4866-8bfa-3135d2a4fffc",
      "geometry": null,
      "properties": {
        "kind": "SENSOR_CONTACT",
        "parent_track": "OWNSHIP",
        "time": "1900-12-12T06:39:40+00:00",
        "bearing": 226.0,
        "sensor_name": "ARRAY",
        "label": "Label"
      }
    },
    {
      "type": "Feature",
      "id": "861b9ca2-fa58-40d8-9973-b524b7140f9f",
      "geometry": null,
      "properties": {
        "kind": "SENSOR_CONTACT",
        "parent_track": "OWNSHIP",
        "time": "1900-12-12T06:40:00+00:00",
        "bearing": 230.0,
        "sensor_name": "ARRAY",
        "label": "Label"
      }
    },
    {
      "type": "Feature",
      "id": "e1a66ae7-1aa9-4e5b-8068-2398ca63599c",
      "geometry": null,
      "properties": {
        "kind": "SENSOR_CONTACT",
        "parent_track": "OWNSHIP",
        "time": "1900-12-12T06:40:16+00:00",
        "bearing": 234.1,
        "sensor_name": "ARRAY",
        "label": "Label"
      }
    },
    {
      "type": "Feature",
      "id": "ecfc055a-eb53-41a6-9b15-ba8fa318d1ac",
      "geometry": null,
      "properties": {
        "kind": "SENSOR_CONTACT",
        "parent_track": "OWNSHIP",
        "time": "1900-12-12T06:40:28+00:00",
        "bearing": 237.4,
        "sensor_name": "ARRAY",
        "label": "Label"
      }
    },
    {
      "type": "Feature",
      "id": "4ceb6efb-559c-40f3-816a-266b853ae91f",
      "geometry": null,
      "properties": {
        "kind": "SENSOR_CONTACT",
        "parent_track": "OWNSHIP",
        "time": "1900-12-12T06:40:44+00:00",
        "bearing": 242.1,
        "sensor_name": "ARRAY",
        "label": "Label"
      }
    },
    {
      "type": "Feature",
      "id": "5b38bc61-1de0-4170-81b6-37ae233a2e45",
      "geometry": null,
      "properties": {
        "kind": "SENSOR_CONTACT",
        "parent_track": "OWNSHIP",
        "time": "1900-12-12T06:40:58+00:00",
        "bearing": 245.1,
        "sensor_name": "ARRAY",
        "label": "Label"
      }
    },
    {
      "type": "Feature",
      "id": "c1a065d4-52aa-457f-b804-6bbdd979877e",
      "geometry": null,
      "properties": {
        "kind": "SENSOR_CONTACT",
        "parent_track": "OWNSHIP",
        "time": "1900-12-12T06:41:16+00:00",
        "bearing": 248.7,
        "sensor_name": "ARRAY",
        "label": "Label"
      }
    },
    {
      "type": "Feature",
      "id": "c1eef791-df50-4afa-b1a9-c2629c1303d4",
      "geometry": null,
      "properties": {
        "kind": "SENSOR_CONTACT",
        "parent_track": "OWNSHIP",
        "time": "1900-12-12T06:41:30+00:00",
        "bearing": 252.7,
        "sensor_name": "ARRAY",
        "label": "Label"
      }
    },
    {
      "type": "Feature",
      "id": "79b7c806-6cc3-45c5-a610-c28de07f6388",
      "geometry": null,
      "properties": {
        "kind": "SENSOR_CONTACT",
        "parent_track": "OWNSHIP",
        "time": "1900-12-12T06:41:44+00:00",
        "bearing": 256.4,
        "sensor_name": "ARRAY",
        "label": "Label"
      }
    },
    {
      "type": "Feature",
      "id": "a2134bb7-0dc0-4151-b217-8ec31fb03dce",
      "geometry": null,
      "properties": {
        "kind": "SENSOR_CONTACT",
        "parent_track": "OWNSHIP",
        "time": "1900-12-12T06:41:58+00:00",
        "bearing": 260.4,
        "sensor_name": "ARRAY",
        "label": "Label"
      }
    },
    {
      "type": "Feature",
      "id": "6c2e4ead-ebcb-4c67-9c94-5ea8f9ac4ba1",
      "geometry": null,
      "properties": {
        "kind": "SENSOR_CONTACT",
        "parent_track": "OWNSHIP",
        "time": "1900-12-12T06:42:08+00:00",
        "bearing": 264.4,
        "sensor_name": "ARRAY",
        "label": "Label"
      }
    },
    {
      "type": "Feature",
      "id": "a3a2bbe5-67d4-4a87-bcbc-0043f048a7c7",
      "geometry": null,
      "properties": {
        "kind": "SENSOR_CONTACT",
        "parent_track": "OWNSHIP",
        "time": "1900-12-12T06:42:26+00:00",
        "bearing": 268.7,
        "sensor_name": "ARRAY",
        "label": "Label"
      }
    },
    {
      "type": "Feature",
      "id": "43dfd707-ee41-4089-9d71-b049a282d5ee",
      "geometry": null,
      "properties": {
        "kind": "SENSOR_CONTACT",
        "parent_track": "OWNSHIP",
        "time": "1900-12-12T06:42:42+00:00",
        "bearing": 272.1,
        "sensor_name": "ARRAY",
        "label": "Label"
      }
    },
    {
      "type": "Feature",
      "id": "9012cc96-5506-461c-8b78-052ee72df141",
      "geometry": null,
      "properties": {
        "kind": "SENSOR_CONTACT",
        "parent_track": "OWNSHIP",
        "time": "1900-12-12T06:42:56+00:00",
        "bearing": 275.8,
        "sensor_name": "ARRAY",
        "label": "Label"
      }
    },
    {
      "type": "Feature",
      "id": "36423ab9-0d05-4477-beab-a0ef4613c15a",
      "geometry": null,
      "properties": {
        "kind": "SENSOR_CONTACT",
        "parent_track": "OWNSHIP",
        "time": "1900-12-12T06:43:10+00:00",
        "bearing": 279.4,
        "sensor_name": "ARRAY",
        "label": "Label"
      }
    },
    {
      "type": "Feature",
      "id": "f19c8c96-b286-4169-b715-42f298735bb7",
      "geometry": null,
      "properties": {
        "kind": "SENSOR_CONTACT",
        "parent_track": "OWNSHIP",
        "time": "1900-12-12T06:43:32+00:00",
        "bearing": 283.1,
        "sensor_name": "ARRAY",
        "label": "Label"
      }
    },
    {
      "type": "Feature",
      "id": "0d1af439-3070-4265-a0bb-51ba15745530",
      "geometry": null,
      "properties": {
        "kind": "SENSOR_CONTACT",
        "parent_track": "OWNSHIP",
        "time": "1900-12-12T06:43:50+00:00",
        "bearing": 287.4,
        "sensor_name": "ARRAY",
        "label": "Label"
      }
    },
    {
      "type": "Feature",
      "id": "e6a19a51-60dd-49c5-96cb-031327703275",
      "geometry": null,
      "properties": {
        "kind": "SENSOR_CONTACT",
        "parent_track": "OWNSHIP",
        "time": "1900-12-12T06:44:10+00:00",
        "bearing": 291.1,
        "sensor_name": "ARRAY",
        "label": "Label"
      }
    },
    {
      "type": "Feature",
      "id": "8c4dde5c-5099-49e7-a709-808ec341300d",
      "geometry": null,
      "properties": {
        "kind": "SENSOR_CONTACT",
        "parent_track": "OWNSHIP",
        "time": "1900-12-12T06:44:36+00:00",
        "bearing": 294.4,
        "sensor_name": "ARRAY",
        "label": "Label"
      }
    },
    {
      "type": "Feature",
      "id": "7d1aa484-0d74-42a3-a557-edad575ec0a6",
      "geometry": null,
      "properties": {
        "kind": "SENSOR_CONTACT",
        "parent_track": "OWNSHIP",
        "time": "1900-12-12T06:45:02+00:00",
        "bearing": 299.4,
        "sensor_name": "ARRAY",
        "label": "Label"
      }
    },
    {
      "type": "Feature",
      "id": "504ff019-4a46-43ea-89a0-9cfc6d150bb5",
      "geometry": null,
      "properties": {
        "kind": "SENSOR_CONTACT",
        "parent_track": "OWNSHIP",
        "time": "1900-12-12T06:45:28+00:00",
        "bearing": 303.4,
        "sensor_name": "ARRAY",
        "label": "Label"
      }
    },
    {
      "type": "Feature",
      "id": "125d3276-1d0a-42cc-b4fb-d877158ae5ed",
      "geometry": null,
      "properties": {
        "kind": "SENSOR_CONTACT",
        "parent_track": "OWNSHIP",
        "time": "1900-12-12T06:45:54+00:00",
        "bearing": 307.1,
        "sensor_name": "ARRAY",
        "label": "Label"
      }
    },
    {
      "type": "Feature",
      "id": "1ca03be7-6601-4293-ad23-8f0441111708",
      "geometry": null,
      "properties": {
        "kind": "SENSOR_CONTACT",
        "parent_track": "OWNSHIP",
        "time": "1900-12-12T06:46:30+00:00",
        "bearing": 309.8,
        "sensor_name": "ARRAY",
        "label": "Label"
      }
    },
    {
      "type": "Feature",
      "id": "04edcea3-fa97-49c6-8ec5-7319dd1548ff",
      "geometry": null,
      "properties": {
        "kind": "SENSOR_CONTACT",
        "parent_track": "OWNSHIP",
        "time": "1900-12-12T06:47:02+00:00",
        "bearing": 312.8,
        "sensor_name": "ARRAY",
        "label": "Label"
      }
    },
    {
      "type": "Feature",
      "id": "1cff412b-be80-477c-85bc-803a097b98f9",
      "geometry": null,
      "properties": {
        "kind": "SENSOR_CONTACT",
        "parent_track": "OWNSHIP",
        "time": "1900-12-12T06:47:30+00:00",
        "bearing": 314.5,
        "sensor_name": "ARRAY",
        "label": "Label"
      }
    },
    {
      "type": "Feature",
      "id": "3cc1c6be-295a-4fa1-bccb-73cb2ae5d997",
      "geometry": null,
      "properties": {
        "kind": "SENSOR_CONTACT",
        "parent_track": "OWNSHIP",
        "time": "1900-12-12T06:48:02+00:00",
        "bearing": 316.1,
        "sensor_name": "ARRAY",
        "label": "Label"
      }
    },
    {
      "type": "Feature",
      "id": "a0b6565c-19d2-469c-8ce3-0d09d0a262fc",
      "geometry": null,
      "properties": {
        "kind": "SENSOR_CONTACT",
        "parent_track": "OWNSHIP",
        "time": "1900-12-12T06:48:30+00:00",
        "bearing": 317.8,
        "sensor_name": "ARRAY",
        "label": "Label"
      }
    },
    {
      "type": "Feature",
      "id": "80a1c165-aa7c-4185-991c-1957642d79a5",
      "geometry": null,
      "properties": {
        "kind": "SENSOR_CONTACT",
        "parent_track": "OWNSHIP",
        "time": "1900-12-12T06:49:02+00:00",
        "bearing": 319.8,
        "sensor_name": "ARRAY",
        "label": "Label"
      }
    },
    {
      "type": "Feature",
      "id": "f8a3616b-883c-4a8a-abfb-6aa1c98140d7",
      "geometry": null,
      "properties": {
        "kind": "SENSOR_CONTACT",
        "parent_track": "OWNSHIP",
        "time": "1900-12-12T06:49:36+00:00",
        "bearing": 321.1,
        "sensor_name": "ARRAY",
        "label": "Label"
      }
    },
    {
      "type": "Feature",
      "id": "10c247cb-b536-4f74-8a58-5598fc163bb6",
      "geometry": null,
      "properties": {
        "kind": "SENSOR_CONTACT",
        "parent_track": "OWNSHIP",
        "time": "1900-12-12T06:50:10+00:00",
        "bearing": 322.1,
        "sensor_name": "ARRAY",
        "label": "Label"
      }
    },
    {
      "type": "Feature",
      "id": "ba7a22eb-5af7-4876-9fbd-ea27607c09bf",
      "geometry": null,
      "properties": {
        "kind": "SENSOR_CONTACT",
        "parent_track": "OWNSHIP",
        "time": "1900-12-12T06:50:46+00:00",
        "bearing": 323.1,
        "sensor_name": "ARRAY",
        "label": "Label"
      }
    },
    {
      "type": "Feature",
      "id": "bd0acc3d-c554-41bb-b8e3-81fa7f2ddf16",
      "geometry": null,
      "properties": {
        "kind": "SENSOR_CONTACT",
        "parent_track": "OWNSHIP",
        "time": "1900-12-12T06:51:22+00:00",
        "bearing": 323.5,
        "sensor_name": "ARRAY",
        "label": "Label"
      }
    },
    {
      "type": "Feature",
      "id": "9e7dd220-dd02-4caf-8a6e-2d2346ffc417",
      "geometry": null,
      "properties": {
        "kind": "SENSOR_CONTACT",
        "parent_track": "OWNSHIP",
        "time": "1900-12-12T06:52:08+00:00",
        "bearing": 323.8,
        "sensor_name": "ARRAY",
        "label": "Label"
      }
    },
    {
      "type": "Feature",
      "id": "c19bfd7c-367c-492f-bde2-c4082411e223",
      "geometry": null,
      "properties": {
        "kind": "SENSOR_CONTACT",
        "parent_track": "OWNSHIP",
        "time": "1900-12-12T06:52:38+00:00",
        "bearing": 324.5,
        "sensor_name": "ARRAY",
        "label": "Label"
      }
    },
    {
      "type": "Feature",
      "id": "48aac534-0b46-4f3e-9354-fe5bedc762e7",
      "geometry": null,
      "properties": {
        "kind": "SENSOR_CONTACT",
        "parent_track": "OWNSHIP",
        "time": "1900-12-12T06:53:14+00:00",
        "bearing": 325.1,
        "sensor_name": "ARRAY",
        "label": "Label"
      }
    },
    {
      "type": "Feature",
      "id": "49521092-c539-4700-954e-6dbe44bc1643",
      "geometry": null,
      "properties": {
        "kind": "SENSOR_CONTACT",
        "parent_track": "OWNSHIP",
        "time": "1900-12-12T06:53:46+00:00",
        "bearing": 325.8,
        "sensor_name": "ARRAY",
        "label": "Label"
      }
    },
    {
      "type": "Feature",
      "id": "8164af6d-95da-49c8-a761-16e5d3452507",
      "geometry": null,
      "properties": {
        "kind": "SENSOR_CONTACT",
        "parent_track": "OWNSHIP",
        "time": "1900-12-12T06:54:22+00:00",
        "bearing": 326.5,
        "sensor_name": "ARRAY",
        "label": "Label"
      }
    },
    {
      "type": "Feature",
      "id": "cd375fde-9ab0-40d7-9776-aeb52295627d",
      "geometry": null,
      "properties": {
        "kind": "SENSOR_CONTACT",
        "parent_track": "OWNSHIP",
        "time": "1900-12-12T06:55:00+00:00",
        "bearing": 327.1,
        "sensor_name": "ARRAY",
        "label": "Label"
      }
    },
    {
      "type": "Feature",
      "id": "a3aa1507-eddc-4dfe-8fdd-f3f1cc91b716",
      "geometry": null,
      "properties": {
        "kind": "SENSOR_CONTACT",
        "parent_track": "OWNSHIP",
        "time": "1900-12-12T06:55:38+00:00",
        "bearing": 327.8,
        "sensor_name": "ARRAY",
        "label": "Label"
      }
    },
    {
      "type": "Feature",
      "id": "728cf7d9-02df-4f82-8e97-21cba2415ccd",
      "geometry": null,
      "properties": {
        "kind": "SENSOR_CONTACT",
        "parent_track": "OWNSHIP",
        "time": "1900-12-12T06:56:14+00:00",
        "bearing": 328.1,
        "sensor_name": "ARRAY",
        "label": "Label"
      }
    },
    {
      "type": "Feature",
      "id": "a0b238ee-b085-4148-a24b-120ac6385e2e",
      "geometry": null,
      "properties": {
        "kind": "SENSOR_CONTACT",
        "parent_track": "OWNSHIP",
        "time": "1900-12-12T06:56:50+00:00",
        "bearing": 328.8,
        "sensor_name": "ARRAY",
        "label": "Label"
      }
    },
    {
      "type": "Feature",
      "id": "d4f30016-7915-4895-b587-bc5107938f96",
      "geometry": null,
      "properties": {
        "kind": "SENSOR_CONTACT",
        "parent_track": "OWNSHIP",
        "time": "1900-12-12T06:57:24+00:00",
        "bearing": 329.1,
        "sensor_name": "ARRAY",
        "label": "Label"
      }
    },
    {
      "type": "Feature",
      "id": "8ecf56aa-10a9-4d9d-8d1c-ef28f9aa5200",
      "geometry": null,
      "properties": {
        "kind": "SENSOR_CONTACT",
        "parent_track": "OWNSHIP",
        "time": "1900-12-12T06:58:10+00:00",
        "bearing": 330.1,
        "sensor_name": "ARRAY",
        "label": "Label"
      }
    },
    {
      "type": "Feature",
      "id": "f1c28b0b-8471-48c9-bb60-65cc0f3cec40",
      "geometry": null,
      "properties": {
        "kind": "SENSOR_CONTACT",
        "parent_track": "OWNSHIP",
        "time": "1900-12-12T06:58:52+00:00",
        "bearing": 331.5,
        "sensor_name": "ARRAY",
        "label": "Label"
      }
    },
    {
      "type": "Feature",
      "id": "3fca77cc-7e55-4d06-ac09-35060c3abb3a",
      "geometry": null,
      "properties": {
        "kind": "SENSOR_CONTACT",
        "parent_track": "OWNSHIP",
        "time": "1900-12-12T06:59:36+00:00",
        "bearing": 332.1,
        "sensor_name": "ARRAY",
        "label": "Label"
      }
    },
    {
      "type": "Feature",
      "id": "9a5e7d8b-5a27-4343-b6ce-7cf180d55f3e",
      "geometry": null,
      "properties": {
        "kind": "SENSOR_CONTACT",
        "parent_track": "OWNSHIP",
        "time": "1900-12-12T07:00:14+00:00",
        "bearing": 332.8,
        "sensor_name": "ARRAY",
        "label": "Label"
      }
    },
    {
      "type": "Feature",
      "id": "b41f99eb-a7c2-4e8d-9adf-beb20a1b9925",
      "geometry": null,
      "properties": {
        "kind": "SENSOR_CONTACT",
        "parent_track": "OWNSHIP",
        "time": "1900-12-12T07:00:52+00:00",
        "bearing": 334.5,
        "sensor_name": "ARRAY",
        "label": "Label"
      }
    },
    {
      "type": "Feature",
      "id": "e87aba1d-4750-482a-8fa9-1134bec6b6ef",
      "geometry": null,
      "properties": {
        "kind": "SENSOR_CONTACT",
        "parent_track": "OWNSHIP",
        "time": "1900-12-12T07:01:30+00:00",
        "bearing": 335.1,
        "sensor_name": "ARRAY",
        "label": "Label"
      }
    },
    {
      "type": "Feature",
      "id": "c87d22de-6013-4b34-a295-c4aa76e3d1fe",
      "geometry": null,
      "properties": {
        "kind": "SENSOR_CONTACT",
        "parent_track": "OWNSHIP",
        "time": "1900-12-12T07:02:02+00:00",
        "bearing": 336.1,
        "sensor_name": "ARRAY",
        "label": "Label"
      }
    },
    {
      "type": "Feature",
      "id": "37a8a574-a0e9-4254-b24d-921d6aa0607a",
      "geometry": null,
      "properties": {
        "kind": "SENSOR_CONTACT",
        "parent_track": "OWNSHIP",
        "time": "1900-12-12T07:02:24+00:00",
        "bearing": 336.1,
        "sensor_name": "ARRAY",
        "label": "Label"
      }
    },
    {
      "type": "Feature",
      "id": "a9079313-e68f-4cd3-90cb-af349635d4d1",
      "geometry": null,
      "properties": {
        "kind": "SENSOR_CONTACT",
        "parent_track": "OWNSHIP",
        "time": "1900-12-12T07:02:54+00:00",
        "bearing": 333.8,
        "sensor_name": "ARRAY",
        "label": "Label"
      }
    },
    {
      "type": "Feature",
      "id": "5987054a-4602-486c-900c-02990d9689c7",
      "geometry": null,
      "properties": {
        "kind": "SENSOR_CONTACT",
        "parent_track": "OWNSHIP",
        "time": "1900-12-12T07:03:24+00:00",
        "bearing": 331.5,
        "sensor_name": "ARRAY",
        "label": "Label"
      }
    },
    {
      "type": "Feature",
      "id": "975e846e-473e-48e2-8a2b-c388ff5f8470",
      "geometry": null,
      "properties": {
        "kind": "SENSOR_CONTACT",
        "parent_track": "OWNSHIP",
        "time": "1900-12-12T07:03:52+00:00",
        "bearing": 330.5,
        "sensor_name": "ARRAY",
        "label": "Label"
      }
    },
    {
      "type": "Feature",
      "id": "3746abea-f0ea-459f-865d-22ace8c2f224",
      "geometry": null,
      "properties": {
        "kind": "SENSOR_CONTACT",
        "parent_track": "OWNSHIP",
        "time": "1900-12-12T07:04:18+00:00",
        "bearing": 328.5,
        "sensor_name": "ARRAY",
        "label": "Label"
      }
    },
    {
      "type": "Feature",
      "id": "d7422288-3bdc-4cca-81c2-f6f941dc2dbc",
      "geometry": null,
      "properties": {
        "kind": "SENSOR_CONTACT",
        "parent_track": "OWNSHIP",
        "time": "1900-12-12T07:04:40+00:00",
        "bearing": 327.5,
        "sensor_name": "ARRAY",
        "label": "Label"
      }
    },
    {
      "type": "Feature",
      "id": "01fdf743-baa8-4370-8e85-4f26eb81d3ba",
      "geometry": null,
      "properties": {
        "kind": "SENSOR_CONTACT",
        "parent_track": "OWNSHIP",
        "time": "1900-12-12T07:05:08+00:00",
        "bearing": 328.5,
        "sensor_name": "ARRAY",
        "label": "Label"
      }
    },
    {
      "type": "Feature",
      "id": "70d69ab2-571d-401d-bf65-3328b1ea0e75",
      "geometry": null,
      "properties": {
        "kind": "SENSOR_CONTACT",
        "parent_track": "OWNSHIP",
        "time": "1900-12-12T07:05:42+00:00",
        "bearing": 328.5,
        "sensor_name": "ARRAY",
        "label": "Label"
      }
    },
    {
      "type": "Feature",
      "id": "e14a3ea2-40f3-4fa7-b915-2234908ba7b9",
      "geometry": null,
      "properties": {
        "kind": "SENSOR_CONTACT",
        "parent_track": "OWNSHIP",
        "time": "1900-12-12T07:06:10+00:00",
        "bearing": 328.8,
        "sensor_name": "ARRAY",
        "label": "Label"
      }
    },
    {
      "type": "Feature",
      "id": "1114a25a-432d-49ad-8872-7a2829700d91",
      "geometry": null,
      "properties": {
        "kind": "SENSOR_CONTACT",
        "parent_track": "OWNSHIP",
        "time": "1900-12-12T07:06:36+00:00",
        "bearing": 328.8,
        "sensor_name": "ARRAY",
        "label": "Label"
      }
    },
    {
      "type": "Feature",
      "id": "262c0f40-7824-4f16-98ff-d95e5e8efef6",
      "geometry": null,
      "properties": {
        "kind": "SENSOR_CONTACT",
        "parent_track": "OWNSHIP",
        "time": "1900-12-12T07:07:08+00:00",
        "bearing": 329.1,
        "sensor_name": "ARRAY",
        "label": "Label"
      }
    },
    {
      "type": "Feature",
      "id": "0e17db1a-3086-4b02-adc7-eeede505b904",
      "geometry": null,
      "properties": {
        "kind": "SENSOR_CONTACT",
        "parent_track": "OWNSHIP",
        "time": "1900-12-12T07:07:42+00:00",
        "bearing": 329.5,
        "sensor_name": "ARRAY",
        "label": "Label"
      }
    },
    {
      "type": "Feature",
      "id": "efd225aa-b2c4-41a8-ae0c-001065eecc8e",
      "geometry": null,
      "properties": {
        "kind": "SENSOR_CONTACT",
        "parent_track": "OWNSHIP",
        "time": "1900-12-12T07:08:12+00:00",
        "bearing": 330.1,
        "sensor_name": "ARRAY",
        "label": "Label"
      }
    },
    {
      "type": "Feature",
      "id": "8e7b2a6f-1210-429f-8e25-e7fbbbafe049",
      "geometry": null,
      "properties": {
        "kind": "SENSOR_CONTACT",
        "parent_track": "OWNSHIP",
        "time": "1900-12-12T07:08:46+00:00",
        "bearing": 331.1,
        "sensor_name": "ARRAY",
        "label": "Label"
      }
    },
    {
      "type": "Feature",
      "id": "25c004ab-a42a-4818-a6dc-44d3c409604c",
      "geometry": null,
      "properties": {
        "kind": "SENSOR_CONTACT",
        "parent_track": "OWNSHIP",
        "time": "1900-12-12T07:09:24+00:00",
        "bearing": 331.8,
        "sensor_name": "ARRAY",
        "label": "Label"
      }
    },
    {
      "type": "Feature",
      "id": "28cf4461-4748-4533-97cb-e1cb4c5ebdca",
      "geometry": null,
      "properties": {
        "kind": "SENSOR_CONTACT",
        "parent_track": "OWNSHIP",
        "time": "1900-12-12T07:09:58+00:00",
        "bearing": 332.5,
        "sensor_name": "ARRAY",
        "label": "Label"
      }
    },
    {
      "type": "Feature",
      "id": "1a34cc61-0a7b-4e4b-9374-624f4b48e0e4",
      "geometry": null,
      "properties": {
        "kind": "SENSOR_CONTACT",
        "parent_track": "OWNSHIP",
        "time": "1900-12-12T07:10:30+00:00",
        "bearing": 332.1,
        "sensor_name": "ARRAY",
        "label": "Label"
      }
    },
    {
      "type": "Feature",
      "id": "12d1fe99-f815-4065-9300-536da82b99a6",
      "geometry": null,
      "properties": {
        "kind": "SENSOR_CONTACT",
        "parent_track": "OWNSHIP",
        "time": "1900-12-12T07:11:00+00:00",
        "bearing": 333.5,
        "sensor_name": "ARRAY",
        "label": "Label"
      }
    },
    {
      "type": "Feature",
      "id": "fe35457d-f383-40f1-aecf-8dbdb485ae0c",
      "geometry": null,
      "properties": {
        "kind": "SENSOR_CONTACT",
        "parent_track": "OWNSHIP",
        "time": "1900-12-12T07:11:40+00:00",
        "bearing": 334.5,
        "sensor_name": "ARRAY",
        "label": "Label"
      }
    },
    {
      "type": "Feature",
      "id": "fb1efaaf-eecd-4abb-a93b-1a8a5e1addf6",
      "geometry": null,
      "properties": {
        "kind": "SENSOR_CONTACT",
        "parent_track": "OWNSHIP",
        "time": "1900-12-12T07:12:12+00:00",
        "bearing": 335.1,
        "sensor_name": "ARRAY",
        "label": "Label"
      }
    },
    {
      "type": "Feature",
      "id": "f9b8e417-68e8-419d-9565-e27707de8cdc",
      "geometry": null,
      "properties": {
        "kind": "SENSOR_CONTACT",
        "parent_track": "OWNSHIP",
        "time": "1900-12-12T07:12:48+00:00",
        "bearing": 335.8,
        "sensor_name": "ARRAY",
        "label": "Label"
      }
    },
    {
      "type": "Feature",
      "id": "3c27378d-0af5-4ceb-93d3-0d3816bbb412",
      "geometry": null,
      "properties": {
        "kind": "SENSOR_CONTACT",
        "parent_track": "OWNSHIP",
        "time": "1900-12-12T07:13:20+00:00",
        "bearing": 336.5,
        "sensor_name": "ARRAY",
        "label": "Label"
      }
    },
    {
      "type": "Feature",
      "id": "b2e32fdf-ba88-4bb2-b047-7d54423e2d08",
      "geometry": null,
      "properties": {
        "kind": "SENSOR_CONTACT",
        "parent_track": "OWNSHIP",
        "time": "1900-12-12T07:13:56+00:00",
        "bearing": 337.1,
        "sensor_name": "ARRAY",
        "label": "Label"
      }
    },
    {
      "type": "Feature",
      "id": "b602455a-fcad-48d4-9921-deb7b317a472",
      "geometry": null,
      "properties": {
        "kind": "SENSOR_CONTACT",
        "parent_track": "OWNSHIP",
        "time": "1900-12-12T07:14:32+00:00",
        "bearing": 338.1,
        "sensor_name": "ARRAY",
        "label": "Label"
      }
    },
    {
      "type": "Feature",
      "id": "347d3574-3f05-477c-b898-23a9034fb254",
      "geometry": null,
      "properties": {
        "kind": "SENSOR_CONTACT",
        "parent_track": "OWNSHIP",
        "time": "1900-12-12T07:15:04+00:00",
        "bearing": 339.1,
        "sensor_name": "ARRAY",
        "label": "Label"
      }
    },
    {
      "type": "Feature",
      "id": "c20e840a-f6d8-4e6e-9167-7489d172dea1",
      "geometry": null,
      "properties": {
        "kind": "SENSOR_CONTACT",
        "parent_track": "OWNSHIP",
        "time": "1900-12-12T07:15:38+00:00",
        "bearing": 340.1,
        "sensor_name": "ARRAY",
        "label": "Label"
      }
    },
    {
      "type": "Feature",
      "id": "011a7fd2-cd94-4e9d-84df-ed2a851e5ee4",
      "geometry": null,
      "properties": {
        "kind": "SENSOR_CONTACT",
        "parent_track": "OWNSHIP",
        "time": "1900-12-12T07:16:04+00:00",
        "bearing": 340.5,
        "sensor_name": "ARRAY",
        "label": "Label"
      }
    },
    {
      "type": "Feature",
      "id": "8257d63a-7695-47c1-bbba-f37156036635",
      "geometry": null,
      "properties": {
        "kind": "SENSOR_CONTACT",
        "parent_track": "OWNSHIP",
        "time": "1900-12-12T07:16:34+00:00",
        "bearing": 341.1,
        "sensor_name": "ARRAY",
        "label": "Label"
      }
    },
    {
      "type": "Feature",
      "id": "231fa40d-570b-4cbb-84db-c2f2f760a0a7",
      "geometry": null,
      "properties": {
        "kind": "SENSOR_CONTACT",
        "parent_track": "OWNSHIP",
        "time": "1900-12-12T07:16:56+00:00",
        "bearing": 341.8,
        "sensor_name": "ARRAY",
        "label": "Label"
      }
    },
    {
      "type": "Feature",
      "id": "6d05cd2a-a78f-4975-8c65-2d73e3838c14",
      "geometry": null,
      "properties": {
        "kind": "SENSOR_CONTACT",
        "parent_track": "OWNSHIP",
        "time": "1900-12-12T07:17:22+00:00",
        "bearing": 342.5,
        "sensor_name": "ARRAY",
        "label": "Label"
      }
    },
    {
      "type": "Feature",
      "id": "29b01249-0304-4b9c-a439-f3b1a7593a73",
      "geometry": null,
      "properties": {
        "kind": "SENSOR_CONTACT",
        "parent_track": "OWNSHIP",
        "time": "1900-12-12T07:17:52+00:00",
        "bearing": 343.2,
        "sensor_name": "ARRAY",
        "label": "Label"
      }
    },
    {
      "type": "Feature",
      "id": "a1547606-9cf6-486d-9992-8364c831d817",
      "geometry": null,
      "properties": {
        "kind": "SENSOR_CONTACT",
        "parent_track": "OWNSHIP",
        "time": "1900-12-12T07:18:24+00:00",
        "bearing": 344.5,
        "sensor_name": "ARRAY",
        "label": "Label"
      }
    },
    {
      "type": "Feature",
      "id": "322f67da-8d48-4582-9a42-8924b5ab9cb6",
      "geometry": null,
      "properties": {
        "kind": "SENSOR_CONTACT",
        "parent_track": "OWNSHIP",
        "time": "1900-12-12T07:18:52+00:00",
        "bearing": 344.8,
        "sensor_name": "ARRAY",
        "label": "Label"
      }
    },
    {
      "type": "Feature",
      "id": "f0b0e2c0-695f-42db-8437-2df5cb2603de",
      "geometry": null,
      "properties": {
        "kind": "SENSOR_CONTACT",
        "parent_track": "OWNSHIP",
        "time": "1900-12-12T07:19:24+00:00",
        "bearing": 345.5,
        "sensor_name": "ARRAY",
        "label": "Label"
      }
    },
    {
      "type": "Feature",
      "id": "ce1f71e2-89b2-4800-b50d-7dcdec7b378a",
      "geometry": null,
      "properties": {
        "kind": "SENSOR_CONTACT",
        "parent_track": "OWNSHIP",
        "time": "1900-12-12T07:19:54+00:00",
        "bearing": 346.2,
        "sensor_name": "ARRAY",
        "label": "Label"
      }
    },
    {
      "type": "Feature",
      "id": "918e5d86-99b4-462d-a0c4-4d3434375977",
      "geometry": null,
      "properties": {
        "kind": "SENSOR_CONTACT",
        "parent_track": "OWNSHIP",
        "time": "1900-12-12T07:20:28+00:00",
        "bearing": 346.8,
        "sensor_name": "ARRAY",
        "label": "Label"
      }
    },
    {
      "type": "Feature",
      "id": "2861dbc1-62b5-4025-96c1-803ca5876ed3",
      "geometry": null,
      "properties": {
        "kind": "SENSOR_CONTACT",
        "parent_track": "OWNSHIP",
        "time": "1900-12-12T07:21:06+00:00",
        "bearing": 347.8,
        "sensor_name": "ARRAY",
        "label": "Label"
      }
    },
    {
      "type": "Feature",
      "id": "ec1aa494-bf27-4ac3-883a-dd03cd294fa2",
      "geometry": null,
      "properties": {
        "kind": "SENSOR_CONTACT",
        "parent_track": "OWNSHIP",
        "time": "1900-12-12T07:21:38+00:00",
        "bearing": 348.5,
        "sensor_name": "ARRAY",
        "label": "Label"
      }
    },
    {
      "type": "Feature",
      "id": "228c7a10-3bea-4331-9a27-50cdd79f7aa8",
      "geometry": null,
      "properties": {
        "kind": "SENSOR_CONTACT",
        "parent_track": "OWNSHIP",
        "time": "1900-12-12T07:22:16+00:00",
        "bearing": 349.8,
        "sensor_name": "ARRAY",
        "label": "Label"
      }
    },
    {
      "type": "Feature",
      "id": "6629aa83-b6f8-4e56-be24-83cc277f1d80",
      "geometry": null,
      "properties": {
        "kind": "SENSOR_CONTACT",
        "parent_track": "OWNSHIP",
        "time": "1900-12-12T07:22:48+00:00",
        "bearing": 350.2,
        "sensor_name": "ARRAY",
        "label": "Label"
      }
    },
    {
      "type": "Feature",
      "id": "13b0b478-2694-4caf-a30e-6b63bf07159c",
      "geometry": null,
      "properties": {
        "kind": "SENSOR_CONTACT",
        "parent_track": "OWNSHIP",
        "time": "1900-12-12T07:23:24+00:00",
        "bearing": 351.5,
        "sensor_name": "ARRAY",
        "label": "Label"
      }
    },
    {
      "type": "Feature",
      "id": "ccaf6d63-fad2-4b39-b6b2-b16cd7c74046",
      "geometry": null,
      "properties": {
        "kind": "SENSOR_CONTACT",
        "parent_track": "OWNSHIP",
        "time": "1900-12-12T07:23:58+00:00",
        "bearing": 352.5,
        "sensor_name": "ARRAY",
        "label": "Label"
      }
    },
    {
      "type": "Feature",
      "id": "9a954fa1-3046-442f-a0e6-cf38d33cfa96",
      "geometry": null,
      "properties": {
        "kind": "SENSOR_CONTACT",
        "parent_track": "OWNSHIP",
        "time": "1900-12-12T07:24:36+00:00",
        "bearing": 353.5,
        "sensor_name": "ARRAY",
        "label": "Label"
      }
    },
    {
      "type": "Feature",
      "id": "eafb0a09-4695-481d-ac5e-64377d87cd75",
      "geometry": null,
      "properties": {
        "kind": "SENSOR_CONTACT",
        "parent_track": "OWNSHIP",
        "time": "1900-12-12T07:25:08+00:00",
        "bearing": 354.5,
        "sensor_name": "ARRAY",
        "label": "Label"
      }
    },
    {
      "type": "Feature",
      "id": "1c4d753f-e5a9-46bb-bce3-d03722f3105b",
      "geometry": null,
      "properties": {
        "kind": "SENSOR_CONTACT",
        "parent_track": "OWNSHIP",
        "time": "1900-12-12T07:25:40+00:00",
        "bearing": 355.2,
        "sensor_name": "ARRAY",
        "label": "Label"
      }
    },
    {
      "type": "Feature",
      "id": "5ad29b02-8852-431a-ab0c-48bf9b46a4e4",
      "geometry": null,
      "properties": {
        "kind": "SENSOR_CONTACT",
        "parent_track": "OWNSHIP",
        "time": "1900-12-12T07:26:10+00:00",
        "bearing": 356.5,
        "sensor_name": "ARRAY",
        "label": "Label"
      }
    },
    {
      "type": "Feature",
      "id": "fe4b69e3-fdcf-4850-bfe6-03bd99c080e2",
      "geometry": null,
      "properties": {
        "kind": "SENSOR_CONTACT",
        "parent_track": "OWNSHIP",
        "time": "1900-12-12T07:26:44+00:00",
        "bearing": 356.8,
        "sensor_name": "ARRAY",
        "label": "Label"
      }
    },
    {
      "type": "Feature",
      "id": "ed5711de-8f69-4889-8475-47c565038f2e",
      "geometry": null,
      "properties": {
        "kind": "SENSOR_CONTACT",
        "parent_track": "OWNSHIP",
        "time": "1900-12-12T07:27:20+00:00",
        "bearing": 357.8,
        "sensor_name": "ARRAY",
        "label": "Label"
      }
    },
    {
      "type": "Feature",
      "id": "6cfc9d6b-c01a-48f1-920f-8757f361301a",
      "geometry": null,
      "properties": {
        "kind": "SENSOR_CONTACT",
        "parent_track": "OWNSHIP",
        "time": "1900-12-12T07:27:50+00:00",
        "bearing": 358.5,
        "sensor_name": "ARRAY",
        "label": "Label"
      }
    },
    {
      "type": "Feature",
      "id": "febc9ec2-bc00-4791-a56a-9bb7bff6d1a1",
      "geometry": null,
      "properties": {
        "kind": "SENSOR_CONTACT",
        "parent_track": "OWNSHIP",
        "time": "1900-12-12T07:28:18+00:00",
        "bearing": 359.2,
        "sensor_name": "ARRAY",
        "label": "Label"
      }
    },
    {
      "type": "Feature",
      "id": "011e83ff-0b62-42a3-a7f9-5c118ff05a83",
      "geometry": null,
      "properties": {
        "kind": "SENSOR_CONTACT",
        "parent_track": "OWNSHIP",
        "time": "1900-12-12T07:28:50+00:00",
        "bearing": 359.8,
        "sensor_name": "ARRAY",
        "label": "Label"
      }
    },
    {
      "type": "Feature",
      "id": "38be0978-d5a4-45b7-92ed-61a236078e89",
      "geometry": null,
      "properties": {
        "kind": "SENSOR_CONTACT",
        "parent_track": "OWNSHIP",
        "time": "1900-12-12T07:29:16+00:00",
        "bearing": 1.2,
        "sensor_name": "ARRAY",
        "label": "Label"
      }
    },
    {
      "type": "Feature",
      "id": "0b5fe312-4f4c-438e-9cb8-c20defbcff6d",
      "geometry": null,
      "properties": {
        "kind": "SENSOR_CONTACT",
        "parent_track": "OWNSHIP",
        "time": "1900-12-12T07:29:44+00:00",
        "bearing": 1.5,
        "sensor_name": "ARRAY",
        "label": "Label"
      }
    },
    {
      "type": "Feature",
      "id": "3b981f8b-d333-4494-baf4-de2689ab0477",
      "geometry": null,
      "properties": {
        "kind": "SENSOR_CONTACT",
        "parent_track": "OWNSHIP",
        "time": "1900-12-12T07:30:08+00:00",
        "bearing": 2.2,
        "sensor_name": "ARRAY",
        "label": "Label"
      }
    },
    {
      "type": "Feature",
      "id": "0db9b137-b165-41f6-bf1c-380c7732f243",
      "geometry": null,
      "properties": {
        "kind": "SENSOR_CONTACT",
        "parent_track": "OWNSHIP",
        "time": "1900-12-12T07:30:32+00:00",
        "bearing": 4.2,
        "sensor_name": "ARRAY",
        "label": "Label"
      }
    },
    {
      "type": "Feature",
      "id": "5c8e2ec3-a363-40c0-a1a0-8969411b2e62",
      "geometry": null,
      "properties": {
        "kind": "SENSOR_CONTACT",
        "parent_track": "OWNSHIP",
        "time": "1900-12-12T07:30:58+00:00",
        "bearing": 4.8,
        "sensor_name": "ARRAY",
        "label": "Label"
      }
    },
    {
      "type": "Feature",
      "id": "5147280c-bd1f-4f4f-b3bc-2f646f2320c9",
      "geometry": null,
      "properties": {
        "kind": "SENSOR_CONTACT",
        "parent_track": "OWNSHIP",
        "time": "1900-12-12T07:31:30+00:00",
        "bearing": 5.8,
        "sensor_name": "ARRAY",
        "label": "Label"
      }
    },
    {
      "type": "Feature",
      "id": "6a56ed3c-95fc-444c-b88e-f51fbb00f667",
      "geometry": null,
      "properties": {
        "kind": "SENSOR_CONTACT",
        "parent_track": "OWNSHIP",
        "time": "1900-12-12T07:32:00+00:00",
        "bearing": 6.8,
        "sensor_name": "ARRAY",
        "label": "Label"
      }
    },
    {
      "type": "Feature",
      "id": "547db7c5-b620-4df5-bbb0-d08e7ab7eb94",
      "geometry": null,
      "properties": {
        "kind": "SENSOR_CONTACT",
        "parent_track": "OWNSHIP",
        "time": "1900-12-12T07:32:32+00:00",
        "bearing": 7.8,
        "sensor_name": "ARRAY",
        "label": "Label"
      }
    },
    {
      "type": "Feature",
      "id": "5734857c-88d7-41b3-8d8d-19d42e9a78e2",
      "geometry": null,
      "properties": {
        "kind": "SENSOR_CONTACT",
        "parent_track": "OWNSHIP",
        "time": "1900-12-12T07:33:12+00:00",
        "bearing": 8.8,
        "sensor_name": "ARRAY",
        "label": "Label"
      }
    },
    {
      "type": "Feature",
      "id": "63b229ce-f38d-44bf-a00e-28a64ffeee17",
      "geometry": null,
      "properties": {
        "kind": "SENSOR_CONTACT",
        "parent_track": "OWNSHIP",
        "time": "1900-12-12T07:33:48+00:00",
        "bearing": 10.2,
        "sensor_name": "ARRAY",
        "label": "Label"
      }
    },
    {
      "type": "Feature",
      "id": "906ce9ae-a3ae-4f3f-9fa7-a637529cfacc",
      "geometry": null,
      "properties": {
        "kind": "SENSOR_CONTACT",
        "parent_track": "OWNSHIP",
        "time": "1900-12-12T07:34:22+00:00",
        "bearing": 10.5,
        "sensor_name": "ARRAY",
        "label": "Label"
      }
    },
    {
      "type": "Feature",
      "id": "52703d24-c542-45f3-90f0-d083de7fe569",
      "geometry": null,
      "properties": {
        "kind": "SENSOR_CONTACT",
        "parent_track": "OWNSHIP",
        "time": "1900-12-12T07:35:00+00:00",
        "bearing": 11.5,
        "sensor_name": "ARRAY",
        "label": "Label"
      }
    },
    {
      "type": "Feature",
      "id": "bc316089-06da-4b11-8813-8a4a668837be",
      "geometry": null,
      "properties": {
        "kind": "SENSOR_CONTACT",
        "parent_track": "OWNSHIP",
        "time": "1900-12-12T07:35:36+00:00",
        "bearing": 12.5,
        "sensor_name": "ARRAY",
        "label": "Label"
      }
    },
    {
      "type": "Feature",
      "id": "b2f48ad3-17f4-49fc-a98b-5a1dbf5dc451",
      "geometry": null,
      "properties": {
        "kind": "SENSOR_CONTACT",
        "parent_track": "OWNSHIP",
        "time": "1900-12-12T07:36:06+00:00",
        "bearing": 13.2,
        "sensor_name": "ARRAY",
        "label": "Label"
      }
    },
    {
      "type": "Feature",
      "id": "9f3c0e93-6ad5-4040-b25c-8a3a61293276",
      "geometry": null,
      "properties": {
        "kind": "SENSOR_CONTACT",
        "parent_track": "OWNSHIP",
        "time": "1900-12-12T07:36:36+00:00",
        "bearing": 14.5,
        "sensor_name": "ARRAY",
        "label": "Label"
      }
    },
    {
      "type": "Feature",
      "id": "33bd1b67-98b9-4f8c-a3b5-538bb3adc48b",
      "geometry": null,
      "properties": {
        "kind": "SENSOR_CONTACT",
        "parent_track": "OWNSHIP",
        "time": "1900-12-12T07:37:06+00:00",
        "bearing": 14.8,
        "sensor_name": "ARRAY",
        "label": "Label"
      }
    },
    {
      "type": "Feature",
      "id": "251f36d6-cd32-40a3-b9fb-4d618de38d4c",
      "geometry": null,
      "properties": {
        "kind": "SENSOR_CONTACT",
        "parent_track": "OWNSHIP",
        "time": "1900-12-12T07:37:40+00:00",
        "bearing": 16.5,
        "sensor_name": "ARRAY",
        "label": "Label"
      }
    },
    {
      "type": "Feature",
      "id": "a3bda0b2-5279-4b07-b878-991afe4cd6de",
      "geometry": null,
      "properties": {
        "kind": "SENSOR_CONTACT",
        "parent_track": "OWNSHIP",
        "time": "1900-12-12T07:38:08+00:00",
        "bearing": 17.5,
        "sensor_name": "ARRAY",
        "label": "Label"
      }
    },
    {
      "type": "Feature",
      "id": "ea3cc033-dab9-4512-a906-34e937abef52",
      "geometry": null,
      "properties": {
        "kind": "SENSOR_CONTACT",
        "parent_track": "OWNSHIP",
        "time": "1900-12-12T07:38:44+00:00",
        "bearing": 18.5,
        "sensor_name": "ARRAY",
        "label": "Label"
      }
    },
    {
      "type": "Feature",
      "id": "e43cceda-ea7a-42a1-88b3-da8d68723557",
      "geometry": null,
      "properties": {
        "kind": "SENSOR_CONTACT",
        "parent_track": "OWNSHIP",
        "time": "1900-12-12T07:39:20+00:00",
        "bearing": 19.9,
        "sensor_name": "ARRAY",
        "label": "Label"
      }
    },
    {
      "type": "Feature",
      "id": "7802e7a0-cf56-46bf-bf22-d1def741d382",
      "geometry": null,
      "properties": {
        "kind": "SENSOR_CONTACT",
        "parent_track": "OWNSHIP",
        "time": "1900-12-12T07:39:54+00:00",
        "bearing": 21.2,
        "sensor_name": "ARRAY",
        "label": "Label"
      }
    },
    {
      "type": "Feature",
      "id": "1c264b32-39fc-4940-99df-5f4ad46b6080",
      "geometry": null,
      "properties": {
        "kind": "SENSOR_CONTACT",
        "parent_track": "OWNSHIP",
        "time": "1900-12-12T07:40:28+00:00",
        "bearing": 21.9,
        "sensor_name": "ARRAY",
        "label": "Label"
      }
    },
    {
      "type": "Feature",
      "id": "23b17ae2-f62c-498d-ab42-3a6dd286a2f3",
      "geometry": null,
      "properties": {
        "kind": "SENSOR_CONTACT",
        "parent_track": "OWNSHIP",
        "time": "1900-12-12T07:41:04+00:00",
        "bearing": 22.9,
        "sensor_name": "ARRAY",
        "label": "Label"
      }
    },
    {
      "type": "Feature",
      "id": "d05939f1-9f38-4f0d-b1c6-85d6eb8e2383",
      "geometry": null,
      "properties": {
        "kind": "SENSOR_CONTACT",
        "parent_track": "OWNSHIP",
        "time": "1900-12-12T07:41:36+00:00",
        "bearing": 23.2,
        "sensor_name": "ARRAY",
        "label": "Label"
      }
    },
    {
      "type": "Feature",
      "id": "47bb21f0-4d43-48fd-b493-f4b0c6c9ca0c",
      "geometry": null,
      "properties": {
        "kind": "SENSOR_CONTACT",
        "parent_track": "OWNSHIP",
        "time": "1900-12-12T07:42:06+00:00",
        "bearing": 24.5,
        "sensor_name": "ARRAY",
        "label": "Label"
      }
    },
    {
      "type": "Feature",
      "id": "9bd36aba-024f-4545-ae5b-3732ef0fa6ab",
      "geometry": null,
      "properties": {
        "kind": "SENSOR_CONTACT",
        "parent_track": "OWNSHIP",
        "time": "1900-12-12T07:42:44+00:00",
        "bearing": 25.5,
        "sensor_name": "ARRAY",
        "label": "Label"
      }
    },
    {
      "type": "Feature",
      "id": "45283e05-ca73-4421-a966-d43ab994a4a8",
      "geometry": null,
      "properties": {
        "kind": "SENSOR_CONTACT",
        "parent_track": "OWNSHIP",
        "time": "1900-12-12T07:43:22+00:00",
        "bearing": 26.5,
        "sensor_name": "ARRAY",
        "label": "Label"
      }
    },
    {
      "type": "Feature",
      "id": "431f96e5-e366-43bb-96db-a908d50ee18d",
      "geometry": null,
      "properties": {
        "kind": "SENSOR_CONTACT",
        "parent_track": "OWNSHIP",
        "time": "1900-12-12T07:44:00+00:00",
        "bearing": 26.9,
        "sensor_name": "ARRAY",
        "label": "Label"
      }
    },
    {
      "type": "Feature",
      "id": "ac2e8521-ef6c-4f59-a927-be37b7795e13",
      "geometry": null,
      "properties": {
        "kind": "SENSOR_CONTACT",
        "parent_track": "OWNSHIP",
        "time": "1900-12-12T07:44:32+00:00",
        "bearing": 27.5,
        "sensor_name": "ARRAY",
        "label": "Label"
      }
    },
    {
      "type": "Feature",
      "id": "a4b94c04-1a3d-49e8-9518-8849b7a32112",
      "geometry": null,
      "properties": {
        "kind": "SENSOR_CONTACT",
        "parent_track": "OWNSHIP",
        "time": "1900-12-12T07:45:08+00:00",
        "bearing": 28.2,
        "sensor_name": "ARRAY",
        "label": "Label"
      }
    },
    {
      "type": "Feature",
      "id": "26c84087-0dee-4d06-895a-f2ee3d757884",
      "geometry": null,
      "properties": {
        "kind": "SENSOR_CONTACT",
        "parent_track": "OWNSHIP",
        "time": "1900-12-12T07:45:44+00:00",
        "bearing": 28.5,
        "sensor_name": "ARRAY",
        "label": "Label"
      }
    },
    {
      "type": "Feature",
      "id": "cafd3b34-59de-4384-8056-1c0a57f2f15a",
      "geometry": null,
      "properties": {
        "kind": "SENSOR_CONTACT",
        "parent_track": "OWNSHIP",
        "time": "1900-12-12T07:46:18+00:00",
        "bearing": 29.2,
        "sensor_name": "ARRAY",
        "label": "Label"
      }
    },
    {
      "type": "Feature",
      "id": "ed0ab142-0dbc-4ba0-b93e-5f744df484c9",
      "geometry": null,
      "properties": {
        "kind": "SENSOR_CONTACT",
        "parent_track": "OWNSHIP",
        "time": "1900-12-12T07:46:56+00:00",
        "bearing": 29.5,
        "sensor_name": "ARRAY",
        "label": "Label"
      }
    },
    {
      "type": "Feature",
      "id": "56a9f6a7-c419-4ac8-926f-51fce956035e",
      "geometry": null,
      "properties": {
        "kind": "SENSOR_CONTACT",
        "parent_track": "OWNSHIP",
        "time": "1900-12-12T07:47:38+00:00",
        "bearing": 29.9,
        "sensor_name": "ARRAY",
        "label": "Label"
      }
    },
    {
      "type": "Feature",
      "id": "35433ec7-1c32-47d0-b235-2228c5d8148f",
      "geometry": null,
      "properties": {
        "kind": "SENSOR_CONTACT",
        "parent_track": "OWNSHIP",
        "time": "1900-12-12T07:48:12+00:00",
        "bearing": 30.2,
        "sensor_name": "ARRAY",
        "label": "Label"
      }
    },
    {
      "type": "Feature",
      "id": "3666c29c-637b-4e98-9cbb-e0ad8d931952",
      "geometry": null,
      "properties": {
        "kind": "SENSOR_CONTACT",
        "parent_track": "OWNSHIP",
        "time": "1900-12-12T07:48:52+00:00",
        "bearing": 30.9,
        "sensor_name": "ARRAY",
        "label": "Label"
      }
    },
    {
      "type": "Feature",
      "id": "55d5c21d-c4d8-4c6c-9b4d-dfeb11eb0e02",
      "geometry": null,
      "properties": {
        "kind": "SENSOR_CONTACT",
        "parent_track": "OWNSHIP",
        "time": "1900-12-12T07:49:32+00:00",
        "bearing": 31.5,
        "sensor_name": "ARRAY",
        "label": "Label"
      }
    },
    {
      "type": "Feature",
      "id": "2ead6880-aa18-4505-8e8e-8246ba0f2610",
      "geometry": null,
      "properties": {
        "kind": "SENSOR_CONTACT",
        "parent_track": "OWNSHIP",
        "time": "1900-12-12T07:50:06+00:00",
        "bearing": 31.9,
        "sensor_name": "ARRAY",
        "label": "Label"
      }
    },
    {
      "type": "Feature",
      "id": "e992bc21-afca-40f8-9161-3bbc6beb8139",
      "geometry": null,
      "properties": {
        "kind": "SENSOR_CONTACT",
        "parent_track": "OWNSHIP",
        "time": "1900-12-12T07:50:42+00:00",
        "bearing": 32.5,
        "sensor_name": "ARRAY",
        "label": "Label"
      }
    },
    {
      "type": "Feature",
      "id": "da4c1e99-3a5e-425f-accd-b366d3c851af",
      "geometry": null,
      "properties": {
        "kind": "SENSOR_CONTACT",
        "parent_track": "OWNSHIP",
        "time": "1900-12-12T07:51:18+00:00",
        "bearing": 32.5,
        "sensor_name": "ARRAY",
        "label": "Label"
      }
    },
    {
      "type": "Feature",
      "id": "585d07be-fde2-4f9e-ab37-22811c1f1614",
      "geometry": null,
      "properties": {
        "kind": "SENSOR_CONTACT",
        "parent_track": "OWNSHIP",
        "time": "1900-12-12T07:51:56+00:00",
        "bearing": 32.9,
        "sensor_name": "ARRAY",
        "label": "Label"
      }
    },
    {
      "type": "Feature",
      "id": "2b7bc04e-3c06-4e91-a9a6-9f8352f3f1f2",
      "geometry": null,
      "properties": {
        "kind": "SENSOR_CONTACT",
        "parent_track": "OWNSHIP",
        "time": "1900-12-12T07:52:38+00:00",
        "bearing": 32.9,
        "sensor_name": "ARRAY",
        "label": "Label"
      }
    },
    {
      "type": "Feature",
      "id": "393d6719-fc9b-45c7-9676-5c23ab29f8db",
      "geometry": null,
      "properties": {
        "kind": "SENSOR_CONTACT",
        "parent_track": "OWNSHIP",
        "time": "1900-12-12T07:53:22+00:00",
        "bearing": 32.9,
        "sensor_name": "ARRAY",
        "label": "Label"
      }
    },
    {
      "type": "Feature",
      "id": "462686c1-4700-4628-bac7-212b3aeae7d2",
      "geometry": null,
      "properties": {
        "kind": "SENSOR_CONTACT",
        "parent_track": "OWNSHIP",
        "time": "1900-12-12T07:53:50+00:00",
        "bearing": 32.9,
        "sensor_name": "ARRAY",
        "label": "Label"
      }
    },
    {
      "type": "Feature",
      "id": "93ae2bd2-28a1-48a6-8c54-ff782a96d396",
      "geometry": null,
      "properties": {
        "kind": "SENSOR_CONTACT",
        "parent_track": "OWNSHIP",
        "time": "1900-12-12T07:54:20+00:00",
        "bearing": 33.2,
        "sensor_name": "ARRAY",
        "label": "Label"
      }
    },
    {
      "type": "Feature",
      "id": "dcd5214e-1776-4341-8a9f-54f9030f66a7",
      "geometry": null,
      "properties": {
        "kind": "SENSOR_CONTACT",
        "parent_track": "OWNSHIP",
        "time": "1900-12-12T07:54:52+00:00",
        "bearing": 33.2,
        "sensor_name": "ARRAY",
        "label": "Label"
      }
    },
    {
      "type": "Feature",
      "id": "79569867-33f5-4024-9cdf-6f357806d142",
      "geometry": null,
      "properties": {
        "kind": "SENSOR_CONTACT",
        "parent_track": "OWNSHIP",
        "time": "1900-12-12T07:55:28+00:00",
        "bearing": 32.9,
        "sensor_name": "ARRAY",
        "label": "Label"
      }
    },
    {
      "type": "Feature",
      "id": "971e2aa6-651f-4ba9-9ebd-b562446efdf8",
      "geometry": null,
      "properties": {
        "kind": "SENSOR_CONTACT",
        "parent_track": "OWNSHIP",
        "time": "1900-12-12T07:56:02+00:00",
        "bearing": 31.9,
        "sensor_name": "ARRAY",
        "label": "Label"
      }
    },
    {
      "type": "Feature",
      "id": "5fe4693b-4c9a-4b5b-9315-58025c605abf",
      "geometry": null,
      "properties": {
        "kind": "SENSOR_CONTACT",
        "parent_track": "OWNSHIP",
        "time": "1900-12-12T07:56:26+00:00",
        "bearing": 30.2,
        "sensor_name": "ARRAY",
        "label": "Label"
      }
    },
    {
      "type": "Feature",
      "id": "1b60c2dd-4709-4041-ad5e-19b771d4b401",
      "geometry": null,
      "properties": {
        "kind": "SENSOR_CONTACT",
        "parent_track": "OWNSHIP",
        "time": "1900-12-12T07:56:48+00:00",
        "bearing": 27.5,
        "sensor_name": "ARRAY",
        "label": "Label"
      }
    },
    {
      "type": "Feature",
      "id": "dc0bb603-dd68-4ad7-a871-876ab0661fde",
      "geometry": null,
      "properties": {
        "kind": "SENSOR_CONTACT",
        "parent_track": "OWNSHIP",
        "time": "1900-12-12T07:57:14+00:00",
        "bearing": 23.9,
        "sensor_name": "ARRAY",
        "label": "Label"
      }
    },
    {
      "type": "Feature",
      "id": "32c6e08d-a658-41b7-b976-112afcdc0d28",
      "geometry": null,
      "properties": {
        "kind": "SENSOR_CONTACT",
        "parent_track": "OWNSHIP",
        "time": "1900-12-12T07:57:36+00:00",
        "bearing": 20.2,
        "sensor_name": "ARRAY",
        "label": "Label"
      }
    },
    {
      "type": "Feature",
      "id": "2003aaaf-02d0-40b1-b9c3-f68f7a8ad4ef",
      "geometry": null,
      "properties": {
        "kind": "SENSOR_CONTACT",
        "parent_track": "OWNSHIP",
        "time": "1900-12-12T07:57:58+00:00",
        "bearing": 14.8,
        "sensor_name": "ARRAY",
        "label": "Label"
      }
    },
    {
      "type": "Feature",
      "id": "89c08c83-294b-4d7e-80fa-9fd95cc6345c",
      "geometry": null,
      "properties": {
        "kind": "SENSOR_CONTACT",
        "parent_track": "OWNSHIP",
        "time": "1900-12-12T07:58:20+00:00",
        "bearing": 8.8,
        "sensor_name": "ARRAY",
        "label": "Label"
      }
    },
    {
      "type": "Feature",
      "id": "29521f94-58d5-46ed-8d59-93bfbf9f5fd1",
      "geometry": null,
      "properties": {
        "kind": "SENSOR_CONTACT",
        "parent_track": "OWNSHIP",
        "time": "1900-12-12T07:58:40+00:00",
        "bearing": 3.2,
        "sensor_name": "ARRAY",
        "label": "Label"
      }
    },
    {
      "type": "Feature",
      "id": "0cc1a3e8-5ff0-4427-96e6-742d4ebf60cf",
      "geometry": null,
      "properties": {
        "kind": "SENSOR_CONTACT",
        "parent_track": "OWNSHIP",
        "time": "1900-12-12T07:59:00+00:00",
        "bearing": 356.2,
        "sensor_name": "ARRAY",
        "label": "Label"
      }
    },
    {
      "type": "Feature",
      "id": "86a67d95-b830-4be7-8c8a-617d59cb2323",
      "geometry": null,
      "properties": {
        "kind": "SENSOR_CONTACT",
        "parent_track": "OWNSHIP",
        "time": "1900-12-12T07:59:20+00:00",
        "bearing": 350.5,
        "sensor_name": "ARRAY",
        "label": "Label"
      }
    },
    {
      "type": "Feature",
      "id": "c598e634-3c41-4bfd-89d6-8ede69074206",
      "geometry": null,
      "properties": {
        "kind": "SENSOR_CONTACT",
        "parent_track": "OWNSHIP",
        "time": "1900-12-12T07:59:30+00:00",
        "bearing": 345.2,
        "sensor_name": "ARRAY",
        "label": "Label"
      }
    },
    {
      "type": "Feature",
      "id": "fd650fba-eece-47c4-bd43-ad31a1c4fbbc",
      "geometry": null,
      "properties": {
        "kind": "SENSOR_CONTACT",
        "parent_track": "OWNSHIP",
        "time": "1900-12-12T07:59:42+00:00",
        "bearing": 340.5,
        "sensor_name": "ARRAY",
        "label": "Label"
      }
    },
    {
      "type": "Feature",
      "id": "73db8933-9879-480b-a8b1-a2a2adef3fe4",
      "geometry": null,
      "properties": {
        "kind": "SENSOR_CONTACT",
        "parent_track": "OWNSHIP",
        "time": "1900-12-12T07:59:58+00:00",
        "bearing": 335.1,
        "sensor_name": "ARRAY",
        "label": "Label"
      }
    },
    {
      "type": "Feature",
      "id": "4ab0a5c6-9aa9-425b-a2e2-68a57a917ebb",
      "geometry": null,
      "properties": {
        "kind": "SENSOR_CONTACT",
        "parent_track": "OWNSHIP",
        "time": "1900-12-12T08:00:18+00:00",
        "bearing": 328.8,
        "sensor_name": "ARRAY",
        "label": "Label"
      }
    },
    {
      "type": "Feature",
      "id": "0dbd50f4-1bab-4cc9-b853-0b2fc37439e8",
      "geometry": null,
      "properties": {
        "kind": "SENSOR_CONTACT",
        "parent_track": "OWNSHIP",
        "time": "1900-12-12T08:00:34+00:00",
        "bearing": 323.8,
        "sensor_name": "ARRAY",
        "label": "Label"
      }
    },
    {
      "type": "Feature",
      "id": "13ecfa51-e337-4e08-b3ba-ef6c77c973a9",
      "geometry": null,
      "properties": {
        "kind": "SENSOR_CONTACT",
        "parent_track": "OWNSHIP",
        "time": "1900-12-12T08:00:50+00:00",
        "bearing": 319.8,
        "sensor_name": "ARRAY",
        "label": "Label"
      }
    },
    {
      "type": "Feature",
      "id": "1bd658cf-1a13-41f2-a1af-f217d02f5bfe",
      "geometry": null,
      "properties": {
        "kind": "SENSOR_CONTACT",
        "parent_track": "OWNSHIP",
        "time": "1900-12-12T08:01:10+00:00",
        "bearing": 313.5,
        "sensor_name": "ARRAY",
        "label": "Label"
      }
    },
    {
      "type": "Feature",
      "id": "b89bdf74-8a7b-4c61-9f20-89edf1e9a2c8",
      "geometry": null,
      "properties": {
        "kind": "SENSOR_CONTACT",
        "parent_track": "OWNSHIP",
        "time": "1900-12-12T08:01:30+00:00",
        "bearing": 308.5,
        "sensor_name": "ARRAY",
        "label": "Label"
      }
    },
    {
      "type": "Feature",
      "id": "0fd419f8-9a63-478a-9c96-f1456f2b6e92",
      "geometry": null,
      "properties": {
        "kind": "SENSOR_CONTACT",
        "parent_track": "OWNSHIP",
        "time": "1900-12-12T08:01:50+00:00",
        "bearing": 304.4,
        "sensor_name": "ARRAY",
        "label": "Label"
      }
    },
    {
      "type": "Feature",
      "id": "1c1e1997-213c-40ec-8c98-c1108b806f73",
      "geometry": null,
      "properties": {
        "kind": "SENSOR_CONTACT",
        "parent_track": "OWNSHIP",
        "time": "1900-12-12T08:02:12+00:00",
        "bearing": 299.4,
        "sensor_name": "ARRAY",
        "label": "Label"
      }
    },
    {
      "type": "Feature",
      "id": "5f7e4eb4-acb6-4a97-8c92-282026f949e9",
      "geometry": null,
      "properties": {
        "kind": "SENSOR_CONTACT",
        "parent_track": "OWNSHIP",
        "time": "1900-12-12T08:02:38+00:00",
        "bearing": 293.4,
        "sensor_name": "ARRAY",
        "label": "Label"
      }
    },
    {
      "type": "Feature",
      "id": "0458bc42-bc22-4af0-b17e-80cafe6528ef",
      "geometry": null,
      "properties": {
        "kind": "SENSOR_CONTACT",
        "parent_track": "OWNSHIP",
        "time": "1900-12-12T08:03:06+00:00",
        "bearing": 287.1,
        "sensor_name": "ARRAY",
        "label": "Label"
      }
    },
    {
      "type": "Feature",
      "id": "a444a6fc-cfad-4ca9-bf0c-0f5b6359097a",
      "geometry": null,
      "properties": {
        "kind": "SENSOR_CONTACT",
        "parent_track": "OWNSHIP",
        "time": "1900-12-12T08:03:28+00:00",
        "bearing": 282.1,
        "sensor_name": "ARRAY",
        "label": "Label"
      }
    },
    {
      "type": "Feature",
      "id": "81621d96-0b3f-43cb-9c4c-18840cd51117",
      "geometry": null,
      "properties": {
        "kind": "SENSOR_CONTACT",
        "parent_track": "OWNSHIP",
        "time": "1900-12-12T08:03:50+00:00",
        "bearing": 277.1,
        "sensor_name": "ARRAY",
        "label": "Label"
      }
    },
    {
      "type": "Feature",
      "id": "587fe9f5-0fd2-461c-8287-cdde6584f2f4",
      "geometry": null,
      "properties": {
        "kind": "SENSOR_CONTACT",
        "parent_track": "OWNSHIP",
        "time": "1900-12-12T08:04:16+00:00",
        "bearing": 272.1,
        "sensor_name": "ARRAY",
        "label": "Label"
      }
    },
    {
      "type": "Feature",
      "id": "25a4fa91-1318-48c0-9ad6-ab2bbf3bde84",
      "geometry": null,
      "properties": {
        "kind": "SENSOR_CONTACT",
        "parent_track": "OWNSHIP",
        "time": "1900-12-12T08:04:36+00:00",
        "bearing": 268.1,
        "sensor_name": "ARRAY",
        "label": "Label"
      }
    },
    {
      "type": "Feature",
      "id": "d2be1021-3fec-4e3e-9c8b-449d9550bad2",
      "geometry": null,
      "properties": {
        "kind": "SENSOR_CONTACT",
        "parent_track": "OWNSHIP",
        "time": "1900-12-12T08:05:06+00:00",
        "bearing": 263.1,
        "sensor_name": "ARRAY",
        "label": "Label"
      }
    },
    {
      "type": "Feature",
      "id": "69177327-c290-41ad-847e-51d9cc21b906",
      "geometry": null,
      "properties": {
        "kind": "SENSOR_CONTACT",
        "parent_track": "OWNSHIP",
        "time": "1900-12-12T08:05:28+00:00",
        "bearing": 258.4,
        "sensor_name": "ARRAY",
        "label": "Label"
      }
    },
    {
      "type": "Feature",
      "id": "04119f59-0508-411e-ace4-2b15bf6dd86d",
      "geometry": null,
      "properties": {
        "kind": "SENSOR_CONTACT",
        "parent_track": "OWNSHIP",
        "time": "1900-12-12T08:05:56+00:00",
        "bearing": 255.1,
        "sensor_name": "ARRAY",
        "label": "Label"
      }
    },
    {
      "type": "Feature",
      "id": "03ac5b2f-a3ea-46c8-9585-7e267ed98b52",
      "geometry": null,
      "properties": {
        "kind": "SENSOR_CONTACT",
        "parent_track": "OWNSHIP",
        "time": "1900-12-12T08:06:22+00:00",
        "bearing": 252.1,
        "sensor_name": "ARRAY",
        "label": "Label"
      }
    },
    {
      "type": "Feature",
      "id": "602d11e1-0882-41a2-a570-0dc96683d0fa",
      "geometry": null,
      "properties": {
        "kind": "SENSOR_CONTACT",
        "parent_track": "OWNSHIP",
        "time": "1900-12-12T08:06:52+00:00",
        "bearing": 248.4,
        "sensor_name": "ARRAY",
        "label": "Label"
      }
    },
    {
      "type": "Feature",
      "id": "620dd3fa-ebca-41de-bcca-1fe704feffed",
      "geometry": null,
      "properties": {
        "kind": "SENSOR_CONTACT",
        "parent_track": "OWNSHIP",
        "time": "1900-12-12T08:07:22+00:00",
        "bearing": 245.1,
        "sensor_name": "ARRAY",
        "label": "Label"
      }
    },
    {
      "type": "Feature",
      "id": "d42334ab-573b-497f-80b1-a6c0135551b4",
      "geometry": null,
      "properties": {
        "kind": "SENSOR_CONTACT",
        "parent_track": "OWNSHIP",
        "time": "1900-12-12T08:07:56+00:00",
        "bearing": 242.4,
        "sensor_name": "ARRAY",
        "label": "Label"
      }
    },
    {
      "type": "Feature",
      "id": "907059c2-f613-47f1-adb9-9f05c82097d8",
      "geometry": null,
      "properties": {
        "kind": "SENSOR_CONTACT",
        "parent_track": "OWNSHIP",
        "time": "1900-12-12T08:08:28+00:00",
        "bearing": 239.7,
        "sensor_name": "ARRAY",
        "label": "Label"
      }
    },
    {
      "type": "Feature",
      "id": "d85606a3-40dc-4dad-b005-446ed30f6b0e",
      "geometry": null,
      "properties": {
        "kind": "SENSOR_CONTACT",
        "parent_track": "OWNSHIP",
        "time": "1900-12-12T08:08:54+00:00",
        "bearing": 237.7,
        "sensor_name": "ARRAY",
        "label": "Label"
      }
    },
    {
      "type": "Feature",
      "id": "0f6d2c27-ec14-48d3-b703-316539a160cf",
      "geometry": null,
      "properties": {
        "kind": "SENSOR_CONTACT",
        "parent_track": "OWNSHIP",
        "time": "1900-12-12T08:09:22+00:00",
        "bearing": 236.7,
        "sensor_name": "ARRAY",
        "label": "Label"
      }
    },
    {
      "type": "Feature",
      "id": "f8423f02-e864-4a75-8d02-4c6c9bbb76cf",
      "geometry": null,
      "properties": {
        "kind": "SENSOR_CONTACT",
        "parent_track": "OWNSHIP",
        "time": "1900-12-12T08:09:54+00:00",
        "bearing": 236.7,
        "sensor_name": "ARRAY",
        "label": "Label"
      }
    },
    {
      "type": "Feature",
      "id": "82bb9087-27da-4a8f-86c0-f187ebc255bd",
      "geometry": null,
      "properties": {
        "kind": "SENSOR_CONTACT",
        "parent_track": "OWNSHIP",
        "time": "1900-12-12T08:10:32+00:00",
        "bearing": 236.7,
        "sensor_name": "ARRAY",
        "label": "Label"
      }
    },
    {
      "type": "Feature",
      "id": "2f75db8f-9b6a-4dac-b30e-5fcea2fb7f73",
      "geometry": null,
      "properties": {
        "kind": "SENSOR_CONTACT",
        "parent_track": "OWNSHIP",
        "time": "1900-12-12T08:11:14+00:00",
        "bearing": 236.7,
        "sensor_name": "ARRAY",
        "label": "Label"
      }
    },
    {
      "type": "Feature",
      "id": "916dd35d-e030-422f-b8db-c9a19e5408a4",
      "geometry": null,
      "properties": {
        "kind": "SENSOR_CONTACT",
        "parent_track": "OWNSHIP",
        "time": "1900-12-12T08:11:50+00:00",
        "bearing": 237.7,
        "sensor_name": "ARRAY",
        "label": "Label"
      }
    },
    {
      "type": "Feature",
      "id": "bce6848b-19df-49b9-a434-28b30e2c7f74",
      "geometry": null,
      "properties": {
        "kind": "SENSOR_CONTACT",
        "parent_track": "OWNSHIP",
        "time": "1900-12-12T08:12:32+00:00",
        "bearing": 239.1,
        "sensor_name": "ARRAY",
        "label": "Label"
      }
    },
    {
      "type": "Feature",
      "id": "b7ecd7b8-0c48-45e5-a1b7-8e0fe1491303",
      "geometry": null,
      "properties": {
        "kind": "SENSOR_CONTACT",
        "parent_track": "OWNSHIP",
        "time": "1900-12-12T08:13:18+00:00",
        "bearing": 241.1,
        "sensor_name": "ARRAY",
        "label": "Label"
      }
    },
    {
      "type": "Feature",
      "id": "80a51a30-5d1a-4849-86b5-4cd8ad14cc42",
      "geometry": null,
      "properties": {
        "kind": "SENSOR_CONTACT",
        "parent_track": "OWNSHIP",
        "time": "1900-12-12T08:13:58+00:00",
        "bearing": 241.7,
        "sensor_name": "ARRAY",
        "label": "Label"
      }
    },
    {
      "type": "Feature",
      "id": "293cc737-2120-4004-ba77-1386e1dd80ad",
      "geometry": null,
      "properties": {
        "kind": "SENSOR_CONTACT",
        "parent_track": "OWNSHIP",
        "time": "1900-12-12T08:14:34+00:00",
        "bearing": 243.1,
        "sensor_name": "ARRAY",
        "label": "Label"
      }
    },
    {
      "type": "Feature",
      "id": "b8e59591-1d00-4d84-b05a-dc374c5cb158",
      "geometry": null,
      "properties": {
        "kind": "SENSOR_CONTACT",
        "parent_track": "OWNSHIP",
        "time": "1900-12-12T08:15:18+00:00",
        "bearing": 243.7,
        "sensor_name": "ARRAY",
        "label": "Label"
      }
    },
    {
      "type": "Feature",
      "id": "7f1faffa-5e8f-4c6f-be54-29ea4e77ad48",
      "geometry": null,
      "properties": {
        "kind": "SENSOR_CONTACT",
        "parent_track": "OWNSHIP",
        "time": "1900-12-12T08:16:00+00:00",
        "bearing": 244.7,
        "sensor_name": "ARRAY",
        "label": "Label"
      }
    },
    {
      "type": "Feature",
      "id": "d3b5f390-dc1c-4166-b314-120ca1d16433",
      "geometry": null,
      "properties": {
        "kind": "SENSOR_CONTACT",
        "parent_track": "OWNSHIP",
        "time": "1900-12-12T08:16:40+00:00",
        "bearing": 245.7,
        "sensor_name": "ARRAY",
        "label": "Label"
      }
    },
    {
      "type": "Feature",
      "id": "8c2fbd38-99ca-4489-84eb-79c06b5fcebb",
      "geometry": null,
      "properties": {
        "kind": "SENSOR_CONTACT",
        "parent_track": "OWNSHIP",
        "time": "1900-12-12T08:17:16+00:00",
        "bearing": 246.7,
        "sensor_name": "ARRAY",
        "label": "Label"
      }
    },
    {
      "type": "Feature",
      "id": "0f158c74-45c3-46b1-be35-403dc8d7393c",
      "geometry": null,
      "properties": {
        "kind": "SENSOR_CONTACT",
        "parent_track": "OWNSHIP",
        "time": "1900-12-12T08:17:56+00:00",
        "bearing": 248.1,
        "sensor_name": "ARRAY",
        "label": "Label"
      }
    },
    {
      "type": "Feature",
      "id": "139fd732-2596-49e0-993a-33c49dd154e3",
      "geometry": null,
      "properties": {
        "kind": "SENSOR_CONTACT",
        "parent_track": "OWNSHIP",
        "time": "1900-12-12T08:18:38+00:00",
        "bearing": 249.1,
        "sensor_name": "ARRAY",
        "label": "Label"
      }
    },
    {
      "type": "Feature",
      "id": "9fef55d1-3926-4ce6-96e1-74e1b197c93b",
      "geometry": null,
      "properties": {
        "kind": "SENSOR_CONTACT",
        "parent_track": "OWNSHIP",
        "time": "1900-12-12T08:19:24+00:00",
        "bearing": 249.7,
        "sensor_name": "ARRAY",
        "label": "Label"
      }
    },
    {
      "type": "Feature",
      "id": "a6415e68-643a-4e42-9b57-82c076a432d4",
      "geometry": null,
      "properties": {
        "kind": "SENSOR_CONTACT",
        "parent_track": "OWNSHIP",
        "time": "1900-12-12T08:20:08+00:00",
        "bearing": 250.7,
        "sensor_name": "ARRAY",
        "label": "Label"
      }
    },
    {
      "type": "Feature",
      "id": "8969d4fa-131e-40d2-9137-d8451a2ff477",
      "geometry": null,
      "properties": {
        "kind": "SENSOR_CONTACT",
        "parent_track": "OWNSHIP",
        "time": "1900-12-12T08:20:46+00:00",
        "bearing": 251.4,
        "sensor_name": "ARRAY",
        "label": "Label"
      }
    },
    {
      "type": "Feature",
      "id": "3c7bf7e5-0ab2-409d-bb76-a2f0b43e922d",
      "geometry": null,
      "properties": {
        "kind": "SENSOR_CONTACT",
        "parent_track": "OWNSHIP",
        "time": "1900-12-12T08:21:44+00:00",
        "bearing": 252.4,
        "sensor_name": "ARRAY",
        "label": "Label"
      }
    },
    {
      "type": "Feature",
      "id": "ad28ba47-48a8-429f-b4fa-6be4d954877b",
      "geometry": null,
      "properties": {
        "kind": "SENSOR_CONTACT",
        "parent_track": "OWNSHIP",
        "time": "1900-12-12T08:22:20+00:00",
        "bearing": 253.4,
        "sensor_name": "ARRAY",
        "label": "Label"
      }
    },
    {
      "type": "Feature",
      "id": "f803499e-9c9d-4230-b712-dd8af646766f",
      "geometry": null,
      "properties": {
        "kind": "SENSOR_CONTACT",
        "parent_track": "OWNSHIP",
        "time": "1900-12-12T08:23:02+00:00",
        "bearing": 254.4,
        "sensor_name": "ARRAY",
        "label": "Label"
      }
    },
    {
      "type": "Feature",
      "id": "5c8a6330-ed91-425d-be43-83609f9a3745",
      "geometry": null,
      "properties": {
        "kind": "SENSOR_CONTACT",
        "parent_track": "OWNSHIP",
        "time": "1900-12-12T08:23:38+00:00",
        "bearing": 255.1,
        "sensor_name": "ARRAY",
        "label": "Label"
      }
    },
    {
      "type": "Feature",
      "id": "2f9002b3-645c-424f-acbc-4a2aa2c9c499",
      "geometry": null,
      "properties": {
        "kind": "SENSOR_CONTACT",
        "parent_track": "OWNSHIP",
        "time": "1900-12-12T08:24:12+00:00",
        "bearing": 255.7,
        "sensor_name": "ARRAY",
        "label": "Label"
      }
    },
    {
      "type": "Feature",
      "id": "93aa43ea-1e7f-465a-b427-a0905470a956",
      "geometry": null,
      "properties": {
        "kind": "SENSOR_CONTACT",
        "parent_track": "OWNSHIP",
        "time": "1900-12-12T08:24:48+00:00",
        "bearing": 256.4,
        "sensor_name": "ARRAY",
        "label": "Label"
      }
    },
    {
      "type": "Feature",
      "id": "30c0b0f3-2027-4c87-b131-2773b2daac37",
      "geometry": null,
      "properties": {
        "kind": "SENSOR_CONTACT",
        "parent_track": "OWNSHIP",
        "time": "1900-12-12T08:25:26+00:00",
        "bearing": 257.7,
        "sensor_name": "ARRAY",
        "label": "Label"
      }
    },
    {
      "type": "Feature",
      "id": "8899691c-01cf-449c-adc7-52bc638f7f7b",
      "geometry": null,
      "properties": {
        "kind": "SENSOR_CONTACT",
        "parent_track": "OWNSHIP",
        "time": "1900-12-12T08:26:06+00:00",
        "bearing": 259.1,
        "sensor_name": "ARRAY",
        "label": "Label"
      }
    },
    {
      "type": "Feature",
      "id": "a431c3fa-9a73-49c3-a135-5c0b1aff3031",
      "geometry": null,
      "properties": {
        "kind": "SENSOR_CONTACT",
        "parent_track": "OWNSHIP",
        "time": "1900-12-12T08:26:46+00:00",
        "bearing": 260.1,
        "sensor_name": "ARRAY",
        "label": "Label"
      }
    },
    {
      "type": "Feature",
      "id": "8966a2f0-3294-432b-a03c-ab5eee0a4dfa",
      "geometry": null,
      "properties": {
        "kind": "SENSOR_CONTACT",
        "parent_track": "OWNSHIP",
        "time": "1900-12-12T08:27:32+00:00",
        "bearing": 262.1,
        "sensor_name": "ARRAY",
        "label": "Label"
      }
    },
    {
      "type": "Feature",
      "id": "aab985b6-630f-4ba0-a2eb-867cf7fa28c2",
      "geometry": null,
      "properties": {
        "kind": "SENSOR_CONTACT",
        "parent_track": "OWNSHIP",
        "time": "1900-12-12T08:28:14+00:00",
        "bearing": 263.4,
        "sensor_name": "ARRAY",
        "label": "Label"
      }
    },
    {
      "type": "Feature",
      "id": "1a047e41-a102-412a-9484-718e8e15be20",
      "geometry": null,
      "properties": {
        "kind": "SENSOR_CONTACT",
        "parent_track": "OWNSHIP",
        "time": "1900-12-12T08:28:58+00:00",
        "bearing": 264.7,
        "sensor_name": "ARRAY",
        "label": "Label"
      }
    },
    {
      "type": "Feature",
      "id": "97dfd7c9-4da6-4a76-9448-a7fff73ba800",
      "geometry": null,
      "properties": {
        "kind": "SENSOR_CONTACT",
        "parent_track": "OWNSHIP",
        "time": "1900-12-12T08:29:42+00:00",
        "bearing": 267.1,
        "sensor_name": "ARRAY",
        "label": "Label"
      }
    },
    {
      "type": "Feature",
      "id": "e20bcf7c-09d9-4648-9901-d08742b7bbb0",
      "geometry": null,
      "properties": {
        "kind": "SENSOR_CONTACT",
        "parent_track": "OWNSHIP",
        "time": "1900-12-12T08:30:30+00:00",
        "bearing": 268.1,
        "sensor_name": "ARRAY",
        "label": "Label"
      }
    }
  ]
}