{
  "type": "FeatureCollection",
  "features": [
    {
      "type": "Feature",
      "id": "215e72a7-da48-4fee-b0e2-6b94b94639b1",
      "geometry": {
        "type": "LineString",
        "coordinates": [
          [
            51.38124722222222,
            26.437475
          ],
          [
            51.38315,
            26.434608333333333
          ],
          [
            51.38505,
            26.431744444444444
          ],
          [
            51.38695277777778,
            26.428877777777778
          ],
          [
            51.38885555555556,
            26.42601388888889
          ],
          [
            51.39075833333333,
            26.423147222222223
          ],
          [
            51.39266111111111,
            26.420280555555557
          ],
          [
            51.39456111111111,
            26.417416666666668
          ],
          [
            51.39646388888889,
            26.41455
          ],
          [
            51.39836666666667,
            26.41168611111111
          ],
          [
            51.39881666666667,
            26.40256388888889
          ],
          [
            51.40071666666667,
            26.3997
          ],
          [
            51.40261944444444,
            26.396833333333333
          ],
          [
            51.404519444444446,
            26.393969444444444
          ],
          [
            51.40642222222222,
            26.39110277777778
          ],
          [
            51.40832222222222,
            26.38823888888889
          ],
          [
            51.410225,
            26.385372222222223
          ],
          [
            51.412124999999996,
            26.382508333333334
          ],
          [
            51.414027777777775,
            26.379641666666668
          ],
          [
            51.415927777777775,
            26.37677777777778
          ],
          [
            51.417830555555554,
            26.373911111111113
          ],
          [
            51.41973055555555,
            26.371047222222224
          ],
          [
            51.42163055555555,
            26.368180555555558
          ],
          [
            51.42353333333333,
            26.36531666666667
          ],
          [
            51.42543333333333,
            26.362450000000003
          ],
          [
            51.42733333333333,
            26.359586111111113
          ],
          [
            51.42923611111111,
            26.356719444444447
          ],
          [
            51.43113611111111,
            26.35385555555556
          ],
          [
            51.43303611111111,
            26.35098888888889
          ],
          [
            51.43493888888889,
            26.34812222222222
          ],
          [
            51.436838888888886,
            26.345258333333334
          ],
          [
            51.438738888888885,
            26.342391666666664
          ],
          [
            51.440638888888884,
            26.339527777777775
          ],
          [
            51.44253888888888,
            26.33666111111111
          ],
          [
            51.44444166666666,
            26.33379722222222
          ],
          [
            51.44634166666666,
            26.330930555555554
          ],
          [
            51.44824166666666,
            26.328066666666665
          ],
          [
            51.45014166666667,
            26.3252
          ],
          [
            51.452041666666666,
            26.32233611111111
          ],
          [
            51.45394166666667,
            26.319469444444444
          ],
          [
            51.45584166666667,
            26.316605555555558
          ],
          [
            51.45774166666667,
            26.31373888888889
          ],
          [
            51.45964166666667,
            26.310875
          ],
          [
            51.46154166666667,
            26.308008333333333
          ],
          [
            51.46344166666667,
            26.305144444444444
          ],
          [
            51.46534166666667,
            26.30227777777778
          ],
          [
            51.467241666666666,
            26.29941388888889
          ],
          [
            51.469141666666665,
            26.296547222222223
          ],
          [
            51.47104166666667,
            26.293683333333334
          ],
          [
            51.47294166666667,
            26.290816666666668
          ],
          [
            51.47484166666667,
            26.28795277777778
          ],
          [
            51.47674166666667,
            26.285086111111113
          ],
          [
            51.47864166666667,
            26.28222222222222
          ],
          [
            51.48054166666667,
            26.279355555555554
          ],
          [
            51.482441666666666,
            26.276491666666665
          ],
          [
            51.48433888888889,
            26.273625
          ],
          [
            51.48623888888889,
            26.27076111111111
          ],
          [
            51.48813888888889,
            26.267894444444444
          ],
          [
            51.49003888888889,
            26.265030555555555
          ],
          [
            51.49193888888889,
            26.26216388888889
          ],
          [
            51.493836111111115,
            26.259297222222223
          ],
          [
            51.495736111111114,
            26.256433333333334
          ],
          [
            51.49763611111111,
            26.253566666666668
          ],
          [
            51.500302777777776,
            26.251297222222224
          ],
          [
            51.50341111111111,
            26.24948888888889
          ],
          [
            51.506658333333334,
            26.247866666666667
          ],
          [
            51.509902777777775,
            26.246241666666666
          ],
          [
            51.51315,
            26.244619444444446
          ],
          [
            51.516394444444444,
            26.242994444444445
          ],
          [
            51.519641666666665,
            26.241372222222225
          ],
          [
            51.52288611111111,
            26.239747222222224
          ],
          [
            51.526133333333334,
            26.238125
          ],
          [
            51.529377777777775,
            26.23650277777778
          ],
          [
            51.532624999999996,
            26.23487777777778
          ],
          [
            51.535869444444444,
            26.233255555555555
          ],
          [
            51.539116666666665,
            26.231630555555554
          ],
          [
            51.542361111111106,
            26.23000833333333
          ],
          [
            51.545605555555554,
            26.228383333333333
          ],
          [
            51.548852777777775,
            26.22676111111111
          ],
          [
            51.55209722222222,
            26.22513611111111
          ],
          [
            51.55534166666666,
            26.22351388888889
          ],
          [
            51.558588888888885,
            26.221891666666664
          ],
          [
            51.56183333333333,
            26.220266666666664
          ],
          [
            51.56507777777777,
            26.218644444444443
          ],
          [
            51.56832222222223,
            26.217019444444443
          ],
          [
            51.57156944444445,
            26.215397222222222
          ],
          [
            51.57481388888889,
            26.21377222222222
          ],
          [
            51.57805833333334,
            26.212149999999998
          ],
          [
            51.58130277777778,
            26.210527777777777
          ],
          [
            51.58454722222223,
            26.208902777777777
          ],
          [
            51.58779444444445,
            26.207280555555556
          ],
          [
            51.59103888888889,
            26.205655555555555
          ],
          [
            51.59428333333334,
            26.20403333333333
          ],
          [
            51.59752777777778,
            26.20240833333333
          ],
          [
            51.600772222222226,
            26.20078611111111
          ],
          [
            51.604016666666666,
            26.19916388888889
          ],
          [
            51.607261111111114,
            26.19753888888889
          ],
          [
            51.610505555555555,
            26.195916666666665
          ],
          [
            51.61375,
            26.19429166666667
          ],
          [
            51.616994444444444,
            26.192669444444444
          ],
          [
            51.62023888888889,
            26.191044444444444
          ],
          [
            51.62348333333333,
            26.189422222222223
          ],
          [
            51.62672777777778,
            26.187797222222223
          ],
          [
            51.62997222222222,
            26.186175
          ],
          [
            51.63321666666667,
            26.167886111111113
          ],
          [
            51.619794444444445,
            26.199594444444443
          ],
          [
            51.62303888888889,
            26.197972222222223
          ],
          [
            51.62628333333333,
            26.196347222222222
          ],
          [
            51.62952777777778,
            26.194725000000002
          ],
          [
            51.63276944444444,
            26.1931
          ],
          [
            51.63601388888889,
            26.191477777777777
          ],
          [
            51.63925833333333,
            26.189855555555557
          ],
          [
            51.64250277777778,
            26.188230555555556
          ],
          [
            51.64574722222222,
            26.186608333333332
          ],
          [
            51.64898888888889,
            26.184983333333335
          ],
          [
            51.6689,
            26.166694444444445
          ],
          [
            51.67214444444444,
            26.165069444444445
          ],
          [
            51.67538888888889,
            26.16344722222222
          ],
          [
            51.67863055555555,
            26.16182222222222
          ],
          [
            51.681875,
            26.1602
          ],
          [
            51.68511944444444,
            26.158577777777776
          ],
          [
            51.68836111111111,
            26.156952777777775
          ],
          [
            51.691605555555554,
            26.155330555555555
          ],
          [
            51.694849999999995,
            26.153705555555554
          ],
          [
            51.69809166666666,
            26.152083333333334
          ],
          [
            51.70133611111111,
            26.150458333333333
          ],
          [
            51.70457777777778,
            26.14883611111111
          ],
          [
            51.70782222222223,
            26.14721388888889
          ],
          [
            51.711063888888894,
            26.145588888888888
          ],
          [
            51.714308333333335,
            26.143966666666667
          ],
          [
            51.71755,
            26.142341666666667
          ],
          [
            51.720794444444444,
            26.140719444444443
          ],
          [
            51.72403611111111,
            26.139094444444446
          ],
          [
            51.72728055555556,
            26.13747222222222
          ],
          [
            51.73052222222223,
            26.135849999999998
          ],
          [
            51.73376666666667,
            26.134225
          ],
          [
            51.737008333333335,
            26.132602777777777
          ],
          [
            51.74025,
            26.13097777777778
          ],
          [
            51.743494444444444,
            26.129355555555556
          ],
          [
            51.74673611111111,
            26.127730555555555
          ],
          [
            51.74997777777778,
            26.126108333333335
          ],
          [
            51.75322222222222,
            26.124483333333334
          ],
          [
            51.75646388888889,
            26.12286111111111
          ],
          [
            51.759705555555556,
            26.12123888888889
          ],
          [
            51.76295,
            26.11961388888889
          ],
          [
            51.766191666666664,
            26.11799166666667
          ],
          [
            51.76943333333333,
            26.116366666666668
          ],
          [
            51.772675,
            26.114744444444447
          ],
          [
            51.77591944444444,
            26.113119444444447
          ],
          [
            51.77916111111111,
            26.111497222222223
          ],
          [
            51.782402777777776,
            26.109875000000002
          ],
          [
            51.78564444444444,
            26.10825
          ],
          [
            51.78888611111111,
            26.106627777777778
          ],
          [
            51.79212777777778,
            26.10500277777778
          ],
          [
            51.79537222222222,
            26.103380555555557
          ],
          [
            51.79861388888889,
            26.101755555555556
          ]
        ]
      },
      "properties": {
        "kind": "TRACK",
        "platform_id": "Frigate",
        "platform_name": "Frigate",
        "track_type": "CONTACT",
        "start_time": "1970-01-03T01:34:25+00:00",
        "end_time": "1970-01-03T04:17:25+00:00",
        "positions": [
          {
            "time": "1970-01-03T01:34:25+00:00",
            "course": 149.3,
            "speed": 12.0,
            "depth": 0.0
          },
          {
            "time": "1970-01-03T01:35:25+00:00",
            "course": 149.3,
            "speed": 12.0,
            "depth": 0.0
          },
          {
            "time": "1970-01-03T01:36:25+00:00",
            "course": 149.3,
            "speed": 12.0,
            "depth": 0.0
          },
          {
            "time": "1970-01-03T01:37:25+00:00",
            "course": 149.3,
            "speed": 12.0,
            "depth": 0.0
          },
          {
            "time": "1970-01-03T01:38:25+00:00",
            "course": 149.3,
            "speed": 12.0,
            "depth": 0.0
          },
          {
            "time": "1970-01-03T01:39:25+00:00",
            "course": 149.3,
            "speed": 12.0,
            "depth": 0.0
          },
          {
            "time": "1970-01-03T01:40:25+00:00",
            "course": 149.3,
            "speed": 12.0,
            "depth": 0.0
          },
          {
            "time": "1970-01-03T01:41:25+00:00",
            "course": 149.3,
            "speed": 12.0,
            "depth": 0.0
          },
          {
            "time": "1970-01-03T01:42:25+00:00",
            "course": 149.3,
            "speed": 12.0,
            "depth": 0.0
          },
          {
            "time": "1970-01-03T01:43:25+00:00",
            "course": 149.3,
            "speed": 12.0,
            "depth": 0.0
          },
          {
            "time": "1970-01-03T01:52:25+00:00",
            "course": 149.3,
            "speed": 12.0,
            "depth": 0.0
          },
          {
            "time": "1970-01-03T01:53:25+00:00",
            "course": 149.3,
            "speed": 12.0,
            "depth": 0.0
          },
          {
            "time": "1970-01-03T01:54:25+00:00",
            "course": 149.3,
            "speed": 12.0,
            "depth": 0.0
          },
          {
            "time": "1970-01-03T01:55:25+00:00",
            "course": 149.3,
            "speed": 12.0,
            "depth": 0.0
          },
          {
            "time": "1970-01-03T01:56:25+00:00",
            "course": 149.3,
            "speed": 12.0,
            "depth": 0.0
          },
          {
            "time": "1970-01-03T01:57:25+00:00",
            "course": 149.3,
            "speed": 12.0,
            "depth": 0.0
          },
          {
            "time": "1970-01-03T01:58:25+00:00",
            "course": 149.3,
            "speed": 12.0,
            "depth": 0.0
          },
          {
            "time": "1970-01-03T01:59:25+00:00",
            "course": 149.3,
            "speed": 12.0,
            "depth": 0.0
          },
          {
            "time": "1970-01-03T02:00:25+00:00",
            "course": 149.3,
            "speed": 12.0,
            "depth": 0.0
          },
          {
            "time": "1970-01-03T02:01:25+00:00",
            "course": 149.3,
            "speed": 12.0,
            "depth": 0.0
          },
          {
            "time": "1970-01-03T02:02:25+00:00",
            "course": 149.3,
            "speed": 12.0,
            "depth": 0.0
          },
          {
            "time": "1970-01-03T02:03:25+00:00",
            "course": 149.3,
            "speed": 12.0,
            "depth": 0.0
          },
          {
            "time": "1970-01-03T02:04:25+00:00",
            "course": 149.3,
            "speed": 12.0,
            "depth": 0.0
          },
          {
            "time": "1970-01-03T02:05:25+00:00",
            "course": 149.3,
            "speed": 12.0,
            "depth": 0.0
          },
          {
            "time": "1970-01-03T02:06:25+00:00",
            "course": 149.3,
            "speed": 12.0,
            "depth": 0.0
          },
          {
            "time": "1970-01-03T02:07:25+00:00",
            "course": 149.3,
            "speed": 12.0,
            "depth": 0.0
          },
          {
            "time": "1970-01-03T02:08:25+00:00",
            "course": 149.3,
            "speed": 12.0,
            "depth": 0.0
          },
          {
            "time": "1970-01-03T02:09:25+00:00",
            "course": 149.3,
            "speed": 12.0,
            "depth": 0.0
          },
          {
            "time": "1970-01-03T02:10:25+00:00",
            "course": 149.3,
            "speed": 12.0,
            "depth": 0.0
          },
          {
            "time": "1970-01-03T02:11:25+00:00",
            "course": 149.3,
            "speed": 12.0,
            "depth": 0.0
          },
          {
            "time": "1970-01-03T02:12:25+00:00",
            "course": 149.3,
            "speed": 12.0,
            "depth": 0.0
          },
          {
            "time": "1970-01-03T02:13:25+00:00",
            "course": 149.3,
            "speed": 12.0,
            "depth": 0.0
          },
          {
            "time": "1970-01-03T02:14:25+00:00",
            "course": 149.3,
            "speed": 12.0,
            "depth": 0.0
          },
          {
            "time": "1970-01-03T02:15:25+00:00",
            "course": 149.3,
            "speed": 12.0,
            "depth": 0.0
          },
          {
            "time": "1970-01-03T02:16:25+00:00",
            "course": 149.3,
            "speed": 12.0,
            "depth": 0.0
          },
          {
            "time": "1970-01-03T02:17:25+00:00",
            "course": 149.3,
            "speed": 12.0,
            "depth": 0.0
          },
          {
            "time": "1970-01-03T02:18:25+00:00",
            "course": 149.3,
            "speed": 12.0,
            "depth": 0.0
          },
          {
            "time": "1970-01-03T02:19:25+00:00",
            "course": 149.3,
            "speed": 12.0,
            "depth": 0.0
          },
          {
            "time": "1970-01-03T02:20:25+00:00",
            "course": 149.3,
            "speed": 12.0,
            "depth": 0.0
          },
          {
            "time": "1970-01-03T02:21:25+00:00",
            "course": 149.3,
            "speed": 12.0,
            "depth": 0.0
          },
          {
            "time": "1970-01-03T02:22:25+00:00",
            "course": 149.3,
            "speed": 12.0,
            "depth": 0.0
          },
          {
            "time": "1970-01-03T02:23:25+00:00",
            "course": 149.3,
            "speed": 12.0,
            "depth": 0.0
          },
          {
            "time": "1970-01-03T02:24:25+00:00",
            "course": 149.3,
            "speed": 12.0,
            "depth": 0.0
          },
          {
            "time": "1970-01-03T02:25:25+00:00",
            "course": 149.3,
            "speed": 12.0,
            "depth": 0.0
          },
          {
            "time": "1970-01-03T02:26:25+00:00",
            "course": 149.3,
            "speed": 12.0,
            "depth": 0.0
          },
          {
            "time": "1970-01-03T02:27:25+00:00",
            "course": 149.3,
            "speed": 12.0,
            "depth": 0.0
          },
          {
            "time": "1970-01-03T02:28:25+00:00",
            "course": 149.3,
            "speed": 12.0,
            "depth": 0.0
          },
          {
            "time": "1970-01-03T02:29:25+00:00",
            "course": 149.3,
            "speed": 12.0,
            "depth": 0.0
          },
          {
            "time": "1970-01-03T02:30:25+00:00",
            "course": 149.3,
            "speed": 12.0,
            "depth": 0.0
          },
          {
            "time": "1970-01-03T02:31:25+00:00",
            "course": 149.3,
            "speed": 12.0,
            "depth": 0.0
          },
          {
            "time": "1970-01-03T02:32:25+00:00",
            "course": 149.3,
            "speed": 12.0,
            "depth": 0.0
          },
          {
            "time": "1970-01-03T02:33:25+00:00",
            "course": 149.3,
            "speed": 12.0,
            "depth": 0.0
          },
          {
            "time": "1970-01-03T02:34:25+00:00",
            "course": 149.3,
            "speed": 12.0,
            "depth": 0.0
          },
          {
            "time": "1970-01-03T02:35:25+00:00",
            "course": 149.3,
            "speed": 12.0,
            "depth": 0.0
          },
          {
            "time": "1970-01-03T02:36:25+00:00",
            "course": 149.3,
            "speed": 12.0,
            "depth": 0.0
          },
          {
            "time": "1970-01-03T02:37:25+00:00",
            "course": 149.3,
            "speed": 12.0,
            "depth": 0.0
          },
          {
            "time": "1970-01-03T02:38:25+00:00",
            "course": 149.3,
            "speed": 12.0,
            "depth": 0.0
          },
          {
            "time": "1970-01-03T02:39:25+00:00",
            "course": 149.3,
            "speed": 12.0,
            "depth": 0.0
          },
          {
            "time": "1970-01-03T02:40:25+00:00",
            "course": 149.3,
            "speed": 12.0,
            "depth": 0.0
          },
          {
            "time": "1970-01-03T02:41:25+00:00",
            "course": 149.3,
            "speed": 12.0,
            "depth": 0.0
          },
          {
            "time": "1970-01-03T02:42:25+00:00",
            "course": 149.3,
            "speed": 12.0,
            "depth": 0.0
          },
          {
            "time": "1970-01-03T02:43:25+00:00",
            "course": 149.3,
            "speed": 12.0,
            "depth": 0.0
          },
          {
            "time": "1970-01-03T02:44:25+00:00",
            "course": 149.3,
            "speed": 12.0,
            "depth": 0.0
          },
          {
            "time": "1970-01-03T02:45:25+00:00",
            "course": 129.2,
            "speed": 12.0,
            "depth": 0.0
          },
          {
            "time": "1970-01-03T02:46:25+00:00",
            "course": 122.5,
            "speed": 12.0,
            "depth": 0.0
          },
          {
            "time": "1970-01-03T02:47:25+00:00",
            "course": 119.1,
            "speed": 12.0,
            "depth": 0.0
          },
          {
            "time": "1970-01-03T02:48:25+00:00",
            "course": 119.1,
            "speed": 12.0,
            "depth": 0.0
          },
          {
            "time": "1970-01-03T02:49:25+00:00",
            "course": 119.1,
            "speed": 12.0,
            "depth": 0.0
          },
          {
            "time": "1970-01-03T02:50:25+00:00",
            "course": 119.1,
            "speed": 12.0,
            "depth": 0.0
          },
          {
            "time": "1970-01-03T02:51:25+00:00",
            "course": 119.1,
            "speed": 12.0,
            "depth": 0.0
          },
          {
            "time": "1970-01-03T02:52:25+00:00",
            "course": 119.1,
            "speed": 12.0,
            "depth": 0.0
          },
          {
            "time": "1970-01-03T02:53:25+00:00",
            "course": 119.1,
            "speed": 12.0,
            "depth": 0.0
          },
          {
            "time": "1970-01-03T02:54:25+00:00",
            "course": 119.1,
            "speed": 12.0,
            "depth": 0.0
          },
          {
            "time": "1970-01-03T02:55:25+00:00",
            "course": 119.1,
            "speed": 12.0,
            "depth": 0.0
          },
          {
            "time": "1970-01-03T02:56:25+00:00",
            "course": 119.1,
            "speed": 12.0,
            "depth": 0.0
          },
          {
            "time": "1970-01-03T02:57:25+00:00",
            "course": 119.1,
            "speed": 12.0,
            "depth": 0.0
          },
          {
            "time": "1970-01-03T02:58:25+00:00",
            "course": 119.1,
            "speed": 12.0,
            "depth": 0.0
          },
          {
            "time": "1970-01-03T02:59:25+00:00",
            "course": 119.1,
            "speed": 12.0,
            "depth": 0.0
          },
          {
            "time": "1970-01-03T03:00:25+00:00",
            "course": 119.1,
            "speed": 12.0,
            "depth": 0.0
          },
          {
            "time": "1970-01-03T03:01:25+00:00",
            "course": 119.1,
            "speed": 12.0,
            "depth": 0.0
          },
          {
            "time": "1970-01-03T03:02:25+00:00",
            "course": 119.1,
            "speed": 12.0,
            "depth": 0.0
          },
          {
            "time": "1970-01-03T03:03:25+00:00",
            "course": 119.1,
            "speed": 12.0,
            "depth": 0.0
          },
          {
            "time": "1970-01-03T03:04:25+00:00",
            "course": 119.1,
            "speed": 12.0,
            "depth": 0.0
          },
          {
            "time": "1970-01-03T03:05:25+00:00",
            "course": 119.1,
            "speed": 12.0,
            "depth": 0.0
          },
          {
            "time": "1970-01-03T03:06:25+00:00",
            "course": 119.1,
            "speed": 12.0,
            "depth": 0.0
          },
          {
            "time": "1970-01-03T03:07:25+00:00",
            "course": 119.1,
            "speed": 12.0,
            "depth": 0.0
          },
          {
            "time": "1970-01-03T03:08:25+00:00",
            "course": 119.1,
            "speed": 12.0,
            "depth": 0.0
          },
          {
            "time": "1970-01-03T03:09:25+00:00",
            "course": 119.1,
            "speed": 12.0,
            "depth": 0.0
          },
          {
            "time": "1970-01-03T03:10:25+00:00",
            "course": 119.1,
            "speed": 12.0,
            "depth": 0.0
          },
          {
            "time": "1970-01-03T03:11:25+00:00",
            "course": 119.1,
            "speed": 12.0,
            "depth": 0.0
          },
          {
            "time": "1970-01-03T03:12:25+00:00",
            "course": 119.1,
            "speed": 12.0,
            "depth": 0.0
          },
          {
            "time": "1970-01-03T03:13:25+00:00",
            "course": 119.1,
            "speed": 12.0,
            "depth": 0.0
          },
          {
            "time": "1970-01-03T03:14:25+00:00",
            "course": 119.1,
            "speed": 12.0,
            "depth": 0.0
          },
          {
            "time": "1970-01-03T03:15:25+00:00",
            "course": 119.1,
            "speed": 12.0,
            "depth": 0.0
          },
          {
            "time": "1970-01-03T03:16:25+00:00",
            "course": 119.1,
            "speed": 12.0,
            "depth": 0.0
          },
          {
            "time": "1970-01-03T03:17:25+00:00",
            "course": 119.1,
            "speed": 12.0,
            "depth": 0.0
          },
          {
            "time": "1970-01-03T03:18:25+00:00",
            "course": 119.1,
            "speed": 12.0,
            "depth": 0.0
          },
          {
            "time": "1970-01-03T03:19:25+00:00",
            "course": 119.1,
            "speed": 12.0,
            "depth": 0.0
          },
          {
            "time": "1970-01-03T03:20:25+00:00",
            "course": 119.1,
            "speed": 12.0,
            "depth": 0.0
          },
          {
            "time": "1970-01-03T03:21:25+00:00",
            "course": 119.1,
            "speed": 12.0,
            "depth": 0.0
          },
          {
            "time": "1970-01-03T03:22:25+00:00",
            "course": 119.1,
            "speed": 12.0,
            "depth": 0.0
          },
          {
            "time": "1970-01-03T03:23:25+00:00",
            "course": 119.1,
            "speed": 12.0,
            "depth": 0.0
          },
          {
            "time": "1970-01-03T03:24:25+00:00",
            "course": 119.1,
            "speed": 12.0,
            "depth": 0.0
          },
          {
            "time": "1970-01-03T03:25:25+00:00",
            "course": 119.1,
            "speed": 12.0,
            "depth": 0.0
          },
          {
            "time": "1970-01-03T03:26:25+00:00",
            "course": 119.1,
            "speed": 12.0,
            "depth": 0.0
          },
          {
            "time": "1970-01-03T03:27:25+00:00",
            "course": 119.1,
            "speed": 12.0,
            "depth": 0.0
          },
          {
            "time": "1970-01-03T03:28:25+00:00",
            "course": 119.1,
            "speed": 12.0,
            "depth": 0.0
          },
          {
            "time": "1970-01-03T03:29:25+00:00",
            "course": 119.1,
            "speed": 12.0,
            "depth": 0.0
          },
          {
            "time": "1970-01-03T03:30:25+00:00",
            "course": 119.1,
            "speed": 12.0,
            "depth": 0.0
          },
          {
            "time": "1970-01-03T03:31:25+00:00",
            "course": 119.1,
            "speed": 12.0,
            "depth": 0.0
          },
          {
            "time": "1970-01-03T03:32:25+00:00",
            "course": 119.1,
            "speed": 12.0,
            "depth": 0.0
          },
          {
            "time": "1970-01-03T03:33:25+00:00",
            "course": 119.1,
            "speed": 12.0,
            "depth": 0.0
          },
          {
            "time": "1970-01-03T03:34:25+00:00",
            "course": 119.1,
            "speed": 12.0,
            "depth": 0.0
          },
          {
            "time": "1970-01-03T03:35:25+00:00",
            "course": 119.1,
            "speed": 12.0,
            "depth": 0.0
          },
          {
            "time": "1970-01-03T03:36:25+00:00",
            "course": 119.1,
            "speed": 12.0,
            "depth": 0.0
          },
          {
            "time": "1970-01-03T03:37:25+00:00",
            "course": 119.1,
            "speed": 12.0,
            "depth": 0.0
          },
          {
            "time": "1970-01-03T03:38:25+00:00",
            "course": 119.1,
            "speed": 12.0,
            "depth": 0.0
          },
          {
            "time": "1970-01-03T03:39:25+00:00",
            "course": 119.1,
            "speed": 12.0,
            "depth": 0.0
          },
          {
            "time": "1970-01-03T03:40:25+00:00",
            "course": 119.1,
            "speed": 12.0,
            "depth": 0.0
          },
          {
            "time": "1970-01-03T03:41:25+00:00",
            "course": 119.1,
            "speed": 12.0,
            "depth": 0.0
          },
          {
            "time": "1970-01-03T03:42:25+00:00",
            "course": 119.1,
            "speed": 12.0,
            "depth": 0.0
          },
          {
            "time": "1970-01-03T03:43:25+00:00",
            "course": 119.1,
            "speed": 12.0,
            "depth": 0.0
          },
          {
            "time": "1970-01-03T03:44:25+00:00",
            "course": 119.1,
            "speed": 12.0,
            "depth": 0.0
          },
          {
            "time": "1970-01-03T03:45:25+00:00",
            "course": 119.1,
            "speed": 12.0,
            "depth": 0.0
          },
          {
            "time": "1970-01-03T03:46:25+00:00",
            "course": 119.1,
            "speed": 12.0,
            "depth": 0.0
          },
          {
            "time": "1970-01-03T03:47:25+00:00",
            "course": 119.1,
            "speed": 12.0,
            "depth": 0.0
          },
          {
            "time": "1970-01-03T03:48:25+00:00",
            "course": 119.1,
            "speed": 12.0,
            "depth": 0.0
          },
          {
            "time": "1970-01-03T03:49:25+00:00",
            "course": 119.1,
            "speed": 12.0,
            "depth": 0.0
          },
          {
            "time": "1970-01-03T03:50:25+00:00",
            "course": 119.1,
            "speed": 12.0,
            "depth": 0.0
          },
          {
            "time": "1970-01-03T03:51:25+00:00",
            "course": 119.1,
            "speed": 12.0,
            "depth": 0.0
          },
          {
            "time": "1970-01-03T03:52:25+00:00",
            "course": 119.1,
            "speed": 12.0,
            "depth": 0.0
          },
          {
            "time": "1970-01-03T03:53:25+00:00",
            "course": 119.1,
            "speed": 12.0,
            "depth": 0.0
          },
          {
            "time": "1970-01-03T03:54:25+00:00",
            "course": 119.1,
            "speed": 12.0,
            "depth": 0.0
          },
          {
            "time": "1970-01-03T03:55:25+00:00",
            "course": 119.1,
            "speed": 12.0,
            "depth": 0.0
          },
          {
            "time": "1970-01-03T03:56:25+00:00",
            "course": 119.1,
            "speed": 12.0,
            "depth": 0.0
          },
          {
            "time": "1970-01-03T03:57:25+00:00",
            "course": 119.1,
            "speed": 12.0,
            "depth": 0.0
          },
          {
            "time": "1970-01-03T03:58:25+00:00",
            "course": 119.1,
            "speed": 12.0,
            "depth": 0.0
          },
          {
            "time": "1970-01-03T03:59:25+00:00",
            "course": 119.1,
            "speed": 12.0,
            "depth": 0.0
          },
          {
            "time": "1970-01-03T04:00:25+00:00",
            "course": 119.1,
            "speed": 12.0,
            "depth": 0.0
          },
          {
            "time": "1970-01-03T04:01:25+00:00",
            "course": 119.1,
            "speed": 12.0,
            "depth": 0.0
          },
          {
            "time": "1970-01-03T04:02:25+00:00",
            "course": 119.1,
            "speed": 12.0,
            "depth": 0.0
          },
          {
            "time": "1970-01-03T04:03:25+00:00",
            "course": 119.1,
            "speed": 12.0,
            "depth": 0.0
          },
          {
            "time": "1970-01-03T04:04:25+00:00",
            "course": 119.1,
            "speed": 12.0,
            "depth": 0.0
          },
          {
            "time": "1970-01-03T04:05:25+00:00",
            "course": 119.1,
            "speed": 12.0,
            "depth": 0.0
          },
          {
            "time": "1970-01-03T04:06:25+00:00",
            "course": 119.1,
            "speed": 12.0,
            "depth": 0.0
          },
          {
            "time": "1970-01-03T04:07:25+00:00",
            "course": 119.1,
            "speed": 12.0,
            "depth": 0.0
          },
          {
            "time": "1970-01-03T04:08:25+00:00",
            "course": 119.1,
            "speed": 12.0,
            "depth": 0.0
          },
          {
            "time": "1970-01-03T04:09:25+00:00",
            "course": 119.1,
            "speed": 12.0,
            "depth": 0.0
          },
          {
            "time": "1970-01-03T04:10:25+00:00",
            "course": 119.1,
            "speed": 12.0,
            "depth": 0.0
          },
          {
            "time": "1970-01-03T04:11:25+00:00",
            "course": 119.1,
            "speed": 12.0,
            "depth": 0.0
          },
          {
            "time": "1970-01-03T04:12:25+00:00",
            "course": 119.1,
            "speed": 12.0,
            "depth": 0.0
          },
          {
            "time": "1970-01-03T04:13:25+00:00",
            "course": 119.1,
            "speed": 12.0,
            "depth": 0.0
          },
          {
            "time": "1970-01-03T04:14:25+00:00",
            "course": 119.1,
            "speed": 12.0,
            "depth": 0.0
          },
          {
            "time": "1970-01-03T04:15:25+00:00",
            "course": 119.1,
            "speed": 12.0,
            "depth": 0.0
          },
          {
            "time": "1970-01-03T04:16:25+00:00",
            "course": 119.1,
            "speed": 12.0,
            "depth": 0.0
          },
          {
            "time": "1970-01-03T04:17:25+00:00",
            "course": 119.1,
            "speed": 12.0,
            "depth": 0.0
          }
        ],
        "style": {
          "line": {
            "color": "#0000FF"
          },
          "point": {
            "shape": "circle",
            "radius": 3.0,
            "fill_color": "#0000FF",
            "color": "#0000FF"
          }
        },
        "default_position_style": {
          "show_symbol": false,
          "symbol": "circle",
          "show_label": false
        },
        "symbol_interval": "PT10M",
        "label_interval": "PT30M",
        "provenance": [
          {
            "activity_id": "ee95cc42-405d-4043-8d1e-caeeb3365710",
            "timestamp": "2026-04-13T23:12:32.665366Z",
            "was_generated_by": {
              "tool": "rep-parser",
              "tool_version": "1.0.0",
              "parameters": []
            },
            "used": [],
            "generated": [
              "215e72a7-da48-4fee-b0e2-6b94b94639b1"
            ],
            "execution_duration": "PT0.001015S"
          }
        ]
      }
    }
  ]
}