{
  "type": "FeatureCollection",
  "features": [
    {
      "type": "Feature",
      "id": "57662e09-a0a6-478a-b12b-b457084bed0f",
      "geometry": {
        "type": "LineString",
        "coordinates": [
          [
            -30.002777777777776,
            -0.06666666666666667
          ],
          [
            -30.002777777777776,
            -0.06666666666666667
          ],
          [
            -30.002402777777778,
            -0.0659388888888889
          ],
          [
            -30.002516666666665,
            -0.065125
          ],
          [
            -30.003080555555556,
            -0.06453055555555556
          ],
          [
            -30.00388611111111,
            -0.06436111111111112
          ],
          [
            -30.004719444444444,
            -0.06436111111111112
          ],
          [
            -30.005552777777776,
            -0.06436111111111112
          ],
          [
            -30.006386111111112,
            -0.06436111111111112
          ],
          [
            -30.007219444444445,
            -0.06436111111111112
          ],
          [
            -30.008052777777777,
            -0.06436111111111112
          ],
          [
            -30.00888611111111,
            -0.06436111111111112
          ],
          [
            -30.009719444444446,
            -0.06436111111111112
          ],
          [
            -30.01055277777778,
            -0.06436111111111112
          ],
          [
            -30.01138611111111,
            -0.06436111111111112
          ],
          [
            -30.012219444444444,
            -0.06436111111111112
          ],
          [
            -30.013052777777776,
            -0.06436111111111112
          ],
          [
            -30.013886111111113,
            -0.06436111111111112
          ],
          [
            -30.014719444444445,
            -0.06436111111111112
          ],
          [
            -30.015552777777778,
            -0.06436111111111112
          ],
          [
            -30.01638611111111,
            -0.06436111111111112
          ],
          [
            -30.017219444444443,
            -0.06436111111111112
          ],
          [
            -30.018,
            -0.06411388888888889
          ],
          [
            -30.018491666666666,
            -0.06345833333333334
          ],
          [
            -30.018605555555556,
            -0.06263333333333333
          ],
          [
            -30.01867777777778,
            -0.06180555555555556
          ],
          [
            -30.018752777777777,
            -0.060975
          ],
          [
            -30.018825,
            -0.060144444444444445
          ],
          [
            -30.018897222222222,
            -0.05931388888888889
          ],
          [
            -30.018969444444444,
            -0.05848333333333333
          ],
          [
            -30.019041666666666,
            -0.05765277777777778
          ],
          [
            -30.01911388888889,
            -0.056822222222222225
          ],
          [
            -30.019188888888888,
            -0.055994444444444444
          ],
          [
            -30.01926111111111,
            -0.055163888888888894
          ],
          [
            -30.019333333333332,
            -0.05433333333333334
          ],
          [
            -30.019405555555554,
            -0.05350277777777778
          ],
          [
            -30.019477777777777,
            -0.052672222222222224
          ],
          [
            -30.01955,
            -0.05184166666666667
          ],
          [
            -30.01962222222222,
            -0.05101111111111111
          ],
          [
            -30.01969722222222,
            -0.05018333333333334
          ],
          [
            -30.019769444444442,
            -0.04935277777777777
          ],
          [
            -30.019841666666665,
            -0.048522222222222224
          ],
          [
            -30.019913888888887,
            -0.04769166666666667
          ],
          [
            -30.01998611111111,
            -0.04686111111111111
          ],
          [
            -30.02005833333333,
            -0.046030555555555554
          ],
          [
            -30.020130555555554,
            -0.0452
          ],
          [
            -30.020205555555556,
            -0.04437222222222222
          ],
          [
            -30.02027777777778,
            -0.043541666666666666
          ],
          [
            -30.02035,
            -0.04271111111111111
          ],
          [
            -30.020422222222223,
            -0.04188055555555555
          ],
          [
            -30.020494444444445,
            -0.04105
          ],
          [
            -30.020566666666667,
            -0.04021944444444445
          ],
          [
            -30.02063888888889,
            -0.03938888888888889
          ],
          [
            -30.02071388888889,
            -0.03856111111111111
          ],
          [
            -30.02078611111111,
            -0.03773055555555556
          ],
          [
            -30.020858333333333,
            -0.0369
          ],
          [
            -30.020930555555555,
            -0.036069444444444446
          ],
          [
            -30.021002777777777,
            -0.03523888888888889
          ],
          [
            -30.021075,
            -0.03440833333333333
          ],
          [
            -30.021147222222222,
            -0.033577777777777776
          ],
          [
            -30.02122222222222,
            -0.03275
          ],
          [
            -30.021294444444443,
            -0.031919444444444445
          ],
          [
            -30.021366666666665,
            -0.031088888888888888
          ],
          [
            -30.021663888888888,
            -0.030319444444444444
          ],
          [
            -30.022080555555554,
            -0.02959722222222222
          ],
          [
            -30.02249722222222,
            -0.028875
          ],
          [
            -30.022913888888887,
            -0.028155555555555555
          ],
          [
            -30.023330555555553,
            -0.02743333333333333
          ],
          [
            -30.023747222222223,
            -0.02671111111111111
          ],
          [
            -30.02416388888889,
            -0.025988888888888888
          ]
        ]
      },
      "properties": {
        "kind": "TRACK",
        "platform_id": "OWNSHIP",
        "platform_name": "OWNSHIP",
        "track_type": "CONTACT",
        "start_time": "2010-01-12T12:13:14+00:00",
        "end_time": "2010-01-12T12:30:14+00:00",
        "positions": [
          {
            "time": "2010-01-12T12:13:14+00:00",
            "course": 45.0,
            "speed": 12.0,
            "depth": 0.0
          },
          {
            "time": "2010-01-12T12:13:14+00:00",
            "course": 45.0,
            "speed": 12.0,
            "depth": 0.0
          },
          {
            "time": "2010-01-12T12:13:29+00:00",
            "course": 9.63,
            "speed": 12.0,
            "depth": 0.0
          },
          {
            "time": "2010-01-12T12:13:44+00:00",
            "course": 334.26,
            "speed": 12.0,
            "depth": 0.0
          },
          {
            "time": "2010-01-12T12:13:59+00:00",
            "course": 298.89,
            "speed": 12.0,
            "depth": 0.0
          },
          {
            "time": "2010-01-12T12:14:14+00:00",
            "course": 270.0,
            "speed": 12.0,
            "depth": 0.0
          },
          {
            "time": "2010-01-12T12:14:29+00:00",
            "course": 270.0,
            "speed": 12.0,
            "depth": 0.0
          },
          {
            "time": "2010-01-12T12:14:44+00:00",
            "course": 270.0,
            "speed": 12.0,
            "depth": 0.0
          },
          {
            "time": "2010-01-12T12:14:59+00:00",
            "course": 270.0,
            "speed": 12.0,
            "depth": 0.0
          },
          {
            "time": "2010-01-12T12:15:14+00:00",
            "course": 270.0,
            "speed": 12.0,
            "depth": 0.0
          },
          {
            "time": "2010-01-12T12:15:29+00:00",
            "course": 270.0,
            "speed": 12.0,
            "depth": 0.0
          },
          {
            "time": "2010-01-12T12:15:44+00:00",
            "course": 270.0,
            "speed": 12.0,
            "depth": 0.0
          },
          {
            "time": "2010-01-12T12:15:59+00:00",
            "course": 270.0,
            "speed": 12.0,
            "depth": 0.0
          },
          {
            "time": "2010-01-12T12:16:14+00:00",
            "course": 270.0,
            "speed": 12.0,
            "depth": 0.0
          },
          {
            "time": "2010-01-12T12:16:29+00:00",
            "course": 270.0,
            "speed": 12.0,
            "depth": 0.0
          },
          {
            "time": "2010-01-12T12:16:44+00:00",
            "course": 270.0,
            "speed": 12.0,
            "depth": 0.0
          },
          {
            "time": "2010-01-12T12:16:59+00:00",
            "course": 270.0,
            "speed": 12.0,
            "depth": 0.0
          },
          {
            "time": "2010-01-12T12:17:14+00:00",
            "course": 270.0,
            "speed": 12.0,
            "depth": 0.0
          },
          {
            "time": "2010-01-12T12:17:29+00:00",
            "course": 270.0,
            "speed": 12.0,
            "depth": 0.0
          },
          {
            "time": "2010-01-12T12:17:44+00:00",
            "course": 270.0,
            "speed": 12.0,
            "depth": 0.0
          },
          {
            "time": "2010-01-12T12:17:59+00:00",
            "course": 270.0,
            "speed": 12.0,
            "depth": 0.0
          },
          {
            "time": "2010-01-12T12:18:14+00:00",
            "course": 270.0,
            "speed": 12.0,
            "depth": 0.0
          },
          {
            "time": "2010-01-12T12:18:29+00:00",
            "course": 305.37,
            "speed": 12.0,
            "depth": 0.0
          },
          {
            "time": "2010-01-12T12:18:44+00:00",
            "course": 340.74,
            "speed": 12.0,
            "depth": 0.0
          },
          {
            "time": "2010-01-12T12:18:59+00:00",
            "course": 355.0,
            "speed": 12.0,
            "depth": 0.0
          },
          {
            "time": "2010-01-12T12:19:14+00:00",
            "course": 355.0,
            "speed": 12.0,
            "depth": 0.0
          },
          {
            "time": "2010-01-12T12:19:29+00:00",
            "course": 355.0,
            "speed": 12.0,
            "depth": 0.0
          },
          {
            "time": "2010-01-12T12:19:44+00:00",
            "course": 355.0,
            "speed": 12.0,
            "depth": 0.0
          },
          {
            "time": "2010-01-12T12:19:59+00:00",
            "course": 355.0,
            "speed": 12.0,
            "depth": 0.0
          },
          {
            "time": "2010-01-12T12:20:14+00:00",
            "course": 355.0,
            "speed": 12.0,
            "depth": 0.0
          },
          {
            "time": "2010-01-12T12:20:29+00:00",
            "course": 355.0,
            "speed": 12.0,
            "depth": 0.0
          },
          {
            "time": "2010-01-12T12:20:44+00:00",
            "course": 355.0,
            "speed": 12.0,
            "depth": 0.0
          },
          {
            "time": "2010-01-12T12:20:59+00:00",
            "course": 355.0,
            "speed": 12.0,
            "depth": 0.0
          },
          {
            "time": "2010-01-12T12:21:14+00:00",
            "course": 355.0,
            "speed": 12.0,
            "depth": 0.0
          },
          {
            "time": "2010-01-12T12:21:29+00:00",
            "course": 355.0,
            "speed": 12.0,
            "depth": 0.0
          },
          {
            "time": "2010-01-12T12:21:44+00:00",
            "course": 355.0,
            "speed": 12.0,
            "depth": 0.0
          },
          {
            "time": "2010-01-12T12:21:59+00:00",
            "course": 355.0,
            "speed": 12.0,
            "depth": 0.0
          },
          {
            "time": "2010-01-12T12:22:14+00:00",
            "course": 355.0,
            "speed": 12.0,
            "depth": 0.0
          },
          {
            "time": "2010-01-12T12:22:29+00:00",
            "course": 355.0,
            "speed": 12.0,
            "depth": 0.0
          },
          {
            "time": "2010-01-12T12:22:44+00:00",
            "course": 355.0,
            "speed": 12.0,
            "depth": 0.0
          },
          {
            "time": "2010-01-12T12:22:59+00:00",
            "course": 355.0,
            "speed": 12.0,
            "depth": 0.0
          },
          {
            "time": "2010-01-12T12:23:14+00:00",
            "course": 355.0,
            "speed": 12.0,
            "depth": 0.0
          },
          {
            "time": "2010-01-12T12:23:29+00:00",
            "course": 355.0,
            "speed": 12.0,
            "depth": 0.0
          },
          {
            "time": "2010-01-12T12:23:44+00:00",
            "course": 355.0,
            "speed": 12.0,
            "depth": 0.0
          },
          {
            "time": "2010-01-12T12:23:59+00:00",
            "course": 355.0,
            "speed": 12.0,
            "depth": 0.0
          },
          {
            "time": "2010-01-12T12:24:14+00:00",
            "course": 355.0,
            "speed": 12.0,
            "depth": 0.0
          },
          {
            "time": "2010-01-12T12:24:29+00:00",
            "course": 355.0,
            "speed": 12.0,
            "depth": 0.0
          },
          {
            "time": "2010-01-12T12:24:44+00:00",
            "course": 355.0,
            "speed": 12.0,
            "depth": 0.0
          },
          {
            "time": "2010-01-12T12:24:59+00:00",
            "course": 355.0,
            "speed": 12.0,
            "depth": 0.0
          },
          {
            "time": "2010-01-12T12:25:14+00:00",
            "course": 355.0,
            "speed": 12.0,
            "depth": 0.0
          },
          {
            "time": "2010-01-12T12:25:29+00:00",
            "course": 355.0,
            "speed": 12.0,
            "depth": 0.0
          },
          {
            "time": "2010-01-12T12:25:44+00:00",
            "course": 355.0,
            "speed": 12.0,
            "depth": 0.0
          },
          {
            "time": "2010-01-12T12:25:59+00:00",
            "course": 355.0,
            "speed": 12.0,
            "depth": 0.0
          },
          {
            "time": "2010-01-12T12:26:14+00:00",
            "course": 355.0,
            "speed": 12.0,
            "depth": 0.0
          },
          {
            "time": "2010-01-12T12:26:29+00:00",
            "course": 355.0,
            "speed": 12.0,
            "depth": 0.0
          },
          {
            "time": "2010-01-12T12:26:44+00:00",
            "course": 355.0,
            "speed": 12.0,
            "depth": 0.0
          },
          {
            "time": "2010-01-12T12:26:59+00:00",
            "course": 355.0,
            "speed": 12.0,
            "depth": 0.0
          },
          {
            "time": "2010-01-12T12:27:14+00:00",
            "course": 355.0,
            "speed": 12.0,
            "depth": 0.0
          },
          {
            "time": "2010-01-12T12:27:29+00:00",
            "course": 355.0,
            "speed": 12.0,
            "depth": 0.0
          },
          {
            "time": "2010-01-12T12:27:44+00:00",
            "course": 355.0,
            "speed": 12.0,
            "depth": 0.0
          },
          {
            "time": "2010-01-12T12:27:59+00:00",
            "course": 355.0,
            "speed": 12.0,
            "depth": 0.0
          },
          {
            "time": "2010-01-12T12:28:14+00:00",
            "course": 355.0,
            "speed": 12.0,
            "depth": 0.0
          },
          {
            "time": "2010-01-12T12:28:29+00:00",
            "course": 355.0,
            "speed": 12.0,
            "depth": 0.0
          },
          {
            "time": "2010-01-12T12:28:44+00:00",
            "course": 330.0,
            "speed": 12.0,
            "depth": 0.0
          },
          {
            "time": "2010-01-12T12:28:59+00:00",
            "course": 330.0,
            "speed": 12.0,
            "depth": 0.0
          },
          {
            "time": "2010-01-12T12:29:14+00:00",
            "course": 330.0,
            "speed": 12.0,
            "depth": 0.0
          },
          {
            "time": "2010-01-12T12:29:29+00:00",
            "course": 330.0,
            "speed": 12.0,
            "depth": 0.0
          },
          {
            "time": "2010-01-12T12:29:44+00:00",
            "course": 330.0,
            "speed": 12.0,
            "depth": 0.0
          },
          {
            "time": "2010-01-12T12:29:59+00:00",
            "course": 330.0,
            "speed": 12.0,
            "depth": 0.0
          },
          {
            "time": "2010-01-12T12:30:14+00:00",
            "course": 330.0,
            "speed": 12.0,
            "depth": 0.0
          }
        ],
        "style": {
          "line": {
            "color": "#FFA500"
          },
          "point": {
            "shape": "circle",
            "radius": 3.0,
            "fill_color": "#FFA500",
            "color": "#FFA500"
          }
        },
        "default_position_style": {
          "show_symbol": false,
          "symbol": "circle",
          "show_label": false
        },
        "symbol_interval": "PT1M",
        "label_interval": "PT5M",
        "provenance": [
          {
            "activity_id": "28ff31bc-7445-4a45-98d3-4e41b21d3c14",
            "timestamp": "2026-04-13T23:12:31.864562Z",
            "was_generated_by": {
              "tool": "rep-parser",
              "tool_version": "1.0.0",
              "parameters": []
            },
            "used": [],
            "generated": [
              "57662e09-a0a6-478a-b12b-b457084bed0f"
            ],
            "execution_duration": "PT0.000477S"
          }
        ]
      }
    }
  ]
}