{
  "type": "FeatureCollection",
  "features": [
    {
      "type": "Feature",
      "id": "7bf4eb7c-1861-42b6-9940-1d65f25c7cd0",
      "geometry": null,
      "properties": {
        "kind": "SENSOR_CONTACT",
        "parent_track": "SENSOR",
        "time": "2010-01-12T12:00:00+00:00",
        "bearing": 0.7,
        "range": 0.0,
        "sensor_name": "HM",
        "label": "SUBJECT held on HM"
      }
    },
    {
      "type": "Feature",
      "id": "bbfcabd6-2d54-4d2d-b462-8485260a0749",
      "geometry": null,
      "properties": {
        "kind": "SENSOR_CONTACT",
        "parent_track": "SENSOR",
        "time": "2010-01-12T12:02:00+00:00",
        "bearing": 0.6,
        "range": 0.0,
        "sensor_name": "HM",
        "label": "SUBJECT held on HM"
      }
    },
    {
      "type": "Feature",
      "id": "7e483917-3c0c-4670-b63c-d65a19b4b9ac",
      "geometry": null,
      "properties": {
        "kind": "SENSOR_CONTACT",
        "parent_track": "SENSOR",
        "time": "2010-01-12T12:04:00+00:00",
        "bearing": 0.6,
        "range": 0.0,
        "sensor_name": "HM",
        "label": "SUBJECT held on HM"
      }
    },
    {
      "type": "Feature",
      "id": "8840b526-8917-4448-9981-df6ea1a781ae",
      "geometry": null,
      "properties": {
        "kind": "SENSOR_CONTACT",
        "parent_track": "SENSOR",
        "time": "2010-01-12T12:06:00+00:00",
        "bearing": 0.6,
        "range": 0.0,
        "sensor_name": "HM",
        "label": "SUBJECT held on HM"
      }
    },
    {
      "type": "Feature",
      "id": "869c8c0d-f8c0-40e6-ba61-697192aca262",
      "geometry": null,
      "properties": {
        "kind": "SENSOR_CONTACT",
        "parent_track": "SENSOR",
        "time": "2010-01-12T12:08:00+00:00",
        "bearing": 0.6,
        "range": 0.0,
        "sensor_name": "HM",
        "label": "SUBJECT held on HM"
      }
    },
    {
      "type": "Feature",
      "id": "4abd2456-03e7-455a-999e-3548ec914394",
      "geometry": null,
      "properties": {
        "kind": "SENSOR_CONTACT",
        "parent_track": "SENSOR",
        "time": "2010-01-12T12:10:00+00:00",
        "bearing": 0.6,
        "range": 0.0,
        "sensor_name": "HM",
        "label": "SUBJECT held on HM"
      }
    },
    {
      "type": "Feature",
      "id": "4f83a31c-1c80-43d1-accc-01eee0bfeeba",
      "geometry": null,
      "properties": {
        "kind": "SENSOR_CONTACT",
        "parent_track": "SENSOR",
        "time": "2010-01-12T12:12:00+00:00",
        "bearing": 0.6,
        "range": 0.0,
        "sensor_name": "HM",
        "label": "SUBJECT held on HM"
      }
    },
    {
      "type": "Feature",
      "id": "aedc7dcb-73c3-43e2-adbb-0b58fd076719",
      "geometry": null,
      "properties": {
        "kind": "SENSOR_CONTACT",
        "parent_track": "SENSOR",
        "time": "2010-01-12T12:14:00+00:00",
        "bearing": 0.6,
        "range": 0.0,
        "sensor_name": "HM",
        "label": "SUBJECT held on HM"
      }
    },
    {
      "type": "Feature",
      "id": "bcee60c6-c00e-4080-9fa8-fb6da4bb3a10",
      "geometry": null,
      "properties": {
        "kind": "SENSOR_CONTACT",
        "parent_track": "SENSOR",
        "time": "2010-01-12T12:16:00+00:00",
        "bearing": 0.6,
        "range": 0.0,
        "sensor_name": "HM",
        "label": "SUBJECT held on HM"
      }
    },
    {
      "type": "Feature",
      "id": "2d24c6b9-9553-4b3f-b773-168cd7ec029a",
      "geometry": null,
      "properties": {
        "kind": "SENSOR_CONTACT",
        "parent_track": "SENSOR",
        "time": "2010-01-12T12:18:00+00:00",
        "bearing": 0.6,
        "range": 0.0,
        "sensor_name": "HM",
        "label": "SUBJECT held on HM"
      }
    },
    {
      "type": "Feature",
      "id": "1ee145e7-81df-4b81-88aa-b07f804a71e2",
      "geometry": null,
      "properties": {
        "kind": "SENSOR_CONTACT",
        "parent_track": "SENSOR",
        "time": "2010-01-12T12:20:00+00:00",
        "bearing": 0.6,
        "range": 0.0,
        "sensor_name": "HM",
        "label": "SUBJECT held on HM"
      }
    },
    {
      "type": "Feature",
      "id": "e9a6ff99-f005-4644-99dc-8b4599cbf6cb",
      "geometry": null,
      "properties": {
        "kind": "SENSOR_CONTACT",
        "parent_track": "SENSOR",
        "time": "2010-01-12T12:22:00+00:00",
        "bearing": 0.6,
        "range": 0.0,
        "sensor_name": "HM",
        "label": "SUBJECT held on HM"
      }
    },
    {
      "type": "Feature",
      "id": "cfcbd49a-607d-4946-97cd-f9658c13cb6f",
      "geometry": null,
      "properties": {
        "kind": "SENSOR_CONTACT",
        "parent_track": "SENSOR",
        "time": "2010-01-12T12:24:00+00:00",
        "bearing": 0.6,
        "range": 0.0,
        "sensor_name": "HM",
        "label": "SUBJECT held on HM"
      }
    },
    {
      "type": "Feature",
      "id": "88ec61a2-c2f2-4f33-832c-c3e9e7a2b392",
      "geometry": null,
      "properties": {
        "kind": "SENSOR_CONTACT",
        "parent_track": "SENSOR",
        "time": "2010-01-12T12:26:00+00:00",
        "bearing": 0.6,
        "range": 0.0,
        "sensor_name": "HM",
        "label": "SUBJECT held on HM"
      }
    },
    {
      "type": "Feature",
      "id": "0d8d59b0-bb62-4e40-b9fa-6348f6ba8f4a",
      "geometry": null,
      "properties": {
        "kind": "SENSOR_CONTACT",
        "parent_track": "SENSOR",
        "time": "2010-01-12T12:28:00+00:00",
        "bearing": 0.5,
        "range": 0.0,
        "sensor_name": "HM",
        "label": "SUBJECT held on HM"
      }
    },
    {
      "type": "Feature",
      "id": "184efb28-a262-4b3c-a4ce-f096e0a00766",
      "geometry": null,
      "properties": {
        "kind": "SENSOR_CONTACT",
        "parent_track": "SENSOR",
        "time": "2010-01-12T12:30:00+00:00",
        "bearing": 0.5,
        "range": 0.0,
        "sensor_name": "HM",
        "label": "SUBJECT held on HM"
      }
    },
    {
      "type": "Feature",
      "id": "df159197-54d5-4a49-ae7a-04ce47e60e5d",
      "geometry": null,
      "properties": {
        "kind": "SENSOR_CONTACT",
        "parent_track": "SENSOR",
        "time": "2010-01-12T12:32:00+00:00",
        "bearing": 0.5,
        "range": 0.0,
        "sensor_name": "HM",
        "label": "SUBJECT held on HM"
      }
    },
    {
      "type": "Feature",
      "id": "aa559139-6dee-4ab7-8099-a28a9468c6eb",
      "geometry": null,
      "properties": {
        "kind": "SENSOR_CONTACT",
        "parent_track": "SENSOR",
        "time": "2010-01-12T12:34:00+00:00",
        "bearing": 0.5,
        "range": 0.0,
        "sensor_name": "HM",
        "label": "SUBJECT held on HM"
      }
    },
    {
      "type": "Feature",
      "id": "43ef6504-792d-44b2-a9c4-32d8bcea4ccc",
      "geometry": null,
      "properties": {
        "kind": "SENSOR_CONTACT",
        "parent_track": "SENSOR",
        "time": "2010-01-12T12:36:00+00:00",
        "bearing": 0.5,
        "range": 0.0,
        "sensor_name": "HM",
        "label": "SUBJECT held on HM"
      }
    },
    {
      "type": "Feature",
      "id": "e6c290ff-dea4-42ed-b80b-03a7782d4997",
      "geometry": null,
      "properties": {
        "kind": "SENSOR_CONTACT",
        "parent_track": "SENSOR",
        "time": "2010-01-12T12:38:00+00:00",
        "bearing": 0.5,
        "range": 0.0,
        "sensor_name": "HM",
        "label": "SUBJECT held on HM"
      }
    },
    {
      "type": "Feature",
      "id": "4861e833-955c-4d3e-9bfd-285f32601143",
      "geometry": null,
      "properties": {
        "kind": "SENSOR_CONTACT",
        "parent_track": "SENSOR",
        "time": "2010-01-12T12:40:00+00:00",
        "bearing": 0.5,
        "range": 0.0,
        "sensor_name": "HM",
        "label": "SUBJECT held on HM"
      }
    },
    {
      "type": "Feature",
      "id": "12152590-6607-49ab-bd12-13cd6be2830a",
      "geometry": null,
      "properties": {
        "kind": "SENSOR_CONTACT",
        "parent_track": "SENSOR",
        "time": "2010-01-12T12:42:00+00:00",
        "bearing": 0.5,
        "range": 0.0,
        "sensor_name": "HM",
        "label": "SUBJECT held on HM"
      }
    },
    {
      "type": "Feature",
      "id": "494444eb-e240-4dc1-b5cb-e8b2f6f84545",
      "geometry": null,
      "properties": {
        "kind": "SENSOR_CONTACT",
        "parent_track": "SENSOR",
        "time": "2010-01-12T12:44:00+00:00",
        "bearing": 0.5,
        "range": 0.0,
        "sensor_name": "HM",
        "label": "SUBJECT held on HM"
      }
    },
    {
      "type": "Feature",
      "id": "5e19dd6d-5e44-40cb-98ba-ecf8baca2b64",
      "geometry": null,
      "properties": {
        "kind": "SENSOR_CONTACT",
        "parent_track": "SENSOR",
        "time": "2010-01-12T12:46:00+00:00",
        "bearing": 0.5,
        "range": 0.0,
        "sensor_name": "HM",
        "label": "SUBJECT held on HM"
      }
    },
    {
      "type": "Feature",
      "id": "41aa0e62-335d-4f09-b015-5a16edd64ac8",
      "geometry": null,
      "properties": {
        "kind": "SENSOR_CONTACT",
        "parent_track": "SENSOR",
        "time": "2010-01-12T12:48:00+00:00",
        "bearing": 0.5,
        "range": 0.0,
        "sensor_name": "HM",
        "label": "SUBJECT held on HM"
      }
    },
    {
      "type": "Feature",
      "id": "7f853826-c88a-4d2e-9ee9-6dc0f55f8e00",
      "geometry": null,
      "properties": {
        "kind": "SENSOR_CONTACT",
        "parent_track": "SENSOR",
        "time": "2010-01-12T12:50:00+00:00",
        "bearing": 0.5,
        "range": 0.0,
        "sensor_name": "HM",
        "label": "SUBJECT held on HM"
      }
    },
    {
      "type": "Feature",
      "id": "c75e2815-08d7-4126-8979-61b844654a78",
      "geometry": null,
      "properties": {
        "kind": "SENSOR_CONTACT",
        "parent_track": "SENSOR",
        "time": "2010-01-12T12:52:00+00:00",
        "bearing": 0.3,
        "range": 0.0,
        "sensor_name": "HM",
        "label": "SUBJECT held on HM"
      }
    },
    {
      "type": "Feature",
      "id": "a0de43c9-edc5-4d4e-93ca-4a8643dc942f",
      "geometry": null,
      "properties": {
        "kind": "SENSOR_CONTACT",
        "parent_track": "SENSOR",
        "time": "2010-01-12T12:54:00+00:00",
        "bearing": 359.6,
        "range": 0.0,
        "sensor_name": "HM",
        "label": "SUBJECT held on HM"
      }
    },
    {
      "type": "Feature",
      "id": "eeef4367-23fc-42ac-b52e-fccb0b7cfe13",
      "geometry": null,
      "properties": {
        "kind": "SENSOR_CONTACT",
        "parent_track": "SENSOR",
        "time": "2010-01-12T12:56:00+00:00",
        "bearing": 358.6,
        "range": 0.0,
        "sensor_name": "HM",
        "label": "SUBJECT held on HM"
      }
    },
    {
      "type": "Feature",
      "id": "1727f80b-0149-4e71-a2f0-95fba1d67b14",
      "geometry": null,
      "properties": {
        "kind": "SENSOR_CONTACT",
        "parent_track": "SENSOR",
        "time": "2010-01-12T12:58:00+00:00",
        "bearing": 357.6,
        "range": 0.0,
        "sensor_name": "HM",
        "label": "SUBJECT held on HM"
      }
    },
    {
      "type": "Feature",
      "id": "6d99316b-a9e1-4b89-8ad4-0e4e4d22ff7d",
      "geometry": null,
      "properties": {
        "kind": "SENSOR_CONTACT",
        "parent_track": "SENSOR",
        "time": "2010-01-12T13:00:00+00:00",
        "bearing": 356.7,
        "range": 0.0,
        "sensor_name": "HM",
        "label": "SUBJECT held on HM"
      }
    },
    {
      "type": "Feature",
      "id": "446c277c-6f00-4467-988e-745bbf4a46eb",
      "geometry": null,
      "properties": {
        "kind": "SENSOR_CONTACT",
        "parent_track": "SENSOR",
        "time": "2010-01-12T13:02:00+00:00",
        "bearing": 355.7,
        "range": 0.0,
        "sensor_name": "HM",
        "label": "SUBJECT held on HM"
      }
    },
    {
      "type": "Feature",
      "id": "dd74b35c-c538-4703-8686-341105660502",
      "geometry": null,
      "properties": {
        "kind": "SENSOR_CONTACT",
        "parent_track": "SENSOR",
        "time": "2010-01-12T13:04:00+00:00",
        "bearing": 355.0,
        "range": 0.0,
        "sensor_name": "HM",
        "label": "SUBJECT held on HM"
      }
    },
    {
      "type": "Feature",
      "id": "2b4a4364-0154-42c1-bb24-20446ada3295",
      "geometry": null,
      "properties": {
        "kind": "SENSOR_CONTACT",
        "parent_track": "SENSOR",
        "time": "2010-01-12T13:06:00+00:00",
        "bearing": 354.5,
        "range": 0.0,
        "sensor_name": "HM",
        "label": "SUBJECT held on HM"
      }
    },
    {
      "type": "Feature",
      "id": "22e5b963-9692-464c-a8f6-c095a310d38c",
      "geometry": null,
      "properties": {
        "kind": "SENSOR_CONTACT",
        "parent_track": "SENSOR",
        "time": "2010-01-12T13:08:00+00:00",
        "bearing": 354.2,
        "range": 0.0,
        "sensor_name": "HM",
        "label": "SUBJECT held on HM"
      }
    },
    {
      "type": "Feature",
      "id": "161caca9-20f7-4ea5-83e1-793051e6d829",
      "geometry": null,
      "properties": {
        "kind": "SENSOR_CONTACT",
        "parent_track": "SENSOR",
        "time": "2010-01-12T13:10:00+00:00",
        "bearing": 354.3,
        "range": 0.0,
        "sensor_name": "HM",
        "label": "SUBJECT held on HM"
      }
    },
    {
      "type": "Feature",
      "id": "2c7eadff-d75f-45d5-914e-23be4481b703",
      "geometry": null,
      "properties": {
        "kind": "SENSOR_CONTACT",
        "parent_track": "SENSOR",
        "time": "2010-01-12T13:12:00+00:00",
        "bearing": 354.7,
        "range": 0.0,
        "sensor_name": "HM",
        "label": "SUBJECT held on HM"
      }
    },
    {
      "type": "Feature",
      "id": "26b8819b-2b5c-416a-82f2-560011356fb6",
      "geometry": null,
      "properties": {
        "kind": "SENSOR_CONTACT",
        "parent_track": "SENSOR",
        "time": "2010-01-12T13:14:00+00:00",
        "bearing": 355.5,
        "range": 0.0,
        "sensor_name": "HM",
        "label": "SUBJECT held on HM"
      }
    },
    {
      "type": "Feature",
      "id": "7b24b8eb-2206-4078-bb87-91f29291e768",
      "geometry": null,
      "properties": {
        "kind": "SENSOR_CONTACT",
        "parent_track": "SENSOR",
        "time": "2010-01-12T13:16:00+00:00",
        "bearing": 356.4,
        "range": 0.0,
        "sensor_name": "HM",
        "label": "SUBJECT held on HM"
      }
    },
    {
      "type": "Feature",
      "id": "a1763df6-3067-42e4-b2d6-e78b0b2d2606",
      "geometry": null,
      "properties": {
        "kind": "SENSOR_CONTACT",
        "parent_track": "SENSOR",
        "time": "2010-01-12T13:18:00+00:00",
        "bearing": 357.4,
        "range": 0.0,
        "sensor_name": "HM",
        "label": "SUBJECT held on HM"
      }
    },
    {
      "type": "Feature",
      "id": "5c4b4e80-98d5-49d4-8d2d-98c9c68a891d",
      "geometry": null,
      "properties": {
        "kind": "SENSOR_CONTACT",
        "parent_track": "SENSOR",
        "time": "2010-01-12T13:20:00+00:00",
        "bearing": 358.3,
        "range": 0.0,
        "sensor_name": "HM",
        "label": "SUBJECT held on HM"
      }
    },
    {
      "type": "Feature",
      "id": "142e5dcf-e0cf-47a6-9081-5f4463fe24c2",
      "geometry": null,
      "properties": {
        "kind": "SENSOR_CONTACT",
        "parent_track": "SENSOR",
        "time": "2010-01-12T13:22:00+00:00",
        "bearing": 359.2,
        "range": 0.0,
        "sensor_name": "HM",
        "label": "SUBJECT held on HM"
      }
    },
    {
      "type": "Feature",
      "id": "da328c1b-8e2c-4159-b0b0-32ecca346767",
      "geometry": null,
      "properties": {
        "kind": "SENSOR_CONTACT",
        "parent_track": "SENSOR",
        "time": "2010-01-12T13:24:00+00:00",
        "bearing": 0.2,
        "range": 0.0,
        "sensor_name": "HM",
        "label": "SUBJECT held on HM"
      }
    },
    {
      "type": "Feature",
      "id": "519bfbe3-f4f9-432a-bd79-5752aa7a9a24",
      "geometry": null,
      "properties": {
        "kind": "SENSOR_CONTACT",
        "parent_track": "SENSOR",
        "time": "2010-01-12T13:26:00+00:00",
        "bearing": 1.1,
        "range": 0.0,
        "sensor_name": "HM",
        "label": "SUBJECT held on HM"
      }
    },
    {
      "type": "Feature",
      "id": "e74ebfbc-1df6-4c55-be5f-8f7aeda3308c",
      "geometry": null,
      "properties": {
        "kind": "SENSOR_CONTACT",
        "parent_track": "SENSOR",
        "time": "2010-01-12T13:28:00+00:00",
        "bearing": 1.9,
        "range": 0.0,
        "sensor_name": "HM",
        "label": "SUBJECT held on HM"
      }
    },
    {
      "type": "Feature",
      "id": "f00a7e20-d970-4dcc-89bd-d9782de2b7f2",
      "geometry": null,
      "properties": {
        "kind": "SENSOR_CONTACT",
        "parent_track": "SENSOR",
        "time": "2010-01-12T13:30:00+00:00",
        "bearing": 2.6,
        "range": 0.0,
        "sensor_name": "HM",
        "label": "SUBJECT held on HM"
      }
    },
    {
      "type": "Feature",
      "id": "9b5bb765-7dc0-4328-8ebd-9b8383d992b4",
      "geometry": null,
      "properties": {
        "kind": "SENSOR_CONTACT",
        "parent_track": "SENSOR",
        "time": "2010-01-12T13:32:00+00:00",
        "bearing": 2.9,
        "range": 0.0,
        "sensor_name": "HM",
        "label": "SUBJECT held on HM"
      }
    },
    {
      "type": "Feature",
      "id": "d4c8cea0-311d-4013-9e84-29bbf9e4da74",
      "geometry": null,
      "properties": {
        "kind": "SENSOR_CONTACT",
        "parent_track": "SENSOR",
        "time": "2010-01-12T13:34:00+00:00",
        "bearing": 3.3,
        "range": 0.0,
        "sensor_name": "HM",
        "label": "SUBJECT held on HM"
      }
    },
    {
      "type": "Feature",
      "id": "81bfc3fc-f8ac-4ddb-83b0-e92fd841b993",
      "geometry": null,
      "properties": {
        "kind": "SENSOR_CONTACT",
        "parent_track": "SENSOR",
        "time": "2010-01-12T13:36:00+00:00",
        "bearing": 3.6,
        "range": 0.0,
        "sensor_name": "HM",
        "label": "SUBJECT held on HM"
      }
    },
    {
      "type": "Feature",
      "id": "37f1f322-5b68-4661-b747-1c68c0a4bf5c",
      "geometry": null,
      "properties": {
        "kind": "SENSOR_CONTACT",
        "parent_track": "SENSOR",
        "time": "2010-01-12T13:38:00+00:00",
        "bearing": 3.9,
        "range": 0.0,
        "sensor_name": "HM",
        "label": "SUBJECT held on HM"
      }
    },
    {
      "type": "Feature",
      "id": "7b1a134c-8dbe-4b98-8a99-6f92083e2803",
      "geometry": null,
      "properties": {
        "kind": "SENSOR_CONTACT",
        "parent_track": "SENSOR",
        "time": "2010-01-12T13:40:00+00:00",
        "bearing": 4.3,
        "range": 0.0,
        "sensor_name": "HM",
        "label": "SUBJECT held on HM"
      }
    },
    {
      "type": "Feature",
      "id": "d118db0b-23fa-4bad-929f-830757aa578d",
      "geometry": null,
      "properties": {
        "kind": "SENSOR_CONTACT",
        "parent_track": "SENSOR",
        "time": "2010-01-12T13:42:00+00:00",
        "bearing": 4.6,
        "range": 0.0,
        "sensor_name": "HM",
        "label": "SUBJECT held on HM"
      }
    },
    {
      "type": "Feature",
      "id": "020b6931-915c-42f4-81b2-ba5b19d991d0",
      "geometry": null,
      "properties": {
        "kind": "SENSOR_CONTACT",
        "parent_track": "SENSOR",
        "time": "2010-01-12T13:44:00+00:00",
        "bearing": 4.9,
        "range": 0.0,
        "sensor_name": "HM",
        "label": "SUBJECT held on HM"
      }
    },
    {
      "type": "Feature",
      "id": "a561f7a9-3c5b-484d-9e28-311074770e0e",
      "geometry": null,
      "properties": {
        "kind": "SENSOR_CONTACT",
        "parent_track": "SENSOR",
        "time": "2010-01-12T13:46:00+00:00",
        "bearing": 5.2,
        "range": 0.0,
        "sensor_name": "HM",
        "label": "SUBJECT held on HM"
      }
    },
    {
      "type": "Feature",
      "id": "18709e3f-dd84-4643-b4f5-2c07ab5d15d3",
      "geometry": null,
      "properties": {
        "kind": "SENSOR_CONTACT",
        "parent_track": "SENSOR",
        "time": "2010-01-12T13:48:00+00:00",
        "bearing": 5.6,
        "range": 0.0,
        "sensor_name": "HM",
        "label": "SUBJECT held on HM"
      }
    },
    {
      "type": "Feature",
      "id": "97533b42-de5f-40bf-becd-b5d336934e30",
      "geometry": null,
      "properties": {
        "kind": "SENSOR_CONTACT",
        "parent_track": "SENSOR",
        "time": "2010-01-12T13:50:00+00:00",
        "bearing": 6.3,
        "range": 0.0,
        "sensor_name": "HM",
        "label": "SUBJECT held on HM"
      }
    },
    {
      "type": "Feature",
      "id": "8fb164be-851b-4d53-8ec2-dc19f9af56a3",
      "geometry": null,
      "properties": {
        "kind": "SENSOR_CONTACT",
        "parent_track": "SENSOR",
        "time": "2010-01-12T13:52:00+00:00",
        "bearing": 7.1,
        "range": 0.0,
        "sensor_name": "HM",
        "label": "SUBJECT held on HM"
      }
    },
    {
      "type": "Feature",
      "id": "9faf7f8e-cbac-4480-8233-e31595294b98",
      "geometry": null,
      "properties": {
        "kind": "SENSOR_CONTACT",
        "parent_track": "SENSOR",
        "time": "2010-01-12T13:54:00+00:00",
        "bearing": 7.9,
        "range": 0.0,
        "sensor_name": "HM",
        "label": "SUBJECT held on HM"
      }
    },
    {
      "type": "Feature",
      "id": "dc1a6323-26d0-4940-ae1c-4a6e1d91f0a6",
      "geometry": null,
      "properties": {
        "kind": "SENSOR_CONTACT",
        "parent_track": "SENSOR",
        "time": "2010-01-12T13:56:00+00:00",
        "bearing": 8.5,
        "range": 0.0,
        "sensor_name": "HM",
        "label": "SUBJECT held on HM"
      }
    },
    {
      "type": "Feature",
      "id": "76148b28-ffee-4822-8ca4-583d67cedb33",
      "geometry": null,
      "properties": {
        "kind": "SENSOR_CONTACT",
        "parent_track": "SENSOR",
        "time": "2010-01-12T13:58:00+00:00",
        "bearing": 9.2,
        "range": 0.0,
        "sensor_name": "HM",
        "label": "SUBJECT held on HM"
      }
    },
    {
      "type": "Feature",
      "id": "d5fe0601-1297-491c-91ab-b507747aeb98",
      "geometry": null,
      "properties": {
        "kind": "SENSOR_CONTACT",
        "parent_track": "SENSOR",
        "time": "2010-01-12T14:00:00+00:00",
        "bearing": 9.8,
        "range": 0.0,
        "sensor_name": "HM",
        "label": "SUBJECT held on HM"
      }
    },
    {
      "type": "Feature",
      "id": "00dda6f7-2246-41e2-b409-d30ed26cdf18",
      "geometry": null,
      "properties": {
        "kind": "SENSOR_CONTACT",
        "parent_track": "SENSOR",
        "time": "2010-01-12T14:02:00+00:00",
        "bearing": 10.4,
        "range": 0.0,
        "sensor_name": "HM",
        "label": "SUBJECT held on HM"
      }
    },
    {
      "type": "Feature",
      "id": "6198568e-cee8-44a2-877e-16107620a361",
      "geometry": null,
      "properties": {
        "kind": "SENSOR_CONTACT",
        "parent_track": "SENSOR",
        "time": "2010-01-12T14:04:00+00:00",
        "bearing": 11.1,
        "range": 0.0,
        "sensor_name": "HM",
        "label": "SUBJECT held on HM"
      }
    },
    {
      "type": "Feature",
      "id": "994b7eae-bbda-4c28-91cc-a48a850f64e6",
      "geometry": null,
      "properties": {
        "kind": "SENSOR_CONTACT",
        "parent_track": "SENSOR",
        "time": "2010-01-12T14:06:00+00:00",
        "bearing": 11.7,
        "range": 0.0,
        "sensor_name": "HM",
        "label": "SUBJECT held on HM"
      }
    },
    {
      "type": "Feature",
      "id": "f7eeb7fe-c255-4dc9-85f4-b224fbc0b3a9",
      "geometry": null,
      "properties": {
        "kind": "SENSOR_CONTACT",
        "parent_track": "SENSOR",
        "time": "2010-01-12T14:08:00+00:00",
        "bearing": 12.4,
        "range": 0.0,
        "sensor_name": "HM",
        "label": "SUBJECT held on HM"
      }
    },
    {
      "type": "Feature",
      "id": "4f04d732-ea38-4a91-a5dc-61b2c7931188",
      "geometry": null,
      "properties": {
        "kind": "SENSOR_CONTACT",
        "parent_track": "SENSOR",
        "time": "2010-01-12T14:10:00+00:00",
        "bearing": 13.1,
        "range": 0.0,
        "sensor_name": "HM",
        "label": "SUBJECT held on HM"
      }
    },
    {
      "type": "Feature",
      "id": "92842f6c-3cd8-4eda-9e62-610b2424795e",
      "geometry": null,
      "properties": {
        "kind": "SENSOR_CONTACT",
        "parent_track": "SENSOR",
        "time": "2010-01-12T14:12:00+00:00",
        "bearing": 13.7,
        "range": 0.0,
        "sensor_name": "HM",
        "label": "SUBJECT held on HM"
      }
    },
    {
      "type": "Feature",
      "id": "03135a77-aa0d-48cb-8191-5b47c21dc142",
      "geometry": null,
      "properties": {
        "kind": "SENSOR_CONTACT",
        "parent_track": "SENSOR",
        "time": "2010-01-12T14:14:00+00:00",
        "bearing": 14.4,
        "range": 0.0,
        "sensor_name": "HM",
        "label": "SUBJECT held on HM"
      }
    },
    {
      "type": "Feature",
      "id": "bf8c2142-fc95-4e4d-bb8a-c975f4af78a7",
      "geometry": null,
      "properties": {
        "kind": "SENSOR_CONTACT",
        "parent_track": "SENSOR",
        "time": "2010-01-12T14:16:00+00:00",
        "bearing": 14.8,
        "range": 0.0,
        "sensor_name": "HM",
        "label": "SUBJECT held on HM"
      }
    },
    {
      "type": "Feature",
      "id": "73ff4f1e-9de4-49ce-b29f-6709d42ad087",
      "geometry": null,
      "properties": {
        "kind": "SENSOR_CONTACT",
        "parent_track": "SENSOR",
        "time": "2010-01-12T14:18:00+00:00",
        "bearing": 15.0,
        "range": 0.0,
        "sensor_name": "HM",
        "label": "SUBJECT held on HM"
      }
    },
    {
      "type": "Feature",
      "id": "9f445e1c-e4fd-4f86-a0dd-4d40d6e55a50",
      "geometry": null,
      "properties": {
        "kind": "SENSOR_CONTACT",
        "parent_track": "SENSOR",
        "time": "2010-01-12T14:20:00+00:00",
        "bearing": 15.3,
        "range": 0.0,
        "sensor_name": "HM",
        "label": "SUBJECT held on HM"
      }
    },
    {
      "type": "Feature",
      "id": "69b57087-a60c-41d3-95f4-56c981aa86e1",
      "geometry": null,
      "properties": {
        "kind": "SENSOR_CONTACT",
        "parent_track": "SENSOR",
        "time": "2010-01-12T14:22:00+00:00",
        "bearing": 15.5,
        "range": 0.0,
        "sensor_name": "HM",
        "label": "SUBJECT held on HM"
      }
    },
    {
      "type": "Feature",
      "id": "2e2da9a5-616d-433d-9582-fed6c3d1e5ac",
      "geometry": null,
      "properties": {
        "kind": "SENSOR_CONTACT",
        "parent_track": "SENSOR",
        "time": "2010-01-12T14:24:00+00:00",
        "bearing": 15.8,
        "range": 0.0,
        "sensor_name": "HM",
        "label": "SUBJECT held on HM"
      }
    },
    {
      "type": "Feature",
      "id": "571c37dd-ee52-42e4-b942-3cfd77371c8a",
      "geometry": null,
      "properties": {
        "kind": "SENSOR_CONTACT",
        "parent_track": "SENSOR",
        "time": "2010-01-12T14:26:00+00:00",
        "bearing": 16.0,
        "range": 0.0,
        "sensor_name": "HM",
        "label": "SUBJECT held on HM"
      }
    },
    {
      "type": "Feature",
      "id": "bea6eaba-af88-4334-95ab-3df80d97fad9",
      "geometry": null,
      "properties": {
        "kind": "SENSOR_CONTACT",
        "parent_track": "SENSOR",
        "time": "2010-01-12T14:28:00+00:00",
        "bearing": 16.2,
        "range": 0.0,
        "sensor_name": "HM",
        "label": "SUBJECT held on HM"
      }
    },
    {
      "type": "Feature",
      "id": "21f2fbc8-ee33-4c76-9eaf-145ff510fcf8",
      "geometry": null,
      "properties": {
        "kind": "SENSOR_CONTACT",
        "parent_track": "SENSOR",
        "time": "2010-01-12T14:30:00+00:00",
        "bearing": 16.5,
        "range": 0.0,
        "sensor_name": "HM",
        "label": "SUBJECT held on HM"
      }
    },
    {
      "type": "Feature",
      "id": "7056fc0c-5eaa-4b80-9f0f-77fdf3293a22",
      "geometry": null,
      "properties": {
        "kind": "SENSOR_CONTACT",
        "parent_track": "SENSOR",
        "time": "2010-01-12T14:32:00+00:00",
        "bearing": 16.7,
        "range": 0.0,
        "sensor_name": "HM",
        "label": "SUBJECT held on HM"
      }
    },
    {
      "type": "Feature",
      "id": "7c8b0b74-9da1-4227-be99-2d4f3d671d38",
      "geometry": null,
      "properties": {
        "kind": "SENSOR_CONTACT",
        "parent_track": "SENSOR",
        "time": "2010-01-12T14:34:00+00:00",
        "bearing": 17.1,
        "range": 0.0,
        "sensor_name": "HM",
        "label": "SUBJECT held on HM"
      }
    },
    {
      "type": "Feature",
      "id": "94407d2e-4f7e-46c5-80e3-7daa407c15bc",
      "geometry": null,
      "properties": {
        "kind": "SENSOR_CONTACT",
        "parent_track": "SENSOR",
        "time": "2010-01-12T14:36:00+00:00",
        "bearing": 17.4,
        "range": 0.0,
        "sensor_name": "HM",
        "label": "SUBJECT held on HM"
      }
    },
    {
      "type": "Feature",
      "id": "2301fab0-42b1-498d-9433-0078bb6b2230",
      "geometry": null,
      "properties": {
        "kind": "SENSOR_CONTACT",
        "parent_track": "SENSOR",
        "time": "2010-01-12T14:38:00+00:00",
        "bearing": 17.8,
        "range": 0.0,
        "sensor_name": "HM",
        "label": "SUBJECT held on HM"
      }
    },
    {
      "type": "Feature",
      "id": "f29b390b-c24c-428e-bee9-440f2999efda",
      "geometry": null,
      "properties": {
        "kind": "SENSOR_CONTACT",
        "parent_track": "SENSOR",
        "time": "2010-01-12T14:40:00+00:00",
        "bearing": 18.2,
        "range": 0.0,
        "sensor_name": "HM",
        "label": "SUBJECT held on HM"
      }
    },
    {
      "type": "Feature",
      "id": "50806112-6f98-48e3-8808-de857a9a0db3",
      "geometry": null,
      "properties": {
        "kind": "SENSOR_CONTACT",
        "parent_track": "SENSOR",
        "time": "2010-01-12T14:42:00+00:00",
        "bearing": 18.5,
        "range": 0.0,
        "sensor_name": "HM",
        "label": "SUBJECT held on HM"
      }
    },
    {
      "type": "Feature",
      "id": "74806942-c8a2-464a-9563-b5158b047631",
      "geometry": null,
      "properties": {
        "kind": "SENSOR_CONTACT",
        "parent_track": "SENSOR",
        "time": "2010-01-12T14:44:00+00:00",
        "bearing": 18.9,
        "range": 0.0,
        "sensor_name": "HM",
        "label": "SUBJECT held on HM"
      }
    },
    {
      "type": "Feature",
      "id": "6cf14378-6658-4f7c-9e91-02eb9fc5b9f3",
      "geometry": null,
      "properties": {
        "kind": "SENSOR_CONTACT",
        "parent_track": "SENSOR",
        "time": "2010-01-12T14:46:00+00:00",
        "bearing": 19.3,
        "range": 0.0,
        "sensor_name": "HM",
        "label": "SUBJECT held on HM"
      }
    },
    {
      "type": "Feature",
      "id": "cde1c936-7239-46d8-aa97-c68e6ff8b582",
      "geometry": null,
      "properties": {
        "kind": "SENSOR_CONTACT",
        "parent_track": "SENSOR",
        "time": "2010-01-12T14:48:00+00:00",
        "bearing": 19.6,
        "range": 0.0,
        "sensor_name": "HM",
        "label": "SUBJECT held on HM"
      }
    },
    {
      "type": "Feature",
      "id": "9f72b509-9e13-4576-8d7d-760db3f150aa",
      "geometry": null,
      "properties": {
        "kind": "SENSOR_CONTACT",
        "parent_track": "SENSOR",
        "time": "2010-01-12T14:50:00+00:00",
        "bearing": 20.0,
        "range": 0.0,
        "sensor_name": "HM",
        "label": "SUBJECT held on HM"
      }
    },
    {
      "type": "Feature",
      "id": "6351cce0-af04-41fe-bc21-f8da766bfd67",
      "geometry": null,
      "properties": {
        "kind": "SENSOR_CONTACT",
        "parent_track": "SENSOR",
        "time": "2010-01-12T14:52:00+00:00",
        "bearing": 20.4,
        "range": 0.0,
        "sensor_name": "HM",
        "label": "SUBJECT held on HM"
      }
    },
    {
      "type": "Feature",
      "id": "8de4d2da-3440-4f58-81cd-1871640c2225",
      "geometry": null,
      "properties": {
        "kind": "SENSOR_CONTACT",
        "parent_track": "SENSOR",
        "time": "2010-01-12T14:54:00+00:00",
        "bearing": 20.6,
        "range": 0.0,
        "sensor_name": "HM",
        "label": "SUBJECT held on HM"
      }
    },
    {
      "type": "Feature",
      "id": "7e5970be-b6e1-4ffa-8672-4b1fac066703",
      "geometry": null,
      "properties": {
        "kind": "SENSOR_CONTACT",
        "parent_track": "SENSOR",
        "time": "2010-01-12T14:56:00+00:00",
        "bearing": 20.6,
        "range": 0.0,
        "sensor_name": "HM",
        "label": "SUBJECT held on HM"
      }
    },
    {
      "type": "Feature",
      "id": "17e68833-dd6a-4f05-a844-8c7c3edde0ae",
      "geometry": null,
      "properties": {
        "kind": "SENSOR_CONTACT",
        "parent_track": "SENSOR",
        "time": "2010-01-12T14:58:00+00:00",
        "bearing": 20.6,
        "range": 0.0,
        "sensor_name": "HM",
        "label": "SUBJECT held on HM"
      }
    },
    {
      "type": "Feature",
      "id": "7db1f71f-a2c5-4d7e-9eb9-a25cb3b861fe",
      "geometry": null,
      "properties": {
        "kind": "SENSOR_CONTACT",
        "parent_track": "SENSOR",
        "time": "2010-01-12T15:00:00+00:00",
        "bearing": 20.6,
        "range": 0.0,
        "sensor_name": "HM",
        "label": "SUBJECT held on HM"
      }
    },
    {
      "type": "Feature",
      "id": "40ed117a-aed0-4c4a-a0aa-b145adb8a3b7",
      "geometry": null,
      "properties": {
        "kind": "SENSOR_CONTACT",
        "parent_track": "SENSOR",
        "time": "2010-01-12T15:02:00+00:00",
        "bearing": 20.5,
        "range": 0.0,
        "sensor_name": "HM",
        "label": "SUBJECT held on HM"
      }
    },
    {
      "type": "Feature",
      "id": "ba46ed5c-6666-4c2a-b6e3-2c0d3a1b6df4",
      "geometry": null,
      "properties": {
        "kind": "SENSOR_CONTACT",
        "parent_track": "SENSOR",
        "time": "2010-01-12T15:04:00+00:00",
        "bearing": 20.5,
        "range": 0.0,
        "sensor_name": "HM",
        "label": "SUBJECT held on HM"
      }
    },
    {
      "type": "Feature",
      "id": "289d8263-11e3-4bec-a52a-6f2a77cb3cd4",
      "geometry": null,
      "properties": {
        "kind": "SENSOR_CONTACT",
        "parent_track": "SENSOR",
        "time": "2010-01-12T15:06:00+00:00",
        "bearing": 20.5,
        "range": 0.0,
        "sensor_name": "HM",
        "label": "SUBJECT held on HM"
      }
    },
    {
      "type": "Feature",
      "id": "fb251e55-629b-4dbd-a679-02bacb18d917",
      "geometry": null,
      "properties": {
        "kind": "SENSOR_CONTACT",
        "parent_track": "SENSOR",
        "time": "2010-01-12T15:08:00+00:00",
        "bearing": 20.6,
        "range": 0.0,
        "sensor_name": "HM",
        "label": "SUBJECT held on HM"
      }
    },
    {
      "type": "Feature",
      "id": "0e664592-832a-41f6-8e91-0fca19cf3859",
      "geometry": null,
      "properties": {
        "kind": "SENSOR_CONTACT",
        "parent_track": "SENSOR",
        "time": "2010-01-12T15:10:00+00:00",
        "bearing": 20.9,
        "range": 0.0,
        "sensor_name": "HM",
        "label": "SUBJECT held on HM"
      }
    },
    {
      "type": "Feature",
      "id": "64883a6d-2076-4e60-a221-690c6048346a",
      "geometry": null,
      "properties": {
        "kind": "SENSOR_CONTACT",
        "parent_track": "SENSOR",
        "time": "2010-01-12T15:12:00+00:00",
        "bearing": 21.3,
        "range": 0.0,
        "sensor_name": "HM",
        "label": "SUBJECT held on HM"
      }
    },
    {
      "type": "Feature",
      "id": "93784342-4536-48cf-bd5e-9c625bf616a1",
      "geometry": null,
      "properties": {
        "kind": "SENSOR_CONTACT",
        "parent_track": "SENSOR",
        "time": "2010-01-12T15:14:00+00:00",
        "bearing": 21.7,
        "range": 0.0,
        "sensor_name": "HM",
        "label": "SUBJECT held on HM"
      }
    },
    {
      "type": "Feature",
      "id": "26d85df5-dc03-4b4e-82d3-d7bfb73ec009",
      "geometry": null,
      "properties": {
        "kind": "SENSOR_CONTACT",
        "parent_track": "SENSOR",
        "time": "2010-01-12T15:16:00+00:00",
        "bearing": 22.0,
        "range": 0.0,
        "sensor_name": "HM",
        "label": "SUBJECT held on HM"
      }
    },
    {
      "type": "Feature",
      "id": "03c7d571-83cf-40cb-b00a-fbf45dc835f6",
      "geometry": null,
      "properties": {
        "kind": "SENSOR_CONTACT",
        "parent_track": "SENSOR",
        "time": "2010-01-12T15:18:00+00:00",
        "bearing": 22.4,
        "range": 0.0,
        "sensor_name": "HM",
        "label": "SUBJECT held on HM"
      }
    },
    {
      "type": "Feature",
      "id": "b7ca4c72-da3d-4f9a-8ba0-6d2e85bea18e",
      "geometry": null,
      "properties": {
        "kind": "SENSOR_CONTACT",
        "parent_track": "SENSOR",
        "time": "2010-01-12T15:20:00+00:00",
        "bearing": 22.8,
        "range": 0.0,
        "sensor_name": "HM",
        "label": "SUBJECT held on HM"
      }
    },
    {
      "type": "Feature",
      "id": "5ee00299-729b-4d03-a9d6-c4e0c4b35ebf",
      "geometry": null,
      "properties": {
        "kind": "SENSOR_CONTACT",
        "parent_track": "SENSOR",
        "time": "2010-01-12T15:22:00+00:00",
        "bearing": 23.2,
        "range": 0.0,
        "sensor_name": "HM",
        "label": "SUBJECT held on HM"
      }
    },
    {
      "type": "Feature",
      "id": "bb34f124-11ea-490f-b02b-3defa18f68b1",
      "geometry": null,
      "properties": {
        "kind": "SENSOR_CONTACT",
        "parent_track": "SENSOR",
        "time": "2010-01-12T15:24:00+00:00",
        "bearing": 23.6,
        "range": 0.0,
        "sensor_name": "HM",
        "label": "SUBJECT held on HM"
      }
    },
    {
      "type": "Feature",
      "id": "76dd4104-1734-42ae-ae8f-b3bf8d1c3e06",
      "geometry": null,
      "properties": {
        "kind": "SENSOR_CONTACT",
        "parent_track": "SENSOR",
        "time": "2010-01-12T15:26:00+00:00",
        "bearing": 23.9,
        "range": 0.0,
        "sensor_name": "HM",
        "label": "SUBJECT held on HM"
      }
    },
    {
      "type": "Feature",
      "id": "0f2ce8a7-4746-4f38-a96d-dc54d75f5b5a",
      "geometry": null,
      "properties": {
        "kind": "SENSOR_CONTACT",
        "parent_track": "SENSOR",
        "time": "2010-01-12T15:28:00+00:00",
        "bearing": 24.3,
        "range": 0.0,
        "sensor_name": "HM",
        "label": "SUBJECT held on HM"
      }
    },
    {
      "type": "Feature",
      "id": "fd1d8bbe-416b-41e5-b7c6-bddfa082a5e0",
      "geometry": null,
      "properties": {
        "kind": "SENSOR_CONTACT",
        "parent_track": "SENSOR",
        "time": "2010-01-12T15:30:00+00:00",
        "bearing": 24.7,
        "range": 0.0,
        "sensor_name": "HM",
        "label": "SUBJECT held on HM"
      }
    },
    {
      "type": "Feature",
      "id": "889297f3-6fbe-4a01-8753-b625c89e946f",
      "geometry": null,
      "properties": {
        "kind": "SENSOR_CONTACT",
        "parent_track": "SENSOR",
        "time": "2010-01-12T15:32:00+00:00",
        "bearing": 25.1,
        "range": 0.0,
        "sensor_name": "HM",
        "label": "SUBJECT held on HM"
      }
    },
    {
      "type": "Feature",
      "id": "fa2625ea-dabb-4366-85aa-979be0740e8a",
      "geometry": null,
      "properties": {
        "kind": "SENSOR_CONTACT",
        "parent_track": "SENSOR",
        "time": "2010-01-12T15:34:00+00:00",
        "bearing": 25.3,
        "range": 0.0,
        "sensor_name": "HM",
        "label": "SUBJECT held on HM"
      }
    },
    {
      "type": "Feature",
      "id": "370d1d09-9326-40cb-a535-df026e03ba6e",
      "geometry": null,
      "properties": {
        "kind": "SENSOR_CONTACT",
        "parent_track": "SENSOR",
        "time": "2010-01-12T15:36:00+00:00",
        "bearing": 25.3,
        "range": 0.0,
        "sensor_name": "HM",
        "label": "SUBJECT held on HM"
      }
    },
    {
      "type": "Feature",
      "id": "3331be56-2471-47f8-a560-f4cf0b13307f",
      "geometry": null,
      "properties": {
        "kind": "SENSOR_CONTACT",
        "parent_track": "SENSOR",
        "time": "2010-01-12T15:38:00+00:00",
        "bearing": 25.3,
        "range": 0.0,
        "sensor_name": "HM",
        "label": "SUBJECT held on HM"
      }
    },
    {
      "type": "Feature",
      "id": "fc06e063-5807-4346-9cbc-a8de47423937",
      "geometry": null,
      "properties": {
        "kind": "SENSOR_CONTACT",
        "parent_track": "SENSOR",
        "time": "2010-01-12T15:40:00+00:00",
        "bearing": 25.3,
        "range": 0.0,
        "sensor_name": "HM",
        "label": "SUBJECT held on HM"
      }
    },
    {
      "type": "Feature",
      "id": "29894c80-6d8b-4a58-9b8f-42bb9340d772",
      "geometry": null,
      "properties": {
        "kind": "SENSOR_CONTACT",
        "parent_track": "SENSOR",
        "time": "2010-01-12T15:42:00+00:00",
        "bearing": 25.3,
        "range": 0.0,
        "sensor_name": "HM",
        "label": "SUBJECT held on HM"
      }
    },
    {
      "type": "Feature",
      "id": "4fbfbf60-8e29-481a-848a-9fa8982b7fd7",
      "geometry": null,
      "properties": {
        "kind": "SENSOR_CONTACT",
        "parent_track": "SENSOR",
        "time": "2010-01-12T15:44:00+00:00",
        "bearing": 25.3,
        "range": 0.0,
        "sensor_name": "HM",
        "label": "SUBJECT held on HM"
      }
    },
    {
      "type": "Feature",
      "id": "51f986c7-4ee7-4f04-94e2-59ab8d41334a",
      "geometry": null,
      "properties": {
        "kind": "SENSOR_CONTACT",
        "parent_track": "SENSOR",
        "time": "2010-01-12T15:46:00+00:00",
        "bearing": 25.3,
        "range": 0.0,
        "sensor_name": "HM",
        "label": "SUBJECT held on HM"
      }
    },
    {
      "type": "Feature",
      "id": "f62d48dd-574b-42f8-ad59-8426f246cd8a",
      "geometry": null,
      "properties": {
        "kind": "SENSOR_CONTACT",
        "parent_track": "SENSOR",
        "time": "2010-01-12T15:48:00+00:00",
        "bearing": 25.3,
        "range": 0.0,
        "sensor_name": "HM",
        "label": "SUBJECT held on HM"
      }
    },
    {
      "type": "Feature",
      "id": "2d81a8c7-2048-4285-af97-7137418eef29",
      "geometry": null,
      "properties": {
        "kind": "SENSOR_CONTACT",
        "parent_track": "SENSOR",
        "time": "2010-01-12T15:50:00+00:00",
        "bearing": 25.3,
        "range": 0.0,
        "sensor_name": "HM",
        "label": "SUBJECT held on HM"
      }
    },
    {
      "type": "Feature",
      "id": "7df581f0-8d17-437f-81b3-13313a295115",
      "geometry": null,
      "properties": {
        "kind": "SENSOR_CONTACT",
        "parent_track": "SENSOR",
        "time": "2010-01-12T15:52:00+00:00",
        "bearing": 25.3,
        "range": 0.0,
        "sensor_name": "HM",
        "label": "SUBJECT held on HM"
      }
    },
    {
      "type": "Feature",
      "id": "92c35ef8-1a7a-4fcd-a1ee-19f2305b936e",
      "geometry": null,
      "properties": {
        "kind": "SENSOR_CONTACT",
        "parent_track": "SENSOR",
        "time": "2010-01-12T15:54:00+00:00",
        "bearing": 25.3,
        "range": 0.0,
        "sensor_name": "HM",
        "label": "SUBJECT held on HM"
      }
    },
    {
      "type": "Feature",
      "id": "25b7e808-6a2b-41f0-b5f4-e6a4d8ecb06c",
      "geometry": null,
      "properties": {
        "kind": "SENSOR_CONTACT",
        "parent_track": "SENSOR",
        "time": "2010-01-12T15:56:00+00:00",
        "bearing": 25.7,
        "range": 0.0,
        "sensor_name": "HM",
        "label": "SUBJECT held on HM"
      }
    },
    {
      "type": "Feature",
      "id": "665c5a0d-5bb9-40bf-8795-c25564c9f18e",
      "geometry": null,
      "properties": {
        "kind": "SENSOR_CONTACT",
        "parent_track": "SENSOR",
        "time": "2010-01-12T15:58:00+00:00",
        "bearing": 26.1,
        "range": 0.0,
        "sensor_name": "HM",
        "label": "SUBJECT held on HM"
      }
    },
    {
      "type": "Feature",
      "id": "874af99f-64c6-4f2e-929e-78d9c459375c",
      "geometry": null,
      "properties": {
        "kind": "SENSOR_CONTACT",
        "parent_track": "SENSOR",
        "time": "2010-01-12T16:00:00+00:00",
        "bearing": 26.5,
        "range": 0.0,
        "sensor_name": "HM",
        "label": "SUBJECT held on HM"
      }
    }
  ]
}