{
  "type": "FeatureCollection",
  "features": [
    {
      "type": "Feature",
      "id": "ed589358-6223-4d59-b516-dc23eb208e76",
      "geometry": {
        "type": "LineString",
        "coordinates": [
          [
            0.0215972,
            0.0512972
          ],
          [
            0.0215972,
            0.0503722
          ],
          [
            0.0215972,
            0.0494444
          ],
          [
            0.0215972,
            0.0485194
          ],
          [
            0.0215972,
            0.0475944
          ],
          [
            0.0215972,
            0.0466667
          ],
          [
            0.0215972,
            0.0457417
          ],
          [
            0.0215972,
            0.0448167
          ],
          [
            0.0215972,
            0.0438889
          ],
          [
            0.0215972,
            0.0429639
          ],
          [
            0.0215972,
            0.0420389
          ],
          [
            0.0215972,
            0.0411111
          ],
          [
            0.0215972,
            0.0401861
          ],
          [
            0.0212917,
            0.0393306
          ],
          [
            0.0205167,
            0.0388583
          ],
          [
            0.019625,
            0.0386111
          ],
          [
            0.0187306,
            0.0383667
          ],
          [
            0.0178389,
            0.0381194
          ],
          [
            0.0169444,
            0.037875
          ],
          [
            0.0160528,
            0.0376278
          ],
          [
            0.0151611,
            0.0373833
          ],
          [
            0.0142667,
            0.0371361
          ],
          [
            0.013375,
            0.0368917
          ],
          [
            0.0124833,
            0.0366444
          ],
          [
            0.0115889,
            0.0364
          ],
          [
            0.0106972,
            0.0361528
          ],
          [
            0.0098056,
            0.0359056
          ],
          [
            0.0089111,
            0.0356611
          ],
          [
            0.0080194,
            0.0354139
          ],
          [
            0.0071278,
            0.0351694
          ],
          [
            0.0062333,
            0.0349222
          ],
          [
            0.0053417,
            0.0346778
          ],
          [
            0.0044472,
            0.0344306
          ],
          [
            0.0035556,
            0.0341861
          ],
          [
            0.0028139,
            0.0336639
          ],
          [
            0.0025667,
            0.0327889
          ],
          [
            0.0026778,
            0.0318694
          ],
          [
            0.0027889,
            0.03095
          ],
          [
            0.0029028,
            0.0300306
          ],
          [
            0.0030139,
            0.0291139
          ],
          [
            0.003125,
            0.0281944
          ],
          [
            0.0032361,
            0.027275
          ],
          [
            0.00335,
            0.0263556
          ],
          [
            0.0034611,
            0.0254361
          ],
          [
            0.0035722,
            0.0245167
          ],
          [
            0.0036861,
            0.0235972
          ],
          [
            0.0040917,
            0.0227861
          ],
          [
            0.0049194,
            0.0224139
          ],
          [
            0.0058444,
            0.0224444
          ],
          [
            0.0067694,
            0.0224861
          ],
          [
            0.0076944,
            0.022525
          ],
          [
            0.0086194,
            0.0225639
          ],
          [
            0.0095444,
            0.0226056
          ],
          [
            0.0104694,
            0.0226444
          ],
          [
            0.0113944,
            0.0226861
          ],
          [
            0.0123194,
            0.022725
          ],
          [
            0.0132444,
            0.0227639
          ],
          [
            0.0141694,
            0.0228056
          ],
          [
            0.0150944,
            0.0228444
          ],
          [
            0.0160222,
            0.0228861
          ],
          [
            0.0169472,
            0.022925
          ],
          [
            0.0178722,
            0.0229639
          ],
          [
            0.0187972,
            0.0230056
          ],
          [
            0.0197222,
            0.0230444
          ],
          [
            0.0206472,
            0.0230833
          ],
          [
            0.0215722,
            0.023125
          ],
          [
            0.0224972,
            0.0231639
          ],
          [
            0.0234222,
            0.0232056
          ],
          [
            0.0243472,
            0.0232444
          ],
          [
            0.0252722,
            0.0232833
          ],
          [
            0.0261972,
            0.023325
          ],
          [
            0.0271222,
            0.0233639
          ],
          [
            0.0280472,
            0.0234056
          ],
          [
            0.0289139,
            0.0231361
          ],
          [
            0.0294167,
            0.0223806
          ],
          [
            0.0294361,
            0.0214583
          ],
          [
            0.0294083,
            0.0205306
          ],
          [
            0.0293778,
            0.0196056
          ],
          [
            0.02935,
            0.0186806
          ],
          [
            0.0293194,
            0.0177556
          ],
          [
            0.0292889,
            0.0168306
          ],
          [
            0.0292611,
            0.0159056
          ],
          [
            0.0292306,
            0.0149778
          ],
          [
            0.0292028,
            0.0140528
          ],
          [
            0.0291722,
            0.0131278
          ],
          [
            0.0291444,
            0.0122028
          ],
          [
            0.0291139,
            0.0112778
          ],
          [
            0.0290833,
            0.0103528
          ],
          [
            0.0290556,
            0.009425
          ],
          [
            0.029025,
            0.0085
          ],
          [
            0.0289972,
            0.007575
          ],
          [
            0.0289667,
            0.00665
          ],
          [
            0.0289361,
            0.005725
          ],
          [
            0.0289083,
            0.0048
          ],
          [
            0.0288778,
            0.0038722
          ],
          [
            0.02885,
            0.0029472
          ],
          [
            0.0288194,
            0.0020222
          ],
          [
            0.0287917,
            0.0010972
          ],
          [
            0.0287611,
            0.0001722
          ],
          [
            0.0287306,
            -0.0007528
          ],
          [
            0.0287028,
            -0.0016806
          ],
          [
            0.0286722,
            -0.0026056
          ],
          [
            0.0286444,
            -0.0035306
          ],
          [
            0.0286139,
            -0.0044556
          ],
          [
            0.0285833,
            -0.0053806
          ],
          [
            0.0285556,
            -0.0063056
          ]
        ]
      },
      "properties": {
        "kind": "TRACK",
        "platform_id": "SENSOR",
        "platform_name": "SENSOR",
        "track_type": "CONTACT",
        "times": [
          1263297600000,
          1263297620000,
          1263297640000,
          1263297660000,
          1263297680000,
          1263297700000,
          1263297720000,
          1263297740000,
          1263297760000,
          1263297780000,
          1263297800000,
          1263297820000,
          1263297840000,
          1263297860000,
          1263297880000,
          1263297900000,
          1263297920000,
          1263297940000,
          1263297960000,
          1263297980000,
          1263298000000,
          1263298020000,
          1263298040000,
          1263298060000,
          1263298080000,
          1263298100000,
          1263298120000,
          1263298140000,
          1263298160000,
          1263298180000,
          1263298200000,
          1263298220000,
          1263298240000,
          1263298260000,
          1263298280000,
          1263298300000,
          1263298320000,
          1263298340000,
          1263298360000,
          1263298380000,
          1263298400000,
          1263298420000,
          1263298440000,
          1263298460000,
          1263298480000,
          1263298500000,
          1263298520000,
          1263298540000,
          1263298560000,
          1263298580000,
          1263298600000,
          1263298620000,
          1263298640000,
          1263298660000,
          1263298680000,
          1263298700000,
          1263298720000,
          1263298740000,
          1263298760000,
          1263298780000,
          1263298800000,
          1263298820000,
          1263298840000,
          1263298860000,
          1263298880000,
          1263298900000,
          1263298920000,
          1263298940000,
          1263298960000,
          1263298980000,
          1263299000000,
          1263299020000,
          1263299040000,
          1263299060000,
          1263299080000,
          1263299100000,
          1263299120000,
          1263299140000,
          1263299160000,
          1263299180000,
          1263299200000,
          1263299220000,
          1263299240000,
          1263299260000,
          1263299280000,
          1263299300000,
          1263299320000,
          1263299340000,
          1263299360000,
          1263299380000,
          1263299400000,
          1263299420000,
          1263299440000,
          1263299460000,
          1263299480000,
          1263299500000,
          1263299520000,
          1263299540000,
          1263299560000,
          1263299580000,
          1263299600000,
          1263299620000,
          1263299640000,
          1263299660000,
          1263299680000,
          1263299700000
        ],
        "start_time": "2010-01-12T12:00:00+00:00",
        "end_time": "2010-01-12T12:35:00+00:00",
        "positions": [
          {
            "time": "2010-01-12T12:00:00+00:00",
            "course": 180.0,
            "speed": 9.0,
            "depth": -0.0
          },
          {
            "time": "2010-01-12T12:00:20+00:00",
            "course": 180.0,
            "speed": 10.0,
            "depth": -0.0
          },
          {
            "time": "2010-01-12T12:00:40+00:00",
            "course": 180.0,
            "speed": 10.0,
            "depth": -0.0
          },
          {
            "time": "2010-01-12T12:01:00+00:00",
            "course": 180.0,
            "speed": 10.0,
            "depth": -0.0
          },
          {
            "time": "2010-01-12T12:01:20+00:00",
            "course": 180.0,
            "speed": 10.0,
            "depth": -0.0
          },
          {
            "time": "2010-01-12T12:01:40+00:00",
            "course": 180.0,
            "speed": 10.0,
            "depth": -0.0
          },
          {
            "time": "2010-01-12T12:02:00+00:00",
            "course": 180.0,
            "speed": 10.0,
            "depth": -0.0
          },
          {
            "time": "2010-01-12T12:02:20+00:00",
            "course": 180.0,
            "speed": 10.0,
            "depth": -0.0
          },
          {
            "time": "2010-01-12T12:02:40+00:00",
            "course": 180.0,
            "speed": 10.0,
            "depth": -0.0
          },
          {
            "time": "2010-01-12T12:03:00+00:00",
            "course": 180.0,
            "speed": 10.0,
            "depth": -0.0
          },
          {
            "time": "2010-01-12T12:03:20+00:00",
            "course": 180.0,
            "speed": 10.0,
            "depth": -0.0
          },
          {
            "time": "2010-01-12T12:03:40+00:00",
            "course": 180.0,
            "speed": 10.0,
            "depth": -0.0
          },
          {
            "time": "2010-01-12T12:04:00+00:00",
            "course": 180.0,
            "speed": 10.0,
            "depth": -0.0
          },
          {
            "time": "2010-01-12T12:04:20+00:00",
            "course": 219.3,
            "speed": 10.0,
            "depth": -0.0
          },
          {
            "time": "2010-01-12T12:04:40+00:00",
            "course": 253.82,
            "speed": 10.0,
            "depth": -0.0
          },
          {
            "time": "2010-01-12T12:05:00+00:00",
            "course": 254.6,
            "speed": 10.0,
            "depth": -0.0
          },
          {
            "time": "2010-01-12T12:05:20+00:00",
            "course": 254.6,
            "speed": 10.0,
            "depth": -0.0
          },
          {
            "time": "2010-01-12T12:05:40+00:00",
            "course": 254.6,
            "speed": 10.0,
            "depth": -0.0
          },
          {
            "time": "2010-01-12T12:06:00+00:00",
            "course": 254.6,
            "speed": 10.0,
            "depth": -0.0
          },
          {
            "time": "2010-01-12T12:06:20+00:00",
            "course": 254.6,
            "speed": 10.0,
            "depth": -0.0
          },
          {
            "time": "2010-01-12T12:06:40+00:00",
            "course": 254.6,
            "speed": 10.0,
            "depth": -0.0
          },
          {
            "time": "2010-01-12T12:07:00+00:00",
            "course": 254.6,
            "speed": 10.0,
            "depth": -0.0
          },
          {
            "time": "2010-01-12T12:07:20+00:00",
            "course": 254.6,
            "speed": 10.0,
            "depth": -0.0
          },
          {
            "time": "2010-01-12T12:07:40+00:00",
            "course": 254.6,
            "speed": 10.0,
            "depth": -0.0
          },
          {
            "time": "2010-01-12T12:08:00+00:00",
            "course": 254.6,
            "speed": 10.0,
            "depth": -0.0
          },
          {
            "time": "2010-01-12T12:08:20+00:00",
            "course": 254.6,
            "speed": 10.0,
            "depth": -0.0
          },
          {
            "time": "2010-01-12T12:08:40+00:00",
            "course": 254.6,
            "speed": 10.0,
            "depth": -0.0
          },
          {
            "time": "2010-01-12T12:09:00+00:00",
            "course": 254.6,
            "speed": 10.0,
            "depth": -0.0
          },
          {
            "time": "2010-01-12T12:09:20+00:00",
            "course": 254.6,
            "speed": 10.0,
            "depth": -0.0
          },
          {
            "time": "2010-01-12T12:09:40+00:00",
            "course": 254.6,
            "speed": 10.0,
            "depth": -0.0
          },
          {
            "time": "2010-01-12T12:10:00+00:00",
            "course": 254.6,
            "speed": 10.0,
            "depth": -0.0
          },
          {
            "time": "2010-01-12T12:10:20+00:00",
            "course": 254.6,
            "speed": 10.0,
            "depth": -0.0
          },
          {
            "time": "2010-01-12T12:10:40+00:00",
            "course": 254.6,
            "speed": 10.0,
            "depth": -0.0
          },
          {
            "time": "2010-01-12T12:11:00+00:00",
            "course": 254.6,
            "speed": 10.0,
            "depth": -0.0
          },
          {
            "time": "2010-01-12T12:11:20+00:00",
            "course": 215.3,
            "speed": 10.0,
            "depth": -0.0
          },
          {
            "time": "2010-01-12T12:11:40+00:00",
            "course": 176.0,
            "speed": 10.0,
            "depth": -0.0
          },
          {
            "time": "2010-01-12T12:12:00+00:00",
            "course": 173.07,
            "speed": 10.0,
            "depth": -0.0
          },
          {
            "time": "2010-01-12T12:12:20+00:00",
            "course": 173.06,
            "speed": 10.0,
            "depth": -0.0
          },
          {
            "time": "2010-01-12T12:12:40+00:00",
            "course": 173.06,
            "speed": 10.0,
            "depth": -0.0
          },
          {
            "time": "2010-01-12T12:13:00+00:00",
            "course": 173.06,
            "speed": 10.0,
            "depth": -0.0
          },
          {
            "time": "2010-01-12T12:13:20+00:00",
            "course": 173.06,
            "speed": 10.0,
            "depth": -0.0
          },
          {
            "time": "2010-01-12T12:13:40+00:00",
            "course": 173.06,
            "speed": 10.0,
            "depth": -0.0
          },
          {
            "time": "2010-01-12T12:14:00+00:00",
            "course": 173.06,
            "speed": 10.0,
            "depth": -0.0
          },
          {
            "time": "2010-01-12T12:14:20+00:00",
            "course": 173.06,
            "speed": 10.0,
            "depth": -0.0
          },
          {
            "time": "2010-01-12T12:14:40+00:00",
            "course": 173.06,
            "speed": 10.0,
            "depth": -0.0
          },
          {
            "time": "2010-01-12T12:15:00+00:00",
            "course": 173.06,
            "speed": 10.0,
            "depth": -0.0
          },
          {
            "time": "2010-01-12T12:15:20+00:00",
            "course": 133.76,
            "speed": 10.0,
            "depth": -0.0
          },
          {
            "time": "2010-01-12T12:15:40+00:00",
            "course": 94.46,
            "speed": 10.0,
            "depth": -0.0
          },
          {
            "time": "2010-01-12T12:16:00+00:00",
            "course": 87.55,
            "speed": 10.0,
            "depth": -0.0
          },
          {
            "time": "2010-01-12T12:16:20+00:00",
            "course": 87.53,
            "speed": 10.0,
            "depth": -0.0
          },
          {
            "time": "2010-01-12T12:16:40+00:00",
            "course": 87.53,
            "speed": 10.0,
            "depth": -0.0
          },
          {
            "time": "2010-01-12T12:17:00+00:00",
            "course": 87.53,
            "speed": 10.0,
            "depth": -0.0
          },
          {
            "time": "2010-01-12T12:17:20+00:00",
            "course": 87.53,
            "speed": 10.0,
            "depth": -0.0
          },
          {
            "time": "2010-01-12T12:17:40+00:00",
            "course": 87.53,
            "speed": 10.0,
            "depth": -0.0
          },
          {
            "time": "2010-01-12T12:18:00+00:00",
            "course": 87.53,
            "speed": 10.0,
            "depth": -0.0
          },
          {
            "time": "2010-01-12T12:18:20+00:00",
            "course": 87.53,
            "speed": 10.0,
            "depth": -0.0
          },
          {
            "time": "2010-01-12T12:18:40+00:00",
            "course": 87.53,
            "speed": 10.0,
            "depth": -0.0
          },
          {
            "time": "2010-01-12T12:19:00+00:00",
            "course": 87.53,
            "speed": 10.0,
            "depth": -0.0
          },
          {
            "time": "2010-01-12T12:19:20+00:00",
            "course": 87.53,
            "speed": 10.0,
            "depth": -0.0
          },
          {
            "time": "2010-01-12T12:19:40+00:00",
            "course": 87.53,
            "speed": 10.0,
            "depth": -0.0
          },
          {
            "time": "2010-01-12T12:20:00+00:00",
            "course": 87.53,
            "speed": 10.0,
            "depth": -0.0
          },
          {
            "time": "2010-01-12T12:20:20+00:00",
            "course": 87.53,
            "speed": 10.0,
            "depth": -0.0
          },
          {
            "time": "2010-01-12T12:20:40+00:00",
            "course": 87.53,
            "speed": 10.0,
            "depth": -0.0
          },
          {
            "time": "2010-01-12T12:21:00+00:00",
            "course": 87.53,
            "speed": 10.0,
            "depth": -0.0
          },
          {
            "time": "2010-01-12T12:21:20+00:00",
            "course": 87.53,
            "speed": 10.0,
            "depth": -0.0
          },
          {
            "time": "2010-01-12T12:21:40+00:00",
            "course": 87.53,
            "speed": 10.0,
            "depth": -0.0
          },
          {
            "time": "2010-01-12T12:22:00+00:00",
            "course": 87.53,
            "speed": 10.0,
            "depth": -0.0
          },
          {
            "time": "2010-01-12T12:22:20+00:00",
            "course": 87.53,
            "speed": 10.0,
            "depth": -0.0
          },
          {
            "time": "2010-01-12T12:22:40+00:00",
            "course": 87.53,
            "speed": 10.0,
            "depth": -0.0
          },
          {
            "time": "2010-01-12T12:23:00+00:00",
            "course": 87.53,
            "speed": 10.0,
            "depth": -0.0
          },
          {
            "time": "2010-01-12T12:23:20+00:00",
            "course": 87.53,
            "speed": 10.0,
            "depth": -0.0
          },
          {
            "time": "2010-01-12T12:23:40+00:00",
            "course": 87.53,
            "speed": 10.0,
            "depth": -0.0
          },
          {
            "time": "2010-01-12T12:24:00+00:00",
            "course": 87.53,
            "speed": 10.0,
            "depth": -0.0
          },
          {
            "time": "2010-01-12T12:24:20+00:00",
            "course": 126.83,
            "speed": 10.0,
            "depth": -0.0
          },
          {
            "time": "2010-01-12T12:24:40+00:00",
            "course": 166.13,
            "speed": 10.0,
            "depth": -0.0
          },
          {
            "time": "2010-01-12T12:25:00+00:00",
            "course": 181.76,
            "speed": 10.0,
            "depth": -0.0
          },
          {
            "time": "2010-01-12T12:25:20+00:00",
            "course": 181.82,
            "speed": 10.0,
            "depth": -0.0
          },
          {
            "time": "2010-01-12T12:25:40+00:00",
            "course": 181.82,
            "speed": 10.0,
            "depth": -0.0
          },
          {
            "time": "2010-01-12T12:26:00+00:00",
            "course": 181.82,
            "speed": 10.0,
            "depth": -0.0
          },
          {
            "time": "2010-01-12T12:26:20+00:00",
            "course": 181.82,
            "speed": 10.0,
            "depth": -0.0
          },
          {
            "time": "2010-01-12T12:26:40+00:00",
            "course": 181.82,
            "speed": 10.0,
            "depth": -0.0
          },
          {
            "time": "2010-01-12T12:27:00+00:00",
            "course": 181.82,
            "speed": 10.0,
            "depth": -0.0
          },
          {
            "time": "2010-01-12T12:27:20+00:00",
            "course": 181.82,
            "speed": 10.0,
            "depth": -0.0
          },
          {
            "time": "2010-01-12T12:27:40+00:00",
            "course": 181.82,
            "speed": 10.0,
            "depth": -0.0
          },
          {
            "time": "2010-01-12T12:28:00+00:00",
            "course": 181.82,
            "speed": 10.0,
            "depth": -0.0
          },
          {
            "time": "2010-01-12T12:28:20+00:00",
            "course": 181.82,
            "speed": 10.0,
            "depth": -0.0
          },
          {
            "time": "2010-01-12T12:28:40+00:00",
            "course": 181.82,
            "speed": 10.0,
            "depth": -0.0
          },
          {
            "time": "2010-01-12T12:29:00+00:00",
            "course": 181.82,
            "speed": 10.0,
            "depth": -0.0
          },
          {
            "time": "2010-01-12T12:29:20+00:00",
            "course": 181.82,
            "speed": 10.0,
            "depth": -0.0
          },
          {
            "time": "2010-01-12T12:29:40+00:00",
            "course": 181.82,
            "speed": 10.0,
            "depth": -0.0
          },
          {
            "time": "2010-01-12T12:30:00+00:00",
            "course": 181.82,
            "speed": 10.0,
            "depth": -0.0
          },
          {
            "time": "2010-01-12T12:30:20+00:00",
            "course": 181.82,
            "speed": 10.0,
            "depth": -0.0
          },
          {
            "time": "2010-01-12T12:30:40+00:00",
            "course": 181.82,
            "speed": 10.0,
            "depth": -0.0
          },
          {
            "time": "2010-01-12T12:31:00+00:00",
            "course": 181.82,
            "speed": 10.0,
            "depth": -0.0
          },
          {
            "time": "2010-01-12T12:31:20+00:00",
            "course": 181.82,
            "speed": 10.0,
            "depth": -0.0
          },
          {
            "time": "2010-01-12T12:31:40+00:00",
            "course": 181.82,
            "speed": 10.0,
            "depth": -0.0
          },
          {
            "time": "2010-01-12T12:32:00+00:00",
            "course": 181.82,
            "speed": 10.0,
            "depth": -0.0
          },
          {
            "time": "2010-01-12T12:32:20+00:00",
            "course": 181.82,
            "speed": 10.0,
            "depth": -0.0
          },
          {
            "time": "2010-01-12T12:32:40+00:00",
            "course": 181.82,
            "speed": 10.0,
            "depth": -0.0
          },
          {
            "time": "2010-01-12T12:33:00+00:00",
            "course": 181.82,
            "speed": 10.0,
            "depth": -0.0
          },
          {
            "time": "2010-01-12T12:33:20+00:00",
            "course": 181.82,
            "speed": 10.0,
            "depth": -0.0
          },
          {
            "time": "2010-01-12T12:33:40+00:00",
            "course": 181.82,
            "speed": 10.0,
            "depth": -0.0
          },
          {
            "time": "2010-01-12T12:34:00+00:00",
            "course": 181.82,
            "speed": 10.0,
            "depth": -0.0
          },
          {
            "time": "2010-01-12T12:34:20+00:00",
            "course": 181.82,
            "speed": 10.0,
            "depth": -0.0
          },
          {
            "time": "2010-01-12T12:34:40+00:00",
            "course": 181.82,
            "speed": 10.0,
            "depth": -0.0
          },
          {
            "time": "2010-01-12T12:35:00+00:00",
            "course": 181.82,
            "speed": 10.0,
            "depth": -0.0
          }
        ],
        "default_position_style": {
          "show_symbol": false,
          "symbol": "circle",
          "show_label": false
        },
        "symbol_interval": "PT5M",
        "label_interval": "PT15M"
      }
    },
    {
      "type": "Feature",
      "id": "0010c436-81b6-44e6-acc4-0b47e26c912e",
      "geometry": null,
      "properties": {
        "kind": "SENSOR_CONTACT",
        "parent_track": "SENSOR",
        "sensor_name": "Plain",
        "bearing": -115.0,
        "time": "2010-01-12T12:00:20+00:00",
        "label": "Cookie SUBJECT held on Plain Cookie"
      }
    },
    {
      "type": "Feature",
      "id": "8ce3fb2f-88a1-4e1a-a320-8be393e39bdf",
      "geometry": null,
      "properties": {
        "kind": "SENSOR_CONTACT",
        "parent_track": "SENSOR",
        "sensor_name": "Plain",
        "bearing": -113.3,
        "time": "2010-01-12T12:00:40+00:00",
        "label": "Cookie SUBJECT held on Plain Cookie"
      }
    },
    {
      "type": "Feature",
      "id": "b9fb957d-43b5-4f54-9eaa-b5a039319100",
      "geometry": null,
      "properties": {
        "kind": "SENSOR_CONTACT",
        "parent_track": "SENSOR",
        "sensor_name": "Plain",
        "bearing": -109.9,
        "time": "2010-01-12T12:01:20+00:00",
        "label": "Cookie SUBJECT held on Plain Cookie"
      }
    },
    {
      "type": "Feature",
      "id": "a4fa2813-6322-4ff1-b41d-8d95c2158899",
      "geometry": null,
      "properties": {
        "kind": "SENSOR_CONTACT",
        "parent_track": "SENSOR",
        "sensor_name": "Plain",
        "bearing": -108.2,
        "time": "2010-01-12T12:01:40+00:00",
        "label": "Cookie SUBJECT held on Plain Cookie"
      }
    },
    {
      "type": "Feature",
      "id": "02b5fe18-6e37-4fa8-9a30-27a508c2a6f5",
      "geometry": null,
      "properties": {
        "kind": "SENSOR_CONTACT",
        "parent_track": "SENSOR",
        "sensor_name": "Plain",
        "bearing": -104.6,
        "time": "2010-01-12T12:02:20+00:00",
        "label": "Cookie SUBJECT held on Plain Cookie"
      }
    },
    {
      "type": "Feature",
      "id": "620dfd56-526c-43c9-bc91-09bf46c7edf2",
      "geometry": null,
      "properties": {
        "kind": "SENSOR_CONTACT",
        "parent_track": "SENSOR",
        "sensor_name": "Plain",
        "bearing": -100.8,
        "time": "2010-01-12T12:03:00+00:00",
        "label": "Cookie SUBJECT held on Plain Cookie"
      }
    },
    {
      "type": "Feature",
      "id": "f6f9df0a-9e72-4e45-be07-79501e75c7a3",
      "geometry": null,
      "properties": {
        "kind": "SENSOR_CONTACT",
        "parent_track": "SENSOR",
        "sensor_name": "Plain",
        "bearing": -93.6,
        "time": "2010-01-12T12:04:20+00:00",
        "label": "Cookie SUBJECT held on Plain Cookie"
      }
    },
    {
      "type": "Feature",
      "id": "c94063e6-b6b9-4538-81c8-22248f99a4c7",
      "geometry": null,
      "properties": {
        "kind": "SENSOR_CONTACT",
        "parent_track": "SENSOR",
        "sensor_name": "Plain",
        "bearing": -96.8,
        "time": "2010-01-12T12:05:00+00:00",
        "label": "Cookie SUBJECT held on Plain Cookie"
      }
    },
    {
      "type": "Feature",
      "id": "4f181e32-57ce-4485-854a-c6117d8bd7c0",
      "geometry": null,
      "properties": {
        "kind": "SENSOR_CONTACT",
        "parent_track": "SENSOR",
        "sensor_name": "Plain",
        "bearing": -103.3,
        "time": "2010-01-12T12:05:40+00:00",
        "label": "Cookie SUBJECT held on Plain Cookie"
      }
    },
    {
      "type": "Feature",
      "id": "cdd2f547-cb49-465e-a5f2-24b6cb4fcbda",
      "geometry": null,
      "properties": {
        "kind": "SENSOR_CONTACT",
        "parent_track": "SENSOR",
        "sensor_name": "Plain",
        "bearing": -107.8,
        "time": "2010-01-12T12:06:00+00:00",
        "label": "Cookie SUBJECT held on Plain Cookie"
      }
    },
    {
      "type": "Feature",
      "id": "e1b80c38-f15b-4f89-a77e-9f5d9f4ff2b1",
      "geometry": null,
      "properties": {
        "kind": "SENSOR_CONTACT",
        "parent_track": "SENSOR",
        "sensor_name": "Plain",
        "bearing": -154.5,
        "time": "2010-01-12T12:07:40+00:00",
        "label": "Cookie SUBJECT held on Plain Cookie"
      }
    },
    {
      "type": "Feature",
      "id": "8aecceb3-4599-4bb1-916f-1d58ebe49d8f",
      "geometry": null,
      "properties": {
        "kind": "SENSOR_CONTACT",
        "parent_track": "SENSOR",
        "sensor_name": "Plain",
        "bearing": -168.4,
        "time": "2010-01-12T12:08:00+00:00",
        "label": "Cookie SUBJECT held on Plain Cookie"
      }
    },
    {
      "type": "Feature",
      "id": "ac747c81-b3f8-43d4-ad4c-803faedb49ef",
      "geometry": null,
      "properties": {
        "kind": "SENSOR_CONTACT",
        "parent_track": "SENSOR",
        "sensor_name": "Plain",
        "bearing": 178.6,
        "time": "2010-01-12T12:08:20+00:00",
        "label": "Cookie SUBJECT held on Plain Cookie"
      }
    },
    {
      "type": "Feature",
      "id": "5795d9a5-e386-469d-a48e-775b211b70c4",
      "geometry": null,
      "properties": {
        "kind": "SENSOR_CONTACT",
        "parent_track": "SENSOR",
        "sensor_name": "Plain",
        "bearing": 156.6,
        "time": "2010-01-12T12:09:00+00:00",
        "label": "Cookie SUBJECT held on Plain Cookie"
      }
    },
    {
      "type": "Feature",
      "id": "de3d31ce-1436-4f66-8e7e-c6032269404b",
      "geometry": null,
      "properties": {
        "kind": "SENSOR_CONTACT",
        "parent_track": "SENSOR",
        "sensor_name": "Plain",
        "bearing": 147.8,
        "time": "2010-01-12T12:09:20+00:00",
        "label": "Cookie SUBJECT held on Plain Cookie"
      }
    },
    {
      "type": "Feature",
      "id": "2a17de51-732f-4a96-84da-cbc14509f438",
      "geometry": null,
      "properties": {
        "kind": "SENSOR_CONTACT",
        "parent_track": "SENSOR",
        "sensor_name": "Plain",
        "bearing": 140.4,
        "time": "2010-01-12T12:09:40+00:00",
        "label": "Cookie SUBJECT held on Plain Cookie"
      }
    },
    {
      "type": "Feature",
      "id": "b9c328a6-b934-4967-9976-d7c35322165b",
      "geometry": null,
      "properties": {
        "kind": "SENSOR_CONTACT",
        "parent_track": "SENSOR",
        "sensor_name": "Plain",
        "bearing": 124.6,
        "time": "2010-01-12T12:10:40+00:00",
        "label": "Cookie SUBJECT held on Plain Cookie"
      }
    },
    {
      "type": "Feature",
      "id": "5d1c49a2-04f5-485c-9b59-51cfdd5e6fc6",
      "geometry": null,
      "properties": {
        "kind": "SENSOR_CONTACT",
        "parent_track": "SENSOR",
        "sensor_name": "Plain",
        "bearing": 117.7,
        "time": "2010-01-12T12:11:20+00:00",
        "label": "Cookie SUBJECT held on Plain Cookie"
      }
    },
    {
      "type": "Feature",
      "id": "a2faffce-b522-4354-8187-562e10266825",
      "geometry": null,
      "properties": {
        "kind": "SENSOR_CONTACT",
        "parent_track": "SENSOR",
        "sensor_name": "Plain",
        "bearing": 114.2,
        "time": "2010-01-12T12:11:40+00:00",
        "label": "Cookie SUBJECT held on Plain Cookie"
      }
    },
    {
      "type": "Feature",
      "id": "c73890df-6fcb-4601-b8c5-a970bacb7f28",
      "geometry": null,
      "properties": {
        "kind": "SENSOR_CONTACT",
        "parent_track": "SENSOR",
        "sensor_name": "Plain",
        "bearing": 108.4,
        "time": "2010-01-12T12:12:20+00:00",
        "label": "Cookie SUBJECT held on Plain Cookie"
      }
    },
    {
      "type": "Feature",
      "id": "0f930f2c-7740-4c90-80ab-04cd3f1de39f",
      "geometry": null,
      "properties": {
        "kind": "SENSOR_CONTACT",
        "parent_track": "SENSOR",
        "sensor_name": "Plain",
        "bearing": 105.5,
        "time": "2010-01-12T12:12:40+00:00",
        "label": "Cookie SUBJECT held on Plain Cookie"
      }
    },
    {
      "type": "Feature",
      "id": "94f51973-50f4-4bf3-8758-1af4c093abde",
      "geometry": null,
      "properties": {
        "kind": "SENSOR_CONTACT",
        "parent_track": "SENSOR",
        "sensor_name": "Plain",
        "bearing": 97.5,
        "time": "2010-01-12T12:13:40+00:00",
        "label": "Cookie SUBJECT held on Plain Cookie"
      }
    },
    {
      "type": "Feature",
      "id": "ec8b040b-6f7b-4b61-abf0-7a03a837a82b",
      "geometry": null,
      "properties": {
        "kind": "SENSOR_CONTACT",
        "parent_track": "SENSOR",
        "sensor_name": "Plain",
        "bearing": 95.0,
        "time": "2010-01-12T12:14:00+00:00",
        "label": "Cookie SUBJECT held on Plain Cookie"
      }
    },
    {
      "type": "Feature",
      "id": "b42c9b09-8e4d-4a6b-ab27-e8504ced517a",
      "geometry": null,
      "properties": {
        "kind": "SENSOR_CONTACT",
        "parent_track": "SENSOR",
        "sensor_name": "Plain",
        "bearing": 92.6,
        "time": "2010-01-12T12:14:20+00:00",
        "label": "Cookie SUBJECT held on Plain Cookie"
      }
    },
    {
      "type": "Feature",
      "id": "64399c69-f32d-49d6-a718-b849380d3d2e",
      "geometry": null,
      "properties": {
        "kind": "SENSOR_CONTACT",
        "parent_track": "SENSOR",
        "sensor_name": "Plain",
        "bearing": 86.2,
        "time": "2010-01-12T12:15:20+00:00",
        "label": "Cookie SUBJECT held on Plain Cookie"
      }
    },
    {
      "type": "Feature",
      "id": "1e257311-c0aa-4460-8570-b71903e0bd59",
      "geometry": null,
      "properties": {
        "kind": "SENSOR_CONTACT",
        "parent_track": "SENSOR",
        "sensor_name": "Plain",
        "bearing": 87.6,
        "time": "2010-01-12T12:16:00+00:00",
        "label": "Cookie SUBJECT held on Plain Cookie"
      }
    },
    {
      "type": "Feature",
      "id": "f52c2d31-1105-4bb5-a8e1-f21df6e117a2",
      "geometry": null,
      "properties": {
        "kind": "SENSOR_CONTACT",
        "parent_track": "SENSOR",
        "sensor_name": "Plain",
        "bearing": 89.2,
        "time": "2010-01-12T12:16:20+00:00",
        "label": "Cookie SUBJECT held on Plain Cookie"
      }
    },
    {
      "type": "Feature",
      "id": "b28cf334-a2d4-4b73-849d-59e039e72468",
      "geometry": null,
      "properties": {
        "kind": "SENSOR_CONTACT",
        "parent_track": "SENSOR",
        "sensor_name": "Plain",
        "bearing": 93.0,
        "time": "2010-01-12T12:17:00+00:00",
        "label": "Cookie SUBJECT held on Plain Cookie"
      }
    },
    {
      "type": "Feature",
      "id": "6a851319-4268-4bc6-a575-d5296f0b32f0",
      "geometry": null,
      "properties": {
        "kind": "SENSOR_CONTACT",
        "parent_track": "SENSOR",
        "sensor_name": "Plain",
        "bearing": 95.0,
        "time": "2010-01-12T12:17:20+00:00",
        "label": "Cookie SUBJECT held on Plain Cookie"
      }
    },
    {
      "type": "Feature",
      "id": "64f6a270-f874-4da4-b323-59010b73eaba",
      "geometry": null,
      "properties": {
        "kind": "SENSOR_CONTACT",
        "parent_track": "SENSOR",
        "sensor_name": "Plain",
        "bearing": 102.4,
        "time": "2010-01-12T12:18:20+00:00",
        "label": "Cookie SUBJECT held on Plain Cookie"
      }
    },
    {
      "type": "Feature",
      "id": "6c46e804-b092-4146-935e-03588a1d0743",
      "geometry": null,
      "properties": {
        "kind": "SENSOR_CONTACT",
        "parent_track": "SENSOR",
        "sensor_name": "Plain",
        "bearing": 105.3,
        "time": "2010-01-12T12:18:40+00:00",
        "label": "Cookie SUBJECT held on Plain Cookie"
      }
    },
    {
      "type": "Feature",
      "id": "7c4007a0-12fe-49cc-9ea8-b7b63dc0feaf",
      "geometry": null,
      "properties": {
        "kind": "SENSOR_CONTACT",
        "parent_track": "SENSOR",
        "sensor_name": "Plain",
        "bearing": 115.3,
        "time": "2010-01-12T12:19:40+00:00",
        "label": "Cookie SUBJECT held on Plain Cookie"
      }
    },
    {
      "type": "Feature",
      "id": "85c20fcc-9b84-4789-9c7d-adaa863111cc",
      "geometry": null,
      "properties": {
        "kind": "SENSOR_CONTACT",
        "parent_track": "SENSOR",
        "sensor_name": "Plain",
        "bearing": 128.5,
        "time": "2010-01-12T12:20:40+00:00",
        "label": "Cookie SUBJECT held on Plain Cookie"
      }
    },
    {
      "type": "Feature",
      "id": "ead163c0-5f9a-4007-af7c-97f5a80f68b3",
      "geometry": null,
      "properties": {
        "kind": "SENSOR_CONTACT",
        "parent_track": "SENSOR",
        "sensor_name": "Plain",
        "bearing": 134.4,
        "time": "2010-01-12T12:21:00+00:00",
        "label": "Cookie SUBJECT held on Plain Cookie"
      }
    },
    {
      "type": "Feature",
      "id": "dca5d75a-d0a9-4ac9-a280-db38693ebb40",
      "geometry": null,
      "properties": {
        "kind": "SENSOR_CONTACT",
        "parent_track": "SENSOR",
        "sensor_name": "Plain",
        "bearing": 141.1,
        "time": "2010-01-12T12:21:20+00:00",
        "label": "Cookie SUBJECT held on Plain Cookie"
      }
    },
    {
      "type": "Feature",
      "id": "feda6d2f-8a28-4ed5-b5bc-ff3507672d7b",
      "geometry": null,
      "properties": {
        "kind": "SENSOR_CONTACT",
        "parent_track": "SENSOR",
        "sensor_name": "Plain",
        "bearing": 170.7,
        "time": "2010-01-12T12:22:40+00:00",
        "label": "Cookie SUBJECT held on Plain Cookie"
      }
    },
    {
      "type": "Feature",
      "id": "85092d5c-ffea-408f-b487-37357301cd45",
      "geometry": null,
      "properties": {
        "kind": "SENSOR_CONTACT",
        "parent_track": "SENSOR",
        "sensor_name": "Plain",
        "bearing": 177.1,
        "time": "2010-01-12T12:23:00+00:00",
        "label": "Cookie SUBJECT held on Plain Cookie"
      }
    },
    {
      "type": "Feature",
      "id": "75dc1ec8-322b-4c79-abe8-27d412c716c2",
      "geometry": null,
      "properties": {
        "kind": "SENSOR_CONTACT",
        "parent_track": "SENSOR",
        "sensor_name": "Plain",
        "bearing": -177.2,
        "time": "2010-01-12T12:23:20+00:00",
        "label": "Cookie SUBJECT held on Plain Cookie"
      }
    },
    {
      "type": "Feature",
      "id": "5eddce2d-7fa4-4d46-9167-75dca51213f6",
      "geometry": null,
      "properties": {
        "kind": "SENSOR_CONTACT",
        "parent_track": "SENSOR",
        "sensor_name": "Plain",
        "bearing": -172.2,
        "time": "2010-01-12T12:23:40+00:00",
        "label": "Cookie SUBJECT held on Plain Cookie"
      }
    },
    {
      "type": "Feature",
      "id": "2f8a5973-c72d-42ec-bd09-0bd0361b86af",
      "geometry": null,
      "properties": {
        "kind": "SENSOR_CONTACT",
        "parent_track": "SENSOR",
        "sensor_name": "Plain",
        "bearing": -163.9,
        "time": "2010-01-12T12:24:20+00:00",
        "label": "Cookie SUBJECT held on Plain Cookie"
      }
    },
    {
      "type": "Feature",
      "id": "72033dc5-5528-4fba-a0bf-b3989f63e4df",
      "geometry": null,
      "properties": {
        "kind": "SENSOR_CONTACT",
        "parent_track": "SENSOR",
        "sensor_name": "Plain",
        "bearing": -160.3,
        "time": "2010-01-12T12:25:00+00:00",
        "label": "Cookie SUBJECT held on Plain Cookie"
      }
    },
    {
      "type": "Feature",
      "id": "189288d2-0772-4bfc-af76-8b6d2a2a10b4",
      "geometry": null,
      "properties": {
        "kind": "SENSOR_CONTACT",
        "parent_track": "SENSOR",
        "sensor_name": "Plain",
        "bearing": -158.4,
        "time": "2010-01-12T12:26:00+00:00",
        "label": "Cookie SUBJECT held on Plain Cookie"
      }
    },
    {
      "type": "Feature",
      "id": "d1d4df2f-d010-4060-91a1-23860d986754",
      "geometry": null,
      "properties": {
        "kind": "SENSOR_CONTACT",
        "parent_track": "SENSOR",
        "sensor_name": "Plain",
        "bearing": -156.9,
        "time": "2010-01-12T12:26:40+00:00",
        "label": "Cookie SUBJECT held on Plain Cookie"
      }
    },
    {
      "type": "Feature",
      "id": "e9145502-ba5e-48a6-b07d-b67a43cbe2fb",
      "geometry": null,
      "properties": {
        "kind": "SENSOR_CONTACT",
        "parent_track": "SENSOR",
        "sensor_name": "Plain",
        "bearing": -155.2,
        "time": "2010-01-12T12:27:20+00:00",
        "label": "Cookie SUBJECT held on Plain Cookie"
      }
    },
    {
      "type": "Feature",
      "id": "36867d6e-d03b-460f-8662-65736b7e60af",
      "geometry": null,
      "properties": {
        "kind": "SENSOR_CONTACT",
        "parent_track": "SENSOR",
        "sensor_name": "Plain",
        "bearing": -153.1,
        "time": "2010-01-12T12:28:00+00:00",
        "label": "Cookie SUBJECT held on Plain Cookie"
      }
    },
    {
      "type": "Feature",
      "id": "d0dcf7bc-8460-465c-a355-02dfe9a5ba9e",
      "geometry": null,
      "properties": {
        "kind": "SENSOR_CONTACT",
        "parent_track": "SENSOR",
        "sensor_name": "Plain",
        "bearing": -149.4,
        "time": "2010-01-12T12:29:00+00:00",
        "label": "Cookie SUBJECT held on Plain Cookie"
      }
    },
    {
      "type": "Feature",
      "id": "f4d19c7d-8fba-45fd-a415-4bab51640a70",
      "geometry": null,
      "properties": {
        "kind": "SENSOR_CONTACT",
        "parent_track": "SENSOR",
        "sensor_name": "Plain",
        "bearing": -146.3,
        "time": "2010-01-12T12:29:40+00:00",
        "label": "Cookie SUBJECT held on Plain Cookie"
      }
    },
    {
      "type": "Feature",
      "id": "1c5c17b8-3ecb-41d3-a88d-7258e52f128a",
      "geometry": null,
      "properties": {
        "kind": "SENSOR_CONTACT",
        "parent_track": "SENSOR",
        "sensor_name": "Plain",
        "bearing": -142.5,
        "time": "2010-01-12T12:30:20+00:00",
        "label": "Cookie SUBJECT held on Plain Cookie"
      }
    },
    {
      "type": "Feature",
      "id": "54b951dc-ec0b-4227-a9e0-9f72d056cb75",
      "geometry": null,
      "properties": {
        "kind": "SENSOR_CONTACT",
        "parent_track": "SENSOR",
        "sensor_name": "Plain",
        "bearing": -140.4,
        "time": "2010-01-12T12:30:40+00:00",
        "label": "Cookie SUBJECT held on Plain Cookie"
      }
    },
    {
      "type": "Feature",
      "id": "6eeb08b1-7af7-495f-978f-30310e7bc6bc",
      "geometry": null,
      "properties": {
        "kind": "SENSOR_CONTACT",
        "parent_track": "SENSOR",
        "sensor_name": "Plain",
        "bearing": -132.3,
        "time": "2010-01-12T12:31:40+00:00",
        "label": "Cookie SUBJECT held on Plain Cookie"
      }
    },
    {
      "type": "Feature",
      "id": "5edfded8-6ec9-4d79-a9ca-9a6c326b0ce6",
      "geometry": null,
      "properties": {
        "kind": "SENSOR_CONTACT",
        "parent_track": "SENSOR",
        "sensor_name": "Plain",
        "bearing": -125.4,
        "time": "2010-01-12T12:32:20+00:00",
        "label": "Cookie SUBJECT held on Plain Cookie"
      }
    },
    {
      "type": "Feature",
      "id": "55d5d6a9-ca9f-49b0-bfef-95920cba6965",
      "geometry": null,
      "properties": {
        "kind": "SENSOR_CONTACT",
        "parent_track": "SENSOR",
        "sensor_name": "Plain",
        "bearing": -116.9,
        "time": "2010-01-12T12:33:00+00:00",
        "label": "Cookie SUBJECT held on Plain Cookie"
      }
    },
    {
      "type": "Feature",
      "id": "aef1a251-0b18-4fec-8d89-548fc3f69585",
      "geometry": null,
      "properties": {
        "kind": "SENSOR_CONTACT",
        "parent_track": "SENSOR",
        "sensor_name": "Plain",
        "bearing": -101.2,
        "time": "2010-01-12T12:34:00+00:00",
        "label": "Cookie SUBJECT held on Plain Cookie"
      }
    },
    {
      "type": "Feature",
      "id": "5e8cf2bf-3261-420d-8700-8639f9441c81",
      "geometry": null,
      "properties": {
        "kind": "SENSOR_CONTACT",
        "parent_track": "SENSOR",
        "sensor_name": "Plain",
        "bearing": -83.4,
        "time": "2010-01-12T12:35:00+00:00",
        "label": "Cookie SUBJECT held on Plain Cookie"
      }
    },
    {
      "type": "Feature",
      "id": "807fd174-7fe7-4095-a608-8f050f3043c0",
      "geometry": {
        "type": "LineString",
        "coordinates": [
          [
            0.0108,
            0.0458972
          ],
          [
            0.0108,
            0.0453417
          ],
          [
            0.0108,
            0.0447861
          ],
          [
            0.0108,
            0.0442306
          ],
          [
            0.0108,
            0.043675
          ],
          [
            0.0108,
            0.0431194
          ],
          [
            0.0108,
            0.0425639
          ],
          [
            0.0108,
            0.0420083
          ],
          [
            0.0108,
            0.0414528
          ],
          [
            0.0108,
            0.0408972
          ],
          [
            0.0108,
            0.0403417
          ],
          [
            0.0108,
            0.0397861
          ],
          [
            0.0108,
            0.0392306
          ],
          [
            0.0108,
            0.038675
          ],
          [
            0.0108,
            0.0381194
          ],
          [
            0.0108,
            0.0375639
          ],
          [
            0.0108,
            0.0370083
          ],
          [
            0.0108,
            0.0364528
          ],
          [
            0.0108,
            0.0358972
          ],
          [
            0.0108,
            0.0353417
          ],
          [
            0.0108,
            0.0347861
          ],
          [
            0.0108,
            0.0342306
          ],
          [
            0.0108,
            0.033675
          ],
          [
            0.0108,
            0.0331194
          ],
          [
            0.0108,
            0.0325639
          ],
          [
            0.0108,
            0.0320083
          ],
          [
            0.0108417,
            0.0314528
          ],
          [
            0.0109694,
            0.0309139
          ],
          [
            0.0111778,
            0.0304
          ],
          [
            0.0114639,
            0.029925
          ],
          [
            0.0118194,
            0.0294972
          ],
          [
            0.0122306,
            0.029125
          ],
          [
            0.0126556,
            0.0287667
          ],
          [
            0.0130778,
            0.0284083
          ],
          [
            0.0135028,
            0.0280472
          ],
          [
            0.0139278,
            0.0276889
          ],
          [
            0.01435,
            0.0273306
          ],
          [
            0.014775,
            0.0269694
          ],
          [
            0.0151972,
            0.0266111
          ],
          [
            0.0156222,
            0.0262528
          ],
          [
            0.0160444,
            0.0258917
          ],
          [
            0.0164694,
            0.0255333
          ],
          [
            0.0168944,
            0.025175
          ],
          [
            0.0173167,
            0.0248139
          ],
          [
            0.0177417,
            0.0244556
          ],
          [
            0.0181639,
            0.0240972
          ],
          [
            0.0185889,
            0.0237389
          ],
          [
            0.0190111,
            0.0233778
          ],
          [
            0.0194361,
            0.0230194
          ],
          [
            0.0198611,
            0.0226611
          ],
          [
            0.0202833,
            0.0223
          ],
          [
            0.0207083,
            0.0219417
          ],
          [
            0.0211306,
            0.0215833
          ],
          [
            0.0215556,
            0.0212222
          ],
          [
            0.0219778,
            0.0208639
          ],
          [
            0.0224028,
            0.0205056
          ],
          [
            0.0228278,
            0.0201444
          ],
          [
            0.02325,
            0.0197861
          ],
          [
            0.023675,
            0.0194278
          ],
          [
            0.0240972,
            0.0190667
          ],
          [
            0.0245222,
            0.0187083
          ],
          [
            0.0249167,
            0.0183194
          ],
          [
            0.0252472,
            0.0178722
          ],
          [
            0.0255028,
            0.0173806
          ],
          [
            0.0256806,
            0.0168556
          ],
          [
            0.0257778,
            0.0163083
          ],
          [
            0.0257889,
            0.0157528
          ],
          [
            0.0257694,
            0.0151972
          ],
          [
            0.02575,
            0.0146417
          ],
          [
            0.0257306,
            0.0140861
          ],
          [
            0.0257111,
            0.0135333
          ],
          [
            0.0256917,
            0.0129778
          ],
          [
            0.0256722,
            0.0124222
          ],
          [
            0.0256528,
            0.0118667
          ],
          [
            0.0256333,
            0.0113111
          ],
          [
            0.0256139,
            0.0107556
          ],
          [
            0.0255944,
            0.0102
          ],
          [
            0.025575,
            0.0096444
          ],
          [
            0.0255556,
            0.0090917
          ],
          [
            0.0255361,
            0.0085361
          ],
          [
            0.0255167,
            0.0079806
          ],
          [
            0.0255,
            0.007425
          ],
          [
            0.0254806,
            0.0068694
          ],
          [
            0.0254611,
            0.0063139
          ],
          [
            0.0254417,
            0.0057583
          ],
          [
            0.0254222,
            0.0052028
          ],
          [
            0.0254028,
            0.00465
          ],
          [
            0.0253833,
            0.0040944
          ],
          [
            0.0253639,
            0.0035389
          ],
          [
            0.0253444,
            0.0029833
          ],
          [
            0.025325,
            0.0024278
          ],
          [
            0.0253056,
            0.0018722
          ],
          [
            0.0252861,
            0.0013167
          ],
          [
            0.0252667,
            0.0007611
          ],
          [
            0.0252472,
            0.0002056
          ],
          [
            0.0252278,
            -0.0003472
          ],
          [
            0.0252083,
            -0.0009028
          ],
          [
            0.0251889,
            -0.0014583
          ],
          [
            0.0251694,
            -0.0020139
          ],
          [
            0.02515,
            -0.0025694
          ],
          [
            0.0251306,
            -0.003125
          ],
          [
            0.0251111,
            -0.0036806
          ],
          [
            0.0250917,
            -0.0042361
          ],
          [
            0.0250722,
            -0.0047889
          ],
          [
            0.0250528,
            -0.0053444
          ],
          [
            0.0250333,
            -0.0059
          ]
        ]
      },
      "properties": {
        "kind": "TRACK",
        "platform_id": "SUBJECT",
        "platform_name": "SUBJECT",
        "track_type": "CONTACT",
        "times": [
          1263297600000,
          1263297620000,
          1263297640000,
          1263297660000,
          1263297680000,
          1263297700000,
          1263297720000,
          1263297740000,
          1263297760000,
          1263297780000,
          1263297800000,
          1263297820000,
          1263297840000,
          1263297860000,
          1263297880000,
          1263297900000,
          1263297920000,
          1263297940000,
          1263297960000,
          1263297980000,
          1263298000000,
          1263298020000,
          1263298040000,
          1263298060000,
          1263298080000,
          1263298100000,
          1263298120000,
          1263298140000,
          1263298160000,
          1263298180000,
          1263298200000,
          1263298220000,
          1263298240000,
          1263298260000,
          1263298280000,
          1263298300000,
          1263298320000,
          1263298340000,
          1263298360000,
          1263298380000,
          1263298400000,
          1263298420000,
          1263298440000,
          1263298460000,
          1263298480000,
          1263298500000,
          1263298520000,
          1263298540000,
          1263298560000,
          1263298580000,
          1263298600000,
          1263298620000,
          1263298640000,
          1263298660000,
          1263298680000,
          1263298700000,
          1263298720000,
          1263298740000,
          1263298760000,
          1263298780000,
          1263298800000,
          1263298820000,
          1263298840000,
          1263298860000,
          1263298880000,
          1263298900000,
          1263298920000,
          1263298940000,
          1263298960000,
          1263298980000,
          1263299000000,
          1263299020000,
          1263299040000,
          1263299060000,
          1263299080000,
          1263299100000,
          1263299120000,
          1263299140000,
          1263299160000,
          1263299180000,
          1263299200000,
          1263299220000,
          1263299240000,
          1263299260000,
          1263299280000,
          1263299300000,
          1263299320000,
          1263299340000,
          1263299360000,
          1263299380000,
          1263299400000,
          1263299420000,
          1263299440000,
          1263299460000,
          1263299480000,
          1263299500000,
          1263299520000,
          1263299540000,
          1263299560000,
          1263299580000,
          1263299600000,
          1263299620000,
          1263299640000,
          1263299660000,
          1263299680000,
          1263299700000
        ],
        "start_time": "2010-01-12T12:00:00+00:00",
        "end_time": "2010-01-12T12:35:00+00:00",
        "positions": [
          {
            "time": "2010-01-12T12:00:00+00:00",
            "course": 180.0,
            "speed": 6.0,
            "depth": -0.0
          },
          {
            "time": "2010-01-12T12:00:20+00:00",
            "course": 180.0,
            "speed": 6.0,
            "depth": -0.0
          },
          {
            "time": "2010-01-12T12:00:40+00:00",
            "course": 180.0,
            "speed": 6.0,
            "depth": -0.0
          },
          {
            "time": "2010-01-12T12:01:00+00:00",
            "course": 180.0,
            "speed": 6.0,
            "depth": -0.0
          },
          {
            "time": "2010-01-12T12:01:20+00:00",
            "course": 180.0,
            "speed": 6.0,
            "depth": -0.0
          },
          {
            "time": "2010-01-12T12:01:40+00:00",
            "course": 180.0,
            "speed": 6.0,
            "depth": -0.0
          },
          {
            "time": "2010-01-12T12:02:00+00:00",
            "course": 180.0,
            "speed": 6.0,
            "depth": -0.0
          },
          {
            "time": "2010-01-12T12:02:20+00:00",
            "course": 180.0,
            "speed": 6.0,
            "depth": -0.0
          },
          {
            "time": "2010-01-12T12:02:40+00:00",
            "course": 180.0,
            "speed": 6.0,
            "depth": -0.0
          },
          {
            "time": "2010-01-12T12:03:00+00:00",
            "course": 180.0,
            "speed": 6.0,
            "depth": -0.0
          },
          {
            "time": "2010-01-12T12:03:20+00:00",
            "course": 180.0,
            "speed": 6.0,
            "depth": -0.0
          },
          {
            "time": "2010-01-12T12:03:40+00:00",
            "course": 180.0,
            "speed": 6.0,
            "depth": -0.0
          },
          {
            "time": "2010-01-12T12:04:00+00:00",
            "course": 180.0,
            "speed": 6.0,
            "depth": -0.0
          },
          {
            "time": "2010-01-12T12:04:20+00:00",
            "course": 180.0,
            "speed": 6.0,
            "depth": -0.0
          },
          {
            "time": "2010-01-12T12:04:40+00:00",
            "course": 180.0,
            "speed": 6.0,
            "depth": -0.0
          },
          {
            "time": "2010-01-12T12:05:00+00:00",
            "course": 180.0,
            "speed": 6.0,
            "depth": -0.0
          },
          {
            "time": "2010-01-12T12:05:20+00:00",
            "course": 180.0,
            "speed": 6.0,
            "depth": -0.0
          },
          {
            "time": "2010-01-12T12:05:40+00:00",
            "course": 180.0,
            "speed": 6.0,
            "depth": -0.0
          },
          {
            "time": "2010-01-12T12:06:00+00:00",
            "course": 180.0,
            "speed": 6.0,
            "depth": -0.0
          },
          {
            "time": "2010-01-12T12:06:20+00:00",
            "course": 180.0,
            "speed": 6.0,
            "depth": -0.0
          },
          {
            "time": "2010-01-12T12:06:40+00:00",
            "course": 180.0,
            "speed": 6.0,
            "depth": -0.0
          },
          {
            "time": "2010-01-12T12:07:00+00:00",
            "course": 180.0,
            "speed": 6.0,
            "depth": -0.0
          },
          {
            "time": "2010-01-12T12:07:20+00:00",
            "course": 180.0,
            "speed": 6.0,
            "depth": -0.0
          },
          {
            "time": "2010-01-12T12:07:40+00:00",
            "course": 180.0,
            "speed": 6.0,
            "depth": -0.0
          },
          {
            "time": "2010-01-12T12:08:00+00:00",
            "course": 180.0,
            "speed": 6.0,
            "depth": -0.0
          },
          {
            "time": "2010-01-12T12:08:20+00:00",
            "course": 180.0,
            "speed": 6.0,
            "depth": -0.0
          },
          {
            "time": "2010-01-12T12:08:40+00:00",
            "course": 171.16,
            "speed": 6.0,
            "depth": -0.0
          },
          {
            "time": "2010-01-12T12:09:00+00:00",
            "course": 162.31,
            "speed": 6.0,
            "depth": -0.0
          },
          {
            "time": "2010-01-12T12:09:20+00:00",
            "course": 153.47,
            "speed": 6.0,
            "depth": -0.0
          },
          {
            "time": "2010-01-12T12:09:40+00:00",
            "course": 144.63,
            "speed": 6.0,
            "depth": -0.0
          },
          {
            "time": "2010-01-12T12:10:00+00:00",
            "course": 135.79,
            "speed": 6.0,
            "depth": -0.0
          },
          {
            "time": "2010-01-12T12:10:20+00:00",
            "course": 130.34,
            "speed": 6.0,
            "depth": -0.0
          },
          {
            "time": "2010-01-12T12:10:40+00:00",
            "course": 130.28,
            "speed": 6.0,
            "depth": -0.0
          },
          {
            "time": "2010-01-12T12:11:00+00:00",
            "course": 130.28,
            "speed": 6.0,
            "depth": -0.0
          },
          {
            "time": "2010-01-12T12:11:20+00:00",
            "course": 130.28,
            "speed": 6.0,
            "depth": -0.0
          },
          {
            "time": "2010-01-12T12:11:40+00:00",
            "course": 130.28,
            "speed": 6.0,
            "depth": -0.0
          },
          {
            "time": "2010-01-12T12:12:00+00:00",
            "course": 130.28,
            "speed": 6.0,
            "depth": -0.0
          },
          {
            "time": "2010-01-12T12:12:20+00:00",
            "course": 130.28,
            "speed": 6.0,
            "depth": -0.0
          },
          {
            "time": "2010-01-12T12:12:40+00:00",
            "course": 130.28,
            "speed": 6.0,
            "depth": -0.0
          },
          {
            "time": "2010-01-12T12:13:00+00:00",
            "course": 130.28,
            "speed": 6.0,
            "depth": -0.0
          },
          {
            "time": "2010-01-12T12:13:20+00:00",
            "course": 130.28,
            "speed": 6.0,
            "depth": -0.0
          },
          {
            "time": "2010-01-12T12:13:40+00:00",
            "course": 130.28,
            "speed": 6.0,
            "depth": -0.0
          },
          {
            "time": "2010-01-12T12:14:00+00:00",
            "course": 130.28,
            "speed": 6.0,
            "depth": -0.0
          },
          {
            "time": "2010-01-12T12:14:20+00:00",
            "course": 130.28,
            "speed": 6.0,
            "depth": -0.0
          },
          {
            "time": "2010-01-12T12:14:40+00:00",
            "course": 130.28,
            "speed": 6.0,
            "depth": -0.0
          },
          {
            "time": "2010-01-12T12:15:00+00:00",
            "course": 130.28,
            "speed": 6.0,
            "depth": -0.0
          },
          {
            "time": "2010-01-12T12:15:20+00:00",
            "course": 130.28,
            "speed": 6.0,
            "depth": -0.0
          },
          {
            "time": "2010-01-12T12:15:40+00:00",
            "course": 130.28,
            "speed": 6.0,
            "depth": -0.0
          },
          {
            "time": "2010-01-12T12:16:00+00:00",
            "course": 130.28,
            "speed": 6.0,
            "depth": -0.0
          },
          {
            "time": "2010-01-12T12:16:20+00:00",
            "course": 130.28,
            "speed": 6.0,
            "depth": -0.0
          },
          {
            "time": "2010-01-12T12:16:40+00:00",
            "course": 130.28,
            "speed": 6.0,
            "depth": -0.0
          },
          {
            "time": "2010-01-12T12:17:00+00:00",
            "course": 130.28,
            "speed": 6.0,
            "depth": -0.0
          },
          {
            "time": "2010-01-12T12:17:20+00:00",
            "course": 130.28,
            "speed": 6.0,
            "depth": -0.0
          },
          {
            "time": "2010-01-12T12:17:40+00:00",
            "course": 130.28,
            "speed": 6.0,
            "depth": -0.0
          },
          {
            "time": "2010-01-12T12:18:00+00:00",
            "course": 130.28,
            "speed": 6.0,
            "depth": -0.0
          },
          {
            "time": "2010-01-12T12:18:20+00:00",
            "course": 130.28,
            "speed": 6.0,
            "depth": -0.0
          },
          {
            "time": "2010-01-12T12:18:40+00:00",
            "course": 130.28,
            "speed": 6.0,
            "depth": -0.0
          },
          {
            "time": "2010-01-12T12:19:00+00:00",
            "course": 130.28,
            "speed": 6.0,
            "depth": -0.0
          },
          {
            "time": "2010-01-12T12:19:20+00:00",
            "course": 130.28,
            "speed": 6.0,
            "depth": -0.0
          },
          {
            "time": "2010-01-12T12:19:40+00:00",
            "course": 130.28,
            "speed": 6.0,
            "depth": -0.0
          },
          {
            "time": "2010-01-12T12:20:00+00:00",
            "course": 130.28,
            "speed": 6.0,
            "depth": -0.0
          },
          {
            "time": "2010-01-12T12:20:20+00:00",
            "course": 139.13,
            "speed": 6.0,
            "depth": -0.0
          },
          {
            "time": "2010-01-12T12:20:40+00:00",
            "course": 147.97,
            "speed": 6.0,
            "depth": -0.0
          },
          {
            "time": "2010-01-12T12:21:00+00:00",
            "course": 156.81,
            "speed": 6.0,
            "depth": -0.0
          },
          {
            "time": "2010-01-12T12:21:20+00:00",
            "course": 165.65,
            "speed": 6.0,
            "depth": -0.0
          },
          {
            "time": "2010-01-12T12:21:40+00:00",
            "course": 174.5,
            "speed": 6.0,
            "depth": -0.0
          },
          {
            "time": "2010-01-12T12:22:00+00:00",
            "course": 181.96,
            "speed": 6.0,
            "depth": -0.0
          },
          {
            "time": "2010-01-12T12:22:20+00:00",
            "course": 182.0,
            "speed": 6.0,
            "depth": -0.0
          },
          {
            "time": "2010-01-12T12:22:40+00:00",
            "course": 182.0,
            "speed": 6.0,
            "depth": -0.0
          },
          {
            "time": "2010-01-12T12:23:00+00:00",
            "course": 182.0,
            "speed": 6.0,
            "depth": -0.0
          },
          {
            "time": "2010-01-12T12:23:20+00:00",
            "course": 182.0,
            "speed": 6.0,
            "depth": -0.0
          },
          {
            "time": "2010-01-12T12:23:40+00:00",
            "course": 182.0,
            "speed": 6.0,
            "depth": -0.0
          },
          {
            "time": "2010-01-12T12:24:00+00:00",
            "course": 182.0,
            "speed": 6.0,
            "depth": -0.0
          },
          {
            "time": "2010-01-12T12:24:20+00:00",
            "course": 182.0,
            "speed": 6.0,
            "depth": -0.0
          },
          {
            "time": "2010-01-12T12:24:40+00:00",
            "course": 182.0,
            "speed": 6.0,
            "depth": -0.0
          },
          {
            "time": "2010-01-12T12:25:00+00:00",
            "course": 182.0,
            "speed": 6.0,
            "depth": -0.0
          },
          {
            "time": "2010-01-12T12:25:20+00:00",
            "course": 182.0,
            "speed": 6.0,
            "depth": -0.0
          },
          {
            "time": "2010-01-12T12:25:40+00:00",
            "course": 182.0,
            "speed": 6.0,
            "depth": -0.0
          },
          {
            "time": "2010-01-12T12:26:00+00:00",
            "course": 182.0,
            "speed": 6.0,
            "depth": -0.0
          },
          {
            "time": "2010-01-12T12:26:20+00:00",
            "course": 182.0,
            "speed": 6.0,
            "depth": -0.0
          },
          {
            "time": "2010-01-12T12:26:40+00:00",
            "course": 182.0,
            "speed": 6.0,
            "depth": -0.0
          },
          {
            "time": "2010-01-12T12:27:00+00:00",
            "course": 182.0,
            "speed": 6.0,
            "depth": -0.0
          },
          {
            "time": "2010-01-12T12:27:20+00:00",
            "course": 182.0,
            "speed": 6.0,
            "depth": -0.0
          },
          {
            "time": "2010-01-12T12:27:40+00:00",
            "course": 182.0,
            "speed": 6.0,
            "depth": -0.0
          },
          {
            "time": "2010-01-12T12:28:00+00:00",
            "course": 182.0,
            "speed": 6.0,
            "depth": -0.0
          },
          {
            "time": "2010-01-12T12:28:20+00:00",
            "course": 182.0,
            "speed": 6.0,
            "depth": -0.0
          },
          {
            "time": "2010-01-12T12:28:40+00:00",
            "course": 182.0,
            "speed": 6.0,
            "depth": -0.0
          },
          {
            "time": "2010-01-12T12:29:00+00:00",
            "course": 182.0,
            "speed": 6.0,
            "depth": -0.0
          },
          {
            "time": "2010-01-12T12:29:20+00:00",
            "course": 182.0,
            "speed": 6.0,
            "depth": -0.0
          },
          {
            "time": "2010-01-12T12:29:40+00:00",
            "course": 182.0,
            "speed": 6.0,
            "depth": -0.0
          },
          {
            "time": "2010-01-12T12:30:00+00:00",
            "course": 182.0,
            "speed": 6.0,
            "depth": -0.0
          },
          {
            "time": "2010-01-12T12:30:20+00:00",
            "course": 182.0,
            "speed": 6.0,
            "depth": -0.0
          },
          {
            "time": "2010-01-12T12:30:40+00:00",
            "course": 182.0,
            "speed": 6.0,
            "depth": -0.0
          },
          {
            "time": "2010-01-12T12:31:00+00:00",
            "course": 182.0,
            "speed": 6.0,
            "depth": -0.0
          },
          {
            "time": "2010-01-12T12:31:20+00:00",
            "course": 182.0,
            "speed": 6.0,
            "depth": -0.0
          },
          {
            "time": "2010-01-12T12:31:40+00:00",
            "course": 182.0,
            "speed": 6.0,
            "depth": -0.0
          },
          {
            "time": "2010-01-12T12:32:00+00:00",
            "course": 182.0,
            "speed": 6.0,
            "depth": -0.0
          },
          {
            "time": "2010-01-12T12:32:20+00:00",
            "course": 182.0,
            "speed": 6.0,
            "depth": -0.0
          },
          {
            "time": "2010-01-12T12:32:40+00:00",
            "course": 182.0,
            "speed": 6.0,
            "depth": -0.0
          },
          {
            "time": "2010-01-12T12:33:00+00:00",
            "course": 182.0,
            "speed": 6.0,
            "depth": -0.0
          },
          {
            "time": "2010-01-12T12:33:20+00:00",
            "course": 182.0,
            "speed": 6.0,
            "depth": -0.0
          },
          {
            "time": "2010-01-12T12:33:40+00:00",
            "course": 182.0,
            "speed": 6.0,
            "depth": -0.0
          },
          {
            "time": "2010-01-12T12:34:00+00:00",
            "course": 182.0,
            "speed": 6.0,
            "depth": -0.0
          },
          {
            "time": "2010-01-12T12:34:20+00:00",
            "course": 182.0,
            "speed": 6.0,
            "depth": -0.0
          },
          {
            "time": "2010-01-12T12:34:40+00:00",
            "course": 182.0,
            "speed": 6.0,
            "depth": -0.0
          },
          {
            "time": "2010-01-12T12:35:00+00:00",
            "course": 182.0,
            "speed": 6.0,
            "depth": -0.0
          }
        ],
        "default_position_style": {
          "show_symbol": false,
          "symbol": "circle",
          "show_label": false
        },
        "symbol_interval": "PT5M",
        "label_interval": "PT15M"
      }
    }
  ]
}