{
  "type": "FeatureCollection",
  "features": [
    {
      "type": "Feature",
      "id": "e6d6d731-23f3-42cc-a21d-d60cbf2c7413",
      "geometry": {
        "type": "Point",
        "coordinates": [
          -30.01846944444444,
          0.0015527777777777777
        ]
      },
      "properties": {
        "kind": "PERIODTEXT",
        "text": "Hit_121220",
        "time_start": "2010-01-12T12:20:00+00:00",
        "time_end": "2010-01-12T12:24:00+00:00",
        "symbol": "E",
        "style": {
          "shape": "circle",
          "radius": 5.0,
          "fill": true,
          "fill_color": "#FF00FF",
          "fill_opacity": 1.0,
          "stroke": true,
          "color": "#FF00FF",
          "weight": 1,
          "opacity": 1.0
        }
      }
    },
    {
      "type": "Feature",
      "id": "5dad60e2-435e-46c7-a2e7-68462dce8e6f",
      "geometry": {
        "type": "Point",
        "coordinates": [
          -30.05146388888889,
          -0.0039250000000000005
        ]
      },
      "properties": {
        "kind": "PERIODTEXT",
        "text": "Hit_121234",
        "time_start": "2010-01-12T12:32:00+00:00",
        "time_end": "2010-01-12T12:36:00+00:00",
        "symbol": "H",
        "style": {
          "shape": "circle",
          "radius": 5.0,
          "fill": true,
          "fill_color": "#00FFFF",
          "fill_opacity": 1.0,
          "stroke": true,
          "color": "#00FFFF",
          "weight": 1,
          "opacity": 1.0
        }
      }
    },
    {
      "type": "Feature",
      "id": "39ce821c-2f91-4cdd-a362-801eb58d4ee3",
      "geometry": {
        "type": "Point",
        "coordinates": [
          -30.067291666666666,
          -0.0010777777777777778
        ]
      },
      "properties": {
        "kind": "PERIODTEXT",
        "text": "Hit_121238",
        "time_start": "2010-01-12T12:36:00+00:00",
        "time_end": "2010-01-12T12:40:00+00:00",
        "symbol": "G",
        "style": {
          "shape": "circle",
          "radius": 5.0,
          "fill": true,
          "fill_color": "#800080",
          "fill_opacity": 1.0,
          "stroke": true,
          "color": "#800080",
          "weight": 1,
          "opacity": 1.0
        }
      }
    }
  ]
}