{
  "type": "FeatureCollection",
  "features": [
    {
      "type": "Feature",
      "id": "b407b4e9-5b0b-418d-810c-8b8119a6a0d1",
      "geometry": null,
      "properties": {
        "kind": "SENSOR_CONTACT",
        "parent_track": "NONSUCH",
        "time": "2009-07-22T04:15:22+00:00",
        "bearing": 59.3,
        "range": 300.8,
        "frequency": 49.92,
        "sensor_name": "SENSOR_A",
        "label": "0415",
        "provenance": [
          {
            "activity_id": "f3eb6a00-9f31-4aad-ba83-7b00c9b63390",
            "timestamp": "2026-03-21T10:15:01.791735Z",
            "was_generated_by": {
              "tool": "dsf-parser",
              "tool_version": "1.0.0",
              "parameters": []
            },
            "used": [],
            "generated": [
              "b407b4e9-5b0b-418d-810c-8b8119a6a0d1"
            ],
            "execution_duration": "PT0S"
          }
        ]
      }
    },
    {
      "type": "Feature",
      "id": "5c212da0-020d-4876-a650-d8350d84e6b3",
      "geometry": null,
      "properties": {
        "kind": "SENSOR_CONTACT",
        "parent_track": "NONSUCH",
        "time": "2009-07-22T04:16:45+00:00",
        "bearing": 59.3,
        "range": 300.8,
        "frequency": 49.92,
        "sensor_name": "SENSOR_A",
        "label": "0416",
        "provenance": [
          {
            "activity_id": "f3eb6a00-9f31-4aad-ba83-7b00c9b63390",
            "timestamp": "2026-03-21T10:15:01.791735Z",
            "was_generated_by": {
              "tool": "dsf-parser",
              "tool_version": "1.0.0",
              "parameters": []
            },
            "used": [],
            "generated": [
              "5c212da0-020d-4876-a650-d8350d84e6b3"
            ],
            "execution_duration": "PT0S"
          }
        ]
      }
    },
    {
      "type": "Feature",
      "id": "d5e72fa3-1de7-417f-8ee8-a8acf25910ce",
      "geometry": null,
      "properties": {
        "kind": "SENSOR_CONTACT",
        "parent_track": "NONSUCH",
        "time": "2009-07-22T04:18:25+00:00",
        "bearing": 59.5,
        "range": 300.5,
        "frequency": 49.92,
        "sensor_name": "SENSOR_A",
        "label": "0418",
        "provenance": [
          {
            "activity_id": "f3eb6a00-9f31-4aad-ba83-7b00c9b63390",
            "timestamp": "2026-03-21T10:15:01.791735Z",
            "was_generated_by": {
              "tool": "dsf-parser",
              "tool_version": "1.0.0",
              "parameters": []
            },
            "used": [],
            "generated": [
              "d5e72fa3-1de7-417f-8ee8-a8acf25910ce"
            ],
            "execution_duration": "PT0S"
          }
        ]
      }
    },
    {
      "type": "Feature",
      "id": "f6ec7f78-c051-4a47-a3fc-f57ee88d8cc0",
      "geometry": null,
      "properties": {
        "kind": "SENSOR_CONTACT",
        "parent_track": "NONSUCH",
        "time": "2009-07-22T04:20:36+00:00",
        "bearing": 60.0,
        "range": 300.0,
        "frequency": 49.92,
        "sensor_name": "SENSOR_A",
        "label": "0420",
        "provenance": [
          {
            "activity_id": "f3eb6a00-9f31-4aad-ba83-7b00c9b63390",
            "timestamp": "2026-03-21T10:15:01.791735Z",
            "was_generated_by": {
              "tool": "dsf-parser",
              "tool_version": "1.0.0",
              "parameters": []
            },
            "used": [],
            "generated": [
              "f6ec7f78-c051-4a47-a3fc-f57ee88d8cc0"
            ],
            "execution_duration": "PT0S"
          }
        ]
      }
    },
    {
      "type": "Feature",
      "id": "a07a409c-c77c-4ba9-8015-078046eee281",
      "geometry": null,
      "properties": {
        "kind": "SENSOR_CONTACT",
        "parent_track": "NONSUCH",
        "time": "2009-07-22T04:23:12+00:00",
        "bearing": 60.8,
        "range": 299.3,
        "frequency": 49.92,
        "sensor_name": "SENSOR_A",
        "label": "0423",
        "provenance": [
          {
            "activity_id": "f3eb6a00-9f31-4aad-ba83-7b00c9b63390",
            "timestamp": "2026-03-21T10:15:01.791735Z",
            "was_generated_by": {
              "tool": "dsf-parser",
              "tool_version": "1.0.0",
              "parameters": []
            },
            "used": [],
            "generated": [
              "a07a409c-c77c-4ba9-8015-078046eee281"
            ],
            "execution_duration": "PT0S"
          }
        ]
      }
    },
    {
      "type": "Feature",
      "id": "69a16754-74e8-4679-a6c7-1e18e29c3483",
      "geometry": null,
      "properties": {
        "kind": "SENSOR_CONTACT",
        "parent_track": "NONSUCH",
        "time": "2009-07-22T04:25:35+00:00",
        "bearing": 61.3,
        "range": 298.8,
        "frequency": 49.92,
        "sensor_name": "SENSOR_A",
        "label": "0425",
        "provenance": [
          {
            "activity_id": "f3eb6a00-9f31-4aad-ba83-7b00c9b63390",
            "timestamp": "2026-03-21T10:15:01.791735Z",
            "was_generated_by": {
              "tool": "dsf-parser",
              "tool_version": "1.0.0",
              "parameters": []
            },
            "used": [],
            "generated": [
              "69a16754-74e8-4679-a6c7-1e18e29c3483"
            ],
            "execution_duration": "PT0S"
          }
        ]
      }
    },
    {
      "type": "Feature",
      "id": "63e64ab3-a348-4dde-82b1-9fbb22da4934",
      "geometry": null,
      "properties": {
        "kind": "SENSOR_CONTACT",
        "parent_track": "NONSUCH",
        "time": "2009-07-22T04:27:11+00:00",
        "bearing": 61.3,
        "range": 298.8,
        "frequency": 49.92,
        "sensor_name": "SENSOR_A",
        "label": "0427",
        "provenance": [
          {
            "activity_id": "f3eb6a00-9f31-4aad-ba83-7b00c9b63390",
            "timestamp": "2026-03-21T10:15:01.791735Z",
            "was_generated_by": {
              "tool": "dsf-parser",
              "tool_version": "1.0.0",
              "parameters": []
            },
            "used": [],
            "generated": [
              "63e64ab3-a348-4dde-82b1-9fbb22da4934"
            ],
            "execution_duration": "PT0S"
          }
        ]
      }
    },
    {
      "type": "Feature",
      "id": "b999a227-a353-47a5-9e89-be76acbae5c8",
      "geometry": null,
      "properties": {
        "kind": "SENSOR_CONTACT",
        "parent_track": "NONSUCH",
        "time": "2009-07-22T04:29:18+00:00",
        "bearing": 61.8,
        "range": 298.3,
        "frequency": 49.92,
        "sensor_name": "SENSOR_A",
        "label": "0429",
        "provenance": [
          {
            "activity_id": "f3eb6a00-9f31-4aad-ba83-7b00c9b63390",
            "timestamp": "2026-03-21T10:15:01.791735Z",
            "was_generated_by": {
              "tool": "dsf-parser",
              "tool_version": "1.0.0",
              "parameters": []
            },
            "used": [],
            "generated": [
              "b999a227-a353-47a5-9e89-be76acbae5c8"
            ],
            "execution_duration": "PT0S"
          }
        ]
      }
    },
    {
      "type": "Feature",
      "id": "a0470a03-e15d-4be8-91a2-bbd28e243ceb",
      "geometry": null,
      "properties": {
        "kind": "SENSOR_CONTACT",
        "parent_track": "NONSUCH",
        "time": "2009-07-22T04:31:34+00:00",
        "bearing": 62.0,
        "range": 298.0,
        "frequency": 49.92,
        "sensor_name": "SENSOR_A",
        "label": "0431",
        "provenance": [
          {
            "activity_id": "f3eb6a00-9f31-4aad-ba83-7b00c9b63390",
            "timestamp": "2026-03-21T10:15:01.791735Z",
            "was_generated_by": {
              "tool": "dsf-parser",
              "tool_version": "1.0.0",
              "parameters": []
            },
            "used": [],
            "generated": [
              "a0470a03-e15d-4be8-91a2-bbd28e243ceb"
            ],
            "execution_duration": "PT0S"
          }
        ]
      }
    },
    {
      "type": "Feature",
      "id": "d3f7b05e-78d7-45dd-81ce-81b578247e87",
      "geometry": null,
      "properties": {
        "kind": "SENSOR_CONTACT",
        "parent_track": "NONSUCH",
        "time": "2009-07-22T04:34:09+00:00",
        "bearing": 62.3,
        "range": 297.8,
        "frequency": 49.92,
        "sensor_name": "SENSOR_A",
        "label": "0434",
        "provenance": [
          {
            "activity_id": "f3eb6a00-9f31-4aad-ba83-7b00c9b63390",
            "timestamp": "2026-03-21T10:15:01.791735Z",
            "was_generated_by": {
              "tool": "dsf-parser",
              "tool_version": "1.0.0",
              "parameters": []
            },
            "used": [],
            "generated": [
              "d3f7b05e-78d7-45dd-81ce-81b578247e87"
            ],
            "execution_duration": "PT0S"
          }
        ]
      }
    },
    {
      "type": "Feature",
      "id": "fe3f5e49-b83d-404f-bc51-984f80c6267d",
      "geometry": null,
      "properties": {
        "kind": "SENSOR_CONTACT",
        "parent_track": "NONSUCH",
        "time": "2009-07-22T04:35:57+00:00",
        "bearing": 62.3,
        "range": 297.8,
        "frequency": 49.92,
        "sensor_name": "SENSOR_A",
        "label": "0435",
        "provenance": [
          {
            "activity_id": "f3eb6a00-9f31-4aad-ba83-7b00c9b63390",
            "timestamp": "2026-03-21T10:15:01.791735Z",
            "was_generated_by": {
              "tool": "dsf-parser",
              "tool_version": "1.0.0",
              "parameters": []
            },
            "used": [],
            "generated": [
              "fe3f5e49-b83d-404f-bc51-984f80c6267d"
            ],
            "execution_duration": "PT0S"
          }
        ]
      }
    },
    {
      "type": "Feature",
      "id": "deef5cba-39c1-4295-984f-276229f5f13d",
      "geometry": null,
      "properties": {
        "kind": "SENSOR_CONTACT",
        "parent_track": "NONSUCH",
        "time": "2009-07-22T04:37:56+00:00",
        "bearing": 62.5,
        "range": 297.5,
        "frequency": 49.92,
        "sensor_name": "SENSOR_A",
        "label": "0437",
        "provenance": [
          {
            "activity_id": "f3eb6a00-9f31-4aad-ba83-7b00c9b63390",
            "timestamp": "2026-03-21T10:15:01.791735Z",
            "was_generated_by": {
              "tool": "dsf-parser",
              "tool_version": "1.0.0",
              "parameters": []
            },
            "used": [],
            "generated": [
              "deef5cba-39c1-4295-984f-276229f5f13d"
            ],
            "execution_duration": "PT0S"
          }
        ]
      }
    },
    {
      "type": "Feature",
      "id": "7095c66f-3a6a-4ea6-85ad-5abcf4629fef",
      "geometry": null,
      "properties": {
        "kind": "SENSOR_CONTACT",
        "parent_track": "NONSUCH",
        "time": "2009-07-22T04:40:00+00:00",
        "bearing": 63.0,
        "range": 297.0,
        "frequency": 49.92,
        "sensor_name": "SENSOR_A",
        "label": "0440",
        "provenance": [
          {
            "activity_id": "f3eb6a00-9f31-4aad-ba83-7b00c9b63390",
            "timestamp": "2026-03-21T10:15:01.791735Z",
            "was_generated_by": {
              "tool": "dsf-parser",
              "tool_version": "1.0.0",
              "parameters": []
            },
            "used": [],
            "generated": [
              "7095c66f-3a6a-4ea6-85ad-5abcf4629fef"
            ],
            "execution_duration": "PT0S"
          }
        ]
      }
    },
    {
      "type": "Feature",
      "id": "aebc290f-ab99-461c-b915-3023bca1f34e",
      "geometry": null,
      "properties": {
        "kind": "SENSOR_CONTACT",
        "parent_track": "NONSUCH",
        "time": "2009-07-22T04:41:27+00:00",
        "bearing": 63.5,
        "range": 296.5,
        "frequency": 49.92,
        "sensor_name": "SENSOR_A",
        "label": "0441",
        "provenance": [
          {
            "activity_id": "f3eb6a00-9f31-4aad-ba83-7b00c9b63390",
            "timestamp": "2026-03-21T10:15:01.791735Z",
            "was_generated_by": {
              "tool": "dsf-parser",
              "tool_version": "1.0.0",
              "parameters": []
            },
            "used": [],
            "generated": [
              "aebc290f-ab99-461c-b915-3023bca1f34e"
            ],
            "execution_duration": "PT0S"
          }
        ]
      }
    },
    {
      "type": "Feature",
      "id": "80cc744f-dc7e-4480-9383-5f686997b0cb",
      "geometry": null,
      "properties": {
        "kind": "SENSOR_CONTACT",
        "parent_track": "NONSUCH",
        "time": "2009-07-22T04:42:32+00:00",
        "bearing": 63.6,
        "range": 296.2,
        "frequency": 49.96,
        "sensor_name": "SENSOR_A",
        "label": "0442",
        "provenance": [
          {
            "activity_id": "f3eb6a00-9f31-4aad-ba83-7b00c9b63390",
            "timestamp": "2026-03-21T10:15:01.791735Z",
            "was_generated_by": {
              "tool": "dsf-parser",
              "tool_version": "1.0.0",
              "parameters": []
            },
            "used": [],
            "generated": [
              "80cc744f-dc7e-4480-9383-5f686997b0cb"
            ],
            "execution_duration": "PT0S"
          }
        ]
      }
    },
    {
      "type": "Feature",
      "id": "c7c7736b-5898-4a66-bf2c-fb6831790fb9",
      "geometry": null,
      "properties": {
        "kind": "SENSOR_CONTACT",
        "parent_track": "NONSUCH",
        "time": "2009-07-22T04:43:12+00:00",
        "bearing": 63.7,
        "range": 295.8,
        "frequency": 50.06,
        "sensor_name": "SENSOR_A",
        "label": "0443",
        "provenance": [
          {
            "activity_id": "f3eb6a00-9f31-4aad-ba83-7b00c9b63390",
            "timestamp": "2026-03-21T10:15:01.791735Z",
            "was_generated_by": {
              "tool": "dsf-parser",
              "tool_version": "1.0.0",
              "parameters": []
            },
            "used": [],
            "generated": [
              "c7c7736b-5898-4a66-bf2c-fb6831790fb9"
            ],
            "execution_duration": "PT0S"
          }
        ]
      }
    },
    {
      "type": "Feature",
      "id": "e7165034-7de7-44df-bceb-881e26684299",
      "geometry": null,
      "properties": {
        "kind": "SENSOR_CONTACT",
        "parent_track": "NONSUCH",
        "time": "2009-07-22T04:43:19+00:00",
        "bearing": 64.5,
        "range": 295.5,
        "frequency": 50.06,
        "sensor_name": "SENSOR_A",
        "label": "0443",
        "provenance": [
          {
            "activity_id": "f3eb6a00-9f31-4aad-ba83-7b00c9b63390",
            "timestamp": "2026-03-21T10:15:01.791735Z",
            "was_generated_by": {
              "tool": "dsf-parser",
              "tool_version": "1.0.0",
              "parameters": []
            },
            "used": [],
            "generated": [
              "e7165034-7de7-44df-bceb-881e26684299"
            ],
            "execution_duration": "PT0S"
          }
        ]
      }
    },
    {
      "type": "Feature",
      "id": "768520fb-da7b-447f-b600-104132a1999e",
      "geometry": null,
      "properties": {
        "kind": "SENSOR_CONTACT",
        "parent_track": "NONSUCH",
        "time": "2009-07-22T04:44:56+00:00",
        "bearing": 66.5,
        "range": 293.5,
        "frequency": 50.23,
        "sensor_name": "SENSOR_A",
        "label": "0444",
        "provenance": [
          {
            "activity_id": "f3eb6a00-9f31-4aad-ba83-7b00c9b63390",
            "timestamp": "2026-03-21T10:15:01.791735Z",
            "was_generated_by": {
              "tool": "dsf-parser",
              "tool_version": "1.0.0",
              "parameters": []
            },
            "used": [],
            "generated": [
              "768520fb-da7b-447f-b600-104132a1999e"
            ],
            "execution_duration": "PT0S"
          }
        ]
      }
    },
    {
      "type": "Feature",
      "id": "0f58a05e-bb49-4db4-94fc-4e7b7168bd9e",
      "geometry": null,
      "properties": {
        "kind": "SENSOR_CONTACT",
        "parent_track": "NONSUCH",
        "time": "2009-07-22T04:45:44+00:00",
        "bearing": 67.0,
        "range": 293.0,
        "frequency": 50.23,
        "sensor_name": "SENSOR_A",
        "label": "0445",
        "provenance": [
          {
            "activity_id": "f3eb6a00-9f31-4aad-ba83-7b00c9b63390",
            "timestamp": "2026-03-21T10:15:01.791735Z",
            "was_generated_by": {
              "tool": "dsf-parser",
              "tool_version": "1.0.0",
              "parameters": []
            },
            "used": [],
            "generated": [
              "0f58a05e-bb49-4db4-94fc-4e7b7168bd9e"
            ],
            "execution_duration": "PT0S"
          }
        ]
      }
    },
    {
      "type": "Feature",
      "id": "9decafd9-dc92-42c9-a7ef-c00b64006cdc",
      "geometry": null,
      "properties": {
        "kind": "SENSOR_CONTACT",
        "parent_track": "NONSUCH",
        "time": "2009-07-22T04:46:30+00:00",
        "bearing": 67.3,
        "range": 292.8,
        "frequency": 50.16,
        "sensor_name": "SENSOR_A",
        "label": "0446",
        "provenance": [
          {
            "activity_id": "f3eb6a00-9f31-4aad-ba83-7b00c9b63390",
            "timestamp": "2026-03-21T10:15:01.791735Z",
            "was_generated_by": {
              "tool": "dsf-parser",
              "tool_version": "1.0.0",
              "parameters": []
            },
            "used": [],
            "generated": [
              "9decafd9-dc92-42c9-a7ef-c00b64006cdc"
            ],
            "execution_duration": "PT0S"
          }
        ]
      }
    },
    {
      "type": "Feature",
      "id": "6fbb2dfc-baa4-434e-99e1-08ce7ebddb4c",
      "geometry": null,
      "properties": {
        "kind": "SENSOR_CONTACT",
        "parent_track": "NONSUCH",
        "time": "2009-07-22T04:48:18+00:00",
        "bearing": 69.8,
        "range": 290.3,
        "frequency": 49.96,
        "sensor_name": "SENSOR_A",
        "label": "0448",
        "provenance": [
          {
            "activity_id": "f3eb6a00-9f31-4aad-ba83-7b00c9b63390",
            "timestamp": "2026-03-21T10:15:01.791735Z",
            "was_generated_by": {
              "tool": "dsf-parser",
              "tool_version": "1.0.0",
              "parameters": []
            },
            "used": [],
            "generated": [
              "6fbb2dfc-baa4-434e-99e1-08ce7ebddb4c"
            ],
            "execution_duration": "PT0S"
          }
        ]
      }
    },
    {
      "type": "Feature",
      "id": "523d61e0-5a80-481d-aeab-050697c0dcd6",
      "geometry": null,
      "properties": {
        "kind": "SENSOR_CONTACT",
        "parent_track": "NONSUCH",
        "time": "2009-07-22T04:49:37+00:00",
        "bearing": 71.0,
        "range": 289.0,
        "frequency": 49.92,
        "sensor_name": "SENSOR_A",
        "label": "0449",
        "provenance": [
          {
            "activity_id": "f3eb6a00-9f31-4aad-ba83-7b00c9b63390",
            "timestamp": "2026-03-21T10:15:01.791735Z",
            "was_generated_by": {
              "tool": "dsf-parser",
              "tool_version": "1.0.0",
              "parameters": []
            },
            "used": [],
            "generated": [
              "523d61e0-5a80-481d-aeab-050697c0dcd6"
            ],
            "execution_duration": "PT0S"
          }
        ]
      }
    },
    {
      "type": "Feature",
      "id": "8ec51239-1e60-4917-9dd1-59f1587d0d9d",
      "geometry": null,
      "properties": {
        "kind": "SENSOR_CONTACT",
        "parent_track": "NONSUCH",
        "time": "2009-07-22T04:50:49+00:00",
        "bearing": 71.8,
        "range": 288.3,
        "frequency": 49.96,
        "sensor_name": "SENSOR_A",
        "label": "0450",
        "provenance": [
          {
            "activity_id": "f3eb6a00-9f31-4aad-ba83-7b00c9b63390",
            "timestamp": "2026-03-21T10:15:01.791735Z",
            "was_generated_by": {
              "tool": "dsf-parser",
              "tool_version": "1.0.0",
              "parameters": []
            },
            "used": [],
            "generated": [
              "8ec51239-1e60-4917-9dd1-59f1587d0d9d"
            ],
            "execution_duration": "PT0S"
          }
        ]
      }
    },
    {
      "type": "Feature",
      "id": "8f7605a6-3606-4413-b9ad-a5068ff086d7",
      "geometry": null,
      "properties": {
        "kind": "SENSOR_CONTACT",
        "parent_track": "NONSUCH",
        "time": "2009-07-22T04:52:01+00:00",
        "bearing": 72.0,
        "range": 288.0,
        "frequency": 49.92,
        "sensor_name": "SENSOR_A",
        "label": "0452",
        "provenance": [
          {
            "activity_id": "f3eb6a00-9f31-4aad-ba83-7b00c9b63390",
            "timestamp": "2026-03-21T10:15:01.791735Z",
            "was_generated_by": {
              "tool": "dsf-parser",
              "tool_version": "1.0.0",
              "parameters": []
            },
            "used": [],
            "generated": [
              "8f7605a6-3606-4413-b9ad-a5068ff086d7"
            ],
            "execution_duration": "PT0S"
          }
        ]
      }
    },
    {
      "type": "Feature",
      "id": "b61dcf18-b8cf-44f0-b636-57c9f65c78d0",
      "geometry": null,
      "properties": {
        "kind": "SENSOR_CONTACT",
        "parent_track": "NONSUCH",
        "time": "2009-07-22T04:53:13+00:00",
        "bearing": 72.0,
        "range": 288.0,
        "frequency": 49.96,
        "sensor_name": "SENSOR_A",
        "label": "0453",
        "provenance": [
          {
            "activity_id": "f3eb6a00-9f31-4aad-ba83-7b00c9b63390",
            "timestamp": "2026-03-21T10:15:01.791735Z",
            "was_generated_by": {
              "tool": "dsf-parser",
              "tool_version": "1.0.0",
              "parameters": []
            },
            "used": [],
            "generated": [
              "b61dcf18-b8cf-44f0-b636-57c9f65c78d0"
            ],
            "execution_duration": "PT0S"
          }
        ]
      }
    },
    {
      "type": "Feature",
      "id": "31b2bf79-986a-4cb9-ab0d-4f54e42a6c20",
      "geometry": null,
      "properties": {
        "kind": "SENSOR_CONTACT",
        "parent_track": "NONSUCH",
        "time": "2009-07-22T04:54:44+00:00",
        "bearing": 71.3,
        "range": 288.8,
        "frequency": 49.99,
        "sensor_name": "SENSOR_A",
        "label": "0454",
        "provenance": [
          {
            "activity_id": "f3eb6a00-9f31-4aad-ba83-7b00c9b63390",
            "timestamp": "2026-03-21T10:15:01.791735Z",
            "was_generated_by": {
              "tool": "dsf-parser",
              "tool_version": "1.0.0",
              "parameters": []
            },
            "used": [],
            "generated": [
              "31b2bf79-986a-4cb9-ab0d-4f54e42a6c20"
            ],
            "execution_duration": "PT0S"
          }
        ]
      }
    },
    {
      "type": "Feature",
      "id": "7fc5d7eb-442e-494c-a01e-b47473af559c",
      "geometry": null,
      "properties": {
        "kind": "SENSOR_CONTACT",
        "parent_track": "NONSUCH",
        "time": "2009-07-22T04:55:56+00:00",
        "bearing": 71.3,
        "range": 288.8,
        "frequency": 49.99,
        "sensor_name": "SENSOR_A",
        "label": "0455",
        "provenance": [
          {
            "activity_id": "f3eb6a00-9f31-4aad-ba83-7b00c9b63390",
            "timestamp": "2026-03-21T10:15:01.791735Z",
            "was_generated_by": {
              "tool": "dsf-parser",
              "tool_version": "1.0.0",
              "parameters": []
            },
            "used": [],
            "generated": [
              "7fc5d7eb-442e-494c-a01e-b47473af559c"
            ],
            "execution_duration": "PT0S"
          }
        ]
      }
    },
    {
      "type": "Feature",
      "id": "be345b7a-29fb-4d20-b27e-824a69fc789e",
      "geometry": null,
      "properties": {
        "kind": "SENSOR_CONTACT",
        "parent_track": "NONSUCH",
        "time": "2009-07-22T04:57:04+00:00",
        "bearing": 71.3,
        "range": 288.8,
        "frequency": 49.96,
        "sensor_name": "SENSOR_A",
        "label": "0457",
        "provenance": [
          {
            "activity_id": "f3eb6a00-9f31-4aad-ba83-7b00c9b63390",
            "timestamp": "2026-03-21T10:15:01.791735Z",
            "was_generated_by": {
              "tool": "dsf-parser",
              "tool_version": "1.0.0",
              "parameters": []
            },
            "used": [],
            "generated": [
              "be345b7a-29fb-4d20-b27e-824a69fc789e"
            ],
            "execution_duration": "PT0S"
          }
        ]
      }
    },
    {
      "type": "Feature",
      "id": "805e0957-6307-401c-bc74-ce3d4a014d94",
      "geometry": null,
      "properties": {
        "kind": "SENSOR_CONTACT",
        "parent_track": "NONSUCH",
        "time": "2009-07-22T04:58:15+00:00",
        "bearing": 70.3,
        "range": 289.8,
        "frequency": 49.96,
        "sensor_name": "SENSOR_A",
        "label": "0458",
        "provenance": [
          {
            "activity_id": "f3eb6a00-9f31-4aad-ba83-7b00c9b63390",
            "timestamp": "2026-03-21T10:15:01.791735Z",
            "was_generated_by": {
              "tool": "dsf-parser",
              "tool_version": "1.0.0",
              "parameters": []
            },
            "used": [],
            "generated": [
              "805e0957-6307-401c-bc74-ce3d4a014d94"
            ],
            "execution_duration": "PT0S"
          }
        ]
      }
    },
    {
      "type": "Feature",
      "id": "c565a0bc-311e-463d-879f-00b0c3b8b55a",
      "geometry": null,
      "properties": {
        "kind": "SENSOR_CONTACT",
        "parent_track": "NONSUCH",
        "time": "2009-07-22T04:59:19+00:00",
        "bearing": 70.3,
        "range": 289.8,
        "frequency": 49.96,
        "sensor_name": "SENSOR_A",
        "label": "0459",
        "provenance": [
          {
            "activity_id": "f3eb6a00-9f31-4aad-ba83-7b00c9b63390",
            "timestamp": "2026-03-21T10:15:01.791735Z",
            "was_generated_by": {
              "tool": "dsf-parser",
              "tool_version": "1.0.0",
              "parameters": []
            },
            "used": [],
            "generated": [
              "c565a0bc-311e-463d-879f-00b0c3b8b55a"
            ],
            "execution_duration": "PT0S"
          }
        ]
      }
    },
    {
      "type": "Feature",
      "id": "e3503a25-5248-4e60-8df7-c9b7b505d343",
      "geometry": null,
      "properties": {
        "kind": "SENSOR_CONTACT",
        "parent_track": "NONSUCH",
        "time": "2009-07-22T05:00:43+00:00",
        "bearing": 69.0,
        "range": 291.0,
        "frequency": 49.99,
        "sensor_name": "SENSOR_A",
        "label": "0500",
        "provenance": [
          {
            "activity_id": "f3eb6a00-9f31-4aad-ba83-7b00c9b63390",
            "timestamp": "2026-03-21T10:15:01.791735Z",
            "was_generated_by": {
              "tool": "dsf-parser",
              "tool_version": "1.0.0",
              "parameters": []
            },
            "used": [],
            "generated": [
              "e3503a25-5248-4e60-8df7-c9b7b505d343"
            ],
            "execution_duration": "PT0S"
          }
        ]
      }
    },
    {
      "type": "Feature",
      "id": "b3900115-dea3-4d2d-9d6f-266fa61fed98",
      "geometry": null,
      "properties": {
        "kind": "SENSOR_CONTACT",
        "parent_track": "NONSUCH",
        "time": "2009-07-22T05:02:11+00:00",
        "bearing": 68.5,
        "range": 291.5,
        "frequency": 49.99,
        "sensor_name": "SENSOR_A",
        "label": "0502",
        "provenance": [
          {
            "activity_id": "f3eb6a00-9f31-4aad-ba83-7b00c9b63390",
            "timestamp": "2026-03-21T10:15:01.791735Z",
            "was_generated_by": {
              "tool": "dsf-parser",
              "tool_version": "1.0.0",
              "parameters": []
            },
            "used": [],
            "generated": [
              "b3900115-dea3-4d2d-9d6f-266fa61fed98"
            ],
            "execution_duration": "PT0S"
          }
        ]
      }
    },
    {
      "type": "Feature",
      "id": "01c83d2c-2c48-48e4-a338-898ef665cf2d",
      "geometry": null,
      "properties": {
        "kind": "SENSOR_CONTACT",
        "parent_track": "NONSUCH",
        "time": "2009-07-22T05:03:26+00:00",
        "bearing": 67.8,
        "range": 292.3,
        "frequency": 49.99,
        "sensor_name": "SENSOR_A",
        "label": "0503",
        "provenance": [
          {
            "activity_id": "f3eb6a00-9f31-4aad-ba83-7b00c9b63390",
            "timestamp": "2026-03-21T10:15:01.791735Z",
            "was_generated_by": {
              "tool": "dsf-parser",
              "tool_version": "1.0.0",
              "parameters": []
            },
            "used": [],
            "generated": [
              "01c83d2c-2c48-48e4-a338-898ef665cf2d"
            ],
            "execution_duration": "PT0S"
          }
        ]
      }
    },
    {
      "type": "Feature",
      "id": "af7d47a1-df37-4e47-b213-db63e22c0331",
      "geometry": null,
      "properties": {
        "kind": "SENSOR_CONTACT",
        "parent_track": "NONSUCH",
        "time": "2009-07-22T05:04:34+00:00",
        "bearing": 67.8,
        "range": 292.3,
        "frequency": 49.96,
        "sensor_name": "SENSOR_A",
        "label": "0504",
        "provenance": [
          {
            "activity_id": "f3eb6a00-9f31-4aad-ba83-7b00c9b63390",
            "timestamp": "2026-03-21T10:15:01.791735Z",
            "was_generated_by": {
              "tool": "dsf-parser",
              "tool_version": "1.0.0",
              "parameters": []
            },
            "used": [],
            "generated": [
              "af7d47a1-df37-4e47-b213-db63e22c0331"
            ],
            "execution_duration": "PT0S"
          }
        ]
      }
    },
    {
      "type": "Feature",
      "id": "67dd4e48-9653-4070-a7e3-55d3b48050ab",
      "geometry": null,
      "properties": {
        "kind": "SENSOR_CONTACT",
        "parent_track": "NONSUCH",
        "time": "2009-07-22T05:06:02+00:00",
        "bearing": 67.0,
        "range": 293.0,
        "frequency": 49.96,
        "sensor_name": "SENSOR_A",
        "label": "0506",
        "provenance": [
          {
            "activity_id": "f3eb6a00-9f31-4aad-ba83-7b00c9b63390",
            "timestamp": "2026-03-21T10:15:01.791735Z",
            "was_generated_by": {
              "tool": "dsf-parser",
              "tool_version": "1.0.0",
              "parameters": []
            },
            "used": [],
            "generated": [
              "67dd4e48-9653-4070-a7e3-55d3b48050ab"
            ],
            "execution_duration": "PT0S"
          }
        ]
      }
    },
    {
      "type": "Feature",
      "id": "b3f5fc3c-a9cf-4279-96e2-08a8a2046202",
      "geometry": null,
      "properties": {
        "kind": "SENSOR_CONTACT",
        "parent_track": "NONSUCH",
        "time": "2009-07-22T05:07:57+00:00",
        "bearing": 66.5,
        "range": 293.5,
        "frequency": 49.99,
        "sensor_name": "SENSOR_A",
        "label": "0507",
        "provenance": [
          {
            "activity_id": "f3eb6a00-9f31-4aad-ba83-7b00c9b63390",
            "timestamp": "2026-03-21T10:15:01.791735Z",
            "was_generated_by": {
              "tool": "dsf-parser",
              "tool_version": "1.0.0",
              "parameters": []
            },
            "used": [],
            "generated": [
              "b3f5fc3c-a9cf-4279-96e2-08a8a2046202"
            ],
            "execution_duration": "PT0S"
          }
        ]
      }
    },
    {
      "type": "Feature",
      "id": "743aa19a-f362-4dce-9110-2513ec905a2e",
      "geometry": null,
      "properties": {
        "kind": "SENSOR_CONTACT",
        "parent_track": "NONSUCH",
        "time": "2009-07-22T05:09:13+00:00",
        "bearing": 66.0,
        "range": 294.0,
        "frequency": 49.99,
        "sensor_name": "SENSOR_A",
        "label": "0509",
        "provenance": [
          {
            "activity_id": "f3eb6a00-9f31-4aad-ba83-7b00c9b63390",
            "timestamp": "2026-03-21T10:15:01.791735Z",
            "was_generated_by": {
              "tool": "dsf-parser",
              "tool_version": "1.0.0",
              "parameters": []
            },
            "used": [],
            "generated": [
              "743aa19a-f362-4dce-9110-2513ec905a2e"
            ],
            "execution_duration": "PT0S"
          }
        ]
      }
    },
    {
      "type": "Feature",
      "id": "70efae35-4448-4d50-875b-751fada47aac",
      "geometry": null,
      "properties": {
        "kind": "SENSOR_CONTACT",
        "parent_track": "NONSUCH",
        "time": "2009-07-22T05:10:44+00:00",
        "bearing": 65.8,
        "range": 294.3,
        "frequency": 49.99,
        "sensor_name": "SENSOR_A",
        "label": "0510",
        "provenance": [
          {
            "activity_id": "f3eb6a00-9f31-4aad-ba83-7b00c9b63390",
            "timestamp": "2026-03-21T10:15:01.791735Z",
            "was_generated_by": {
              "tool": "dsf-parser",
              "tool_version": "1.0.0",
              "parameters": []
            },
            "used": [],
            "generated": [
              "70efae35-4448-4d50-875b-751fada47aac"
            ],
            "execution_duration": "PT0S"
          }
        ]
      }
    },
    {
      "type": "Feature",
      "id": "53cc9237-e199-4418-85ca-031b0dec1f9a",
      "geometry": null,
      "properties": {
        "kind": "SENSOR_CONTACT",
        "parent_track": "NONSUCH",
        "time": "2009-07-22T05:12:00+00:00",
        "bearing": 65.3,
        "range": 294.8,
        "frequency": 49.99,
        "sensor_name": "SENSOR_A",
        "label": "0512",
        "provenance": [
          {
            "activity_id": "f3eb6a00-9f31-4aad-ba83-7b00c9b63390",
            "timestamp": "2026-03-21T10:15:01.791735Z",
            "was_generated_by": {
              "tool": "dsf-parser",
              "tool_version": "1.0.0",
              "parameters": []
            },
            "used": [],
            "generated": [
              "53cc9237-e199-4418-85ca-031b0dec1f9a"
            ],
            "execution_duration": "PT0S"
          }
        ]
      }
    },
    {
      "type": "Feature",
      "id": "bbb6024f-8bf9-4e27-8168-9ab076caa8b4",
      "geometry": null,
      "properties": {
        "kind": "SENSOR_CONTACT",
        "parent_track": "NONSUCH",
        "time": "2009-07-22T05:13:20+00:00",
        "bearing": 65.3,
        "range": 294.8,
        "frequency": 49.99,
        "sensor_name": "SENSOR_A",
        "label": "0513",
        "provenance": [
          {
            "activity_id": "f3eb6a00-9f31-4aad-ba83-7b00c9b63390",
            "timestamp": "2026-03-21T10:15:01.791735Z",
            "was_generated_by": {
              "tool": "dsf-parser",
              "tool_version": "1.0.0",
              "parameters": []
            },
            "used": [],
            "generated": [
              "bbb6024f-8bf9-4e27-8168-9ab076caa8b4"
            ],
            "execution_duration": "PT0S"
          }
        ]
      }
    },
    {
      "type": "Feature",
      "id": "5add46a4-3317-478c-87e2-45b3ec67c71a",
      "geometry": null,
      "properties": {
        "kind": "SENSOR_CONTACT",
        "parent_track": "NONSUCH",
        "time": "2009-07-22T05:14:04+00:00",
        "bearing": 65.3,
        "range": 294.8,
        "frequency": 49.99,
        "sensor_name": "SENSOR_A",
        "label": "0514",
        "provenance": [
          {
            "activity_id": "f3eb6a00-9f31-4aad-ba83-7b00c9b63390",
            "timestamp": "2026-03-21T10:15:01.791735Z",
            "was_generated_by": {
              "tool": "dsf-parser",
              "tool_version": "1.0.0",
              "parameters": []
            },
            "used": [],
            "generated": [
              "5add46a4-3317-478c-87e2-45b3ec67c71a"
            ],
            "execution_duration": "PT0S"
          }
        ]
      }
    },
    {
      "type": "Feature",
      "id": "eb7e7967-5616-4b93-b1e6-4dd6b27e298f",
      "geometry": null,
      "properties": {
        "kind": "SENSOR_CONTACT",
        "parent_track": "NONSUCH",
        "time": "2009-07-22T05:15:35+00:00",
        "bearing": 64.3,
        "range": 295.8,
        "frequency": 49.99,
        "sensor_name": "SENSOR_A",
        "label": "0515",
        "provenance": [
          {
            "activity_id": "f3eb6a00-9f31-4aad-ba83-7b00c9b63390",
            "timestamp": "2026-03-21T10:15:01.791735Z",
            "was_generated_by": {
              "tool": "dsf-parser",
              "tool_version": "1.0.0",
              "parameters": []
            },
            "used": [],
            "generated": [
              "eb7e7967-5616-4b93-b1e6-4dd6b27e298f"
            ],
            "execution_duration": "PT0S"
          }
        ]
      }
    },
    {
      "type": "Feature",
      "id": "83cf1af8-8245-4174-8bb3-820fbf6bd477",
      "geometry": null,
      "properties": {
        "kind": "SENSOR_CONTACT",
        "parent_track": "NONSUCH",
        "time": "2009-07-22T05:16:39+00:00",
        "bearing": 64.3,
        "range": 295.8,
        "frequency": 49.99,
        "sensor_name": "SENSOR_A",
        "label": "0516",
        "provenance": [
          {
            "activity_id": "f3eb6a00-9f31-4aad-ba83-7b00c9b63390",
            "timestamp": "2026-03-21T10:15:01.791735Z",
            "was_generated_by": {
              "tool": "dsf-parser",
              "tool_version": "1.0.0",
              "parameters": []
            },
            "used": [],
            "generated": [
              "83cf1af8-8245-4174-8bb3-820fbf6bd477"
            ],
            "execution_duration": "PT0S"
          }
        ]
      }
    },
    {
      "type": "Feature",
      "id": "4ce81d99-ade4-4917-bfec-161365a82b6e",
      "geometry": null,
      "properties": {
        "kind": "SENSOR_CONTACT",
        "parent_track": "NONSUCH",
        "time": "2009-07-22T05:18:11+00:00",
        "bearing": 64.3,
        "range": 295.8,
        "frequency": 49.99,
        "sensor_name": "SENSOR_A",
        "label": "0518",
        "provenance": [
          {
            "activity_id": "f3eb6a00-9f31-4aad-ba83-7b00c9b63390",
            "timestamp": "2026-03-21T10:15:01.791735Z",
            "was_generated_by": {
              "tool": "dsf-parser",
              "tool_version": "1.0.0",
              "parameters": []
            },
            "used": [],
            "generated": [
              "4ce81d99-ade4-4917-bfec-161365a82b6e"
            ],
            "execution_duration": "PT0S"
          }
        ]
      }
    },
    {
      "type": "Feature",
      "id": "df92277e-2c3e-435a-a9d0-ce4d6779e12a",
      "geometry": null,
      "properties": {
        "kind": "SENSOR_CONTACT",
        "parent_track": "NONSUCH",
        "time": "2009-07-22T05:19:11+00:00",
        "bearing": 63.5,
        "range": 296.5,
        "frequency": 49.96,
        "sensor_name": "SENSOR_A",
        "label": "0519",
        "provenance": [
          {
            "activity_id": "f3eb6a00-9f31-4aad-ba83-7b00c9b63390",
            "timestamp": "2026-03-21T10:15:01.791735Z",
            "was_generated_by": {
              "tool": "dsf-parser",
              "tool_version": "1.0.0",
              "parameters": []
            },
            "used": [],
            "generated": [
              "df92277e-2c3e-435a-a9d0-ce4d6779e12a"
            ],
            "execution_duration": "PT0S"
          }
        ]
      }
    },
    {
      "type": "Feature",
      "id": "21095a40-27dc-4970-90f0-1c68f3552394",
      "geometry": null,
      "properties": {
        "kind": "SENSOR_CONTACT",
        "parent_track": "NONSUCH",
        "time": "2009-07-22T05:20:30+00:00",
        "bearing": 63.5,
        "range": 296.5,
        "frequency": 49.99,
        "sensor_name": "SENSOR_A",
        "label": "0520",
        "provenance": [
          {
            "activity_id": "f3eb6a00-9f31-4aad-ba83-7b00c9b63390",
            "timestamp": "2026-03-21T10:15:01.791735Z",
            "was_generated_by": {
              "tool": "dsf-parser",
              "tool_version": "1.0.0",
              "parameters": []
            },
            "used": [],
            "generated": [
              "21095a40-27dc-4970-90f0-1c68f3552394"
            ],
            "execution_duration": "PT0S"
          }
        ]
      }
    },
    {
      "type": "Feature",
      "id": "b4917c18-c7d0-4aba-b50b-a60f3ea08acd",
      "geometry": null,
      "properties": {
        "kind": "SENSOR_CONTACT",
        "parent_track": "NONSUCH",
        "time": "2009-07-22T05:21:30+00:00",
        "bearing": 62.5,
        "range": 297.5,
        "frequency": 50.09,
        "sensor_name": "SENSOR_A",
        "label": "0521",
        "provenance": [
          {
            "activity_id": "f3eb6a00-9f31-4aad-ba83-7b00c9b63390",
            "timestamp": "2026-03-21T10:15:01.791735Z",
            "was_generated_by": {
              "tool": "dsf-parser",
              "tool_version": "1.0.0",
              "parameters": []
            },
            "used": [],
            "generated": [
              "b4917c18-c7d0-4aba-b50b-a60f3ea08acd"
            ],
            "execution_duration": "PT0S"
          }
        ]
      }
    },
    {
      "type": "Feature",
      "id": "a5645908-21a4-48a1-b731-22538d085499",
      "geometry": null,
      "properties": {
        "kind": "SENSOR_CONTACT",
        "parent_track": "NONSUCH",
        "time": "2009-07-22T05:22:22+00:00",
        "bearing": 62.3,
        "range": 297.8,
        "frequency": 50.2,
        "sensor_name": "SENSOR_A",
        "label": "0522",
        "provenance": [
          {
            "activity_id": "f3eb6a00-9f31-4aad-ba83-7b00c9b63390",
            "timestamp": "2026-03-21T10:15:01.791735Z",
            "was_generated_by": {
              "tool": "dsf-parser",
              "tool_version": "1.0.0",
              "parameters": []
            },
            "used": [],
            "generated": [
              "a5645908-21a4-48a1-b731-22538d085499"
            ],
            "execution_duration": "PT0S"
          }
        ]
      }
    },
    {
      "type": "Feature",
      "id": "8b0c9bde-0802-4212-9f4c-722772a12389",
      "geometry": null,
      "properties": {
        "kind": "SENSOR_CONTACT",
        "parent_track": "NONSUCH",
        "time": "2009-07-22T05:23:18+00:00",
        "bearing": 61.8,
        "range": 298.3,
        "frequency": 50.2,
        "sensor_name": "SENSOR_A",
        "label": "0523",
        "provenance": [
          {
            "activity_id": "f3eb6a00-9f31-4aad-ba83-7b00c9b63390",
            "timestamp": "2026-03-21T10:15:01.791735Z",
            "was_generated_by": {
              "tool": "dsf-parser",
              "tool_version": "1.0.0",
              "parameters": []
            },
            "used": [],
            "generated": [
              "8b0c9bde-0802-4212-9f4c-722772a12389"
            ],
            "execution_duration": "PT0S"
          }
        ]
      }
    },
    {
      "type": "Feature",
      "id": "8c2e43d5-538f-4c49-be2f-79c1b87d13dc",
      "geometry": null,
      "properties": {
        "kind": "SENSOR_CONTACT",
        "parent_track": "NONSUCH",
        "time": "2009-07-22T05:24:17+00:00",
        "bearing": 61.0,
        "range": 299.0,
        "frequency": 50.2,
        "sensor_name": "SENSOR_A",
        "label": "0524",
        "provenance": [
          {
            "activity_id": "f3eb6a00-9f31-4aad-ba83-7b00c9b63390",
            "timestamp": "2026-03-21T10:15:01.791735Z",
            "was_generated_by": {
              "tool": "dsf-parser",
              "tool_version": "1.0.0",
              "parameters": []
            },
            "used": [],
            "generated": [
              "8c2e43d5-538f-4c49-be2f-79c1b87d13dc"
            ],
            "execution_duration": "PT0S"
          }
        ]
      }
    },
    {
      "type": "Feature",
      "id": "07c7a9b7-879c-4ca9-bad7-288e667d6b98",
      "geometry": null,
      "properties": {
        "kind": "SENSOR_CONTACT",
        "parent_track": "NONSUCH",
        "time": "2009-07-22T05:25:05+00:00",
        "bearing": 60.5,
        "range": 299.5,
        "frequency": 50.2,
        "sensor_name": "SENSOR_A",
        "label": "0525",
        "provenance": [
          {
            "activity_id": "f3eb6a00-9f31-4aad-ba83-7b00c9b63390",
            "timestamp": "2026-03-21T10:15:01.791735Z",
            "was_generated_by": {
              "tool": "dsf-parser",
              "tool_version": "1.0.0",
              "parameters": []
            },
            "used": [],
            "generated": [
              "07c7a9b7-879c-4ca9-bad7-288e667d6b98"
            ],
            "execution_duration": "PT0S"
          }
        ]
      }
    },
    {
      "type": "Feature",
      "id": "58008ba6-910f-4e19-bf8c-80bd0c98e0b4",
      "geometry": null,
      "properties": {
        "kind": "SENSOR_CONTACT",
        "parent_track": "NONSUCH",
        "time": "2009-07-22T05:25:49+00:00",
        "bearing": 60.0,
        "range": 300.0,
        "frequency": 50.2,
        "sensor_name": "SENSOR_A",
        "label": "0525",
        "provenance": [
          {
            "activity_id": "f3eb6a00-9f31-4aad-ba83-7b00c9b63390",
            "timestamp": "2026-03-21T10:15:01.791735Z",
            "was_generated_by": {
              "tool": "dsf-parser",
              "tool_version": "1.0.0",
              "parameters": []
            },
            "used": [],
            "generated": [
              "58008ba6-910f-4e19-bf8c-80bd0c98e0b4"
            ],
            "execution_duration": "PT0S"
          }
        ]
      }
    }
  ]
}
