{
  "type": "FeatureCollection",
  "features": [
    {
      "type": "Feature",
      "id": "b8965027-7732-4c2e-822b-e8bf876a6ca8",
      "geometry": {
        "type": "LineString",
        "coordinates": [
          [
            0.0215972,
            0.0512972
          ],
          [
            0.0215972,
            0.0503722
          ],
          [
            0.0215972,
            0.0494444
          ],
          [
            0.0215972,
            0.0485194
          ],
          [
            0.0215972,
            0.0475944
          ],
          [
            0.0215972,
            0.0466667
          ],
          [
            0.0215972,
            0.0457417
          ],
          [
            0.0215972,
            0.0448167
          ],
          [
            0.0215972,
            0.0438889
          ],
          [
            0.0215972,
            0.0429639
          ],
          [
            0.0215972,
            0.0420389
          ],
          [
            0.0215972,
            0.0411111
          ],
          [
            0.0215972,
            0.0401861
          ],
          [
            0.0212917,
            0.0393306
          ],
          [
            0.0205167,
            0.0388583
          ],
          [
            0.019625,
            0.0386111
          ],
          [
            0.0187306,
            0.0383667
          ],
          [
            0.0178389,
            0.0381194
          ],
          [
            0.0169444,
            0.037875
          ],
          [
            0.0160528,
            0.0376278
          ],
          [
            0.0151611,
            0.0373833
          ],
          [
            0.0142667,
            0.0371361
          ],
          [
            0.013375,
            0.0368917
          ],
          [
            0.0124833,
            0.0366444
          ],
          [
            0.0115889,
            0.0364
          ],
          [
            0.0106972,
            0.0361528
          ],
          [
            0.0098056,
            0.0359056
          ],
          [
            0.0089111,
            0.0356611
          ],
          [
            0.0080194,
            0.0354139
          ],
          [
            0.0071278,
            0.0351694
          ],
          [
            0.0062333,
            0.0349222
          ],
          [
            0.0053417,
            0.0346778
          ],
          [
            0.0044472,
            0.0344306
          ],
          [
            0.0035556,
            0.0341861
          ],
          [
            0.0028139,
            0.0336639
          ],
          [
            0.0025667,
            0.0327889
          ],
          [
            0.0026778,
            0.0318694
          ],
          [
            0.0027889,
            0.03095
          ],
          [
            0.0029028,
            0.0300306
          ],
          [
            0.0030139,
            0.0291139
          ],
          [
            0.003125,
            0.0281944
          ],
          [
            0.0032361,
            0.027275
          ],
          [
            0.00335,
            0.0263556
          ],
          [
            0.0034611,
            0.0254361
          ],
          [
            0.0035722,
            0.0245167
          ],
          [
            0.0036861,
            0.0235972
          ],
          [
            0.0040917,
            0.0227861
          ],
          [
            0.0049194,
            0.0224139
          ],
          [
            0.0058444,
            0.0224444
          ],
          [
            0.0067694,
            0.0224861
          ],
          [
            0.0076944,
            0.022525
          ],
          [
            0.0086194,
            0.0225639
          ],
          [
            0.0095444,
            0.0226056
          ],
          [
            0.0104694,
            0.0226444
          ],
          [
            0.0113944,
            0.0226861
          ],
          [
            0.0123194,
            0.022725
          ],
          [
            0.0132444,
            0.0227639
          ],
          [
            0.0141694,
            0.0228056
          ],
          [
            0.0150944,
            0.0228444
          ],
          [
            0.0160222,
            0.0228861
          ],
          [
            0.0169472,
            0.022925
          ],
          [
            0.0178722,
            0.0229639
          ],
          [
            0.0187972,
            0.0230056
          ],
          [
            0.0197222,
            0.0230444
          ],
          [
            0.0206472,
            0.0230833
          ],
          [
            0.0215722,
            0.023125
          ],
          [
            0.0224972,
            0.0231639
          ],
          [
            0.0234222,
            0.0232056
          ],
          [
            0.0243472,
            0.0232444
          ],
          [
            0.0252722,
            0.0232833
          ],
          [
            0.0261972,
            0.023325
          ],
          [
            0.0271222,
            0.0233639
          ],
          [
            0.0280472,
            0.0234056
          ],
          [
            0.0289139,
            0.0231361
          ],
          [
            0.0294167,
            0.0223806
          ],
          [
            0.0294361,
            0.0214583
          ],
          [
            0.0294083,
            0.0205306
          ],
          [
            0.0293778,
            0.0196056
          ],
          [
            0.02935,
            0.0186806
          ],
          [
            0.0293194,
            0.0177556
          ],
          [
            0.0292889,
            0.0168306
          ],
          [
            0.0292611,
            0.0159056
          ],
          [
            0.0292306,
            0.0149778
          ],
          [
            0.0292028,
            0.0140528
          ],
          [
            0.0291722,
            0.0131278
          ],
          [
            0.0291444,
            0.0122028
          ],
          [
            0.0291139,
            0.0112778
          ],
          [
            0.0290833,
            0.0103528
          ],
          [
            0.0290556,
            0.009425
          ],
          [
            0.029025,
            0.0085
          ],
          [
            0.0289972,
            0.007575
          ],
          [
            0.0289667,
            0.00665
          ],
          [
            0.0289361,
            0.005725
          ],
          [
            0.0289083,
            0.0048
          ],
          [
            0.0288778,
            0.0038722
          ],
          [
            0.02885,
            0.0029472
          ],
          [
            0.0288194,
            0.0020222
          ],
          [
            0.0287917,
            0.0010972
          ],
          [
            0.0287611,
            0.0001722
          ],
          [
            0.0287306,
            -0.0007528
          ],
          [
            0.0287028,
            -0.0016806
          ],
          [
            0.0286722,
            -0.0026056
          ],
          [
            0.0286444,
            -0.0035306
          ],
          [
            0.0286139,
            -0.0044556
          ],
          [
            0.0285833,
            -0.0053806
          ],
          [
            0.0285556,
            -0.0063056
          ]
        ]
      },
      "properties": {
        "kind": "TRACK",
        "platform_id": "SENSOR",
        "platform_name": "SENSOR",
        "track_type": "CONTACT",
        "start_time": "2010-01-12T12:00:00+00:00",
        "end_time": "2010-01-12T12:35:00+00:00",
        "positions": [
          {
            "time": "2010-01-12T12:00:00+00:00",
            "course": 180.0,
            "speed": 9.0,
            "depth": -0.0
          },
          {
            "time": "2010-01-12T12:00:20+00:00",
            "course": 180.0,
            "speed": 10.0,
            "depth": -0.0
          },
          {
            "time": "2010-01-12T12:00:40+00:00",
            "course": 180.0,
            "speed": 10.0,
            "depth": -0.0
          },
          {
            "time": "2010-01-12T12:01:00+00:00",
            "course": 180.0,
            "speed": 10.0,
            "depth": -0.0
          },
          {
            "time": "2010-01-12T12:01:20+00:00",
            "course": 180.0,
            "speed": 10.0,
            "depth": -0.0
          },
          {
            "time": "2010-01-12T12:01:40+00:00",
            "course": 180.0,
            "speed": 10.0,
            "depth": -0.0
          },
          {
            "time": "2010-01-12T12:02:00+00:00",
            "course": 180.0,
            "speed": 10.0,
            "depth": -0.0
          },
          {
            "time": "2010-01-12T12:02:20+00:00",
            "course": 180.0,
            "speed": 10.0,
            "depth": -0.0
          },
          {
            "time": "2010-01-12T12:02:40+00:00",
            "course": 180.0,
            "speed": 10.0,
            "depth": -0.0
          },
          {
            "time": "2010-01-12T12:03:00+00:00",
            "course": 180.0,
            "speed": 10.0,
            "depth": -0.0
          },
          {
            "time": "2010-01-12T12:03:20+00:00",
            "course": 180.0,
            "speed": 10.0,
            "depth": -0.0
          },
          {
            "time": "2010-01-12T12:03:40+00:00",
            "course": 180.0,
            "speed": 10.0,
            "depth": -0.0
          },
          {
            "time": "2010-01-12T12:04:00+00:00",
            "course": 180.0,
            "speed": 10.0,
            "depth": -0.0
          },
          {
            "time": "2010-01-12T12:04:20+00:00",
            "course": 219.3,
            "speed": 10.0,
            "depth": -0.0
          },
          {
            "time": "2010-01-12T12:04:40+00:00",
            "course": 253.82,
            "speed": 10.0,
            "depth": -0.0
          },
          {
            "time": "2010-01-12T12:05:00+00:00",
            "course": 254.6,
            "speed": 10.0,
            "depth": -0.0
          },
          {
            "time": "2010-01-12T12:05:20+00:00",
            "course": 254.6,
            "speed": 10.0,
            "depth": -0.0
          },
          {
            "time": "2010-01-12T12:05:40+00:00",
            "course": 254.6,
            "speed": 10.0,
            "depth": -0.0
          },
          {
            "time": "2010-01-12T12:06:00+00:00",
            "course": 254.6,
            "speed": 10.0,
            "depth": -0.0
          },
          {
            "time": "2010-01-12T12:06:20+00:00",
            "course": 254.6,
            "speed": 10.0,
            "depth": -0.0
          },
          {
            "time": "2010-01-12T12:06:40+00:00",
            "course": 254.6,
            "speed": 10.0,
            "depth": -0.0
          },
          {
            "time": "2010-01-12T12:07:00+00:00",
            "course": 254.6,
            "speed": 10.0,
            "depth": -0.0
          },
          {
            "time": "2010-01-12T12:07:20+00:00",
            "course": 254.6,
            "speed": 10.0,
            "depth": -0.0
          },
          {
            "time": "2010-01-12T12:07:40+00:00",
            "course": 254.6,
            "speed": 10.0,
            "depth": -0.0
          },
          {
            "time": "2010-01-12T12:08:00+00:00",
            "course": 254.6,
            "speed": 10.0,
            "depth": -0.0
          },
          {
            "time": "2010-01-12T12:08:20+00:00",
            "course": 254.6,
            "speed": 10.0,
            "depth": -0.0
          },
          {
            "time": "2010-01-12T12:08:40+00:00",
            "course": 254.6,
            "speed": 10.0,
            "depth": -0.0
          },
          {
            "time": "2010-01-12T12:09:00+00:00",
            "course": 254.6,
            "speed": 10.0,
            "depth": -0.0
          },
          {
            "time": "2010-01-12T12:09:20+00:00",
            "course": 254.6,
            "speed": 10.0,
            "depth": -0.0
          },
          {
            "time": "2010-01-12T12:09:40+00:00",
            "course": 254.6,
            "speed": 10.0,
            "depth": -0.0
          },
          {
            "time": "2010-01-12T12:10:00+00:00",
            "course": 254.6,
            "speed": 10.0,
            "depth": -0.0
          },
          {
            "time": "2010-01-12T12:10:20+00:00",
            "course": 254.6,
            "speed": 10.0,
            "depth": -0.0
          },
          {
            "time": "2010-01-12T12:10:40+00:00",
            "course": 254.6,
            "speed": 10.0,
            "depth": -0.0
          },
          {
            "time": "2010-01-12T12:11:00+00:00",
            "course": 254.6,
            "speed": 10.0,
            "depth": -0.0
          },
          {
            "time": "2010-01-12T12:11:20+00:00",
            "course": 215.3,
            "speed": 10.0,
            "depth": -0.0
          },
          {
            "time": "2010-01-12T12:11:40+00:00",
            "course": 176.0,
            "speed": 10.0,
            "depth": -0.0
          },
          {
            "time": "2010-01-12T12:12:00+00:00",
            "course": 173.07,
            "speed": 10.0,
            "depth": -0.0
          },
          {
            "time": "2010-01-12T12:12:20+00:00",
            "course": 173.06,
            "speed": 10.0,
            "depth": -0.0
          },
          {
            "time": "2010-01-12T12:12:40+00:00",
            "course": 173.06,
            "speed": 10.0,
            "depth": -0.0
          },
          {
            "time": "2010-01-12T12:13:00+00:00",
            "course": 173.06,
            "speed": 10.0,
            "depth": -0.0
          },
          {
            "time": "2010-01-12T12:13:20+00:00",
            "course": 173.06,
            "speed": 10.0,
            "depth": -0.0
          },
          {
            "time": "2010-01-12T12:13:40+00:00",
            "course": 173.06,
            "speed": 10.0,
            "depth": -0.0
          },
          {
            "time": "2010-01-12T12:14:00+00:00",
            "course": 173.06,
            "speed": 10.0,
            "depth": -0.0
          },
          {
            "time": "2010-01-12T12:14:20+00:00",
            "course": 173.06,
            "speed": 10.0,
            "depth": -0.0
          },
          {
            "time": "2010-01-12T12:14:40+00:00",
            "course": 173.06,
            "speed": 10.0,
            "depth": -0.0
          },
          {
            "time": "2010-01-12T12:15:00+00:00",
            "course": 173.06,
            "speed": 10.0,
            "depth": -0.0
          },
          {
            "time": "2010-01-12T12:15:20+00:00",
            "course": 133.76,
            "speed": 10.0,
            "depth": -0.0
          },
          {
            "time": "2010-01-12T12:15:40+00:00",
            "course": 94.46,
            "speed": 10.0,
            "depth": -0.0
          },
          {
            "time": "2010-01-12T12:16:00+00:00",
            "course": 87.55,
            "speed": 10.0,
            "depth": -0.0
          },
          {
            "time": "2010-01-12T12:16:20+00:00",
            "course": 87.53,
            "speed": 10.0,
            "depth": -0.0
          },
          {
            "time": "2010-01-12T12:16:40+00:00",
            "course": 87.53,
            "speed": 10.0,
            "depth": -0.0
          },
          {
            "time": "2010-01-12T12:17:00+00:00",
            "course": 87.53,
            "speed": 10.0,
            "depth": -0.0
          },
          {
            "time": "2010-01-12T12:17:20+00:00",
            "course": 87.53,
            "speed": 10.0,
            "depth": -0.0
          },
          {
            "time": "2010-01-12T12:17:40+00:00",
            "course": 87.53,
            "speed": 10.0,
            "depth": -0.0
          },
          {
            "time": "2010-01-12T12:18:00+00:00",
            "course": 87.53,
            "speed": 10.0,
            "depth": -0.0
          },
          {
            "time": "2010-01-12T12:18:20+00:00",
            "course": 87.53,
            "speed": 10.0,
            "depth": -0.0
          },
          {
            "time": "2010-01-12T12:18:40+00:00",
            "course": 87.53,
            "speed": 10.0,
            "depth": -0.0
          },
          {
            "time": "2010-01-12T12:19:00+00:00",
            "course": 87.53,
            "speed": 10.0,
            "depth": -0.0
          },
          {
            "time": "2010-01-12T12:19:20+00:00",
            "course": 87.53,
            "speed": 10.0,
            "depth": -0.0
          },
          {
            "time": "2010-01-12T12:19:40+00:00",
            "course": 87.53,
            "speed": 10.0,
            "depth": -0.0
          },
          {
            "time": "2010-01-12T12:20:00+00:00",
            "course": 87.53,
            "speed": 10.0,
            "depth": -0.0
          },
          {
            "time": "2010-01-12T12:20:20+00:00",
            "course": 87.53,
            "speed": 10.0,
            "depth": -0.0
          },
          {
            "time": "2010-01-12T12:20:40+00:00",
            "course": 87.53,
            "speed": 10.0,
            "depth": -0.0
          },
          {
            "time": "2010-01-12T12:21:00+00:00",
            "course": 87.53,
            "speed": 10.0,
            "depth": -0.0
          },
          {
            "time": "2010-01-12T12:21:20+00:00",
            "course": 87.53,
            "speed": 10.0,
            "depth": -0.0
          },
          {
            "time": "2010-01-12T12:21:40+00:00",
            "course": 87.53,
            "speed": 10.0,
            "depth": -0.0
          },
          {
            "time": "2010-01-12T12:22:00+00:00",
            "course": 87.53,
            "speed": 10.0,
            "depth": -0.0
          },
          {
            "time": "2010-01-12T12:22:20+00:00",
            "course": 87.53,
            "speed": 10.0,
            "depth": -0.0
          },
          {
            "time": "2010-01-12T12:22:40+00:00",
            "course": 87.53,
            "speed": 10.0,
            "depth": -0.0
          },
          {
            "time": "2010-01-12T12:23:00+00:00",
            "course": 87.53,
            "speed": 10.0,
            "depth": -0.0
          },
          {
            "time": "2010-01-12T12:23:20+00:00",
            "course": 87.53,
            "speed": 10.0,
            "depth": -0.0
          },
          {
            "time": "2010-01-12T12:23:40+00:00",
            "course": 87.53,
            "speed": 10.0,
            "depth": -0.0
          },
          {
            "time": "2010-01-12T12:24:00+00:00",
            "course": 87.53,
            "speed": 10.0,
            "depth": -0.0
          },
          {
            "time": "2010-01-12T12:24:20+00:00",
            "course": 126.83,
            "speed": 10.0,
            "depth": -0.0
          },
          {
            "time": "2010-01-12T12:24:40+00:00",
            "course": 166.13,
            "speed": 10.0,
            "depth": -0.0
          },
          {
            "time": "2010-01-12T12:25:00+00:00",
            "course": 181.76,
            "speed": 10.0,
            "depth": -0.0
          },
          {
            "time": "2010-01-12T12:25:20+00:00",
            "course": 181.82,
            "speed": 10.0,
            "depth": -0.0
          },
          {
            "time": "2010-01-12T12:25:40+00:00",
            "course": 181.82,
            "speed": 10.0,
            "depth": -0.0
          },
          {
            "time": "2010-01-12T12:26:00+00:00",
            "course": 181.82,
            "speed": 10.0,
            "depth": -0.0
          },
          {
            "time": "2010-01-12T12:26:20+00:00",
            "course": 181.82,
            "speed": 10.0,
            "depth": -0.0
          },
          {
            "time": "2010-01-12T12:26:40+00:00",
            "course": 181.82,
            "speed": 10.0,
            "depth": -0.0
          },
          {
            "time": "2010-01-12T12:27:00+00:00",
            "course": 181.82,
            "speed": 10.0,
            "depth": -0.0
          },
          {
            "time": "2010-01-12T12:27:20+00:00",
            "course": 181.82,
            "speed": 10.0,
            "depth": -0.0
          },
          {
            "time": "2010-01-12T12:27:40+00:00",
            "course": 181.82,
            "speed": 10.0,
            "depth": -0.0
          },
          {
            "time": "2010-01-12T12:28:00+00:00",
            "course": 181.82,
            "speed": 10.0,
            "depth": -0.0
          },
          {
            "time": "2010-01-12T12:28:20+00:00",
            "course": 181.82,
            "speed": 10.0,
            "depth": -0.0
          },
          {
            "time": "2010-01-12T12:28:40+00:00",
            "course": 181.82,
            "speed": 10.0,
            "depth": -0.0
          },
          {
            "time": "2010-01-12T12:29:00+00:00",
            "course": 181.82,
            "speed": 10.0,
            "depth": -0.0
          },
          {
            "time": "2010-01-12T12:29:20+00:00",
            "course": 181.82,
            "speed": 10.0,
            "depth": -0.0
          },
          {
            "time": "2010-01-12T12:29:40+00:00",
            "course": 181.82,
            "speed": 10.0,
            "depth": -0.0
          },
          {
            "time": "2010-01-12T12:30:00+00:00",
            "course": 181.82,
            "speed": 10.0,
            "depth": -0.0
          },
          {
            "time": "2010-01-12T12:30:20+00:00",
            "course": 181.82,
            "speed": 10.0,
            "depth": -0.0
          },
          {
            "time": "2010-01-12T12:30:40+00:00",
            "course": 181.82,
            "speed": 10.0,
            "depth": -0.0
          },
          {
            "time": "2010-01-12T12:31:00+00:00",
            "course": 181.82,
            "speed": 10.0,
            "depth": -0.0
          },
          {
            "time": "2010-01-12T12:31:20+00:00",
            "course": 181.82,
            "speed": 10.0,
            "depth": -0.0
          },
          {
            "time": "2010-01-12T12:31:40+00:00",
            "course": 181.82,
            "speed": 10.0,
            "depth": -0.0
          },
          {
            "time": "2010-01-12T12:32:00+00:00",
            "course": 181.82,
            "speed": 10.0,
            "depth": -0.0
          },
          {
            "time": "2010-01-12T12:32:20+00:00",
            "course": 181.82,
            "speed": 10.0,
            "depth": -0.0
          },
          {
            "time": "2010-01-12T12:32:40+00:00",
            "course": 181.82,
            "speed": 10.0,
            "depth": -0.0
          },
          {
            "time": "2010-01-12T12:33:00+00:00",
            "course": 181.82,
            "speed": 10.0,
            "depth": -0.0
          },
          {
            "time": "2010-01-12T12:33:20+00:00",
            "course": 181.82,
            "speed": 10.0,
            "depth": -0.0
          },
          {
            "time": "2010-01-12T12:33:40+00:00",
            "course": 181.82,
            "speed": 10.0,
            "depth": -0.0
          },
          {
            "time": "2010-01-12T12:34:00+00:00",
            "course": 181.82,
            "speed": 10.0,
            "depth": -0.0
          },
          {
            "time": "2010-01-12T12:34:20+00:00",
            "course": 181.82,
            "speed": 10.0,
            "depth": -0.0
          },
          {
            "time": "2010-01-12T12:34:40+00:00",
            "course": 181.82,
            "speed": 10.0,
            "depth": -0.0
          },
          {
            "time": "2010-01-12T12:35:00+00:00",
            "course": 181.82,
            "speed": 10.0,
            "depth": -0.0
          }
        ],
        "style": {
          "line": {
            "color": "#808080"
          },
          "point": {
            "shape": "circle",
            "radius": 3.0,
            "fill_color": "#808080",
            "color": "#808080"
          }
        },
        "default_position_style": {
          "show_symbol": false,
          "symbol": "circle",
          "show_label": false
        },
        "symbol_interval": "PT5M",
        "label_interval": "PT15M"
      }
    },
    {
      "type": "Feature",
      "id": "e5d36175-8d2e-4db4-9208-40807ac2fc2c",
      "geometry": null,
      "properties": {
        "kind": "SENSOR_CONTACT",
        "parent_track": "SENSOR",
        "sensor_name": "Plain",
        "bearing": -115.0,
        "time": "2010-01-12T12:00:20+00:00",
        "label": "Cookie SUBJECT held on Plain Cookie"
      }
    },
    {
      "type": "Feature",
      "id": "6eaa597a-3129-45ee-a709-8196e88f91d9",
      "geometry": null,
      "properties": {
        "kind": "SENSOR_CONTACT",
        "parent_track": "SENSOR",
        "sensor_name": "Plain",
        "bearing": -113.3,
        "time": "2010-01-12T12:00:40+00:00",
        "label": "Cookie SUBJECT held on Plain Cookie"
      }
    },
    {
      "type": "Feature",
      "id": "e52cd4cf-d0d4-4da4-b415-a5e003dedefe",
      "geometry": null,
      "properties": {
        "kind": "SENSOR_CONTACT",
        "parent_track": "SENSOR",
        "sensor_name": "Plain",
        "bearing": -109.9,
        "time": "2010-01-12T12:01:20+00:00",
        "label": "Cookie SUBJECT held on Plain Cookie"
      }
    },
    {
      "type": "Feature",
      "id": "40da0aaf-a3dd-4cd8-917d-a6b84ee73356",
      "geometry": null,
      "properties": {
        "kind": "SENSOR_CONTACT",
        "parent_track": "SENSOR",
        "sensor_name": "Plain",
        "bearing": -108.2,
        "time": "2010-01-12T12:01:40+00:00",
        "label": "Cookie SUBJECT held on Plain Cookie"
      }
    },
    {
      "type": "Feature",
      "id": "5df97018-6775-4b5d-850f-bf566d3b79a3",
      "geometry": null,
      "properties": {
        "kind": "SENSOR_CONTACT",
        "parent_track": "SENSOR",
        "sensor_name": "Plain",
        "bearing": -104.6,
        "time": "2010-01-12T12:02:20+00:00",
        "label": "Cookie SUBJECT held on Plain Cookie"
      }
    },
    {
      "type": "Feature",
      "id": "3091b5d5-bfa0-4f26-b28c-f76fda7a9215",
      "geometry": null,
      "properties": {
        "kind": "SENSOR_CONTACT",
        "parent_track": "SENSOR",
        "sensor_name": "Plain",
        "bearing": -100.8,
        "time": "2010-01-12T12:03:00+00:00",
        "label": "Cookie SUBJECT held on Plain Cookie"
      }
    },
    {
      "type": "Feature",
      "id": "5203ac04-cfcb-47d6-9104-51447507b8b3",
      "geometry": null,
      "properties": {
        "kind": "SENSOR_CONTACT",
        "parent_track": "SENSOR",
        "sensor_name": "Plain",
        "bearing": -93.6,
        "time": "2010-01-12T12:04:20+00:00",
        "label": "Cookie SUBJECT held on Plain Cookie"
      }
    },
    {
      "type": "Feature",
      "id": "005245df-7c6d-4de9-9c2b-31caf9abe389",
      "geometry": null,
      "properties": {
        "kind": "SENSOR_CONTACT",
        "parent_track": "SENSOR",
        "sensor_name": "Plain",
        "bearing": -96.8,
        "time": "2010-01-12T12:05:00+00:00",
        "label": "Cookie SUBJECT held on Plain Cookie"
      }
    },
    {
      "type": "Feature",
      "id": "d5b5f926-a8b6-4f86-a8e8-0815e67ce170",
      "geometry": null,
      "properties": {
        "kind": "SENSOR_CONTACT",
        "parent_track": "SENSOR",
        "sensor_name": "Plain",
        "bearing": -103.3,
        "time": "2010-01-12T12:05:40+00:00",
        "label": "Cookie SUBJECT held on Plain Cookie"
      }
    },
    {
      "type": "Feature",
      "id": "de5e592b-907b-4bd4-b4a7-d96ff2be2ba0",
      "geometry": null,
      "properties": {
        "kind": "SENSOR_CONTACT",
        "parent_track": "SENSOR",
        "sensor_name": "Plain",
        "bearing": -107.8,
        "time": "2010-01-12T12:06:00+00:00",
        "label": "Cookie SUBJECT held on Plain Cookie"
      }
    },
    {
      "type": "Feature",
      "id": "fb49ab3b-a900-4083-a7ea-057d78302805",
      "geometry": null,
      "properties": {
        "kind": "SENSOR_CONTACT",
        "parent_track": "SENSOR",
        "sensor_name": "Plain",
        "bearing": -154.5,
        "time": "2010-01-12T12:07:40+00:00",
        "label": "Cookie SUBJECT held on Plain Cookie"
      }
    },
    {
      "type": "Feature",
      "id": "dd338a51-dc44-4eee-866e-3a09c54593ac",
      "geometry": null,
      "properties": {
        "kind": "SENSOR_CONTACT",
        "parent_track": "SENSOR",
        "sensor_name": "Plain",
        "bearing": -168.4,
        "time": "2010-01-12T12:08:00+00:00",
        "label": "Cookie SUBJECT held on Plain Cookie"
      }
    },
    {
      "type": "Feature",
      "id": "ea8de8c0-8e92-49b5-a261-1c3add7f207b",
      "geometry": null,
      "properties": {
        "kind": "SENSOR_CONTACT",
        "parent_track": "SENSOR",
        "sensor_name": "Plain",
        "bearing": 178.6,
        "time": "2010-01-12T12:08:20+00:00",
        "label": "Cookie SUBJECT held on Plain Cookie"
      }
    },
    {
      "type": "Feature",
      "id": "586104ab-c6db-475c-80f0-9dcbff53264d",
      "geometry": null,
      "properties": {
        "kind": "SENSOR_CONTACT",
        "parent_track": "SENSOR",
        "sensor_name": "Plain",
        "bearing": 156.6,
        "time": "2010-01-12T12:09:00+00:00",
        "label": "Cookie SUBJECT held on Plain Cookie"
      }
    },
    {
      "type": "Feature",
      "id": "36cc8d56-0c88-473c-a5b3-eab43eafd0ba",
      "geometry": null,
      "properties": {
        "kind": "SENSOR_CONTACT",
        "parent_track": "SENSOR",
        "sensor_name": "Plain",
        "bearing": 147.8,
        "time": "2010-01-12T12:09:20+00:00",
        "label": "Cookie SUBJECT held on Plain Cookie"
      }
    },
    {
      "type": "Feature",
      "id": "1a88587c-21bc-4e12-929a-6dd2a439b765",
      "geometry": null,
      "properties": {
        "kind": "SENSOR_CONTACT",
        "parent_track": "SENSOR",
        "sensor_name": "Plain",
        "bearing": 140.4,
        "time": "2010-01-12T12:09:40+00:00",
        "label": "Cookie SUBJECT held on Plain Cookie"
      }
    },
    {
      "type": "Feature",
      "id": "d7873df4-8846-45a0-9e89-7820c34a8baf",
      "geometry": null,
      "properties": {
        "kind": "SENSOR_CONTACT",
        "parent_track": "SENSOR",
        "sensor_name": "Plain",
        "bearing": 124.6,
        "time": "2010-01-12T12:10:40+00:00",
        "label": "Cookie SUBJECT held on Plain Cookie"
      }
    },
    {
      "type": "Feature",
      "id": "603423b3-9f68-4e1f-9395-3eb2745fe361",
      "geometry": null,
      "properties": {
        "kind": "SENSOR_CONTACT",
        "parent_track": "SENSOR",
        "sensor_name": "Plain",
        "bearing": 117.7,
        "time": "2010-01-12T12:11:20+00:00",
        "label": "Cookie SUBJECT held on Plain Cookie"
      }
    },
    {
      "type": "Feature",
      "id": "017d33d5-c161-4a19-982c-d3c4d7e87296",
      "geometry": null,
      "properties": {
        "kind": "SENSOR_CONTACT",
        "parent_track": "SENSOR",
        "sensor_name": "Plain",
        "bearing": 114.2,
        "time": "2010-01-12T12:11:40+00:00",
        "label": "Cookie SUBJECT held on Plain Cookie"
      }
    },
    {
      "type": "Feature",
      "id": "c7aecd25-895d-4288-91d1-51066ad4e431",
      "geometry": null,
      "properties": {
        "kind": "SENSOR_CONTACT",
        "parent_track": "SENSOR",
        "sensor_name": "Plain",
        "bearing": 108.4,
        "time": "2010-01-12T12:12:20+00:00",
        "label": "Cookie SUBJECT held on Plain Cookie"
      }
    },
    {
      "type": "Feature",
      "id": "5d0131bf-ef90-4616-a0c0-d4b621f8fb76",
      "geometry": null,
      "properties": {
        "kind": "SENSOR_CONTACT",
        "parent_track": "SENSOR",
        "sensor_name": "Plain",
        "bearing": 105.5,
        "time": "2010-01-12T12:12:40+00:00",
        "label": "Cookie SUBJECT held on Plain Cookie"
      }
    },
    {
      "type": "Feature",
      "id": "dd5fc0ab-8c58-4407-9ba7-e5f3e1eb6fd0",
      "geometry": null,
      "properties": {
        "kind": "SENSOR_CONTACT",
        "parent_track": "SENSOR",
        "sensor_name": "Plain",
        "bearing": 97.5,
        "time": "2010-01-12T12:13:40+00:00",
        "label": "Cookie SUBJECT held on Plain Cookie"
      }
    },
    {
      "type": "Feature",
      "id": "453f6b6f-2485-46d6-9a7d-265c95bf3745",
      "geometry": null,
      "properties": {
        "kind": "SENSOR_CONTACT",
        "parent_track": "SENSOR",
        "sensor_name": "Plain",
        "bearing": 95.0,
        "time": "2010-01-12T12:14:00+00:00",
        "label": "Cookie SUBJECT held on Plain Cookie"
      }
    },
    {
      "type": "Feature",
      "id": "2e881482-00ae-42ad-9cb8-3e4f8a5170b9",
      "geometry": null,
      "properties": {
        "kind": "SENSOR_CONTACT",
        "parent_track": "SENSOR",
        "sensor_name": "Plain",
        "bearing": 92.6,
        "time": "2010-01-12T12:14:20+00:00",
        "label": "Cookie SUBJECT held on Plain Cookie"
      }
    },
    {
      "type": "Feature",
      "id": "fe2e4be8-faa6-476f-9d6b-fd2fcc314b31",
      "geometry": null,
      "properties": {
        "kind": "SENSOR_CONTACT",
        "parent_track": "SENSOR",
        "sensor_name": "Plain",
        "bearing": 86.2,
        "time": "2010-01-12T12:15:20+00:00",
        "label": "Cookie SUBJECT held on Plain Cookie"
      }
    },
    {
      "type": "Feature",
      "id": "fff5177d-34cc-40af-9f7e-9c3de616b859",
      "geometry": null,
      "properties": {
        "kind": "SENSOR_CONTACT",
        "parent_track": "SENSOR",
        "sensor_name": "Plain",
        "bearing": 87.6,
        "time": "2010-01-12T12:16:00+00:00",
        "label": "Cookie SUBJECT held on Plain Cookie"
      }
    },
    {
      "type": "Feature",
      "id": "ca18298f-86d0-47d9-8683-65ca6d81b149",
      "geometry": null,
      "properties": {
        "kind": "SENSOR_CONTACT",
        "parent_track": "SENSOR",
        "sensor_name": "Plain",
        "bearing": 89.2,
        "time": "2010-01-12T12:16:20+00:00",
        "label": "Cookie SUBJECT held on Plain Cookie"
      }
    },
    {
      "type": "Feature",
      "id": "a015c1ad-413e-4f06-8563-60b1fc2788f6",
      "geometry": null,
      "properties": {
        "kind": "SENSOR_CONTACT",
        "parent_track": "SENSOR",
        "sensor_name": "Plain",
        "bearing": 93.0,
        "time": "2010-01-12T12:17:00+00:00",
        "label": "Cookie SUBJECT held on Plain Cookie"
      }
    },
    {
      "type": "Feature",
      "id": "b9371303-f20d-4d03-9cd3-73204648b1f2",
      "geometry": null,
      "properties": {
        "kind": "SENSOR_CONTACT",
        "parent_track": "SENSOR",
        "sensor_name": "Plain",
        "bearing": 95.0,
        "time": "2010-01-12T12:17:20+00:00",
        "label": "Cookie SUBJECT held on Plain Cookie"
      }
    },
    {
      "type": "Feature",
      "id": "6a2864d6-764d-451b-95af-c5ec58a18e2a",
      "geometry": null,
      "properties": {
        "kind": "SENSOR_CONTACT",
        "parent_track": "SENSOR",
        "sensor_name": "Plain",
        "bearing": 102.4,
        "time": "2010-01-12T12:18:20+00:00",
        "label": "Cookie SUBJECT held on Plain Cookie"
      }
    },
    {
      "type": "Feature",
      "id": "dcbefdcf-b798-473e-b4c9-758bbd145e4a",
      "geometry": null,
      "properties": {
        "kind": "SENSOR_CONTACT",
        "parent_track": "SENSOR",
        "sensor_name": "Plain",
        "bearing": 105.3,
        "time": "2010-01-12T12:18:40+00:00",
        "label": "Cookie SUBJECT held on Plain Cookie"
      }
    },
    {
      "type": "Feature",
      "id": "d2ffe3b3-f8f1-43e3-82e8-c440e1fdda82",
      "geometry": null,
      "properties": {
        "kind": "SENSOR_CONTACT",
        "parent_track": "SENSOR",
        "sensor_name": "Plain",
        "bearing": 115.3,
        "time": "2010-01-12T12:19:40+00:00",
        "label": "Cookie SUBJECT held on Plain Cookie"
      }
    },
    {
      "type": "Feature",
      "id": "24f267b6-e029-4ee6-bbab-c2de7f229b8d",
      "geometry": null,
      "properties": {
        "kind": "SENSOR_CONTACT",
        "parent_track": "SENSOR",
        "sensor_name": "Plain",
        "bearing": 128.5,
        "time": "2010-01-12T12:20:40+00:00",
        "label": "Cookie SUBJECT held on Plain Cookie"
      }
    },
    {
      "type": "Feature",
      "id": "55a12020-c6e5-437b-ba61-1049d8308754",
      "geometry": null,
      "properties": {
        "kind": "SENSOR_CONTACT",
        "parent_track": "SENSOR",
        "sensor_name": "Plain",
        "bearing": 134.4,
        "time": "2010-01-12T12:21:00+00:00",
        "label": "Cookie SUBJECT held on Plain Cookie"
      }
    },
    {
      "type": "Feature",
      "id": "befea12e-4de2-4b31-be69-a19948c88872",
      "geometry": null,
      "properties": {
        "kind": "SENSOR_CONTACT",
        "parent_track": "SENSOR",
        "sensor_name": "Plain",
        "bearing": 141.1,
        "time": "2010-01-12T12:21:20+00:00",
        "label": "Cookie SUBJECT held on Plain Cookie"
      }
    },
    {
      "type": "Feature",
      "id": "e0cfb676-5a42-4fea-a3b5-f2b327103886",
      "geometry": null,
      "properties": {
        "kind": "SENSOR_CONTACT",
        "parent_track": "SENSOR",
        "sensor_name": "Plain",
        "bearing": 170.7,
        "time": "2010-01-12T12:22:40+00:00",
        "label": "Cookie SUBJECT held on Plain Cookie"
      }
    },
    {
      "type": "Feature",
      "id": "843a8a8b-2eee-4863-b426-948a6c388c50",
      "geometry": null,
      "properties": {
        "kind": "SENSOR_CONTACT",
        "parent_track": "SENSOR",
        "sensor_name": "Plain",
        "bearing": 177.1,
        "time": "2010-01-12T12:23:00+00:00",
        "label": "Cookie SUBJECT held on Plain Cookie"
      }
    },
    {
      "type": "Feature",
      "id": "28d6f60b-24df-4761-adc6-96dab5c7c2fa",
      "geometry": null,
      "properties": {
        "kind": "SENSOR_CONTACT",
        "parent_track": "SENSOR",
        "sensor_name": "Plain",
        "bearing": -177.2,
        "time": "2010-01-12T12:23:20+00:00",
        "label": "Cookie SUBJECT held on Plain Cookie"
      }
    },
    {
      "type": "Feature",
      "id": "fdf6dfb7-0fe6-447d-b780-5771020ad97e",
      "geometry": null,
      "properties": {
        "kind": "SENSOR_CONTACT",
        "parent_track": "SENSOR",
        "sensor_name": "Plain",
        "bearing": -172.2,
        "time": "2010-01-12T12:23:40+00:00",
        "label": "Cookie SUBJECT held on Plain Cookie"
      }
    },
    {
      "type": "Feature",
      "id": "460907af-9bad-4088-80f5-065051c9ef40",
      "geometry": null,
      "properties": {
        "kind": "SENSOR_CONTACT",
        "parent_track": "SENSOR",
        "sensor_name": "Plain",
        "bearing": -163.9,
        "time": "2010-01-12T12:24:20+00:00",
        "label": "Cookie SUBJECT held on Plain Cookie"
      }
    },
    {
      "type": "Feature",
      "id": "8c173be2-48b7-4848-99b8-246056433966",
      "geometry": null,
      "properties": {
        "kind": "SENSOR_CONTACT",
        "parent_track": "SENSOR",
        "sensor_name": "Plain",
        "bearing": -160.3,
        "time": "2010-01-12T12:25:00+00:00",
        "label": "Cookie SUBJECT held on Plain Cookie"
      }
    },
    {
      "type": "Feature",
      "id": "6064f911-3bcf-42e8-9f40-de0703efd74a",
      "geometry": null,
      "properties": {
        "kind": "SENSOR_CONTACT",
        "parent_track": "SENSOR",
        "sensor_name": "Plain",
        "bearing": -158.4,
        "time": "2010-01-12T12:26:00+00:00",
        "label": "Cookie SUBJECT held on Plain Cookie"
      }
    },
    {
      "type": "Feature",
      "id": "7fbbc3d7-33dd-4cee-9193-d3ebfe5320f7",
      "geometry": null,
      "properties": {
        "kind": "SENSOR_CONTACT",
        "parent_track": "SENSOR",
        "sensor_name": "Plain",
        "bearing": -156.9,
        "time": "2010-01-12T12:26:40+00:00",
        "label": "Cookie SUBJECT held on Plain Cookie"
      }
    },
    {
      "type": "Feature",
      "id": "53ad7fa7-b48c-4703-ac3c-801ea5755c27",
      "geometry": null,
      "properties": {
        "kind": "SENSOR_CONTACT",
        "parent_track": "SENSOR",
        "sensor_name": "Plain",
        "bearing": -155.2,
        "time": "2010-01-12T12:27:20+00:00",
        "label": "Cookie SUBJECT held on Plain Cookie"
      }
    },
    {
      "type": "Feature",
      "id": "3b0a56f3-0aad-4048-bb15-9cf54e3cb6d0",
      "geometry": null,
      "properties": {
        "kind": "SENSOR_CONTACT",
        "parent_track": "SENSOR",
        "sensor_name": "Plain",
        "bearing": -153.1,
        "time": "2010-01-12T12:28:00+00:00",
        "label": "Cookie SUBJECT held on Plain Cookie"
      }
    },
    {
      "type": "Feature",
      "id": "4a01493b-097d-4edf-bbd8-c3af5f89eb20",
      "geometry": null,
      "properties": {
        "kind": "SENSOR_CONTACT",
        "parent_track": "SENSOR",
        "sensor_name": "Plain",
        "bearing": -149.4,
        "time": "2010-01-12T12:29:00+00:00",
        "label": "Cookie SUBJECT held on Plain Cookie"
      }
    },
    {
      "type": "Feature",
      "id": "ba3d0f9d-7c9f-4986-8aa5-e7f0fc2495b1",
      "geometry": null,
      "properties": {
        "kind": "SENSOR_CONTACT",
        "parent_track": "SENSOR",
        "sensor_name": "Plain",
        "bearing": -146.3,
        "time": "2010-01-12T12:29:40+00:00",
        "label": "Cookie SUBJECT held on Plain Cookie"
      }
    },
    {
      "type": "Feature",
      "id": "b62e2531-e815-4e8f-b8a9-7258ac1aeec7",
      "geometry": null,
      "properties": {
        "kind": "SENSOR_CONTACT",
        "parent_track": "SENSOR",
        "sensor_name": "Plain",
        "bearing": -142.5,
        "time": "2010-01-12T12:30:20+00:00",
        "label": "Cookie SUBJECT held on Plain Cookie"
      }
    },
    {
      "type": "Feature",
      "id": "4d88b0c7-e277-4581-a42d-2968327dc3fd",
      "geometry": null,
      "properties": {
        "kind": "SENSOR_CONTACT",
        "parent_track": "SENSOR",
        "sensor_name": "Plain",
        "bearing": -140.4,
        "time": "2010-01-12T12:30:40+00:00",
        "label": "Cookie SUBJECT held on Plain Cookie"
      }
    },
    {
      "type": "Feature",
      "id": "c7d72457-0f95-4c27-9cac-e92d49e41e34",
      "geometry": null,
      "properties": {
        "kind": "SENSOR_CONTACT",
        "parent_track": "SENSOR",
        "sensor_name": "Plain",
        "bearing": -132.3,
        "time": "2010-01-12T12:31:40+00:00",
        "label": "Cookie SUBJECT held on Plain Cookie"
      }
    },
    {
      "type": "Feature",
      "id": "c730771b-2d4b-4af3-85fa-58450394c1e8",
      "geometry": null,
      "properties": {
        "kind": "SENSOR_CONTACT",
        "parent_track": "SENSOR",
        "sensor_name": "Plain",
        "bearing": -125.4,
        "time": "2010-01-12T12:32:20+00:00",
        "label": "Cookie SUBJECT held on Plain Cookie"
      }
    },
    {
      "type": "Feature",
      "id": "4f0df518-2c7c-4d1b-b755-29784de92df0",
      "geometry": null,
      "properties": {
        "kind": "SENSOR_CONTACT",
        "parent_track": "SENSOR",
        "sensor_name": "Plain",
        "bearing": -116.9,
        "time": "2010-01-12T12:33:00+00:00",
        "label": "Cookie SUBJECT held on Plain Cookie"
      }
    },
    {
      "type": "Feature",
      "id": "2aed5b04-1da4-4eeb-876a-5bee7c9385ce",
      "geometry": null,
      "properties": {
        "kind": "SENSOR_CONTACT",
        "parent_track": "SENSOR",
        "sensor_name": "Plain",
        "bearing": -101.2,
        "time": "2010-01-12T12:34:00+00:00",
        "label": "Cookie SUBJECT held on Plain Cookie"
      }
    },
    {
      "type": "Feature",
      "id": "bab97317-0c4c-4057-938e-aa268f0b3790",
      "geometry": null,
      "properties": {
        "kind": "SENSOR_CONTACT",
        "parent_track": "SENSOR",
        "sensor_name": "Plain",
        "bearing": -83.4,
        "time": "2010-01-12T12:35:00+00:00",
        "label": "Cookie SUBJECT held on Plain Cookie"
      }
    },
    {
      "type": "Feature",
      "id": "b50f9a39-9115-44c1-a8d1-b3df687a2ce9",
      "geometry": {
        "type": "LineString",
        "coordinates": [
          [
            0.0108,
            0.0458972
          ],
          [
            0.0108,
            0.0453417
          ],
          [
            0.0108,
            0.0447861
          ],
          [
            0.0108,
            0.0442306
          ],
          [
            0.0108,
            0.043675
          ],
          [
            0.0108,
            0.0431194
          ],
          [
            0.0108,
            0.0425639
          ],
          [
            0.0108,
            0.0420083
          ],
          [
            0.0108,
            0.0414528
          ],
          [
            0.0108,
            0.0408972
          ],
          [
            0.0108,
            0.0403417
          ],
          [
            0.0108,
            0.0397861
          ],
          [
            0.0108,
            0.0392306
          ],
          [
            0.0108,
            0.038675
          ],
          [
            0.0108,
            0.0381194
          ],
          [
            0.0108,
            0.0375639
          ],
          [
            0.0108,
            0.0370083
          ],
          [
            0.0108,
            0.0364528
          ],
          [
            0.0108,
            0.0358972
          ],
          [
            0.0108,
            0.0353417
          ],
          [
            0.0108,
            0.0347861
          ],
          [
            0.0108,
            0.0342306
          ],
          [
            0.0108,
            0.033675
          ],
          [
            0.0108,
            0.0331194
          ],
          [
            0.0108,
            0.0325639
          ],
          [
            0.0108,
            0.0320083
          ],
          [
            0.0108417,
            0.0314528
          ],
          [
            0.0109694,
            0.0309139
          ],
          [
            0.0111778,
            0.0304
          ],
          [
            0.0114639,
            0.029925
          ],
          [
            0.0118194,
            0.0294972
          ],
          [
            0.0122306,
            0.029125
          ],
          [
            0.0126556,
            0.0287667
          ],
          [
            0.0130778,
            0.0284083
          ],
          [
            0.0135028,
            0.0280472
          ],
          [
            0.0139278,
            0.0276889
          ],
          [
            0.01435,
            0.0273306
          ],
          [
            0.014775,
            0.0269694
          ],
          [
            0.0151972,
            0.0266111
          ],
          [
            0.0156222,
            0.0262528
          ],
          [
            0.0160444,
            0.0258917
          ],
          [
            0.0164694,
            0.0255333
          ],
          [
            0.0168944,
            0.025175
          ],
          [
            0.0173167,
            0.0248139
          ],
          [
            0.0177417,
            0.0244556
          ],
          [
            0.0181639,
            0.0240972
          ],
          [
            0.0185889,
            0.0237389
          ],
          [
            0.0190111,
            0.0233778
          ],
          [
            0.0194361,
            0.0230194
          ],
          [
            0.0198611,
            0.0226611
          ],
          [
            0.0202833,
            0.0223
          ],
          [
            0.0207083,
            0.0219417
          ],
          [
            0.0211306,
            0.0215833
          ],
          [
            0.0215556,
            0.0212222
          ],
          [
            0.0219778,
            0.0208639
          ],
          [
            0.0224028,
            0.0205056
          ],
          [
            0.0228278,
            0.0201444
          ],
          [
            0.02325,
            0.0197861
          ],
          [
            0.023675,
            0.0194278
          ],
          [
            0.0240972,
            0.0190667
          ],
          [
            0.0245222,
            0.0187083
          ],
          [
            0.0249167,
            0.0183194
          ],
          [
            0.0252472,
            0.0178722
          ],
          [
            0.0255028,
            0.0173806
          ],
          [
            0.0256806,
            0.0168556
          ],
          [
            0.0257778,
            0.0163083
          ],
          [
            0.0257889,
            0.0157528
          ],
          [
            0.0257694,
            0.0151972
          ],
          [
            0.02575,
            0.0146417
          ],
          [
            0.0257306,
            0.0140861
          ],
          [
            0.0257111,
            0.0135333
          ],
          [
            0.0256917,
            0.0129778
          ],
          [
            0.0256722,
            0.0124222
          ],
          [
            0.0256528,
            0.0118667
          ],
          [
            0.0256333,
            0.0113111
          ],
          [
            0.0256139,
            0.0107556
          ],
          [
            0.0255944,
            0.0102
          ],
          [
            0.025575,
            0.0096444
          ],
          [
            0.0255556,
            0.0090917
          ],
          [
            0.0255361,
            0.0085361
          ],
          [
            0.0255167,
            0.0079806
          ],
          [
            0.0255,
            0.007425
          ],
          [
            0.0254806,
            0.0068694
          ],
          [
            0.0254611,
            0.0063139
          ],
          [
            0.0254417,
            0.0057583
          ],
          [
            0.0254222,
            0.0052028
          ],
          [
            0.0254028,
            0.00465
          ],
          [
            0.0253833,
            0.0040944
          ],
          [
            0.0253639,
            0.0035389
          ],
          [
            0.0253444,
            0.0029833
          ],
          [
            0.025325,
            0.0024278
          ],
          [
            0.0253056,
            0.0018722
          ],
          [
            0.0252861,
            0.0013167
          ],
          [
            0.0252667,
            0.0007611
          ],
          [
            0.0252472,
            0.0002056
          ],
          [
            0.0252278,
            -0.0003472
          ],
          [
            0.0252083,
            -0.0009028
          ],
          [
            0.0251889,
            -0.0014583
          ],
          [
            0.0251694,
            -0.0020139
          ],
          [
            0.02515,
            -0.0025694
          ],
          [
            0.0251306,
            -0.003125
          ],
          [
            0.0251111,
            -0.0036806
          ],
          [
            0.0250917,
            -0.0042361
          ],
          [
            0.0250722,
            -0.0047889
          ],
          [
            0.0250528,
            -0.0053444
          ],
          [
            0.0250333,
            -0.0059
          ]
        ]
      },
      "properties": {
        "kind": "TRACK",
        "platform_id": "SUBJECT",
        "platform_name": "SUBJECT",
        "track_type": "CONTACT",
        "start_time": "2010-01-12T12:00:00+00:00",
        "end_time": "2010-01-12T12:35:00+00:00",
        "positions": [
          {
            "time": "2010-01-12T12:00:00+00:00",
            "course": 180.0,
            "speed": 6.0,
            "depth": -0.0
          },
          {
            "time": "2010-01-12T12:00:20+00:00",
            "course": 180.0,
            "speed": 6.0,
            "depth": -0.0
          },
          {
            "time": "2010-01-12T12:00:40+00:00",
            "course": 180.0,
            "speed": 6.0,
            "depth": -0.0
          },
          {
            "time": "2010-01-12T12:01:00+00:00",
            "course": 180.0,
            "speed": 6.0,
            "depth": -0.0
          },
          {
            "time": "2010-01-12T12:01:20+00:00",
            "course": 180.0,
            "speed": 6.0,
            "depth": -0.0
          },
          {
            "time": "2010-01-12T12:01:40+00:00",
            "course": 180.0,
            "speed": 6.0,
            "depth": -0.0
          },
          {
            "time": "2010-01-12T12:02:00+00:00",
            "course": 180.0,
            "speed": 6.0,
            "depth": -0.0
          },
          {
            "time": "2010-01-12T12:02:20+00:00",
            "course": 180.0,
            "speed": 6.0,
            "depth": -0.0
          },
          {
            "time": "2010-01-12T12:02:40+00:00",
            "course": 180.0,
            "speed": 6.0,
            "depth": -0.0
          },
          {
            "time": "2010-01-12T12:03:00+00:00",
            "course": 180.0,
            "speed": 6.0,
            "depth": -0.0
          },
          {
            "time": "2010-01-12T12:03:20+00:00",
            "course": 180.0,
            "speed": 6.0,
            "depth": -0.0
          },
          {
            "time": "2010-01-12T12:03:40+00:00",
            "course": 180.0,
            "speed": 6.0,
            "depth": -0.0
          },
          {
            "time": "2010-01-12T12:04:00+00:00",
            "course": 180.0,
            "speed": 6.0,
            "depth": -0.0
          },
          {
            "time": "2010-01-12T12:04:20+00:00",
            "course": 180.0,
            "speed": 6.0,
            "depth": -0.0
          },
          {
            "time": "2010-01-12T12:04:40+00:00",
            "course": 180.0,
            "speed": 6.0,
            "depth": -0.0
          },
          {
            "time": "2010-01-12T12:05:00+00:00",
            "course": 180.0,
            "speed": 6.0,
            "depth": -0.0
          },
          {
            "time": "2010-01-12T12:05:20+00:00",
            "course": 180.0,
            "speed": 6.0,
            "depth": -0.0
          },
          {
            "time": "2010-01-12T12:05:40+00:00",
            "course": 180.0,
            "speed": 6.0,
            "depth": -0.0
          },
          {
            "time": "2010-01-12T12:06:00+00:00",
            "course": 180.0,
            "speed": 6.0,
            "depth": -0.0
          },
          {
            "time": "2010-01-12T12:06:20+00:00",
            "course": 180.0,
            "speed": 6.0,
            "depth": -0.0
          },
          {
            "time": "2010-01-12T12:06:40+00:00",
            "course": 180.0,
            "speed": 6.0,
            "depth": -0.0
          },
          {
            "time": "2010-01-12T12:07:00+00:00",
            "course": 180.0,
            "speed": 6.0,
            "depth": -0.0
          },
          {
            "time": "2010-01-12T12:07:20+00:00",
            "course": 180.0,
            "speed": 6.0,
            "depth": -0.0
          },
          {
            "time": "2010-01-12T12:07:40+00:00",
            "course": 180.0,
            "speed": 6.0,
            "depth": -0.0
          },
          {
            "time": "2010-01-12T12:08:00+00:00",
            "course": 180.0,
            "speed": 6.0,
            "depth": -0.0
          },
          {
            "time": "2010-01-12T12:08:20+00:00",
            "course": 180.0,
            "speed": 6.0,
            "depth": -0.0
          },
          {
            "time": "2010-01-12T12:08:40+00:00",
            "course": 171.16,
            "speed": 6.0,
            "depth": -0.0
          },
          {
            "time": "2010-01-12T12:09:00+00:00",
            "course": 162.31,
            "speed": 6.0,
            "depth": -0.0
          },
          {
            "time": "2010-01-12T12:09:20+00:00",
            "course": 153.47,
            "speed": 6.0,
            "depth": -0.0
          },
          {
            "time": "2010-01-12T12:09:40+00:00",
            "course": 144.63,
            "speed": 6.0,
            "depth": -0.0
          },
          {
            "time": "2010-01-12T12:10:00+00:00",
            "course": 135.79,
            "speed": 6.0,
            "depth": -0.0
          },
          {
            "time": "2010-01-12T12:10:20+00:00",
            "course": 130.34,
            "speed": 6.0,
            "depth": -0.0
          },
          {
            "time": "2010-01-12T12:10:40+00:00",
            "course": 130.28,
            "speed": 6.0,
            "depth": -0.0
          },
          {
            "time": "2010-01-12T12:11:00+00:00",
            "course": 130.28,
            "speed": 6.0,
            "depth": -0.0
          },
          {
            "time": "2010-01-12T12:11:20+00:00",
            "course": 130.28,
            "speed": 6.0,
            "depth": -0.0
          },
          {
            "time": "2010-01-12T12:11:40+00:00",
            "course": 130.28,
            "speed": 6.0,
            "depth": -0.0
          },
          {
            "time": "2010-01-12T12:12:00+00:00",
            "course": 130.28,
            "speed": 6.0,
            "depth": -0.0
          },
          {
            "time": "2010-01-12T12:12:20+00:00",
            "course": 130.28,
            "speed": 6.0,
            "depth": -0.0
          },
          {
            "time": "2010-01-12T12:12:40+00:00",
            "course": 130.28,
            "speed": 6.0,
            "depth": -0.0
          },
          {
            "time": "2010-01-12T12:13:00+00:00",
            "course": 130.28,
            "speed": 6.0,
            "depth": -0.0
          },
          {
            "time": "2010-01-12T12:13:20+00:00",
            "course": 130.28,
            "speed": 6.0,
            "depth": -0.0
          },
          {
            "time": "2010-01-12T12:13:40+00:00",
            "course": 130.28,
            "speed": 6.0,
            "depth": -0.0
          },
          {
            "time": "2010-01-12T12:14:00+00:00",
            "course": 130.28,
            "speed": 6.0,
            "depth": -0.0
          },
          {
            "time": "2010-01-12T12:14:20+00:00",
            "course": 130.28,
            "speed": 6.0,
            "depth": -0.0
          },
          {
            "time": "2010-01-12T12:14:40+00:00",
            "course": 130.28,
            "speed": 6.0,
            "depth": -0.0
          },
          {
            "time": "2010-01-12T12:15:00+00:00",
            "course": 130.28,
            "speed": 6.0,
            "depth": -0.0
          },
          {
            "time": "2010-01-12T12:15:20+00:00",
            "course": 130.28,
            "speed": 6.0,
            "depth": -0.0
          },
          {
            "time": "2010-01-12T12:15:40+00:00",
            "course": 130.28,
            "speed": 6.0,
            "depth": -0.0
          },
          {
            "time": "2010-01-12T12:16:00+00:00",
            "course": 130.28,
            "speed": 6.0,
            "depth": -0.0
          },
          {
            "time": "2010-01-12T12:16:20+00:00",
            "course": 130.28,
            "speed": 6.0,
            "depth": -0.0
          },
          {
            "time": "2010-01-12T12:16:40+00:00",
            "course": 130.28,
            "speed": 6.0,
            "depth": -0.0
          },
          {
            "time": "2010-01-12T12:17:00+00:00",
            "course": 130.28,
            "speed": 6.0,
            "depth": -0.0
          },
          {
            "time": "2010-01-12T12:17:20+00:00",
            "course": 130.28,
            "speed": 6.0,
            "depth": -0.0
          },
          {
            "time": "2010-01-12T12:17:40+00:00",
            "course": 130.28,
            "speed": 6.0,
            "depth": -0.0
          },
          {
            "time": "2010-01-12T12:18:00+00:00",
            "course": 130.28,
            "speed": 6.0,
            "depth": -0.0
          },
          {
            "time": "2010-01-12T12:18:20+00:00",
            "course": 130.28,
            "speed": 6.0,
            "depth": -0.0
          },
          {
            "time": "2010-01-12T12:18:40+00:00",
            "course": 130.28,
            "speed": 6.0,
            "depth": -0.0
          },
          {
            "time": "2010-01-12T12:19:00+00:00",
            "course": 130.28,
            "speed": 6.0,
            "depth": -0.0
          },
          {
            "time": "2010-01-12T12:19:20+00:00",
            "course": 130.28,
            "speed": 6.0,
            "depth": -0.0
          },
          {
            "time": "2010-01-12T12:19:40+00:00",
            "course": 130.28,
            "speed": 6.0,
            "depth": -0.0
          },
          {
            "time": "2010-01-12T12:20:00+00:00",
            "course": 130.28,
            "speed": 6.0,
            "depth": -0.0
          },
          {
            "time": "2010-01-12T12:20:20+00:00",
            "course": 139.13,
            "speed": 6.0,
            "depth": -0.0
          },
          {
            "time": "2010-01-12T12:20:40+00:00",
            "course": 147.97,
            "speed": 6.0,
            "depth": -0.0
          },
          {
            "time": "2010-01-12T12:21:00+00:00",
            "course": 156.81,
            "speed": 6.0,
            "depth": -0.0
          },
          {
            "time": "2010-01-12T12:21:20+00:00",
            "course": 165.65,
            "speed": 6.0,
            "depth": -0.0
          },
          {
            "time": "2010-01-12T12:21:40+00:00",
            "course": 174.5,
            "speed": 6.0,
            "depth": -0.0
          },
          {
            "time": "2010-01-12T12:22:00+00:00",
            "course": 181.96,
            "speed": 6.0,
            "depth": -0.0
          },
          {
            "time": "2010-01-12T12:22:20+00:00",
            "course": 182.0,
            "speed": 6.0,
            "depth": -0.0
          },
          {
            "time": "2010-01-12T12:22:40+00:00",
            "course": 182.0,
            "speed": 6.0,
            "depth": -0.0
          },
          {
            "time": "2010-01-12T12:23:00+00:00",
            "course": 182.0,
            "speed": 6.0,
            "depth": -0.0
          },
          {
            "time": "2010-01-12T12:23:20+00:00",
            "course": 182.0,
            "speed": 6.0,
            "depth": -0.0
          },
          {
            "time": "2010-01-12T12:23:40+00:00",
            "course": 182.0,
            "speed": 6.0,
            "depth": -0.0
          },
          {
            "time": "2010-01-12T12:24:00+00:00",
            "course": 182.0,
            "speed": 6.0,
            "depth": -0.0
          },
          {
            "time": "2010-01-12T12:24:20+00:00",
            "course": 182.0,
            "speed": 6.0,
            "depth": -0.0
          },
          {
            "time": "2010-01-12T12:24:40+00:00",
            "course": 182.0,
            "speed": 6.0,
            "depth": -0.0
          },
          {
            "time": "2010-01-12T12:25:00+00:00",
            "course": 182.0,
            "speed": 6.0,
            "depth": -0.0
          },
          {
            "time": "2010-01-12T12:25:20+00:00",
            "course": 182.0,
            "speed": 6.0,
            "depth": -0.0
          },
          {
            "time": "2010-01-12T12:25:40+00:00",
            "course": 182.0,
            "speed": 6.0,
            "depth": -0.0
          },
          {
            "time": "2010-01-12T12:26:00+00:00",
            "course": 182.0,
            "speed": 6.0,
            "depth": -0.0
          },
          {
            "time": "2010-01-12T12:26:20+00:00",
            "course": 182.0,
            "speed": 6.0,
            "depth": -0.0
          },
          {
            "time": "2010-01-12T12:26:40+00:00",
            "course": 182.0,
            "speed": 6.0,
            "depth": -0.0
          },
          {
            "time": "2010-01-12T12:27:00+00:00",
            "course": 182.0,
            "speed": 6.0,
            "depth": -0.0
          },
          {
            "time": "2010-01-12T12:27:20+00:00",
            "course": 182.0,
            "speed": 6.0,
            "depth": -0.0
          },
          {
            "time": "2010-01-12T12:27:40+00:00",
            "course": 182.0,
            "speed": 6.0,
            "depth": -0.0
          },
          {
            "time": "2010-01-12T12:28:00+00:00",
            "course": 182.0,
            "speed": 6.0,
            "depth": -0.0
          },
          {
            "time": "2010-01-12T12:28:20+00:00",
            "course": 182.0,
            "speed": 6.0,
            "depth": -0.0
          },
          {
            "time": "2010-01-12T12:28:40+00:00",
            "course": 182.0,
            "speed": 6.0,
            "depth": -0.0
          },
          {
            "time": "2010-01-12T12:29:00+00:00",
            "course": 182.0,
            "speed": 6.0,
            "depth": -0.0
          },
          {
            "time": "2010-01-12T12:29:20+00:00",
            "course": 182.0,
            "speed": 6.0,
            "depth": -0.0
          },
          {
            "time": "2010-01-12T12:29:40+00:00",
            "course": 182.0,
            "speed": 6.0,
            "depth": -0.0
          },
          {
            "time": "2010-01-12T12:30:00+00:00",
            "course": 182.0,
            "speed": 6.0,
            "depth": -0.0
          },
          {
            "time": "2010-01-12T12:30:20+00:00",
            "course": 182.0,
            "speed": 6.0,
            "depth": -0.0
          },
          {
            "time": "2010-01-12T12:30:40+00:00",
            "course": 182.0,
            "speed": 6.0,
            "depth": -0.0
          },
          {
            "time": "2010-01-12T12:31:00+00:00",
            "course": 182.0,
            "speed": 6.0,
            "depth": -0.0
          },
          {
            "time": "2010-01-12T12:31:20+00:00",
            "course": 182.0,
            "speed": 6.0,
            "depth": -0.0
          },
          {
            "time": "2010-01-12T12:31:40+00:00",
            "course": 182.0,
            "speed": 6.0,
            "depth": -0.0
          },
          {
            "time": "2010-01-12T12:32:00+00:00",
            "course": 182.0,
            "speed": 6.0,
            "depth": -0.0
          },
          {
            "time": "2010-01-12T12:32:20+00:00",
            "course": 182.0,
            "speed": 6.0,
            "depth": -0.0
          },
          {
            "time": "2010-01-12T12:32:40+00:00",
            "course": 182.0,
            "speed": 6.0,
            "depth": -0.0
          },
          {
            "time": "2010-01-12T12:33:00+00:00",
            "course": 182.0,
            "speed": 6.0,
            "depth": -0.0
          },
          {
            "time": "2010-01-12T12:33:20+00:00",
            "course": 182.0,
            "speed": 6.0,
            "depth": -0.0
          },
          {
            "time": "2010-01-12T12:33:40+00:00",
            "course": 182.0,
            "speed": 6.0,
            "depth": -0.0
          },
          {
            "time": "2010-01-12T12:34:00+00:00",
            "course": 182.0,
            "speed": 6.0,
            "depth": -0.0
          },
          {
            "time": "2010-01-12T12:34:20+00:00",
            "course": 182.0,
            "speed": 6.0,
            "depth": -0.0
          },
          {
            "time": "2010-01-12T12:34:40+00:00",
            "course": 182.0,
            "speed": 6.0,
            "depth": -0.0
          },
          {
            "time": "2010-01-12T12:35:00+00:00",
            "course": 182.0,
            "speed": 6.0,
            "depth": -0.0
          }
        ],
        "style": {
          "line": {
            "color": "#808080"
          },
          "point": {
            "shape": "circle",
            "radius": 3.0,
            "fill_color": "#808080",
            "color": "#808080"
          }
        },
        "default_position_style": {
          "show_symbol": false,
          "symbol": "circle",
          "show_label": false
        },
        "symbol_interval": "PT5M",
        "label_interval": "PT15M"
      }
    }
  ]
}