{
  "type": "FeatureCollection",
  "features": [
    {
      "type": "Feature",
      "id": "bd0b6c0f-f268-4e41-85f2-f31e4b9aa6d3",
      "geometry": {
        "type": "LineString",
        "coordinates": [
          [
            -21.6978806,
            22.1862861
          ],
          [
            -21.7008278,
            22.1862722
          ],
          [
            -21.7041139,
            22.1862528
          ],
          [
            -21.707575,
            22.1862528
          ],
          [
            -21.7112028,
            22.1861889
          ],
          [
            -21.7148528,
            22.1862194
          ],
          [
            -21.7185528,
            22.1861833
          ],
          [
            -21.7223167,
            22.1861333
          ],
          [
            -21.7260222,
            22.1861611
          ],
          [
            -21.7297944,
            22.1861639
          ],
          [
            -21.733575,
            22.1860972
          ],
          [
            -21.7372917,
            22.1861944
          ],
          [
            -21.7410056,
            22.18615
          ],
          [
            -21.7442389,
            22.18515
          ],
          [
            -21.7474083,
            22.1839667
          ],
          [
            -21.75065,
            22.1827972
          ],
          [
            -21.7539444,
            22.1815389
          ],
          [
            -21.7571861,
            22.1802444
          ],
          [
            -21.7604472,
            22.1789556
          ],
          [
            -21.7637556,
            22.1776972
          ],
          [
            -21.7670056,
            22.1764
          ],
          [
            -21.7703389,
            22.1751361
          ],
          [
            -21.7736139,
            22.1738556
          ],
          [
            -21.7769167,
            22.17255
          ],
          [
            -21.7801944,
            22.1712694
          ],
          [
            -21.7834583,
            22.1699611
          ],
          [
            -21.7867444,
            22.1686472
          ],
          [
            -21.7900111,
            22.1673806
          ],
          [
            -21.7933111,
            22.1660944
          ],
          [
            -21.7965722,
            22.1648306
          ],
          [
            -21.7998278,
            22.1635194
          ],
          [
            -21.8031306,
            22.1622472
          ],
          [
            -21.8064056,
            22.1609694
          ],
          [
            -21.8096722,
            22.1596861
          ],
          [
            -21.8129722,
            22.1584056
          ],
          [
            -21.8162472,
            22.1571056
          ],
          [
            -21.8195222,
            22.1558083
          ],
          [
            -21.8227806,
            22.1545361
          ],
          [
            -21.82605,
            22.1532528
          ],
          [
            -21.8293472,
            22.1519444
          ],
          [
            -21.8326111,
            22.1506278
          ],
          [
            -21.8359639,
            22.1493306
          ],
          [
            -21.8392278,
            22.1480333
          ],
          [
            -21.8424861,
            22.1467278
          ],
          [
            -21.8457972,
            22.1454583
          ],
          [
            -21.8490806,
            22.1441639
          ],
          [
            -21.8523667,
            22.1428833
          ],
          [
            -21.8556306,
            22.1416083
          ],
          [
            -21.8588889,
            22.14035
          ],
          [
            -21.8621806,
            22.1390528
          ],
          [
            -21.8651667,
            22.1375778
          ],
          [
            -21.8656583,
            22.1353417
          ],
          [
            -21.8657389,
            22.13295
          ],
          [
            -21.8657972,
            22.1304778
          ],
          [
            -21.8658139,
            22.1279806
          ],
          [
            -21.865875,
            22.1254167
          ],
          [
            -21.8658611,
            22.1228417
          ],
          [
            -21.8659028,
            22.1202556
          ],
          [
            -21.8659,
            22.1176917
          ],
          [
            -21.8659389,
            22.1150861
          ],
          [
            -21.8659722,
            22.1125056
          ],
          [
            -21.8659556,
            22.1099194
          ],
          [
            -21.8659833,
            22.1073306
          ],
          [
            -21.8659722,
            22.1047639
          ],
          [
            -21.8660194,
            22.1021694
          ],
          [
            -21.86605,
            22.0996028
          ],
          [
            -21.8660806,
            22.0970083
          ],
          [
            -21.8649111,
            22.0947028
          ],
          [
            -21.8631472,
            22.0925306
          ],
          [
            -21.8612833,
            22.0903361
          ],
          [
            -21.8594528,
            22.0881222
          ],
          [
            -21.8575611,
            22.0858917
          ],
          [
            -21.8557,
            22.0836361
          ],
          [
            -21.8538167,
            22.0814139
          ],
          [
            -21.8519667,
            22.0791861
          ],
          [
            -21.8500722,
            22.0769528
          ],
          [
            -21.8482111,
            22.0747444
          ],
          [
            -21.8462889,
            22.0725139
          ],
          [
            -21.8443917,
            22.0703
          ],
          [
            -21.8425528,
            22.0680694
          ],
          [
            -21.8406889,
            22.0658417
          ],
          [
            -21.8388194,
            22.0635917
          ],
          [
            -21.8369583,
            22.0613556
          ],
          [
            -21.8350639,
            22.0590972
          ],
          [
            -21.8331722,
            22.0568611
          ],
          [
            -21.8312806,
            22.0546028
          ],
          [
            -21.8293889,
            22.0523861
          ],
          [
            -21.8284889,
            22.0500444
          ],
          [
            -21.8295806,
            22.0478083
          ],
          [
            -21.8307972,
            22.0454944
          ],
          [
            -21.8320833,
            22.0431583
          ],
          [
            -21.8333472,
            22.0407778
          ],
          [
            -21.83465,
            22.0383861
          ],
          [
            -21.8359528,
            22.0359889
          ],
          [
            -21.83725,
            22.0335833
          ],
          [
            -21.8385694,
            22.0311861
          ],
          [
            -21.8399,
            22.0287806
          ],
          [
            -21.841225,
            22.0263472
          ],
          [
            -21.8424861,
            22.0239306
          ],
          [
            -21.8438361,
            22.0215222
          ],
          [
            -21.8451361,
            22.0191222
          ],
          [
            -21.8464333,
            22.0167194
          ],
          [
            -21.8477667,
            22.0143167
          ],
          [
            -21.8490472,
            22.0119028
          ],
          [
            -21.8503833,
            22.0094833
          ],
          [
            -21.8516694,
            22.0070833
          ],
          [
            -21.8529611,
            22.0046778
          ],
          [
            -21.8542806,
            22.0022611
          ],
          [
            -21.8555833,
            21.9998583
          ],
          [
            -21.8568861,
            21.9974528
          ],
          [
            -21.8581889,
            21.9950444
          ],
          [
            -21.8594528,
            21.9926194
          ],
          [
            -21.8587056,
            21.990375
          ],
          [
            -21.8567778,
            21.9883472
          ],
          [
            -21.8547417,
            21.9863167
          ],
          [
            -21.8526639,
            21.9842389
          ],
          [
            -21.8505361,
            21.9821667
          ],
          [
            -21.8484167,
            21.9800111
          ],
          [
            -21.8462889,
            21.9778833
          ],
          [
            -21.8441139,
            21.9757778
          ],
          [
            -21.8419667,
            21.9736722
          ],
          [
            -21.8398306,
            21.9715389
          ],
          [
            -21.8376639,
            21.9694111
          ],
          [
            -21.8355389,
            21.9672917
          ],
          [
            -21.8334139,
            21.9652028
          ],
          [
            -21.8312556,
            21.9630611
          ],
          [
            -21.8291139,
            21.96095
          ],
          [
            -21.8269611,
            21.9588361
          ],
          [
            -21.8247917,
            21.9567
          ],
          [
            -21.8249694,
            21.9545361
          ],
          [
            -21.8276639,
            21.9540722
          ],
          [
            -21.8304806,
            21.9547806
          ],
          [
            -21.8335722,
            21.9555556
          ],
          [
            -21.8368333,
            21.9563778
          ],
          [
            -21.8402333,
            21.9572139
          ],
          [
            -21.8423306,
            21.9588556
          ],
          [
            -21.8408528,
            21.9603917
          ],
          [
            -21.8384917,
            21.9617056
          ],
          [
            -21.8359139,
            21.9631583
          ],
          [
            -21.8332278,
            21.9647167
          ],
          [
            -21.8304306,
            21.9663083
          ],
          [
            -21.8276278,
            21.9679306
          ],
          [
            -21.8247833,
            21.969575
          ],
          [
            -21.8219139,
            21.9712
          ],
          [
            -21.8190472,
            21.9728389
          ],
          [
            -21.8161194,
            21.9745056
          ],
          [
            -21.8132444,
            21.9761722
          ],
          [
            -21.8103389,
            21.9778167
          ],
          [
            -21.8074056,
            21.9794583
          ],
          [
            -21.8045278,
            21.981125
          ],
          [
            -21.8016167,
            21.9827639
          ],
          [
            -21.7987667,
            21.9844083
          ],
          [
            -21.7958694,
            21.9860528
          ],
          [
            -21.7927222,
            21.9869167
          ],
          [
            -21.7901444,
            21.9856694
          ],
          [
            -21.7875639,
            21.9842
          ],
          [
            -21.7848694,
            21.9826167
          ],
          [
            -21.782075,
            21.9810528
          ],
          [
            -21.7792583,
            21.9794167
          ],
          [
            -21.7764389,
            21.9777556
          ],
          [
            -21.773575,
            21.9760944
          ],
          [
            -21.7707667,
            21.9744333
          ],
          [
            -21.767875,
            21.9728056
          ],
          [
            -21.7650333,
            21.9711611
          ],
          [
            -21.7621583,
            21.9695028
          ],
          [
            -21.759275,
            21.9678611
          ],
          [
            -21.7564361,
            21.9661556
          ],
          [
            -21.7535694,
            21.9644972
          ],
          [
            -21.7506722,
            21.9628361
          ],
          [
            -21.7477944,
            21.9611806
          ],
          [
            -21.7449222,
            21.9595
          ],
          [
            -21.7421056,
            21.9578472
          ],
          [
            -21.7392361,
            21.9561889
          ],
          [
            -21.7364,
            21.9545056
          ],
          [
            -21.7334611,
            21.9528611
          ],
          [
            -21.7305861,
            21.9511806
          ],
          [
            -21.7277139,
            21.9495361
          ],
          [
            -21.7248111,
            21.9478528
          ],
          [
            -21.7216306,
            21.9470944
          ],
          [
            -21.718475,
            21.9478111
          ],
          [
            -21.7151694,
            21.9486278
          ],
          [
            -21.7117583,
            21.9494472
          ],
          [
            -21.7082583,
            21.9503139
          ],
          [
            -21.7047194,
            21.9511806
          ],
          [
            -21.7011639,
            21.9520333
          ],
          [
            -21.6976056,
            21.95295
          ],
          [
            -21.6940583,
            21.9538194
          ],
          [
            -21.6904861,
            21.9546889
          ],
          [
            -21.6869111,
            21.9555806
          ],
          [
            -21.6833639,
            21.9564528
          ],
          [
            -21.6797972,
            21.957325
          ],
          [
            -21.6762694,
            21.9581972
          ],
          [
            -21.6727472,
            21.9591
          ],
          [
            -21.6691722,
            21.9599583
          ],
          [
            -21.665625,
            21.9608417
          ],
          [
            -21.6620472,
            21.9617222
          ],
          [
            -21.6585083,
            21.9625889
          ],
          [
            -21.6549472,
            21.9634389
          ],
          [
            -21.6514167,
            21.9643361
          ],
          [
            -21.6478778,
            21.9652444
          ],
          [
            -21.6443139,
            21.9661611
          ],
          [
            -21.6407833,
            21.9670111
          ],
          [
            -21.6372556,
            21.9672139
          ],
          [
            -21.6342917,
            21.9660444
          ],
          [
            -21.6312583,
            21.9647917
          ],
          [
            -21.628075,
            21.9635556
          ],
          [
            -21.6248861,
            21.9622694
          ],
          [
            -21.6216194,
            21.9609556
          ],
          [
            -21.6183889,
            21.9596972
          ],
          [
            -21.6150083,
            21.9586556
          ],
          [
            -21.6114167,
            21.9587778
          ],
          [
            -21.60775,
            21.9589889
          ],
          [
            -21.604075,
            21.9592139
          ],
          [
            -21.6003444,
            21.9594389
          ],
          [
            -21.5966361,
            21.9596583
          ],
          [
            -21.5929167,
            21.9598889
          ],
          [
            -21.5891722,
            21.9600917
          ],
          [
            -21.5854583,
            21.9603
          ],
          [
            -21.5817028,
            21.9605361
          ],
          [
            -21.5797833,
            21.9620333
          ],
          [
            -21.5811528,
            21.9636194
          ],
          [
            -21.5837222,
            21.9646194
          ],
          [
            -21.5865528,
            21.9657528
          ],
          [
            -21.5895528,
            21.9669444
          ],
          [
            -21.5926333,
            21.9682056
          ],
          [
            -21.5957472,
            21.9694556
          ],
          [
            -21.5989639,
            21.970725
          ],
          [
            -21.6021722,
            21.9719972
          ],
          [
            -21.6053972,
            21.9732806
          ],
          [
            -21.608675,
            21.9745861
          ],
          [
            -21.6119222,
            21.9759
          ],
          [
            -21.6151361,
            21.9771722
          ],
          [
            -21.618425,
            21.9784917
          ],
          [
            -21.6216833,
            21.9797861
          ],
          [
            -21.6249389,
            21.9810833
          ],
          [
            -21.6281611,
            21.9823722
          ],
          [
            -21.6313833,
            21.9836528
          ],
          [
            -21.634675,
            21.9849611
          ],
          [
            -21.6380028,
            21.9862417
          ],
          [
            -21.6412639,
            21.9875028
          ],
          [
            -21.6445333,
            21.9888028
          ],
          [
            -21.6473722,
            21.9903667
          ],
          [
            -21.6484944,
            21.9926222
          ],
          [
            -21.64965,
            21.9949444
          ],
          [
            -21.6508444,
            21.9973028
          ],
          [
            -21.6520528,
            21.9996861
          ],
          [
            -21.6533111,
            22.0021028
          ],
          [
            -21.6545778,
            22.0045361
          ],
          [
            -21.6558583,
            22.0069583
          ],
          [
            -21.6571694,
            22.0093611
          ],
          [
            -21.6584361,
            22.0117917
          ],
          [
            -21.6596972,
            22.0142056
          ],
          [
            -21.6607611,
            22.0166778
          ],
          [
            -21.6595639,
            22.0189222
          ],
          [
            -21.6567694,
            22.0202972
          ],
          [
            -21.6538556,
            22.0216861
          ],
          [
            -21.6507222,
            22.022975
          ],
          [
            -21.6475472,
            22.0242583
          ],
          [
            -21.6442972,
            22.0255167
          ],
          [
            -21.6410639,
            22.0268222
          ],
          [
            -21.6377917,
            22.0281111
          ],
          [
            -21.6345472,
            22.0293889
          ],
          [
            -21.6312806,
            22.0306917
          ],
          [
            -21.6279917,
            22.0319778
          ],
          [
            -21.6247139,
            22.03325
          ],
          [
            -21.6214361,
            22.0345611
          ],
          [
            -21.6197889,
            22.0365111
          ],
          [
            -21.6216639,
            22.0379861
          ],
          [
            -21.6244139,
            22.0390694
          ],
          [
            -21.6273778,
            22.0402333
          ],
          [
            -21.6304778,
            22.04145
          ],
          [
            -21.6336389,
            22.0427194
          ],
          [
            -21.636825,
            22.0439917
          ],
          [
            -21.6400528,
            22.0452472
          ],
          [
            -21.643275,
            22.0465361
          ],
          [
            -21.6465139,
            22.0478222
          ],
          [
            -21.6498139,
            22.0491111
          ],
          [
            -21.653075,
            22.0504028
          ],
          [
            -21.6563389,
            22.0517
          ],
          [
            -21.6596,
            22.052975
          ],
          [
            -21.6628694,
            22.0542639
          ],
          [
            -21.6661583,
            22.0555611
          ],
          [
            -21.6693917,
            22.0568417
          ],
          [
            -21.67265,
            22.0581194
          ],
          [
            -21.6758806,
            22.0594139
          ],
          [
            -21.67915,
            22.0606944
          ],
          [
            -21.6823889,
            22.0619861
          ],
          [
            -21.6856556,
            22.063275
          ],
          [
            -21.6890639,
            22.0642389
          ],
          [
            -21.6927167,
            22.0642889
          ],
          [
            -21.6961056,
            22.0647194
          ],
          [
            -21.6975556,
            22.0666417
          ],
          [
            -21.6986972,
            22.0688444
          ],
          [
            -21.6999083,
            22.0711333
          ],
          [
            -21.7011639,
            22.0734667
          ],
          [
            -21.7024167,
            22.0758667
          ],
          [
            -21.7037333,
            22.0782611
          ],
          [
            -21.7050194,
            22.0806833
          ],
          [
            -21.7063083,
            22.0831111
          ],
          [
            -21.7075444,
            22.0855306
          ],
          [
            -21.7088611,
            22.0879389
          ],
          [
            -21.7101333,
            22.09035
          ],
          [
            -21.7114028,
            22.0927806
          ],
          [
            -21.7126889,
            22.0951917
          ],
          [
            -21.7139389,
            22.097625
          ],
          [
            -21.7152,
            22.1000333
          ],
          [
            -21.7164972,
            22.1024694
          ],
          [
            -21.7177861,
            22.1049083
          ],
          [
            -21.7190472,
            22.1073222
          ],
          [
            -21.7203083,
            22.1097611
          ],
          [
            -21.7215778,
            22.1121972
          ],
          [
            -21.7241306,
            22.1136056
          ],
          [
            -21.7274139,
            22.1139917
          ],
          [
            -21.7309028,
            22.1144361
          ],
          [
            -21.7344389,
            22.1148722
          ],
          [
            -21.7380583,
            22.1153056
          ],
          [
            -21.7417472,
            22.1157917
          ],
          [
            -21.74545,
            22.1162333
          ],
          [
            -21.7491694,
            22.1167056
          ],
          [
            -21.7529194,
            22.1171278
          ],
          [
            -21.7566333,
            22.1175694
          ],
          [
            -21.76035,
            22.1180389
          ],
          [
            -21.7640694,
            22.1184583
          ],
          [
            -21.7678278,
            22.1189278
          ],
          [
            -21.7715778,
            22.1194028
          ],
          [
            -21.7753306,
            22.1198611
          ],
          [
            -21.7790528,
            22.1202972
          ],
          [
            -21.7827778,
            22.1207694
          ],
          [
            -21.7865,
            22.1212278
          ],
          [
            -21.7902222,
            22.1216917
          ],
          [
            -21.7937917,
            22.1223833
          ],
          [
            -21.7944611,
            22.1243139
          ],
          [
            -21.7923,
            22.1254889
          ],
          [
            -21.7895722,
            22.1265556
          ],
          [
            -21.7865972,
            22.1277167
          ],
          [
            -21.783525,
            22.1289028
          ],
          [
            -21.7801111,
            22.1292806
          ],
          [
            -21.7773444,
            22.1279944
          ],
          [
            -21.7758861,
            22.1262639
          ],
          [
            -21.7746361,
            22.1247833
          ],
          [
            -21.7735667,
            22.1235194
          ],
          [
            -21.7721,
            22.1226889
          ],
          [
            -21.7704611,
            22.1220556
          ],
          [
            -21.7689528,
            22.1213083
          ],
          [
            -21.7673611,
            22.1207306
          ],
          [
            -21.7657333,
            22.1209972
          ],
          [
            -21.7651639,
            22.121925
          ],
          [
            -21.7658472,
            22.1227389
          ],
          [
            -21.7671778,
            22.1229444
          ],
          [
            -21.768625,
            22.1226111
          ],
          [
            -21.7698167,
            22.1219417
          ],
          [
            -21.7699222,
            22.1208917
          ],
          [
            -21.7687806,
            22.1201444
          ],
          [
            -21.7671806,
            22.1198528
          ],
          [
            -21.765575,
            22.1196222
          ],
          [
            -21.7645194,
            22.1187278
          ],
          [
            -21.7651889,
            22.1176222
          ],
          [
            -21.7672111,
            22.1175167
          ],
          [
            -21.7682361,
            22.1187028
          ],
          [
            -21.7668861,
            22.1201778
          ],
          [
            -21.7645889,
            22.1199417
          ],
          [
            -21.7639972,
            22.1188861
          ],
          [
            -21.7633833,
            22.1178806
          ],
          [
            -21.7620472,
            22.1176333
          ],
          [
            -21.7608333,
            22.1186
          ],
          [
            -21.7605194,
            22.1199278
          ],
          [
            -21.7591,
            22.12075
          ],
          [
            -21.7578917,
            22.1202444
          ],
          [
            -21.7573167,
            22.1193722
          ],
          [
            -21.7566917,
            22.1184528
          ],
          [
            -21.7552611,
            22.1180222
          ],
          [
            -21.7540639,
            22.1185222
          ],
          [
            -21.7529944,
            22.1192639
          ],
          [
            -21.75165,
            22.1195611
          ],
          [
            -21.7505167,
            22.1187167
          ],
          [
            -21.7516472,
            22.1176444
          ],
          [
            -21.7530167,
            22.1180583
          ],
          [
            -21.7538583,
            22.1187778
          ],
          [
            -21.7543722,
            22.1197667
          ],
          [
            -21.7540278,
            22.1211278
          ],
          [
            -21.7521111,
            22.1221556
          ],
          [
            -21.7497583,
            22.12185
          ],
          [
            -21.748875,
            22.1207417
          ],
          [
            -21.7488833,
            22.1196778
          ],
          [
            -21.7489444,
            22.118625
          ],
          [
            -21.7495222,
            22.1172528
          ],
          [
            -21.7516222,
            22.1162833
          ],
          [
            -21.7541417,
            22.1168417
          ],
          [
            -21.75535,
            22.1186111
          ],
          [
            -21.7563917,
            22.1206472
          ],
          [
            -21.7570972,
            22.1225972
          ],
          [
            -21.7562889,
            22.1240056
          ],
          [
            -21.7555833,
            22.1252583
          ],
          [
            -21.754975,
            22.1264444
          ],
          [
            -21.7543,
            22.1276944
          ],
          [
            -21.7534611,
            22.1292194
          ],
          [
            -21.7525111,
            22.1309972
          ],
          [
            -21.7514111,
            22.1330306
          ],
          [
            -21.7502167,
            22.1351778
          ],
          [
            -21.7490111,
            22.1374167
          ],
          [
            -21.7477861,
            22.1397083
          ],
          [
            -21.7466944,
            22.1417389
          ]
        ]
      },
      "properties": {
        "kind": "TRACK",
        "platform_id": "NELSON",
        "platform_name": "NELSON",
        "track_type": "CONTACT",
        "start_time": "1995-12-12T05:00:00+00:00",
        "end_time": "1995-12-12T11:41:00+00:00",
        "positions": [
          {
            "time": "1995-12-12T05:00:00+00:00",
            "course": 269.7,
            "speed": 2.0,
            "depth": 0.0
          },
          {
            "time": "1995-12-12T05:01:00+00:00",
            "course": 269.7,
            "speed": 2.0,
            "depth": 0.0
          },
          {
            "time": "1995-12-12T05:02:00+00:00",
            "course": 269.9,
            "speed": 2.0,
            "depth": 0.0
          },
          {
            "time": "1995-12-12T05:03:00+00:00",
            "course": 268.7,
            "speed": 2.0,
            "depth": 0.0
          },
          {
            "time": "1995-12-12T05:04:00+00:00",
            "course": 270.6,
            "speed": 2.0,
            "depth": 0.0
          },
          {
            "time": "1995-12-12T05:05:00+00:00",
            "course": 269.4,
            "speed": 2.0,
            "depth": 0.0
          },
          {
            "time": "1995-12-12T05:06:00+00:00",
            "course": 269.0,
            "speed": 2.0,
            "depth": 0.0
          },
          {
            "time": "1995-12-12T05:07:00+00:00",
            "course": 270.5,
            "speed": 2.0,
            "depth": 0.0
          },
          {
            "time": "1995-12-12T05:08:00+00:00",
            "course": 269.9,
            "speed": 2.0,
            "depth": 0.0
          },
          {
            "time": "1995-12-12T05:09:00+00:00",
            "course": 268.6,
            "speed": 2.0,
            "depth": 0.0
          },
          {
            "time": "1995-12-12T05:10:00+00:00",
            "course": 272.1,
            "speed": 2.0,
            "depth": 0.0
          },
          {
            "time": "1995-12-12T05:11:00+00:00",
            "course": 269.1,
            "speed": 2.0,
            "depth": 0.0
          },
          {
            "time": "1995-12-12T05:12:00+00:00",
            "course": 245.8,
            "speed": 2.0,
            "depth": 0.0
          },
          {
            "time": "1995-12-12T05:13:00+00:00",
            "course": 241.5,
            "speed": 2.0,
            "depth": 0.0
          },
          {
            "time": "1995-12-12T05:14:00+00:00",
            "course": 242.3,
            "speed": 2.0,
            "depth": 0.0
          },
          {
            "time": "1995-12-12T05:15:00+00:00",
            "course": 240.9,
            "speed": 2.0,
            "depth": 0.0
          },
          {
            "time": "1995-12-12T05:16:00+00:00",
            "course": 239.9,
            "speed": 2.0,
            "depth": 0.0
          },
          {
            "time": "1995-12-12T05:17:00+00:00",
            "course": 240.1,
            "speed": 2.0,
            "depth": 0.0
          },
          {
            "time": "1995-12-12T05:18:00+00:00",
            "course": 241.0,
            "speed": 2.0,
            "depth": 0.0
          },
          {
            "time": "1995-12-12T05:19:00+00:00",
            "course": 239.9,
            "speed": 2.0,
            "depth": 0.0
          },
          {
            "time": "1995-12-12T05:20:00+00:00",
            "course": 241.1,
            "speed": 2.0,
            "depth": 0.0
          },
          {
            "time": "1995-12-12T05:21:00+00:00",
            "course": 240.3,
            "speed": 2.0,
            "depth": 0.0
          },
          {
            "time": "1995-12-12T05:22:00+00:00",
            "course": 240.1,
            "speed": 2.0,
            "depth": 0.0
          },
          {
            "time": "1995-12-12T05:23:00+00:00",
            "course": 240.3,
            "speed": 2.0,
            "depth": 0.0
          },
          {
            "time": "1995-12-12T05:24:00+00:00",
            "course": 239.8,
            "speed": 2.0,
            "depth": 0.0
          },
          {
            "time": "1995-12-12T05:25:00+00:00",
            "course": 239.8,
            "speed": 2.0,
            "depth": 0.0
          },
          {
            "time": "1995-12-12T05:26:00+00:00",
            "course": 240.6,
            "speed": 2.0,
            "depth": 0.0
          },
          {
            "time": "1995-12-12T05:27:00+00:00",
            "course": 240.5,
            "speed": 2.0,
            "depth": 0.0
          },
          {
            "time": "1995-12-12T05:28:00+00:00",
            "course": 240.5,
            "speed": 2.0,
            "depth": 0.0
          },
          {
            "time": "1995-12-12T05:29:00+00:00",
            "course": 239.7,
            "speed": 2.0,
            "depth": 0.0
          },
          {
            "time": "1995-12-12T05:30:00+00:00",
            "course": 240.7,
            "speed": 2.0,
            "depth": 0.0
          },
          {
            "time": "1995-12-12T05:31:00+00:00",
            "course": 240.4,
            "speed": 2.0,
            "depth": 0.0
          },
          {
            "time": "1995-12-12T05:32:00+00:00",
            "course": 240.3,
            "speed": 2.0,
            "depth": 0.0
          },
          {
            "time": "1995-12-12T05:33:00+00:00",
            "course": 240.5,
            "speed": 2.0,
            "depth": 0.0
          },
          {
            "time": "1995-12-12T05:34:00+00:00",
            "course": 240.0,
            "speed": 2.0,
            "depth": 0.0
          },
          {
            "time": "1995-12-12T05:35:00+00:00",
            "course": 240.1,
            "speed": 2.0,
            "depth": 0.0
          },
          {
            "time": "1995-12-12T05:36:00+00:00",
            "course": 240.4,
            "speed": 2.0,
            "depth": 0.0
          },
          {
            "time": "1995-12-12T05:37:00+00:00",
            "course": 240.2,
            "speed": 2.0,
            "depth": 0.0
          },
          {
            "time": "1995-12-12T05:38:00+00:00",
            "course": 240.0,
            "speed": 2.0,
            "depth": 0.0
          },
          {
            "time": "1995-12-12T05:39:00+00:00",
            "course": 239.6,
            "speed": 2.0,
            "depth": 0.0
          },
          {
            "time": "1995-12-12T05:40:00+00:00",
            "course": 240.6,
            "speed": 2.0,
            "depth": 0.0
          },
          {
            "time": "1995-12-12T05:41:00+00:00",
            "course": 240.0,
            "speed": 2.0,
            "depth": 0.0
          },
          {
            "time": "1995-12-12T05:42:00+00:00",
            "course": 239.8,
            "speed": 2.0,
            "depth": 0.0
          },
          {
            "time": "1995-12-12T05:43:00+00:00",
            "course": 240.9,
            "speed": 2.0,
            "depth": 0.0
          },
          {
            "time": "1995-12-12T05:44:00+00:00",
            "course": 240.2,
            "speed": 2.0,
            "depth": 0.0
          },
          {
            "time": "1995-12-12T05:45:00+00:00",
            "course": 240.4,
            "speed": 2.0,
            "depth": 0.0
          },
          {
            "time": "1995-12-12T05:46:00+00:00",
            "course": 240.4,
            "speed": 2.0,
            "depth": 0.0
          },
          {
            "time": "1995-12-12T05:47:00+00:00",
            "course": 240.7,
            "speed": 2.0,
            "depth": 0.0
          },
          {
            "time": "1995-12-12T05:48:00+00:00",
            "course": 240.2,
            "speed": 2.0,
            "depth": 0.0
          },
          {
            "time": "1995-12-12T05:49:00+00:00",
            "course": 234.3,
            "speed": 2.0,
            "depth": 0.0
          },
          {
            "time": "1995-12-12T05:50:00+00:00",
            "course": 188.6,
            "speed": 2.0,
            "depth": 0.0
          },
          {
            "time": "1995-12-12T05:51:00+00:00",
            "course": 181.3,
            "speed": 2.0,
            "depth": 0.0
          },
          {
            "time": "1995-12-12T05:52:00+00:00",
            "course": 180.9,
            "speed": 2.0,
            "depth": 0.0
          },
          {
            "time": "1995-12-12T05:53:00+00:00",
            "course": 180.3,
            "speed": 2.0,
            "depth": 0.0
          },
          {
            "time": "1995-12-12T05:54:00+00:00",
            "course": 180.9,
            "speed": 2.0,
            "depth": 0.0
          },
          {
            "time": "1995-12-12T05:55:00+00:00",
            "course": 179.8,
            "speed": 2.0,
            "depth": 0.0
          },
          {
            "time": "1995-12-12T05:56:00+00:00",
            "course": 180.6,
            "speed": 2.0,
            "depth": 0.0
          },
          {
            "time": "1995-12-12T05:57:00+00:00",
            "course": 179.9,
            "speed": 2.0,
            "depth": 0.0
          },
          {
            "time": "1995-12-12T05:58:00+00:00",
            "course": 180.6,
            "speed": 2.0,
            "depth": 0.0
          },
          {
            "time": "1995-12-12T05:59:00+00:00",
            "course": 180.5,
            "speed": 2.0,
            "depth": 0.0
          },
          {
            "time": "1995-12-12T06:00:00+00:00",
            "course": 179.8,
            "speed": 2.0,
            "depth": 0.0
          },
          {
            "time": "1995-12-12T06:01:00+00:00",
            "course": 180.4,
            "speed": 2.0,
            "depth": 0.0
          },
          {
            "time": "1995-12-12T06:02:00+00:00",
            "course": 179.8,
            "speed": 2.0,
            "depth": 0.0
          },
          {
            "time": "1995-12-12T06:03:00+00:00",
            "course": 180.7,
            "speed": 2.0,
            "depth": 0.0
          },
          {
            "time": "1995-12-12T06:04:00+00:00",
            "course": 180.4,
            "speed": 2.0,
            "depth": 0.0
          },
          {
            "time": "1995-12-12T06:05:00+00:00",
            "course": 180.5,
            "speed": 2.0,
            "depth": 0.0
          },
          {
            "time": "1995-12-12T06:06:00+00:00",
            "course": 160.8,
            "speed": 2.0,
            "depth": 0.0
          },
          {
            "time": "1995-12-12T06:07:00+00:00",
            "course": 151.0,
            "speed": 2.0,
            "depth": 0.0
          },
          {
            "time": "1995-12-12T06:08:00+00:00",
            "course": 149.8,
            "speed": 2.0,
            "depth": 0.0
          },
          {
            "time": "1995-12-12T06:09:00+00:00",
            "course": 150.5,
            "speed": 2.0,
            "depth": 0.0
          },
          {
            "time": "1995-12-12T06:10:00+00:00",
            "course": 149.9,
            "speed": 2.0,
            "depth": 0.0
          },
          {
            "time": "1995-12-12T06:11:00+00:00",
            "course": 150.5,
            "speed": 2.0,
            "depth": 0.0
          },
          {
            "time": "1995-12-12T06:12:00+00:00",
            "course": 149.9,
            "speed": 2.0,
            "depth": 0.0
          },
          {
            "time": "1995-12-12T06:13:00+00:00",
            "course": 150.4,
            "speed": 2.0,
            "depth": 0.0
          },
          {
            "time": "1995-12-12T06:14:00+00:00",
            "course": 149.8,
            "speed": 2.0,
            "depth": 0.0
          },
          {
            "time": "1995-12-12T06:15:00+00:00",
            "course": 150.1,
            "speed": 2.0,
            "depth": 0.0
          },
          {
            "time": "1995-12-12T06:16:00+00:00",
            "course": 149.5,
            "speed": 2.0,
            "depth": 0.0
          },
          {
            "time": "1995-12-12T06:17:00+00:00",
            "course": 149.6,
            "speed": 2.0,
            "depth": 0.0
          },
          {
            "time": "1995-12-12T06:18:00+00:00",
            "course": 150.6,
            "speed": 2.0,
            "depth": 0.0
          },
          {
            "time": "1995-12-12T06:19:00+00:00",
            "course": 150.2,
            "speed": 2.0,
            "depth": 0.0
          },
          {
            "time": "1995-12-12T06:20:00+00:00",
            "course": 150.4,
            "speed": 2.0,
            "depth": 0.0
          },
          {
            "time": "1995-12-12T06:21:00+00:00",
            "course": 150.3,
            "speed": 2.0,
            "depth": 0.0
          },
          {
            "time": "1995-12-12T06:22:00+00:00",
            "course": 150.1,
            "speed": 2.0,
            "depth": 0.0
          },
          {
            "time": "1995-12-12T06:23:00+00:00",
            "course": 149.9,
            "speed": 2.0,
            "depth": 0.0
          },
          {
            "time": "1995-12-12T06:24:00+00:00",
            "course": 150.2,
            "speed": 2.0,
            "depth": 0.0
          },
          {
            "time": "1995-12-12T06:25:00+00:00",
            "course": 149.7,
            "speed": 2.0,
            "depth": 0.0
          },
          {
            "time": "1995-12-12T06:26:00+00:00",
            "course": 165.2,
            "speed": 2.0,
            "depth": 0.0
          },
          {
            "time": "1995-12-12T06:27:00+00:00",
            "course": 198.5,
            "speed": 2.0,
            "depth": 0.0
          },
          {
            "time": "1995-12-12T06:28:00+00:00",
            "course": 199.8,
            "speed": 2.0,
            "depth": 0.0
          },
          {
            "time": "1995-12-12T06:29:00+00:00",
            "course": 200.7,
            "speed": 2.0,
            "depth": 0.0
          },
          {
            "time": "1995-12-12T06:30:00+00:00",
            "course": 200.0,
            "speed": 2.0,
            "depth": 0.0
          },
          {
            "time": "1995-12-12T06:31:00+00:00",
            "course": 200.5,
            "speed": 2.0,
            "depth": 0.0
          },
          {
            "time": "1995-12-12T06:32:00+00:00",
            "course": 200.4,
            "speed": 2.0,
            "depth": 0.0
          },
          {
            "time": "1995-12-12T06:33:00+00:00",
            "course": 200.4,
            "speed": 2.0,
            "depth": 0.0
          },
          {
            "time": "1995-12-12T06:34:00+00:00",
            "course": 200.7,
            "speed": 2.0,
            "depth": 0.0
          },
          {
            "time": "1995-12-12T06:35:00+00:00",
            "course": 200.8,
            "speed": 2.0,
            "depth": 0.0
          },
          {
            "time": "1995-12-12T06:36:00+00:00",
            "course": 200.5,
            "speed": 2.0,
            "depth": 0.0
          },
          {
            "time": "1995-12-12T06:37:00+00:00",
            "course": 199.7,
            "speed": 2.0,
            "depth": 0.0
          },
          {
            "time": "1995-12-12T06:38:00+00:00",
            "course": 201.1,
            "speed": 2.0,
            "depth": 0.0
          },
          {
            "time": "1995-12-12T06:39:00+00:00",
            "course": 200.4,
            "speed": 2.0,
            "depth": 0.0
          },
          {
            "time": "1995-12-12T06:40:00+00:00",
            "course": 200.4,
            "speed": 2.0,
            "depth": 0.0
          },
          {
            "time": "1995-12-12T06:41:00+00:00",
            "course": 200.8,
            "speed": 2.0,
            "depth": 0.0
          },
          {
            "time": "1995-12-12T06:42:00+00:00",
            "course": 200.0,
            "speed": 2.0,
            "depth": 0.0
          },
          {
            "time": "1995-12-12T06:43:00+00:00",
            "course": 200.8,
            "speed": 2.0,
            "depth": 0.0
          },
          {
            "time": "1995-12-12T06:44:00+00:00",
            "course": 200.2,
            "speed": 2.0,
            "depth": 0.0
          },
          {
            "time": "1995-12-12T06:45:00+00:00",
            "course": 200.2,
            "speed": 2.0,
            "depth": 0.0
          },
          {
            "time": "1995-12-12T06:46:00+00:00",
            "course": 200.6,
            "speed": 2.0,
            "depth": 0.0
          },
          {
            "time": "1995-12-12T06:47:00+00:00",
            "course": 200.4,
            "speed": 2.0,
            "depth": 0.0
          },
          {
            "time": "1995-12-12T06:48:00+00:00",
            "course": 200.4,
            "speed": 2.0,
            "depth": 0.0
          },
          {
            "time": "1995-12-12T06:49:00+00:00",
            "course": 200.4,
            "speed": 2.0,
            "depth": 0.0
          },
          {
            "time": "1995-12-12T06:50:00+00:00",
            "course": 199.7,
            "speed": 2.0,
            "depth": 0.0
          },
          {
            "time": "1995-12-12T06:51:00+00:00",
            "course": 167.1,
            "speed": 2.0,
            "depth": 0.0
          },
          {
            "time": "1995-12-12T06:52:00+00:00",
            "course": 146.9,
            "speed": 2.0,
            "depth": 0.0
          },
          {
            "time": "1995-12-12T06:53:00+00:00",
            "course": 145.5,
            "speed": 2.0,
            "depth": 0.0
          },
          {
            "time": "1995-12-12T06:54:00+00:00",
            "course": 145.6,
            "speed": 2.0,
            "depth": 0.0
          },
          {
            "time": "1995-12-12T06:55:00+00:00",
            "course": 144.9,
            "speed": 2.0,
            "depth": 0.0
          },
          {
            "time": "1995-12-12T06:56:00+00:00",
            "course": 146.0,
            "speed": 2.0,
            "depth": 0.0
          },
          {
            "time": "1995-12-12T06:57:00+00:00",
            "course": 145.6,
            "speed": 2.0,
            "depth": 0.0
          },
          {
            "time": "1995-12-12T06:58:00+00:00",
            "course": 144.7,
            "speed": 2.0,
            "depth": 0.0
          },
          {
            "time": "1995-12-12T06:59:00+00:00",
            "course": 145.0,
            "speed": 2.0,
            "depth": 0.0
          },
          {
            "time": "1995-12-12T07:00:00+00:00",
            "course": 145.5,
            "speed": 2.0,
            "depth": 0.0
          },
          {
            "time": "1995-12-12T07:01:00+00:00",
            "course": 145.1,
            "speed": 2.0,
            "depth": 0.0
          },
          {
            "time": "1995-12-12T07:02:00+00:00",
            "course": 145.4,
            "speed": 2.0,
            "depth": 0.0
          },
          {
            "time": "1995-12-12T07:03:00+00:00",
            "course": 145.2,
            "speed": 2.0,
            "depth": 0.0
          },
          {
            "time": "1995-12-12T07:04:00+00:00",
            "course": 145.3,
            "speed": 2.0,
            "depth": 0.0
          },
          {
            "time": "1995-12-12T07:05:00+00:00",
            "course": 145.2,
            "speed": 2.0,
            "depth": 0.0
          },
          {
            "time": "1995-12-12T07:06:00+00:00",
            "course": 145.1,
            "speed": 2.0,
            "depth": 0.0
          },
          {
            "time": "1995-12-12T07:07:00+00:00",
            "course": 145.1,
            "speed": 2.0,
            "depth": 0.0
          },
          {
            "time": "1995-12-12T07:08:00+00:00",
            "course": 183.2,
            "speed": 2.0,
            "depth": 0.0
          },
          {
            "time": "1995-12-12T07:09:00+00:00",
            "course": 256.0,
            "speed": 2.0,
            "depth": 0.0
          },
          {
            "time": "1995-12-12T07:10:00+00:00",
            "course": 290.0,
            "speed": 2.0,
            "depth": 0.0
          },
          {
            "time": "1995-12-12T07:11:00+00:00",
            "course": 289.9,
            "speed": 2.0,
            "depth": 0.0
          },
          {
            "time": "1995-12-12T07:12:00+00:00",
            "course": 290.1,
            "speed": 2.0,
            "depth": 0.0
          },
          {
            "time": "1995-12-12T07:13:00+00:00",
            "course": 289.5,
            "speed": 2.0,
            "depth": 0.0
          },
          {
            "time": "1995-12-12T07:14:00+00:00",
            "course": 318.6,
            "speed": 2.0,
            "depth": 0.0
          },
          {
            "time": "1995-12-12T07:15:00+00:00",
            "course": 33.4,
            "speed": 2.0,
            "depth": 0.0
          },
          {
            "time": "1995-12-12T07:16:00+00:00",
            "course": 50.9,
            "speed": 2.0,
            "depth": 0.0
          },
          {
            "time": "1995-12-12T07:17:00+00:00",
            "course": 50.5,
            "speed": 2.0,
            "depth": 0.0
          },
          {
            "time": "1995-12-12T07:18:00+00:00",
            "course": 49.7,
            "speed": 2.0,
            "depth": 0.0
          },
          {
            "time": "1995-12-12T07:19:00+00:00",
            "course": 50.3,
            "speed": 2.0,
            "depth": 0.0
          },
          {
            "time": "1995-12-12T07:20:00+00:00",
            "course": 49.8,
            "speed": 2.0,
            "depth": 0.0
          },
          {
            "time": "1995-12-12T07:21:00+00:00",
            "course": 49.8,
            "speed": 2.0,
            "depth": 0.0
          },
          {
            "time": "1995-12-12T07:22:00+00:00",
            "course": 50.4,
            "speed": 2.0,
            "depth": 0.0
          },
          {
            "time": "1995-12-12T07:23:00+00:00",
            "course": 50.1,
            "speed": 2.0,
            "depth": 0.0
          },
          {
            "time": "1995-12-12T07:24:00+00:00",
            "course": 50.3,
            "speed": 2.0,
            "depth": 0.0
          },
          {
            "time": "1995-12-12T07:25:00+00:00",
            "course": 49.7,
            "speed": 2.0,
            "depth": 0.0
          },
          {
            "time": "1995-12-12T07:26:00+00:00",
            "course": 50.4,
            "speed": 2.0,
            "depth": 0.0
          },
          {
            "time": "1995-12-12T07:27:00+00:00",
            "course": 50.8,
            "speed": 2.0,
            "depth": 0.0
          },
          {
            "time": "1995-12-12T07:28:00+00:00",
            "course": 49.8,
            "speed": 2.0,
            "depth": 0.0
          },
          {
            "time": "1995-12-12T07:29:00+00:00",
            "course": 50.5,
            "speed": 2.0,
            "depth": 0.0
          },
          {
            "time": "1995-12-12T07:30:00+00:00",
            "course": 49.9,
            "speed": 2.0,
            "depth": 0.0
          },
          {
            "time": "1995-12-12T07:31:00+00:00",
            "course": 50.3,
            "speed": 2.0,
            "depth": 0.0
          },
          {
            "time": "1995-12-12T07:32:00+00:00",
            "course": 68.1,
            "speed": 2.0,
            "depth": 0.0
          },
          {
            "time": "1995-12-12T07:33:00+00:00",
            "course": 125.3,
            "speed": 2.0,
            "depth": 0.0
          },
          {
            "time": "1995-12-12T07:34:00+00:00",
            "course": 129.7,
            "speed": 2.0,
            "depth": 0.0
          },
          {
            "time": "1995-12-12T07:35:00+00:00",
            "course": 130.6,
            "speed": 2.0,
            "depth": 0.0
          },
          {
            "time": "1995-12-12T07:36:00+00:00",
            "course": 129.3,
            "speed": 2.0,
            "depth": 0.0
          },
          {
            "time": "1995-12-12T07:37:00+00:00",
            "course": 130.3,
            "speed": 2.0,
            "depth": 0.0
          },
          {
            "time": "1995-12-12T07:38:00+00:00",
            "course": 130.7,
            "speed": 2.0,
            "depth": 0.0
          },
          {
            "time": "1995-12-12T07:39:00+00:00",
            "course": 130.3,
            "speed": 2.0,
            "depth": 0.0
          },
          {
            "time": "1995-12-12T07:40:00+00:00",
            "course": 130.8,
            "speed": 2.0,
            "depth": 0.0
          },
          {
            "time": "1995-12-12T07:41:00+00:00",
            "course": 129.5,
            "speed": 2.0,
            "depth": 0.0
          },
          {
            "time": "1995-12-12T07:42:00+00:00",
            "course": 130.2,
            "speed": 2.0,
            "depth": 0.0
          },
          {
            "time": "1995-12-12T07:43:00+00:00",
            "course": 130.1,
            "speed": 2.0,
            "depth": 0.0
          },
          {
            "time": "1995-12-12T07:44:00+00:00",
            "course": 129.7,
            "speed": 2.0,
            "depth": 0.0
          },
          {
            "time": "1995-12-12T07:45:00+00:00",
            "course": 131.2,
            "speed": 2.0,
            "depth": 0.0
          },
          {
            "time": "1995-12-12T07:46:00+00:00",
            "course": 130.2,
            "speed": 2.0,
            "depth": 0.0
          },
          {
            "time": "1995-12-12T07:47:00+00:00",
            "course": 129.9,
            "speed": 2.0,
            "depth": 0.0
          },
          {
            "time": "1995-12-12T07:48:00+00:00",
            "course": 130.0,
            "speed": 2.0,
            "depth": 0.0
          },
          {
            "time": "1995-12-12T07:49:00+00:00",
            "course": 130.5,
            "speed": 2.0,
            "depth": 0.0
          },
          {
            "time": "1995-12-12T07:50:00+00:00",
            "course": 130.6,
            "speed": 2.0,
            "depth": 0.0
          },
          {
            "time": "1995-12-12T07:51:00+00:00",
            "course": 130.2,
            "speed": 2.0,
            "depth": 0.0
          },
          {
            "time": "1995-12-12T07:52:00+00:00",
            "course": 130.9,
            "speed": 2.0,
            "depth": 0.0
          },
          {
            "time": "1995-12-12T07:53:00+00:00",
            "course": 129.3,
            "speed": 2.0,
            "depth": 0.0
          },
          {
            "time": "1995-12-12T07:54:00+00:00",
            "course": 130.5,
            "speed": 2.0,
            "depth": 0.0
          },
          {
            "time": "1995-12-12T07:55:00+00:00",
            "course": 129.9,
            "speed": 2.0,
            "depth": 0.0
          },
          {
            "time": "1995-12-12T07:56:00+00:00",
            "course": 130.2,
            "speed": 2.0,
            "depth": 0.0
          },
          {
            "time": "1995-12-12T07:57:00+00:00",
            "course": 109.3,
            "speed": 2.0,
            "depth": 0.0
          },
          {
            "time": "1995-12-12T07:58:00+00:00",
            "course": 71.5,
            "speed": 2.0,
            "depth": 0.0
          },
          {
            "time": "1995-12-12T07:59:00+00:00",
            "course": 70.1,
            "speed": 2.0,
            "depth": 0.0
          },
          {
            "time": "1995-12-12T08:00:00+00:00",
            "course": 70.6,
            "speed": 2.0,
            "depth": 0.0
          },
          {
            "time": "1995-12-12T08:01:00+00:00",
            "course": 70.1,
            "speed": 2.0,
            "depth": 0.0
          },
          {
            "time": "1995-12-12T08:02:00+00:00",
            "course": 70.3,
            "speed": 2.0,
            "depth": 0.0
          },
          {
            "time": "1995-12-12T08:03:00+00:00",
            "course": 70.6,
            "speed": 2.0,
            "depth": 0.0
          },
          {
            "time": "1995-12-12T08:04:00+00:00",
            "course": 69.3,
            "speed": 2.0,
            "depth": 0.0
          },
          {
            "time": "1995-12-12T08:05:00+00:00",
            "course": 70.2,
            "speed": 2.0,
            "depth": 0.0
          },
          {
            "time": "1995-12-12T08:06:00+00:00",
            "course": 70.3,
            "speed": 2.0,
            "depth": 0.0
          },
          {
            "time": "1995-12-12T08:07:00+00:00",
            "course": 69.9,
            "speed": 2.0,
            "depth": 0.0
          },
          {
            "time": "1995-12-12T08:08:00+00:00",
            "course": 70.2,
            "speed": 2.0,
            "depth": 0.0
          },
          {
            "time": "1995-12-12T08:09:00+00:00",
            "course": 70.2,
            "speed": 2.0,
            "depth": 0.0
          },
          {
            "time": "1995-12-12T08:10:00+00:00",
            "course": 70.0,
            "speed": 2.0,
            "depth": 0.0
          },
          {
            "time": "1995-12-12T08:11:00+00:00",
            "course": 69.5,
            "speed": 2.0,
            "depth": 0.0
          },
          {
            "time": "1995-12-12T08:12:00+00:00",
            "course": 70.6,
            "speed": 2.0,
            "depth": 0.0
          },
          {
            "time": "1995-12-12T08:13:00+00:00",
            "course": 69.9,
            "speed": 2.0,
            "depth": 0.0
          },
          {
            "time": "1995-12-12T08:14:00+00:00",
            "course": 70.1,
            "speed": 2.0,
            "depth": 0.0
          },
          {
            "time": "1995-12-12T08:15:00+00:00",
            "course": 70.3,
            "speed": 2.0,
            "depth": 0.0
          },
          {
            "time": "1995-12-12T08:16:00+00:00",
            "course": 70.7,
            "speed": 2.0,
            "depth": 0.0
          },
          {
            "time": "1995-12-12T08:17:00+00:00",
            "course": 69.6,
            "speed": 2.0,
            "depth": 0.0
          },
          {
            "time": "1995-12-12T08:18:00+00:00",
            "course": 69.4,
            "speed": 2.0,
            "depth": 0.0
          },
          {
            "time": "1995-12-12T08:19:00+00:00",
            "course": 69.4,
            "speed": 2.0,
            "depth": 0.0
          },
          {
            "time": "1995-12-12T08:20:00+00:00",
            "course": 70.5,
            "speed": 2.0,
            "depth": 0.0
          },
          {
            "time": "1995-12-12T08:21:00+00:00",
            "course": 85.1,
            "speed": 2.0,
            "depth": 0.0
          },
          {
            "time": "1995-12-12T08:22:00+00:00",
            "course": 120.0,
            "speed": 2.0,
            "depth": 0.0
          },
          {
            "time": "1995-12-12T08:23:00+00:00",
            "course": 121.2,
            "speed": 2.0,
            "depth": 0.0
          },
          {
            "time": "1995-12-12T08:24:00+00:00",
            "course": 119.6,
            "speed": 2.0,
            "depth": 0.0
          },
          {
            "time": "1995-12-12T08:25:00+00:00",
            "course": 120.5,
            "speed": 2.0,
            "depth": 0.0
          },
          {
            "time": "1995-12-12T08:26:00+00:00",
            "course": 120.4,
            "speed": 2.0,
            "depth": 0.0
          },
          {
            "time": "1995-12-12T08:27:00+00:00",
            "course": 119.7,
            "speed": 2.0,
            "depth": 0.0
          },
          {
            "time": "1995-12-12T08:28:00+00:00",
            "course": 114.3,
            "speed": 2.0,
            "depth": 0.0
          },
          {
            "time": "1995-12-12T08:29:00+00:00",
            "course": 87.0,
            "speed": 2.0,
            "depth": 0.0
          },
          {
            "time": "1995-12-12T08:30:00+00:00",
            "course": 85.1,
            "speed": 2.0,
            "depth": 0.0
          },
          {
            "time": "1995-12-12T08:31:00+00:00",
            "course": 84.8,
            "speed": 2.0,
            "depth": 0.0
          },
          {
            "time": "1995-12-12T08:32:00+00:00",
            "course": 84.8,
            "speed": 2.0,
            "depth": 0.0
          },
          {
            "time": "1995-12-12T08:33:00+00:00",
            "course": 84.9,
            "speed": 2.0,
            "depth": 0.0
          },
          {
            "time": "1995-12-12T08:34:00+00:00",
            "course": 84.7,
            "speed": 2.0,
            "depth": 0.0
          },
          {
            "time": "1995-12-12T08:35:00+00:00",
            "course": 85.4,
            "speed": 2.0,
            "depth": 0.0
          },
          {
            "time": "1995-12-12T08:36:00+00:00",
            "course": 85.1,
            "speed": 2.0,
            "depth": 0.0
          },
          {
            "time": "1995-12-12T08:37:00+00:00",
            "course": 84.6,
            "speed": 2.0,
            "depth": 0.0
          },
          {
            "time": "1995-12-12T08:38:00+00:00",
            "course": 41.3,
            "speed": 2.0,
            "depth": 0.0
          },
          {
            "time": "1995-12-12T08:39:00+00:00",
            "course": 329.3,
            "speed": 2.0,
            "depth": 0.0
          },
          {
            "time": "1995-12-12T08:40:00+00:00",
            "course": 299.4,
            "speed": 2.0,
            "depth": 0.0
          },
          {
            "time": "1995-12-12T08:41:00+00:00",
            "course": 300.1,
            "speed": 2.0,
            "depth": 0.0
          },
          {
            "time": "1995-12-12T08:42:00+00:00",
            "course": 300.0,
            "speed": 2.0,
            "depth": 0.0
          },
          {
            "time": "1995-12-12T08:43:00+00:00",
            "course": 300.6,
            "speed": 2.0,
            "depth": 0.0
          },
          {
            "time": "1995-12-12T08:44:00+00:00",
            "course": 300.2,
            "speed": 2.0,
            "depth": 0.0
          },
          {
            "time": "1995-12-12T08:45:00+00:00",
            "course": 299.8,
            "speed": 2.0,
            "depth": 0.0
          },
          {
            "time": "1995-12-12T08:46:00+00:00",
            "course": 299.9,
            "speed": 2.0,
            "depth": 0.0
          },
          {
            "time": "1995-12-12T08:47:00+00:00",
            "course": 300.0,
            "speed": 2.0,
            "depth": 0.0
          },
          {
            "time": "1995-12-12T08:48:00+00:00",
            "course": 300.0,
            "speed": 2.0,
            "depth": 0.0
          },
          {
            "time": "1995-12-12T08:49:00+00:00",
            "course": 300.4,
            "speed": 2.0,
            "depth": 0.0
          },
          {
            "time": "1995-12-12T08:50:00+00:00",
            "course": 299.9,
            "speed": 2.0,
            "depth": 0.0
          },
          {
            "time": "1995-12-12T08:51:00+00:00",
            "course": 300.2,
            "speed": 2.0,
            "depth": 0.0
          },
          {
            "time": "1995-12-12T08:52:00+00:00",
            "course": 299.9,
            "speed": 2.0,
            "depth": 0.0
          },
          {
            "time": "1995-12-12T08:53:00+00:00",
            "course": 300.0,
            "speed": 2.0,
            "depth": 0.0
          },
          {
            "time": "1995-12-12T08:54:00+00:00",
            "course": 300.1,
            "speed": 2.0,
            "depth": 0.0
          },
          {
            "time": "1995-12-12T08:55:00+00:00",
            "course": 300.0,
            "speed": 2.0,
            "depth": 0.0
          },
          {
            "time": "1995-12-12T08:56:00+00:00",
            "course": 300.0,
            "speed": 2.0,
            "depth": 0.0
          },
          {
            "time": "1995-12-12T08:57:00+00:00",
            "course": 299.1,
            "speed": 2.0,
            "depth": 0.0
          },
          {
            "time": "1995-12-12T08:58:00+00:00",
            "course": 299.3,
            "speed": 2.0,
            "depth": 0.0
          },
          {
            "time": "1995-12-12T08:59:00+00:00",
            "course": 300.0,
            "speed": 2.0,
            "depth": 0.0
          },
          {
            "time": "1995-12-12T09:00:00+00:00",
            "course": 308.6,
            "speed": 2.0,
            "depth": 0.0
          },
          {
            "time": "1995-12-12T09:01:00+00:00",
            "course": 341.1,
            "speed": 2.0,
            "depth": 0.0
          },
          {
            "time": "1995-12-12T09:02:00+00:00",
            "course": 341.1,
            "speed": 2.0,
            "depth": 0.0
          },
          {
            "time": "1995-12-12T09:03:00+00:00",
            "course": 340.8,
            "speed": 2.0,
            "depth": 0.0
          },
          {
            "time": "1995-12-12T09:04:00+00:00",
            "course": 340.8,
            "speed": 2.0,
            "depth": 0.0
          },
          {
            "time": "1995-12-12T09:05:00+00:00",
            "course": 340.3,
            "speed": 2.0,
            "depth": 0.0
          },
          {
            "time": "1995-12-12T09:06:00+00:00",
            "course": 340.3,
            "speed": 2.0,
            "depth": 0.0
          },
          {
            "time": "1995-12-12T09:07:00+00:00",
            "course": 340.0,
            "speed": 2.0,
            "depth": 0.0
          },
          {
            "time": "1995-12-12T09:08:00+00:00",
            "course": 339.5,
            "speed": 2.0,
            "depth": 0.0
          },
          {
            "time": "1995-12-12T09:09:00+00:00",
            "course": 340.3,
            "speed": 2.0,
            "depth": 0.0
          },
          {
            "time": "1995-12-12T09:10:00+00:00",
            "course": 340.3,
            "speed": 2.0,
            "depth": 0.0
          },
          {
            "time": "1995-12-12T09:11:00+00:00",
            "course": 343.5,
            "speed": 2.0,
            "depth": 0.0
          },
          {
            "time": "1995-12-12T09:12:00+00:00",
            "course": 20.1,
            "speed": 2.0,
            "depth": 0.0
          },
          {
            "time": "1995-12-12T09:13:00+00:00",
            "course": 54.2,
            "speed": 2.0,
            "depth": 0.0
          },
          {
            "time": "1995-12-12T09:14:00+00:00",
            "course": 55.1,
            "speed": 2.0,
            "depth": 0.0
          },
          {
            "time": "1995-12-12T09:15:00+00:00",
            "course": 58.9,
            "speed": 2.0,
            "depth": 0.0
          },
          {
            "time": "1995-12-12T09:16:00+00:00",
            "course": 59.4,
            "speed": 2.0,
            "depth": 0.0
          },
          {
            "time": "1995-12-12T09:17:00+00:00",
            "course": 60.4,
            "speed": 2.0,
            "depth": 0.0
          },
          {
            "time": "1995-12-12T09:18:00+00:00",
            "course": 59.4,
            "speed": 2.0,
            "depth": 0.0
          },
          {
            "time": "1995-12-12T09:19:00+00:00",
            "course": 60.0,
            "speed": 2.0,
            "depth": 0.0
          },
          {
            "time": "1995-12-12T09:20:00+00:00",
            "course": 60.0,
            "speed": 2.0,
            "depth": 0.0
          },
          {
            "time": "1995-12-12T09:21:00+00:00",
            "course": 59.7,
            "speed": 2.0,
            "depth": 0.0
          },
          {
            "time": "1995-12-12T09:22:00+00:00",
            "course": 60.2,
            "speed": 2.0,
            "depth": 0.0
          },
          {
            "time": "1995-12-12T09:23:00+00:00",
            "course": 60.4,
            "speed": 2.0,
            "depth": 0.0
          },
          {
            "time": "1995-12-12T09:24:00+00:00",
            "course": 59.6,
            "speed": 2.0,
            "depth": 0.0
          },
          {
            "time": "1995-12-12T09:25:00+00:00",
            "course": 30.1,
            "speed": 2.0,
            "depth": 0.0
          },
          {
            "time": "1995-12-12T09:26:00+00:00",
            "course": 318.9,
            "speed": 2.0,
            "depth": 0.0
          },
          {
            "time": "1995-12-12T09:27:00+00:00",
            "course": 299.8,
            "speed": 2.0,
            "depth": 0.0
          },
          {
            "time": "1995-12-12T09:28:00+00:00",
            "course": 299.7,
            "speed": 2.0,
            "depth": 0.0
          },
          {
            "time": "1995-12-12T09:29:00+00:00",
            "course": 299.7,
            "speed": 2.0,
            "depth": 0.0
          },
          {
            "time": "1995-12-12T09:30:00+00:00",
            "course": 300.3,
            "speed": 2.0,
            "depth": 0.0
          },
          {
            "time": "1995-12-12T09:31:00+00:00",
            "course": 300.1,
            "speed": 2.0,
            "depth": 0.0
          },
          {
            "time": "1995-12-12T09:32:00+00:00",
            "course": 299.5,
            "speed": 2.0,
            "depth": 0.0
          },
          {
            "time": "1995-12-12T09:33:00+00:00",
            "course": 300.2,
            "speed": 2.0,
            "depth": 0.0
          },
          {
            "time": "1995-12-12T09:34:00+00:00",
            "course": 300.0,
            "speed": 2.0,
            "depth": 0.0
          },
          {
            "time": "1995-12-12T09:35:00+00:00",
            "course": 299.6,
            "speed": 2.0,
            "depth": 0.0
          },
          {
            "time": "1995-12-12T09:36:00+00:00",
            "course": 299.9,
            "speed": 2.0,
            "depth": 0.0
          },
          {
            "time": "1995-12-12T09:37:00+00:00",
            "course": 300.0,
            "speed": 2.0,
            "depth": 0.0
          },
          {
            "time": "1995-12-12T09:38:00+00:00",
            "course": 299.6,
            "speed": 2.0,
            "depth": 0.0
          },
          {
            "time": "1995-12-12T09:39:00+00:00",
            "course": 299.8,
            "speed": 2.0,
            "depth": 0.0
          },
          {
            "time": "1995-12-12T09:40:00+00:00",
            "course": 299.8,
            "speed": 2.0,
            "depth": 0.0
          },
          {
            "time": "1995-12-12T09:41:00+00:00",
            "course": 299.9,
            "speed": 2.0,
            "depth": 0.0
          },
          {
            "time": "1995-12-12T09:42:00+00:00",
            "course": 299.7,
            "speed": 2.0,
            "depth": 0.0
          },
          {
            "time": "1995-12-12T09:43:00+00:00",
            "course": 300.2,
            "speed": 2.0,
            "depth": 0.0
          },
          {
            "time": "1995-12-12T09:44:00+00:00",
            "course": 299.6,
            "speed": 2.0,
            "depth": 0.0
          },
          {
            "time": "1995-12-12T09:45:00+00:00",
            "course": 300.0,
            "speed": 2.0,
            "depth": 0.0
          },
          {
            "time": "1995-12-12T09:46:00+00:00",
            "course": 299.8,
            "speed": 2.0,
            "depth": 0.0
          },
          {
            "time": "1995-12-12T09:47:00+00:00",
            "course": 292.3,
            "speed": 2.0,
            "depth": 0.0
          },
          {
            "time": "1995-12-12T09:48:00+00:00",
            "course": 271.0,
            "speed": 2.0,
            "depth": 0.0
          },
          {
            "time": "1995-12-12T09:49:00+00:00",
            "course": 280.4,
            "speed": 2.0,
            "depth": 0.0
          },
          {
            "time": "1995-12-12T09:50:00+00:00",
            "course": 332.7,
            "speed": 2.0,
            "depth": 0.0
          },
          {
            "time": "1995-12-12T09:51:00+00:00",
            "course": 340.4,
            "speed": 2.0,
            "depth": 0.0
          },
          {
            "time": "1995-12-12T09:52:00+00:00",
            "course": 340.0,
            "speed": 2.0,
            "depth": 0.0
          },
          {
            "time": "1995-12-12T09:53:00+00:00",
            "course": 339.8,
            "speed": 2.0,
            "depth": 0.0
          },
          {
            "time": "1995-12-12T09:54:00+00:00",
            "course": 340.3,
            "speed": 2.0,
            "depth": 0.0
          },
          {
            "time": "1995-12-12T09:55:00+00:00",
            "course": 339.4,
            "speed": 2.0,
            "depth": 0.0
          },
          {
            "time": "1995-12-12T09:56:00+00:00",
            "course": 340.0,
            "speed": 2.0,
            "depth": 0.0
          },
          {
            "time": "1995-12-12T09:57:00+00:00",
            "course": 340.0,
            "speed": 2.0,
            "depth": 0.0
          },
          {
            "time": "1995-12-12T09:58:00+00:00",
            "course": 340.7,
            "speed": 2.0,
            "depth": 0.0
          },
          {
            "time": "1995-12-12T09:59:00+00:00",
            "course": 339.4,
            "speed": 2.0,
            "depth": 0.0
          },
          {
            "time": "1995-12-12T10:00:00+00:00",
            "course": 340.1,
            "speed": 2.0,
            "depth": 0.0
          },
          {
            "time": "1995-12-12T10:01:00+00:00",
            "course": 340.3,
            "speed": 2.0,
            "depth": 0.0
          },
          {
            "time": "1995-12-12T10:02:00+00:00",
            "course": 339.9,
            "speed": 2.0,
            "depth": 0.0
          },
          {
            "time": "1995-12-12T10:03:00+00:00",
            "course": 340.6,
            "speed": 2.0,
            "depth": 0.0
          },
          {
            "time": "1995-12-12T10:04:00+00:00",
            "course": 340.2,
            "speed": 2.0,
            "depth": 0.0
          },
          {
            "time": "1995-12-12T10:05:00+00:00",
            "course": 340.0,
            "speed": 2.0,
            "depth": 0.0
          },
          {
            "time": "1995-12-12T10:06:00+00:00",
            "course": 340.1,
            "speed": 2.0,
            "depth": 0.0
          },
          {
            "time": "1995-12-12T10:07:00+00:00",
            "course": 340.3,
            "speed": 2.0,
            "depth": 0.0
          },
          {
            "time": "1995-12-12T10:08:00+00:00",
            "course": 340.5,
            "speed": 2.0,
            "depth": 0.0
          },
          {
            "time": "1995-12-12T10:09:00+00:00",
            "course": 340.3,
            "speed": 2.0,
            "depth": 0.0
          },
          {
            "time": "1995-12-12T10:10:00+00:00",
            "course": 308.8,
            "speed": 2.0,
            "depth": 0.0
          },
          {
            "time": "1995-12-12T10:11:00+00:00",
            "course": 279.6,
            "speed": 2.0,
            "depth": 0.0
          },
          {
            "time": "1995-12-12T10:12:00+00:00",
            "course": 280.4,
            "speed": 2.0,
            "depth": 0.0
          },
          {
            "time": "1995-12-12T10:13:00+00:00",
            "course": 280.0,
            "speed": 2.0,
            "depth": 0.0
          },
          {
            "time": "1995-12-12T10:14:00+00:00",
            "course": 279.8,
            "speed": 2.0,
            "depth": 0.0
          },
          {
            "time": "1995-12-12T10:15:00+00:00",
            "course": 280.7,
            "speed": 2.0,
            "depth": 0.0
          },
          {
            "time": "1995-12-12T10:16:00+00:00",
            "course": 279.8,
            "speed": 2.0,
            "depth": 0.0
          },
          {
            "time": "1995-12-12T10:17:00+00:00",
            "course": 280.4,
            "speed": 2.0,
            "depth": 0.0
          },
          {
            "time": "1995-12-12T10:18:00+00:00",
            "course": 279.1,
            "speed": 2.0,
            "depth": 0.0
          },
          {
            "time": "1995-12-12T10:19:00+00:00",
            "course": 279.7,
            "speed": 2.0,
            "depth": 0.0
          },
          {
            "time": "1995-12-12T10:20:00+00:00",
            "course": 280.3,
            "speed": 2.0,
            "depth": 0.0
          },
          {
            "time": "1995-12-12T10:21:00+00:00",
            "course": 279.2,
            "speed": 2.0,
            "depth": 0.0
          },
          {
            "time": "1995-12-12T10:22:00+00:00",
            "course": 280.2,
            "speed": 2.0,
            "depth": 0.0
          },
          {
            "time": "1995-12-12T10:23:00+00:00",
            "course": 280.4,
            "speed": 2.0,
            "depth": 0.0
          },
          {
            "time": "1995-12-12T10:24:00+00:00",
            "course": 280.0,
            "speed": 2.0,
            "depth": 0.0
          },
          {
            "time": "1995-12-12T10:25:00+00:00",
            "course": 279.5,
            "speed": 2.0,
            "depth": 0.0
          },
          {
            "time": "1995-12-12T10:26:00+00:00",
            "course": 280.4,
            "speed": 2.0,
            "depth": 0.0
          },
          {
            "time": "1995-12-12T10:27:00+00:00",
            "course": 280.0,
            "speed": 2.0,
            "depth": 0.0
          },
          {
            "time": "1995-12-12T10:28:00+00:00",
            "course": 280.2,
            "speed": 2.0,
            "depth": 0.0
          },
          {
            "time": "1995-12-12T10:29:00+00:00",
            "course": 285.6,
            "speed": 2.0,
            "depth": 0.0
          },
          {
            "time": "1995-12-12T10:30:00+00:00",
            "course": 346.6,
            "speed": 2.0,
            "depth": 0.0
          },
          {
            "time": "1995-12-12T10:31:00+00:00",
            "course": 51.5,
            "speed": 2.0,
            "depth": 0.0
          },
          {
            "time": "1995-12-12T10:32:00+00:00",
            "course": 60.1,
            "speed": 2.0,
            "depth": 0.0
          },
          {
            "time": "1995-12-12T10:33:00+00:00",
            "course": 60.2,
            "speed": 2.0,
            "depth": 0.0
          },
          {
            "time": "1995-12-12T10:34:00+00:00",
            "course": 60.5,
            "speed": 2.0,
            "depth": 0.0
          },
          {
            "time": "1995-12-12T10:35:00+00:00",
            "course": 80.7,
            "speed": 2.0,
            "depth": 0.0
          },
          {
            "time": "1995-12-12T10:36:00+00:00",
            "course": 124.3,
            "speed": 2.0,
            "depth": 0.0
          },
          {
            "time": "1995-12-12T10:37:00+00:00",
            "course": 150.1,
            "speed": 2.0,
            "depth": 0.0
          },
          {
            "time": "1995-12-12T10:38:00+00:00",
            "course": 150.0,
            "speed": 2.0,
            "depth": 0.0
          },
          {
            "time": "1995-12-12T10:39:00+00:00",
            "course": 149.9,
            "speed": 2.0,
            "depth": 0.0
          },
          {
            "time": "1995-12-12T10:40:00+00:00",
            "course": 129.7,
            "speed": 2.0,
            "depth": 0.0
          },
          {
            "time": "1995-12-12T10:41:00+00:00",
            "course": 119.5,
            "speed": 2.0,
            "depth": 0.0
          },
          {
            "time": "1995-12-12T10:42:00+00:00",
            "course": 126.0,
            "speed": 2.0,
            "depth": 0.0
          },
          {
            "time": "1995-12-12T10:43:00+00:00",
            "course": 118.0,
            "speed": 2.0,
            "depth": 0.0
          },
          {
            "time": "1995-12-12T10:44:00+00:00",
            "course": 76.4,
            "speed": 2.0,
            "depth": 0.0
          },
          {
            "time": "1995-12-12T10:45:00+00:00",
            "course": 22.8,
            "speed": 2.0,
            "depth": 0.0
          },
          {
            "time": "1995-12-12T10:46:00+00:00",
            "course": 330.1,
            "speed": 2.0,
            "depth": 0.0
          },
          {
            "time": "1995-12-12T10:47:00+00:00",
            "course": 282.6,
            "speed": 2.0,
            "depth": 0.0
          },
          {
            "time": "1995-12-12T10:48:00+00:00",
            "course": 251.6,
            "speed": 2.0,
            "depth": 0.0
          },
          {
            "time": "1995-12-12T10:49:00+00:00",
            "course": 230.6,
            "speed": 2.0,
            "depth": 0.0
          },
          {
            "time": "1995-12-12T10:50:00+00:00",
            "course": 184.0,
            "speed": 2.0,
            "depth": 0.0
          },
          {
            "time": "1995-12-12T10:51:00+00:00",
            "course": 133.8,
            "speed": 2.0,
            "depth": 0.0
          },
          {
            "time": "1995-12-12T10:52:00+00:00",
            "course": 105.0,
            "speed": 2.0,
            "depth": 0.0
          },
          {
            "time": "1995-12-12T10:53:00+00:00",
            "course": 102.1,
            "speed": 2.0,
            "depth": 0.0
          },
          {
            "time": "1995-12-12T10:54:00+00:00",
            "course": 141.1,
            "speed": 2.0,
            "depth": 0.0
          },
          {
            "time": "1995-12-12T10:55:00+00:00",
            "course": 202.5,
            "speed": 2.0,
            "depth": 0.0
          },
          {
            "time": "1995-12-12T10:56:00+00:00",
            "course": 265.7,
            "speed": 2.0,
            "depth": 0.0
          },
          {
            "time": "1995-12-12T10:57:00+00:00",
            "course": 329.3,
            "speed": 2.0,
            "depth": 0.0
          },
          {
            "time": "1995-12-12T10:58:00+00:00",
            "course": 32.1,
            "speed": 2.0,
            "depth": 0.0
          },
          {
            "time": "1995-12-12T10:59:00+00:00",
            "course": 98.7,
            "speed": 2.0,
            "depth": 0.0
          },
          {
            "time": "1995-12-12T11:00:00+00:00",
            "course": 159.0,
            "speed": 2.0,
            "depth": 0.0
          },
          {
            "time": "1995-12-12T11:01:00+00:00",
            "course": 157.3,
            "speed": 2.0,
            "depth": 0.0
          },
          {
            "time": "1995-12-12T11:02:00+00:00",
            "course": 105.3,
            "speed": 2.0,
            "depth": 0.0
          },
          {
            "time": "1995-12-12T11:03:00+00:00",
            "course": 40.7,
            "speed": 2.0,
            "depth": 0.0
          },
          {
            "time": "1995-12-12T11:04:00+00:00",
            "course": 9.3,
            "speed": 2.0,
            "depth": 0.0
          },
          {
            "time": "1995-12-12T11:05:00+00:00",
            "course": 49.6,
            "speed": 2.0,
            "depth": 0.0
          },
          {
            "time": "1995-12-12T11:06:00+00:00",
            "course": 121.6,
            "speed": 2.0,
            "depth": 0.0
          },
          {
            "time": "1995-12-12T11:07:00+00:00",
            "course": 155.6,
            "speed": 2.0,
            "depth": 0.0
          },
          {
            "time": "1995-12-12T11:08:00+00:00",
            "course": 155.1,
            "speed": 2.0,
            "depth": 0.0
          },
          {
            "time": "1995-12-12T11:09:00+00:00",
            "course": 113.9,
            "speed": 2.0,
            "depth": 0.0
          },
          {
            "time": "1995-12-12T11:10:00+00:00",
            "course": 58.5,
            "speed": 2.0,
            "depth": 0.0
          },
          {
            "time": "1995-12-12T11:11:00+00:00",
            "course": 44.7,
            "speed": 2.0,
            "depth": 0.0
          },
          {
            "time": "1995-12-12T11:12:00+00:00",
            "course": 71.9,
            "speed": 2.0,
            "depth": 0.0
          },
          {
            "time": "1995-12-12T11:13:00+00:00",
            "course": 137.5,
            "speed": 2.0,
            "depth": 0.0
          },
          {
            "time": "1995-12-12T11:14:00+00:00",
            "course": 215.8,
            "speed": 2.0,
            "depth": 0.0
          },
          {
            "time": "1995-12-12T11:15:00+00:00",
            "course": 293.6,
            "speed": 2.0,
            "depth": 0.0
          },
          {
            "time": "1995-12-12T11:16:00+00:00",
            "course": 321.4,
            "speed": 2.0,
            "depth": 0.0
          },
          {
            "time": "1995-12-12T11:17:00+00:00",
            "course": 340.3,
            "speed": 2.0,
            "depth": 0.0
          },
          {
            "time": "1995-12-12T11:18:00+00:00",
            "course": 9.8,
            "speed": 2.0,
            "depth": 0.0
          },
          {
            "time": "1995-12-12T11:19:00+00:00",
            "course": 51.9,
            "speed": 2.0,
            "depth": 0.0
          },
          {
            "time": "1995-12-12T11:20:00+00:00",
            "course": 100.9,
            "speed": 2.0,
            "depth": 0.0
          },
          {
            "time": "1995-12-12T11:21:00+00:00",
            "course": 151.3,
            "speed": 2.0,
            "depth": 0.0
          },
          {
            "time": "1995-12-12T11:22:00+00:00",
            "course": 180.3,
            "speed": 2.0,
            "depth": 0.0
          },
          {
            "time": "1995-12-12T11:23:00+00:00",
            "course": 182.3,
            "speed": 2.0,
            "depth": 0.0
          },
          {
            "time": "1995-12-12T11:24:00+00:00",
            "course": 196.1,
            "speed": 2.0,
            "depth": 0.0
          },
          {
            "time": "1995-12-12T11:25:00+00:00",
            "course": 236.1,
            "speed": 2.0,
            "depth": 0.0
          },
          {
            "time": "1995-12-12T11:26:00+00:00",
            "course": 287.7,
            "speed": 2.0,
            "depth": 0.0
          },
          {
            "time": "1995-12-12T11:27:00+00:00",
            "course": 334.9,
            "speed": 2.0,
            "depth": 0.0
          },
          {
            "time": "1995-12-12T11:28:00+00:00",
            "course": 340.7,
            "speed": 2.0,
            "depth": 0.0
          },
          {
            "time": "1995-12-12T11:29:00+00:00",
            "course": 346.1,
            "speed": 2.0,
            "depth": 0.0
          },
          {
            "time": "1995-12-12T11:30:00+00:00",
            "course": 21.4,
            "speed": 2.0,
            "depth": 0.0
          },
          {
            "time": "1995-12-12T11:31:00+00:00",
            "course": 21.0,
            "speed": 2.0,
            "depth": 0.0
          },
          {
            "time": "1995-12-12T11:32:00+00:00",
            "course": 19.3,
            "speed": 2.0,
            "depth": 0.0
          },
          {
            "time": "1995-12-12T11:33:00+00:00",
            "course": 20.3,
            "speed": 2.0,
            "depth": 0.0
          },
          {
            "time": "1995-12-12T11:34:00+00:00",
            "course": 20.6,
            "speed": 2.0,
            "depth": 0.0
          },
          {
            "time": "1995-12-12T11:35:00+00:00",
            "course": 20.1,
            "speed": 2.0,
            "depth": 0.0
          },
          {
            "time": "1995-12-12T11:36:00+00:00",
            "course": 20.3,
            "speed": 2.0,
            "depth": 0.0
          },
          {
            "time": "1995-12-12T11:37:00+00:00",
            "course": 20.8,
            "speed": 2.0,
            "depth": 0.0
          },
          {
            "time": "1995-12-12T11:38:00+00:00",
            "course": 20.2,
            "speed": 2.0,
            "depth": 0.0
          },
          {
            "time": "1995-12-12T11:39:00+00:00",
            "course": 20.1,
            "speed": 2.0,
            "depth": 0.0
          },
          {
            "time": "1995-12-12T11:40:00+00:00",
            "course": 20.2,
            "speed": 2.0,
            "depth": 0.0
          },
          {
            "time": "1995-12-12T11:41:00+00:00",
            "course": 20.2,
            "speed": 2.0,
            "depth": 0.0
          }
        ],
        "style": {
          "line": {
            "color": "#808080"
          },
          "point": {
            "shape": "circle",
            "radius": 3.0,
            "fill_color": "#808080",
            "color": "#808080"
          }
        },
        "default_position_style": {
          "show_symbol": false,
          "symbol": "circle",
          "show_label": false
        },
        "symbol_interval": "PT15M",
        "label_interval": "PT1H",
        "provenance": [
          {
            "activity_id": "ad5fb65d-1119-4d77-9f53-7c5aac76cae0",
            "timestamp": "2026-04-13T23:12:32.618809Z",
            "was_generated_by": {
              "tool": "dpf-parser",
              "tool_version": "1.0.0",
              "parameters": []
            },
            "used": [],
            "generated": [
              "bd0b6c0f-f268-4e41-85f2-f31e4b9aa6d3"
            ],
            "execution_duration": "PT0.00378S"
          }
        ]
      }
    }
  ]
}