{
  "type": "FeatureCollection",
  "features": [
    {
      "type": "Feature",
      "id": "1fe268f1-3511-42c8-bbc8-674d3e0ee3ec",
      "geometry": null,
      "properties": {
        "kind": "SENSOR_CONTACT",
        "parent_track": "OWNSHIP",
        "time": "1900-12-12T06:38:38+00:00",
        "bearing": 213.0,
        "sensor_name": "ARRAY",
        "label": "Label"
      }
    },
    {
      "type": "Feature",
      "id": "628d1902-7a2a-45ad-9db1-27fd5afe205a",
      "geometry": null,
      "properties": {
        "kind": "SENSOR_CONTACT",
        "parent_track": "OWNSHIP",
        "time": "1900-12-12T06:38:56+00:00",
        "bearing": 216.4,
        "sensor_name": "ARRAY",
        "label": "Label"
      }
    },
    {
      "type": "Feature",
      "id": "58542f5a-b1b8-4fd6-9d01-a17914464b71",
      "geometry": null,
      "properties": {
        "kind": "SENSOR_CONTACT",
        "parent_track": "OWNSHIP",
        "time": "1900-12-12T06:39:12+00:00",
        "bearing": 219.7,
        "sensor_name": "ARRAY",
        "label": "Label"
      }
    },
    {
      "type": "Feature",
      "id": "3db910a5-157a-4f5a-ab96-e0c3d3c5a708",
      "geometry": null,
      "properties": {
        "kind": "SENSOR_CONTACT",
        "parent_track": "OWNSHIP",
        "time": "1900-12-12T06:39:26+00:00",
        "bearing": 222.7,
        "sensor_name": "ARRAY",
        "label": "Label"
      }
    },
    {
      "type": "Feature",
      "id": "a698a57e-5dad-4b16-a8cb-08fb1815158c",
      "geometry": null,
      "properties": {
        "kind": "SENSOR_CONTACT",
        "parent_track": "OWNSHIP",
        "time": "1900-12-12T06:39:40+00:00",
        "bearing": 226.0,
        "sensor_name": "ARRAY",
        "label": "Label"
      }
    },
    {
      "type": "Feature",
      "id": "be4ec148-d0b4-414e-8cfe-6b8f2ca75346",
      "geometry": null,
      "properties": {
        "kind": "SENSOR_CONTACT",
        "parent_track": "OWNSHIP",
        "time": "1900-12-12T06:40:00+00:00",
        "bearing": 230.0,
        "sensor_name": "ARRAY",
        "label": "Label"
      }
    },
    {
      "type": "Feature",
      "id": "b45fe5bf-0c46-4976-985e-29ca816f56c5",
      "geometry": null,
      "properties": {
        "kind": "SENSOR_CONTACT",
        "parent_track": "OWNSHIP",
        "time": "1900-12-12T06:40:16+00:00",
        "bearing": 234.1,
        "sensor_name": "ARRAY",
        "label": "Label"
      }
    },
    {
      "type": "Feature",
      "id": "5b2c7853-f909-486c-a5e8-aab85d21cdc4",
      "geometry": null,
      "properties": {
        "kind": "SENSOR_CONTACT",
        "parent_track": "OWNSHIP",
        "time": "1900-12-12T06:40:28+00:00",
        "bearing": 237.4,
        "sensor_name": "ARRAY",
        "label": "Label"
      }
    },
    {
      "type": "Feature",
      "id": "534235e0-8f17-458c-9d79-0666e835e68a",
      "geometry": null,
      "properties": {
        "kind": "SENSOR_CONTACT",
        "parent_track": "OWNSHIP",
        "time": "1900-12-12T06:40:44+00:00",
        "bearing": 242.1,
        "sensor_name": "ARRAY",
        "label": "Label"
      }
    },
    {
      "type": "Feature",
      "id": "3fa8ed58-ff38-4c76-8f78-037cb6e7251e",
      "geometry": null,
      "properties": {
        "kind": "SENSOR_CONTACT",
        "parent_track": "OWNSHIP",
        "time": "1900-12-12T06:40:58+00:00",
        "bearing": 245.1,
        "sensor_name": "ARRAY",
        "label": "Label"
      }
    },
    {
      "type": "Feature",
      "id": "dfd0f20b-59f0-4212-9495-baa69d90818d",
      "geometry": null,
      "properties": {
        "kind": "SENSOR_CONTACT",
        "parent_track": "OWNSHIP",
        "time": "1900-12-12T06:41:16+00:00",
        "bearing": 248.7,
        "sensor_name": "ARRAY",
        "label": "Label"
      }
    },
    {
      "type": "Feature",
      "id": "d2ae2583-1dfd-4b84-a1f4-99fbcd1f34f8",
      "geometry": null,
      "properties": {
        "kind": "SENSOR_CONTACT",
        "parent_track": "OWNSHIP",
        "time": "1900-12-12T06:41:30+00:00",
        "bearing": 252.7,
        "sensor_name": "ARRAY",
        "label": "Label"
      }
    },
    {
      "type": "Feature",
      "id": "fad6213e-f452-4f46-8731-b28a833504b4",
      "geometry": null,
      "properties": {
        "kind": "SENSOR_CONTACT",
        "parent_track": "OWNSHIP",
        "time": "1900-12-12T06:41:44+00:00",
        "bearing": 256.4,
        "sensor_name": "ARRAY",
        "label": "Label"
      }
    },
    {
      "type": "Feature",
      "id": "833bda6d-570d-4f9e-810b-63001d69cd00",
      "geometry": null,
      "properties": {
        "kind": "SENSOR_CONTACT",
        "parent_track": "OWNSHIP",
        "time": "1900-12-12T06:41:58+00:00",
        "bearing": 260.4,
        "sensor_name": "ARRAY",
        "label": "Label"
      }
    },
    {
      "type": "Feature",
      "id": "3dede32b-8194-4acb-8f5b-95dc9b56b974",
      "geometry": null,
      "properties": {
        "kind": "SENSOR_CONTACT",
        "parent_track": "OWNSHIP",
        "time": "1900-12-12T06:42:08+00:00",
        "bearing": 264.4,
        "sensor_name": "ARRAY",
        "label": "Label"
      }
    },
    {
      "type": "Feature",
      "id": "07483a10-a65a-432c-b8ac-cb265843e4d7",
      "geometry": null,
      "properties": {
        "kind": "SENSOR_CONTACT",
        "parent_track": "OWNSHIP",
        "time": "1900-12-12T06:42:26+00:00",
        "bearing": 268.7,
        "sensor_name": "ARRAY",
        "label": "Label"
      }
    },
    {
      "type": "Feature",
      "id": "46151c14-8d9d-4d22-a28b-b25c140f76fa",
      "geometry": null,
      "properties": {
        "kind": "SENSOR_CONTACT",
        "parent_track": "OWNSHIP",
        "time": "1900-12-12T06:42:42+00:00",
        "bearing": 272.1,
        "sensor_name": "ARRAY",
        "label": "Label"
      }
    },
    {
      "type": "Feature",
      "id": "cf8cfd74-4aec-4091-a906-9a4b49d60fa6",
      "geometry": null,
      "properties": {
        "kind": "SENSOR_CONTACT",
        "parent_track": "OWNSHIP",
        "time": "1900-12-12T06:42:56+00:00",
        "bearing": 275.8,
        "sensor_name": "ARRAY",
        "label": "Label"
      }
    },
    {
      "type": "Feature",
      "id": "20706d5a-d33d-4fb1-9e95-1dcbf865130b",
      "geometry": null,
      "properties": {
        "kind": "SENSOR_CONTACT",
        "parent_track": "OWNSHIP",
        "time": "1900-12-12T06:43:10+00:00",
        "bearing": 279.4,
        "sensor_name": "ARRAY",
        "label": "Label"
      }
    },
    {
      "type": "Feature",
      "id": "f3e352de-5498-4729-8baf-4f957a73ad0e",
      "geometry": null,
      "properties": {
        "kind": "SENSOR_CONTACT",
        "parent_track": "OWNSHIP",
        "time": "1900-12-12T06:43:32+00:00",
        "bearing": 283.1,
        "sensor_name": "ARRAY",
        "label": "Label"
      }
    },
    {
      "type": "Feature",
      "id": "c9a2db97-2acc-4aab-be78-afc2d065f4ee",
      "geometry": null,
      "properties": {
        "kind": "SENSOR_CONTACT",
        "parent_track": "OWNSHIP",
        "time": "1900-12-12T06:43:50+00:00",
        "bearing": 287.4,
        "sensor_name": "ARRAY",
        "label": "Label"
      }
    },
    {
      "type": "Feature",
      "id": "16a9759c-7b19-48ae-95bb-1b19177ce1d6",
      "geometry": null,
      "properties": {
        "kind": "SENSOR_CONTACT",
        "parent_track": "OWNSHIP",
        "time": "1900-12-12T06:44:10+00:00",
        "bearing": 291.1,
        "sensor_name": "ARRAY",
        "label": "Label"
      }
    },
    {
      "type": "Feature",
      "id": "3c002769-6c3c-437a-a353-9e5a6b273806",
      "geometry": null,
      "properties": {
        "kind": "SENSOR_CONTACT",
        "parent_track": "OWNSHIP",
        "time": "1900-12-12T06:44:36+00:00",
        "bearing": 294.4,
        "sensor_name": "ARRAY",
        "label": "Label"
      }
    },
    {
      "type": "Feature",
      "id": "1a6d6ce7-11f3-4e3c-b715-d709e07af604",
      "geometry": null,
      "properties": {
        "kind": "SENSOR_CONTACT",
        "parent_track": "OWNSHIP",
        "time": "1900-12-12T06:45:02+00:00",
        "bearing": 299.4,
        "sensor_name": "ARRAY",
        "label": "Label"
      }
    },
    {
      "type": "Feature",
      "id": "88b33f16-a7f8-49c3-93ab-081c7ab8a530",
      "geometry": null,
      "properties": {
        "kind": "SENSOR_CONTACT",
        "parent_track": "OWNSHIP",
        "time": "1900-12-12T06:45:28+00:00",
        "bearing": 303.4,
        "sensor_name": "ARRAY",
        "label": "Label"
      }
    },
    {
      "type": "Feature",
      "id": "e27c7cd9-3415-4778-99b2-b66c8dd37c3c",
      "geometry": null,
      "properties": {
        "kind": "SENSOR_CONTACT",
        "parent_track": "OWNSHIP",
        "time": "1900-12-12T06:45:54+00:00",
        "bearing": 307.1,
        "sensor_name": "ARRAY",
        "label": "Label"
      }
    },
    {
      "type": "Feature",
      "id": "5b8b77b2-3011-4969-a57b-7c98cce93c2e",
      "geometry": null,
      "properties": {
        "kind": "SENSOR_CONTACT",
        "parent_track": "OWNSHIP",
        "time": "1900-12-12T06:46:30+00:00",
        "bearing": 309.8,
        "sensor_name": "ARRAY",
        "label": "Label"
      }
    },
    {
      "type": "Feature",
      "id": "82351fb0-2b2e-4b07-acda-dad85f107a8b",
      "geometry": null,
      "properties": {
        "kind": "SENSOR_CONTACT",
        "parent_track": "OWNSHIP",
        "time": "1900-12-12T06:47:02+00:00",
        "bearing": 312.8,
        "sensor_name": "ARRAY",
        "label": "Label"
      }
    },
    {
      "type": "Feature",
      "id": "f66647d4-1f93-4ce8-9dab-4bbbb39853bd",
      "geometry": null,
      "properties": {
        "kind": "SENSOR_CONTACT",
        "parent_track": "OWNSHIP",
        "time": "1900-12-12T06:47:30+00:00",
        "bearing": 314.5,
        "sensor_name": "ARRAY",
        "label": "Label"
      }
    },
    {
      "type": "Feature",
      "id": "abb0968d-b46c-4232-89cb-3632a100e801",
      "geometry": null,
      "properties": {
        "kind": "SENSOR_CONTACT",
        "parent_track": "OWNSHIP",
        "time": "1900-12-12T06:48:02+00:00",
        "bearing": 316.1,
        "sensor_name": "ARRAY",
        "label": "Label"
      }
    },
    {
      "type": "Feature",
      "id": "3a86f084-63a7-4d9a-8ee3-5f2e0b98478d",
      "geometry": null,
      "properties": {
        "kind": "SENSOR_CONTACT",
        "parent_track": "OWNSHIP",
        "time": "1900-12-12T06:48:30+00:00",
        "bearing": 317.8,
        "sensor_name": "ARRAY",
        "label": "Label"
      }
    },
    {
      "type": "Feature",
      "id": "743e4539-37e1-47ba-9202-b8fb1ab49b02",
      "geometry": null,
      "properties": {
        "kind": "SENSOR_CONTACT",
        "parent_track": "OWNSHIP",
        "time": "1900-12-12T06:49:02+00:00",
        "bearing": 319.8,
        "sensor_name": "ARRAY",
        "label": "Label"
      }
    },
    {
      "type": "Feature",
      "id": "7f224298-0142-4572-8063-096a039cd5db",
      "geometry": null,
      "properties": {
        "kind": "SENSOR_CONTACT",
        "parent_track": "OWNSHIP",
        "time": "1900-12-12T06:49:36+00:00",
        "bearing": 321.1,
        "sensor_name": "ARRAY",
        "label": "Label"
      }
    },
    {
      "type": "Feature",
      "id": "f873b93b-8980-4106-b542-e9672c0baaf2",
      "geometry": null,
      "properties": {
        "kind": "SENSOR_CONTACT",
        "parent_track": "OWNSHIP",
        "time": "1900-12-12T06:50:10+00:00",
        "bearing": 322.1,
        "sensor_name": "ARRAY",
        "label": "Label"
      }
    },
    {
      "type": "Feature",
      "id": "11e50c98-0c89-4a8f-865c-fcc2ad6e2da0",
      "geometry": null,
      "properties": {
        "kind": "SENSOR_CONTACT",
        "parent_track": "OWNSHIP",
        "time": "1900-12-12T06:50:46+00:00",
        "bearing": 323.1,
        "sensor_name": "ARRAY",
        "label": "Label"
      }
    },
    {
      "type": "Feature",
      "id": "2c14f51c-d1c6-40ba-8fff-4c13817cd71b",
      "geometry": null,
      "properties": {
        "kind": "SENSOR_CONTACT",
        "parent_track": "OWNSHIP",
        "time": "1900-12-12T06:51:22+00:00",
        "bearing": 323.5,
        "sensor_name": "ARRAY",
        "label": "Label"
      }
    },
    {
      "type": "Feature",
      "id": "4ccab416-f2ab-4268-b22b-55853b5e9990",
      "geometry": null,
      "properties": {
        "kind": "SENSOR_CONTACT",
        "parent_track": "OWNSHIP",
        "time": "1900-12-12T06:52:08+00:00",
        "bearing": 323.8,
        "sensor_name": "ARRAY",
        "label": "Label"
      }
    },
    {
      "type": "Feature",
      "id": "6c60f195-4502-4475-8614-87165b968660",
      "geometry": null,
      "properties": {
        "kind": "SENSOR_CONTACT",
        "parent_track": "OWNSHIP",
        "time": "1900-12-12T06:52:38+00:00",
        "bearing": 324.5,
        "sensor_name": "ARRAY",
        "label": "Label"
      }
    },
    {
      "type": "Feature",
      "id": "a78ac0a3-514c-44fb-bac4-cd2ac0d9a73b",
      "geometry": null,
      "properties": {
        "kind": "SENSOR_CONTACT",
        "parent_track": "OWNSHIP",
        "time": "1900-12-12T06:53:14+00:00",
        "bearing": 325.1,
        "sensor_name": "ARRAY",
        "label": "Label"
      }
    },
    {
      "type": "Feature",
      "id": "7c74da1a-143f-44bc-bf95-7ac9a0f5cf07",
      "geometry": null,
      "properties": {
        "kind": "SENSOR_CONTACT",
        "parent_track": "OWNSHIP",
        "time": "1900-12-12T06:53:46+00:00",
        "bearing": 325.8,
        "sensor_name": "ARRAY",
        "label": "Label"
      }
    },
    {
      "type": "Feature",
      "id": "30f344eb-d556-4300-a924-1f33dc1d8753",
      "geometry": null,
      "properties": {
        "kind": "SENSOR_CONTACT",
        "parent_track": "OWNSHIP",
        "time": "1900-12-12T06:54:22+00:00",
        "bearing": 326.5,
        "sensor_name": "ARRAY",
        "label": "Label"
      }
    },
    {
      "type": "Feature",
      "id": "8188e0ca-d0f2-4f1a-8b59-39550503bcbf",
      "geometry": null,
      "properties": {
        "kind": "SENSOR_CONTACT",
        "parent_track": "OWNSHIP",
        "time": "1900-12-12T06:55:00+00:00",
        "bearing": 327.1,
        "sensor_name": "ARRAY",
        "label": "Label"
      }
    },
    {
      "type": "Feature",
      "id": "3c3ad317-0ff7-485c-90aa-bc40010acaee",
      "geometry": null,
      "properties": {
        "kind": "SENSOR_CONTACT",
        "parent_track": "OWNSHIP",
        "time": "1900-12-12T06:55:38+00:00",
        "bearing": 327.8,
        "sensor_name": "ARRAY",
        "label": "Label"
      }
    },
    {
      "type": "Feature",
      "id": "3031f6ed-cf3d-414f-a2c7-61c740e63d5e",
      "geometry": null,
      "properties": {
        "kind": "SENSOR_CONTACT",
        "parent_track": "OWNSHIP",
        "time": "1900-12-12T06:56:14+00:00",
        "bearing": 328.1,
        "sensor_name": "ARRAY",
        "label": "Label"
      }
    },
    {
      "type": "Feature",
      "id": "ccabda06-b040-40d5-b46f-0be6e81fb97f",
      "geometry": null,
      "properties": {
        "kind": "SENSOR_CONTACT",
        "parent_track": "OWNSHIP",
        "time": "1900-12-12T06:56:50+00:00",
        "bearing": 328.8,
        "sensor_name": "ARRAY",
        "label": "Label"
      }
    },
    {
      "type": "Feature",
      "id": "d5aa36a5-2f45-452c-9241-6810588d93a8",
      "geometry": null,
      "properties": {
        "kind": "SENSOR_CONTACT",
        "parent_track": "OWNSHIP",
        "time": "1900-12-12T06:57:24+00:00",
        "bearing": 329.1,
        "sensor_name": "ARRAY",
        "label": "Label"
      }
    },
    {
      "type": "Feature",
      "id": "ed948132-8adf-44b1-b6ee-ddef62e612c2",
      "geometry": null,
      "properties": {
        "kind": "SENSOR_CONTACT",
        "parent_track": "OWNSHIP",
        "time": "1900-12-12T06:58:10+00:00",
        "bearing": 330.1,
        "sensor_name": "ARRAY",
        "label": "Label"
      }
    },
    {
      "type": "Feature",
      "id": "3eb2707a-c270-4e6d-be36-0f965b6e2dba",
      "geometry": null,
      "properties": {
        "kind": "SENSOR_CONTACT",
        "parent_track": "OWNSHIP",
        "time": "1900-12-12T06:58:52+00:00",
        "bearing": 331.5,
        "sensor_name": "ARRAY",
        "label": "Label"
      }
    },
    {
      "type": "Feature",
      "id": "57caa4de-4611-45d8-b5ce-b85c39b9c9b4",
      "geometry": null,
      "properties": {
        "kind": "SENSOR_CONTACT",
        "parent_track": "OWNSHIP",
        "time": "1900-12-12T06:59:36+00:00",
        "bearing": 332.1,
        "sensor_name": "ARRAY",
        "label": "Label"
      }
    },
    {
      "type": "Feature",
      "id": "31d6dc9f-a832-4be6-8e7f-50b6b885f6fe",
      "geometry": null,
      "properties": {
        "kind": "SENSOR_CONTACT",
        "parent_track": "OWNSHIP",
        "time": "1900-12-12T07:00:14+00:00",
        "bearing": 332.8,
        "sensor_name": "ARRAY",
        "label": "Label"
      }
    },
    {
      "type": "Feature",
      "id": "f6690f94-b60d-4872-ba4b-14c25eaf93c0",
      "geometry": null,
      "properties": {
        "kind": "SENSOR_CONTACT",
        "parent_track": "OWNSHIP",
        "time": "1900-12-12T07:00:52+00:00",
        "bearing": 334.5,
        "sensor_name": "ARRAY",
        "label": "Label"
      }
    },
    {
      "type": "Feature",
      "id": "85703af4-2b88-4f13-a283-1a5a4fdf6a66",
      "geometry": null,
      "properties": {
        "kind": "SENSOR_CONTACT",
        "parent_track": "OWNSHIP",
        "time": "1900-12-12T07:01:30+00:00",
        "bearing": 335.1,
        "sensor_name": "ARRAY",
        "label": "Label"
      }
    },
    {
      "type": "Feature",
      "id": "ee6a681f-07c6-4507-a9b8-a5ac5f6db356",
      "geometry": null,
      "properties": {
        "kind": "SENSOR_CONTACT",
        "parent_track": "OWNSHIP",
        "time": "1900-12-12T07:02:02+00:00",
        "bearing": 336.1,
        "sensor_name": "ARRAY",
        "label": "Label"
      }
    },
    {
      "type": "Feature",
      "id": "13300927-2d96-4beb-84c3-3eac7856a9d1",
      "geometry": null,
      "properties": {
        "kind": "SENSOR_CONTACT",
        "parent_track": "OWNSHIP",
        "time": "1900-12-12T07:02:24+00:00",
        "bearing": 336.1,
        "sensor_name": "ARRAY",
        "label": "Label"
      }
    },
    {
      "type": "Feature",
      "id": "62ae47d9-c9df-420d-9ac6-0ce8d29c38bb",
      "geometry": null,
      "properties": {
        "kind": "SENSOR_CONTACT",
        "parent_track": "OWNSHIP",
        "time": "1900-12-12T07:02:54+00:00",
        "bearing": 333.8,
        "sensor_name": "ARRAY",
        "label": "Label"
      }
    },
    {
      "type": "Feature",
      "id": "34e00282-26ff-4ef4-939c-66b282ba95e9",
      "geometry": null,
      "properties": {
        "kind": "SENSOR_CONTACT",
        "parent_track": "OWNSHIP",
        "time": "1900-12-12T07:03:24+00:00",
        "bearing": 331.5,
        "sensor_name": "ARRAY",
        "label": "Label"
      }
    },
    {
      "type": "Feature",
      "id": "a82d4387-6289-4b51-81b1-5a9b02c2f8f0",
      "geometry": null,
      "properties": {
        "kind": "SENSOR_CONTACT",
        "parent_track": "OWNSHIP",
        "time": "1900-12-12T07:03:52+00:00",
        "bearing": 330.5,
        "sensor_name": "ARRAY",
        "label": "Label"
      }
    },
    {
      "type": "Feature",
      "id": "f4eb7b25-9c45-4757-a80c-6bfd4664c09b",
      "geometry": null,
      "properties": {
        "kind": "SENSOR_CONTACT",
        "parent_track": "OWNSHIP",
        "time": "1900-12-12T07:04:18+00:00",
        "bearing": 328.5,
        "sensor_name": "ARRAY",
        "label": "Label"
      }
    },
    {
      "type": "Feature",
      "id": "9c9747dd-36dd-4b28-9e42-14c421f38f07",
      "geometry": null,
      "properties": {
        "kind": "SENSOR_CONTACT",
        "parent_track": "OWNSHIP",
        "time": "1900-12-12T07:04:40+00:00",
        "bearing": 327.5,
        "sensor_name": "ARRAY",
        "label": "Label"
      }
    },
    {
      "type": "Feature",
      "id": "aeee2bc4-a210-4f02-afa4-e4b8d848fe4d",
      "geometry": null,
      "properties": {
        "kind": "SENSOR_CONTACT",
        "parent_track": "OWNSHIP",
        "time": "1900-12-12T07:05:08+00:00",
        "bearing": 328.5,
        "sensor_name": "ARRAY",
        "label": "Label"
      }
    },
    {
      "type": "Feature",
      "id": "96d483f5-4c67-4cb4-bfd9-1ceb384396dc",
      "geometry": null,
      "properties": {
        "kind": "SENSOR_CONTACT",
        "parent_track": "OWNSHIP",
        "time": "1900-12-12T07:05:42+00:00",
        "bearing": 328.5,
        "sensor_name": "ARRAY",
        "label": "Label"
      }
    },
    {
      "type": "Feature",
      "id": "c56b9261-9231-4382-bdef-b303219f6593",
      "geometry": null,
      "properties": {
        "kind": "SENSOR_CONTACT",
        "parent_track": "OWNSHIP",
        "time": "1900-12-12T07:06:10+00:00",
        "bearing": 328.8,
        "sensor_name": "ARRAY",
        "label": "Label"
      }
    },
    {
      "type": "Feature",
      "id": "8c7f4a86-46aa-44e8-a2d7-57326696c2a0",
      "geometry": null,
      "properties": {
        "kind": "SENSOR_CONTACT",
        "parent_track": "OWNSHIP",
        "time": "1900-12-12T07:06:36+00:00",
        "bearing": 328.8,
        "sensor_name": "ARRAY",
        "label": "Label"
      }
    },
    {
      "type": "Feature",
      "id": "7abddd0e-4670-441c-9cdc-8cb1ee1e8757",
      "geometry": null,
      "properties": {
        "kind": "SENSOR_CONTACT",
        "parent_track": "OWNSHIP",
        "time": "1900-12-12T07:07:08+00:00",
        "bearing": 329.1,
        "sensor_name": "ARRAY",
        "label": "Label"
      }
    },
    {
      "type": "Feature",
      "id": "4391b96d-cd75-46c6-84b1-1f2cda9b26e1",
      "geometry": null,
      "properties": {
        "kind": "SENSOR_CONTACT",
        "parent_track": "OWNSHIP",
        "time": "1900-12-12T07:07:42+00:00",
        "bearing": 329.5,
        "sensor_name": "ARRAY",
        "label": "Label"
      }
    },
    {
      "type": "Feature",
      "id": "9006f79b-6eb8-435b-b3e1-0b5aef9c1bae",
      "geometry": null,
      "properties": {
        "kind": "SENSOR_CONTACT",
        "parent_track": "OWNSHIP",
        "time": "1900-12-12T07:08:12+00:00",
        "bearing": 330.1,
        "sensor_name": "ARRAY",
        "label": "Label"
      }
    },
    {
      "type": "Feature",
      "id": "7525baf0-a616-4a70-bfbd-a57e2c101015",
      "geometry": null,
      "properties": {
        "kind": "SENSOR_CONTACT",
        "parent_track": "OWNSHIP",
        "time": "1900-12-12T07:08:46+00:00",
        "bearing": 331.1,
        "sensor_name": "ARRAY",
        "label": "Label"
      }
    },
    {
      "type": "Feature",
      "id": "1ec0f1ae-94a8-4e92-a9f8-86d78bb77368",
      "geometry": null,
      "properties": {
        "kind": "SENSOR_CONTACT",
        "parent_track": "OWNSHIP",
        "time": "1900-12-12T07:09:24+00:00",
        "bearing": 331.8,
        "sensor_name": "ARRAY",
        "label": "Label"
      }
    },
    {
      "type": "Feature",
      "id": "a3d7e8eb-8cf9-4574-8e09-44471e9bc60b",
      "geometry": null,
      "properties": {
        "kind": "SENSOR_CONTACT",
        "parent_track": "OWNSHIP",
        "time": "1900-12-12T07:09:58+00:00",
        "bearing": 332.5,
        "sensor_name": "ARRAY",
        "label": "Label"
      }
    },
    {
      "type": "Feature",
      "id": "bd39126b-ad99-495b-b267-8a2f6587b826",
      "geometry": null,
      "properties": {
        "kind": "SENSOR_CONTACT",
        "parent_track": "OWNSHIP",
        "time": "1900-12-12T07:10:30+00:00",
        "bearing": 332.1,
        "sensor_name": "ARRAY",
        "label": "Label"
      }
    },
    {
      "type": "Feature",
      "id": "e62415c5-e64e-49bc-a70c-223b5b547f28",
      "geometry": null,
      "properties": {
        "kind": "SENSOR_CONTACT",
        "parent_track": "OWNSHIP",
        "time": "1900-12-12T07:11:00+00:00",
        "bearing": 333.5,
        "sensor_name": "ARRAY",
        "label": "Label"
      }
    },
    {
      "type": "Feature",
      "id": "1f638602-a080-4bd3-8f45-15f39752152b",
      "geometry": null,
      "properties": {
        "kind": "SENSOR_CONTACT",
        "parent_track": "OWNSHIP",
        "time": "1900-12-12T07:11:40+00:00",
        "bearing": 334.5,
        "sensor_name": "ARRAY",
        "label": "Label"
      }
    },
    {
      "type": "Feature",
      "id": "4c0ce387-7137-46cf-bf49-718e99eaba9f",
      "geometry": null,
      "properties": {
        "kind": "SENSOR_CONTACT",
        "parent_track": "OWNSHIP",
        "time": "1900-12-12T07:12:12+00:00",
        "bearing": 335.1,
        "sensor_name": "ARRAY",
        "label": "Label"
      }
    },
    {
      "type": "Feature",
      "id": "6c009424-d67d-4bab-89fe-6c11fc71e447",
      "geometry": null,
      "properties": {
        "kind": "SENSOR_CONTACT",
        "parent_track": "OWNSHIP",
        "time": "1900-12-12T07:12:48+00:00",
        "bearing": 335.8,
        "sensor_name": "ARRAY",
        "label": "Label"
      }
    },
    {
      "type": "Feature",
      "id": "b0d4167e-ca46-41b9-85af-a728fe416edf",
      "geometry": null,
      "properties": {
        "kind": "SENSOR_CONTACT",
        "parent_track": "OWNSHIP",
        "time": "1900-12-12T07:13:20+00:00",
        "bearing": 336.5,
        "sensor_name": "ARRAY",
        "label": "Label"
      }
    },
    {
      "type": "Feature",
      "id": "eba66df9-26c9-4efb-bb0d-a30edf829641",
      "geometry": null,
      "properties": {
        "kind": "SENSOR_CONTACT",
        "parent_track": "OWNSHIP",
        "time": "1900-12-12T07:13:56+00:00",
        "bearing": 337.1,
        "sensor_name": "ARRAY",
        "label": "Label"
      }
    },
    {
      "type": "Feature",
      "id": "901378ad-bf83-48ca-baf8-4b7e2751b30c",
      "geometry": null,
      "properties": {
        "kind": "SENSOR_CONTACT",
        "parent_track": "OWNSHIP",
        "time": "1900-12-12T07:14:32+00:00",
        "bearing": 338.1,
        "sensor_name": "ARRAY",
        "label": "Label"
      }
    },
    {
      "type": "Feature",
      "id": "6da7be1c-5993-403f-9831-798232225bf4",
      "geometry": null,
      "properties": {
        "kind": "SENSOR_CONTACT",
        "parent_track": "OWNSHIP",
        "time": "1900-12-12T07:15:04+00:00",
        "bearing": 339.1,
        "sensor_name": "ARRAY",
        "label": "Label"
      }
    },
    {
      "type": "Feature",
      "id": "d77a235c-0569-49da-adc7-e90f184c761a",
      "geometry": null,
      "properties": {
        "kind": "SENSOR_CONTACT",
        "parent_track": "OWNSHIP",
        "time": "1900-12-12T07:15:38+00:00",
        "bearing": 340.1,
        "sensor_name": "ARRAY",
        "label": "Label"
      }
    },
    {
      "type": "Feature",
      "id": "49aba1fe-4996-49af-9011-70434f6d4680",
      "geometry": null,
      "properties": {
        "kind": "SENSOR_CONTACT",
        "parent_track": "OWNSHIP",
        "time": "1900-12-12T07:16:04+00:00",
        "bearing": 340.5,
        "sensor_name": "ARRAY",
        "label": "Label"
      }
    },
    {
      "type": "Feature",
      "id": "4300b4f9-3c4e-41ad-b229-9d1525d435af",
      "geometry": null,
      "properties": {
        "kind": "SENSOR_CONTACT",
        "parent_track": "OWNSHIP",
        "time": "1900-12-12T07:16:34+00:00",
        "bearing": 341.1,
        "sensor_name": "ARRAY",
        "label": "Label"
      }
    },
    {
      "type": "Feature",
      "id": "62ba5b73-8d4c-4767-9803-db99f789d6b3",
      "geometry": null,
      "properties": {
        "kind": "SENSOR_CONTACT",
        "parent_track": "OWNSHIP",
        "time": "1900-12-12T07:16:56+00:00",
        "bearing": 341.8,
        "sensor_name": "ARRAY",
        "label": "Label"
      }
    },
    {
      "type": "Feature",
      "id": "f0a7bf94-dea5-4574-a2cc-5c4d333561aa",
      "geometry": null,
      "properties": {
        "kind": "SENSOR_CONTACT",
        "parent_track": "OWNSHIP",
        "time": "1900-12-12T07:17:22+00:00",
        "bearing": 342.5,
        "sensor_name": "ARRAY",
        "label": "Label"
      }
    },
    {
      "type": "Feature",
      "id": "68819345-c9d4-429d-bba6-49bde7ff9fcd",
      "geometry": null,
      "properties": {
        "kind": "SENSOR_CONTACT",
        "parent_track": "OWNSHIP",
        "time": "1900-12-12T07:17:52+00:00",
        "bearing": 343.2,
        "sensor_name": "ARRAY",
        "label": "Label"
      }
    },
    {
      "type": "Feature",
      "id": "f058bade-d352-4373-8191-96af8bc222f0",
      "geometry": null,
      "properties": {
        "kind": "SENSOR_CONTACT",
        "parent_track": "OWNSHIP",
        "time": "1900-12-12T07:18:24+00:00",
        "bearing": 344.5,
        "sensor_name": "ARRAY",
        "label": "Label"
      }
    },
    {
      "type": "Feature",
      "id": "ccc5fca1-23b9-43a8-8d02-4ba2d55599fb",
      "geometry": null,
      "properties": {
        "kind": "SENSOR_CONTACT",
        "parent_track": "OWNSHIP",
        "time": "1900-12-12T07:18:52+00:00",
        "bearing": 344.8,
        "sensor_name": "ARRAY",
        "label": "Label"
      }
    },
    {
      "type": "Feature",
      "id": "87d16b98-7388-4bf7-9d85-0a3be3d50007",
      "geometry": null,
      "properties": {
        "kind": "SENSOR_CONTACT",
        "parent_track": "OWNSHIP",
        "time": "1900-12-12T07:19:24+00:00",
        "bearing": 345.5,
        "sensor_name": "ARRAY",
        "label": "Label"
      }
    },
    {
      "type": "Feature",
      "id": "e047f9b6-db1c-4088-b7f7-428b33420c6f",
      "geometry": null,
      "properties": {
        "kind": "SENSOR_CONTACT",
        "parent_track": "OWNSHIP",
        "time": "1900-12-12T07:19:54+00:00",
        "bearing": 346.2,
        "sensor_name": "ARRAY",
        "label": "Label"
      }
    },
    {
      "type": "Feature",
      "id": "6dedff44-d95a-47db-bced-14f7771a8b9d",
      "geometry": null,
      "properties": {
        "kind": "SENSOR_CONTACT",
        "parent_track": "OWNSHIP",
        "time": "1900-12-12T07:20:28+00:00",
        "bearing": 346.8,
        "sensor_name": "ARRAY",
        "label": "Label"
      }
    },
    {
      "type": "Feature",
      "id": "401a854f-9aac-4313-996e-789e958faa12",
      "geometry": null,
      "properties": {
        "kind": "SENSOR_CONTACT",
        "parent_track": "OWNSHIP",
        "time": "1900-12-12T07:21:06+00:00",
        "bearing": 347.8,
        "sensor_name": "ARRAY",
        "label": "Label"
      }
    },
    {
      "type": "Feature",
      "id": "895076b7-720f-43e1-9bc6-cbf433002391",
      "geometry": null,
      "properties": {
        "kind": "SENSOR_CONTACT",
        "parent_track": "OWNSHIP",
        "time": "1900-12-12T07:21:38+00:00",
        "bearing": 348.5,
        "sensor_name": "ARRAY",
        "label": "Label"
      }
    },
    {
      "type": "Feature",
      "id": "f843ad41-47c0-468a-80f1-518fa89315c3",
      "geometry": null,
      "properties": {
        "kind": "SENSOR_CONTACT",
        "parent_track": "OWNSHIP",
        "time": "1900-12-12T07:22:16+00:00",
        "bearing": 349.8,
        "sensor_name": "ARRAY",
        "label": "Label"
      }
    },
    {
      "type": "Feature",
      "id": "58ca0865-bf0b-4b13-bacd-3137e2e73916",
      "geometry": null,
      "properties": {
        "kind": "SENSOR_CONTACT",
        "parent_track": "OWNSHIP",
        "time": "1900-12-12T07:22:48+00:00",
        "bearing": 350.2,
        "sensor_name": "ARRAY",
        "label": "Label"
      }
    },
    {
      "type": "Feature",
      "id": "89e1c061-8f45-499a-9e56-3c5d09c54f18",
      "geometry": null,
      "properties": {
        "kind": "SENSOR_CONTACT",
        "parent_track": "OWNSHIP",
        "time": "1900-12-12T07:23:24+00:00",
        "bearing": 351.5,
        "sensor_name": "ARRAY",
        "label": "Label"
      }
    },
    {
      "type": "Feature",
      "id": "a4a38c02-5a23-4293-9b9e-0cc83d1dabde",
      "geometry": null,
      "properties": {
        "kind": "SENSOR_CONTACT",
        "parent_track": "OWNSHIP",
        "time": "1900-12-12T07:23:58+00:00",
        "bearing": 352.5,
        "sensor_name": "ARRAY",
        "label": "Label"
      }
    },
    {
      "type": "Feature",
      "id": "a94e1747-9301-4185-a752-37e01b5ae108",
      "geometry": null,
      "properties": {
        "kind": "SENSOR_CONTACT",
        "parent_track": "OWNSHIP",
        "time": "1900-12-12T07:24:36+00:00",
        "bearing": 353.5,
        "sensor_name": "ARRAY",
        "label": "Label"
      }
    },
    {
      "type": "Feature",
      "id": "daeefc29-f58e-4677-8628-ec16a1a837cd",
      "geometry": null,
      "properties": {
        "kind": "SENSOR_CONTACT",
        "parent_track": "OWNSHIP",
        "time": "1900-12-12T07:25:08+00:00",
        "bearing": 354.5,
        "sensor_name": "ARRAY",
        "label": "Label"
      }
    },
    {
      "type": "Feature",
      "id": "b9cf0945-96e3-4032-b045-6a9e1b19378a",
      "geometry": null,
      "properties": {
        "kind": "SENSOR_CONTACT",
        "parent_track": "OWNSHIP",
        "time": "1900-12-12T07:25:40+00:00",
        "bearing": 355.2,
        "sensor_name": "ARRAY",
        "label": "Label"
      }
    },
    {
      "type": "Feature",
      "id": "5fbd511e-7b8b-4b59-875d-b58e4a30f9a8",
      "geometry": null,
      "properties": {
        "kind": "SENSOR_CONTACT",
        "parent_track": "OWNSHIP",
        "time": "1900-12-12T07:26:10+00:00",
        "bearing": 356.5,
        "sensor_name": "ARRAY",
        "label": "Label"
      }
    },
    {
      "type": "Feature",
      "id": "24000930-05a4-49b8-b5f9-1fd1a265de57",
      "geometry": null,
      "properties": {
        "kind": "SENSOR_CONTACT",
        "parent_track": "OWNSHIP",
        "time": "1900-12-12T07:26:44+00:00",
        "bearing": 356.8,
        "sensor_name": "ARRAY",
        "label": "Label"
      }
    },
    {
      "type": "Feature",
      "id": "fb959007-bfd7-4221-ac17-01e9efdf7a2a",
      "geometry": null,
      "properties": {
        "kind": "SENSOR_CONTACT",
        "parent_track": "OWNSHIP",
        "time": "1900-12-12T07:27:20+00:00",
        "bearing": 357.8,
        "sensor_name": "ARRAY",
        "label": "Label"
      }
    },
    {
      "type": "Feature",
      "id": "b41beac6-39b7-4d84-b7a5-5d23c8d72b8f",
      "geometry": null,
      "properties": {
        "kind": "SENSOR_CONTACT",
        "parent_track": "OWNSHIP",
        "time": "1900-12-12T07:27:50+00:00",
        "bearing": 358.5,
        "sensor_name": "ARRAY",
        "label": "Label"
      }
    },
    {
      "type": "Feature",
      "id": "d8625eeb-b7b9-46fd-b031-b45df4810020",
      "geometry": null,
      "properties": {
        "kind": "SENSOR_CONTACT",
        "parent_track": "OWNSHIP",
        "time": "1900-12-12T07:28:18+00:00",
        "bearing": 359.2,
        "sensor_name": "ARRAY",
        "label": "Label"
      }
    },
    {
      "type": "Feature",
      "id": "9162fc51-9dd5-471e-b5bf-f1ccfab297bf",
      "geometry": null,
      "properties": {
        "kind": "SENSOR_CONTACT",
        "parent_track": "OWNSHIP",
        "time": "1900-12-12T07:28:50+00:00",
        "bearing": 359.8,
        "sensor_name": "ARRAY",
        "label": "Label"
      }
    },
    {
      "type": "Feature",
      "id": "4e1eb248-899e-43e5-b46d-db37388e2a36",
      "geometry": null,
      "properties": {
        "kind": "SENSOR_CONTACT",
        "parent_track": "OWNSHIP",
        "time": "1900-12-12T07:29:16+00:00",
        "bearing": 1.2,
        "sensor_name": "ARRAY",
        "label": "Label"
      }
    },
    {
      "type": "Feature",
      "id": "465df66d-d923-4e54-a2dc-86625e87e161",
      "geometry": null,
      "properties": {
        "kind": "SENSOR_CONTACT",
        "parent_track": "OWNSHIP",
        "time": "1900-12-12T07:29:44+00:00",
        "bearing": 1.5,
        "sensor_name": "ARRAY",
        "label": "Label"
      }
    },
    {
      "type": "Feature",
      "id": "11fa9749-f842-4877-beb1-d9c7c5160e93",
      "geometry": null,
      "properties": {
        "kind": "SENSOR_CONTACT",
        "parent_track": "OWNSHIP",
        "time": "1900-12-12T07:30:08+00:00",
        "bearing": 2.2,
        "sensor_name": "ARRAY",
        "label": "Label"
      }
    },
    {
      "type": "Feature",
      "id": "4f2d167d-f98e-471f-8394-9483a925600f",
      "geometry": null,
      "properties": {
        "kind": "SENSOR_CONTACT",
        "parent_track": "OWNSHIP",
        "time": "1900-12-12T07:30:32+00:00",
        "bearing": 4.2,
        "sensor_name": "ARRAY",
        "label": "Label"
      }
    },
    {
      "type": "Feature",
      "id": "01b47333-9518-42f6-8bec-5398c4aaeabc",
      "geometry": null,
      "properties": {
        "kind": "SENSOR_CONTACT",
        "parent_track": "OWNSHIP",
        "time": "1900-12-12T07:30:58+00:00",
        "bearing": 4.8,
        "sensor_name": "ARRAY",
        "label": "Label"
      }
    },
    {
      "type": "Feature",
      "id": "68d722c9-ff34-4f0a-9bdb-0d0dec1a84d5",
      "geometry": null,
      "properties": {
        "kind": "SENSOR_CONTACT",
        "parent_track": "OWNSHIP",
        "time": "1900-12-12T07:31:30+00:00",
        "bearing": 5.8,
        "sensor_name": "ARRAY",
        "label": "Label"
      }
    },
    {
      "type": "Feature",
      "id": "cbbee37f-cfc4-4677-bc97-719c00586b08",
      "geometry": null,
      "properties": {
        "kind": "SENSOR_CONTACT",
        "parent_track": "OWNSHIP",
        "time": "1900-12-12T07:32:00+00:00",
        "bearing": 6.8,
        "sensor_name": "ARRAY",
        "label": "Label"
      }
    },
    {
      "type": "Feature",
      "id": "4e2f67e0-7d85-4520-a397-db0cb05e1549",
      "geometry": null,
      "properties": {
        "kind": "SENSOR_CONTACT",
        "parent_track": "OWNSHIP",
        "time": "1900-12-12T07:32:32+00:00",
        "bearing": 7.8,
        "sensor_name": "ARRAY",
        "label": "Label"
      }
    },
    {
      "type": "Feature",
      "id": "e501845e-6aff-45b0-8b78-c262a9dd0f0c",
      "geometry": null,
      "properties": {
        "kind": "SENSOR_CONTACT",
        "parent_track": "OWNSHIP",
        "time": "1900-12-12T07:33:12+00:00",
        "bearing": 8.8,
        "sensor_name": "ARRAY",
        "label": "Label"
      }
    },
    {
      "type": "Feature",
      "id": "266c14b8-6c2e-4578-bd6f-3d77b1392a67",
      "geometry": null,
      "properties": {
        "kind": "SENSOR_CONTACT",
        "parent_track": "OWNSHIP",
        "time": "1900-12-12T07:33:48+00:00",
        "bearing": 10.2,
        "sensor_name": "ARRAY",
        "label": "Label"
      }
    },
    {
      "type": "Feature",
      "id": "3c6e6e85-b0f3-43a0-941c-fcb66a769f11",
      "geometry": null,
      "properties": {
        "kind": "SENSOR_CONTACT",
        "parent_track": "OWNSHIP",
        "time": "1900-12-12T07:34:22+00:00",
        "bearing": 10.5,
        "sensor_name": "ARRAY",
        "label": "Label"
      }
    },
    {
      "type": "Feature",
      "id": "85ba6f57-90c2-4400-9918-8500d5eaecd9",
      "geometry": null,
      "properties": {
        "kind": "SENSOR_CONTACT",
        "parent_track": "OWNSHIP",
        "time": "1900-12-12T07:35:00+00:00",
        "bearing": 11.5,
        "sensor_name": "ARRAY",
        "label": "Label"
      }
    },
    {
      "type": "Feature",
      "id": "74cddc00-0a7e-4b1c-b7cc-5457b8f6d803",
      "geometry": null,
      "properties": {
        "kind": "SENSOR_CONTACT",
        "parent_track": "OWNSHIP",
        "time": "1900-12-12T07:35:36+00:00",
        "bearing": 12.5,
        "sensor_name": "ARRAY",
        "label": "Label"
      }
    },
    {
      "type": "Feature",
      "id": "8bbaf3ae-8977-436e-a0f8-c0147d268bb8",
      "geometry": null,
      "properties": {
        "kind": "SENSOR_CONTACT",
        "parent_track": "OWNSHIP",
        "time": "1900-12-12T07:36:06+00:00",
        "bearing": 13.2,
        "sensor_name": "ARRAY",
        "label": "Label"
      }
    },
    {
      "type": "Feature",
      "id": "d98e91f9-01ec-43a4-be78-7383cd8ffb2f",
      "geometry": null,
      "properties": {
        "kind": "SENSOR_CONTACT",
        "parent_track": "OWNSHIP",
        "time": "1900-12-12T07:36:36+00:00",
        "bearing": 14.5,
        "sensor_name": "ARRAY",
        "label": "Label"
      }
    },
    {
      "type": "Feature",
      "id": "e3ff15f5-c819-4d58-9f90-7e4ab2dea669",
      "geometry": null,
      "properties": {
        "kind": "SENSOR_CONTACT",
        "parent_track": "OWNSHIP",
        "time": "1900-12-12T07:37:06+00:00",
        "bearing": 14.8,
        "sensor_name": "ARRAY",
        "label": "Label"
      }
    },
    {
      "type": "Feature",
      "id": "5d6fded8-ef05-407c-ac8b-03b35ee9c66d",
      "geometry": null,
      "properties": {
        "kind": "SENSOR_CONTACT",
        "parent_track": "OWNSHIP",
        "time": "1900-12-12T07:37:40+00:00",
        "bearing": 16.5,
        "sensor_name": "ARRAY",
        "label": "Label"
      }
    },
    {
      "type": "Feature",
      "id": "74b78b52-3bc7-49c2-9620-c751d96c9608",
      "geometry": null,
      "properties": {
        "kind": "SENSOR_CONTACT",
        "parent_track": "OWNSHIP",
        "time": "1900-12-12T07:38:08+00:00",
        "bearing": 17.5,
        "sensor_name": "ARRAY",
        "label": "Label"
      }
    },
    {
      "type": "Feature",
      "id": "6d6ac0d9-b519-4ffe-a778-3e1b00e499ba",
      "geometry": null,
      "properties": {
        "kind": "SENSOR_CONTACT",
        "parent_track": "OWNSHIP",
        "time": "1900-12-12T07:38:44+00:00",
        "bearing": 18.5,
        "sensor_name": "ARRAY",
        "label": "Label"
      }
    },
    {
      "type": "Feature",
      "id": "cc49ffe9-a06a-4094-b640-5ec582f5b48e",
      "geometry": null,
      "properties": {
        "kind": "SENSOR_CONTACT",
        "parent_track": "OWNSHIP",
        "time": "1900-12-12T07:39:20+00:00",
        "bearing": 19.9,
        "sensor_name": "ARRAY",
        "label": "Label"
      }
    },
    {
      "type": "Feature",
      "id": "05e8c36c-1d6c-499a-a50d-60c8f14d0eef",
      "geometry": null,
      "properties": {
        "kind": "SENSOR_CONTACT",
        "parent_track": "OWNSHIP",
        "time": "1900-12-12T07:39:54+00:00",
        "bearing": 21.2,
        "sensor_name": "ARRAY",
        "label": "Label"
      }
    },
    {
      "type": "Feature",
      "id": "2ac80ed1-f483-4009-b27a-e695375a0bc7",
      "geometry": null,
      "properties": {
        "kind": "SENSOR_CONTACT",
        "parent_track": "OWNSHIP",
        "time": "1900-12-12T07:40:28+00:00",
        "bearing": 21.9,
        "sensor_name": "ARRAY",
        "label": "Label"
      }
    },
    {
      "type": "Feature",
      "id": "f36abde5-3988-46bc-8ee5-cfe0f9929c37",
      "geometry": null,
      "properties": {
        "kind": "SENSOR_CONTACT",
        "parent_track": "OWNSHIP",
        "time": "1900-12-12T07:41:04+00:00",
        "bearing": 22.9,
        "sensor_name": "ARRAY",
        "label": "Label"
      }
    },
    {
      "type": "Feature",
      "id": "af48eca7-6dac-4761-b997-a1648749fcc6",
      "geometry": null,
      "properties": {
        "kind": "SENSOR_CONTACT",
        "parent_track": "OWNSHIP",
        "time": "1900-12-12T07:41:36+00:00",
        "bearing": 23.2,
        "sensor_name": "ARRAY",
        "label": "Label"
      }
    },
    {
      "type": "Feature",
      "id": "e068eca6-adc5-4e13-a9c6-1bafee8da513",
      "geometry": null,
      "properties": {
        "kind": "SENSOR_CONTACT",
        "parent_track": "OWNSHIP",
        "time": "1900-12-12T07:42:06+00:00",
        "bearing": 24.5,
        "sensor_name": "ARRAY",
        "label": "Label"
      }
    },
    {
      "type": "Feature",
      "id": "f9075472-f3cf-40b3-8655-a5a24cc827a4",
      "geometry": null,
      "properties": {
        "kind": "SENSOR_CONTACT",
        "parent_track": "OWNSHIP",
        "time": "1900-12-12T07:42:44+00:00",
        "bearing": 25.5,
        "sensor_name": "ARRAY",
        "label": "Label"
      }
    },
    {
      "type": "Feature",
      "id": "bd0ca245-b700-4005-a0fc-a70125bfbe75",
      "geometry": null,
      "properties": {
        "kind": "SENSOR_CONTACT",
        "parent_track": "OWNSHIP",
        "time": "1900-12-12T07:43:22+00:00",
        "bearing": 26.5,
        "sensor_name": "ARRAY",
        "label": "Label"
      }
    },
    {
      "type": "Feature",
      "id": "fd7e1c81-2fdb-49c2-862d-3dac56cf53b1",
      "geometry": null,
      "properties": {
        "kind": "SENSOR_CONTACT",
        "parent_track": "OWNSHIP",
        "time": "1900-12-12T07:44:00+00:00",
        "bearing": 26.9,
        "sensor_name": "ARRAY",
        "label": "Label"
      }
    },
    {
      "type": "Feature",
      "id": "68617ac4-a2bc-4b73-9922-802c5e0bb543",
      "geometry": null,
      "properties": {
        "kind": "SENSOR_CONTACT",
        "parent_track": "OWNSHIP",
        "time": "1900-12-12T07:44:32+00:00",
        "bearing": 27.5,
        "sensor_name": "ARRAY",
        "label": "Label"
      }
    },
    {
      "type": "Feature",
      "id": "9c90e8e0-0aa2-41ae-b877-ece5a1949775",
      "geometry": null,
      "properties": {
        "kind": "SENSOR_CONTACT",
        "parent_track": "OWNSHIP",
        "time": "1900-12-12T07:45:08+00:00",
        "bearing": 28.2,
        "sensor_name": "ARRAY",
        "label": "Label"
      }
    },
    {
      "type": "Feature",
      "id": "ac27ae56-f2e1-48a7-a7be-17b22225eb7b",
      "geometry": null,
      "properties": {
        "kind": "SENSOR_CONTACT",
        "parent_track": "OWNSHIP",
        "time": "1900-12-12T07:45:44+00:00",
        "bearing": 28.5,
        "sensor_name": "ARRAY",
        "label": "Label"
      }
    },
    {
      "type": "Feature",
      "id": "130c9585-7f4f-4924-b58f-e4c1e98c06d1",
      "geometry": null,
      "properties": {
        "kind": "SENSOR_CONTACT",
        "parent_track": "OWNSHIP",
        "time": "1900-12-12T07:46:18+00:00",
        "bearing": 29.2,
        "sensor_name": "ARRAY",
        "label": "Label"
      }
    },
    {
      "type": "Feature",
      "id": "6524d6e7-752d-4a42-ad3a-b3421e841e34",
      "geometry": null,
      "properties": {
        "kind": "SENSOR_CONTACT",
        "parent_track": "OWNSHIP",
        "time": "1900-12-12T07:46:56+00:00",
        "bearing": 29.5,
        "sensor_name": "ARRAY",
        "label": "Label"
      }
    },
    {
      "type": "Feature",
      "id": "35e5e183-1e33-41a8-a190-beb766b8b341",
      "geometry": null,
      "properties": {
        "kind": "SENSOR_CONTACT",
        "parent_track": "OWNSHIP",
        "time": "1900-12-12T07:47:38+00:00",
        "bearing": 29.9,
        "sensor_name": "ARRAY",
        "label": "Label"
      }
    },
    {
      "type": "Feature",
      "id": "21acfc41-9911-459f-b893-fa173599c311",
      "geometry": null,
      "properties": {
        "kind": "SENSOR_CONTACT",
        "parent_track": "OWNSHIP",
        "time": "1900-12-12T07:48:12+00:00",
        "bearing": 30.2,
        "sensor_name": "ARRAY",
        "label": "Label"
      }
    },
    {
      "type": "Feature",
      "id": "5cad108e-53db-41e5-b054-bdd7b5983475",
      "geometry": null,
      "properties": {
        "kind": "SENSOR_CONTACT",
        "parent_track": "OWNSHIP",
        "time": "1900-12-12T07:48:52+00:00",
        "bearing": 30.9,
        "sensor_name": "ARRAY",
        "label": "Label"
      }
    },
    {
      "type": "Feature",
      "id": "84c8b4b6-0c80-4e21-b0ae-2f67c6bdb5b0",
      "geometry": null,
      "properties": {
        "kind": "SENSOR_CONTACT",
        "parent_track": "OWNSHIP",
        "time": "1900-12-12T07:49:32+00:00",
        "bearing": 31.5,
        "sensor_name": "ARRAY",
        "label": "Label"
      }
    },
    {
      "type": "Feature",
      "id": "8d9275bc-cd4e-4af1-b652-3f8f52790e73",
      "geometry": null,
      "properties": {
        "kind": "SENSOR_CONTACT",
        "parent_track": "OWNSHIP",
        "time": "1900-12-12T07:50:06+00:00",
        "bearing": 31.9,
        "sensor_name": "ARRAY",
        "label": "Label"
      }
    },
    {
      "type": "Feature",
      "id": "19f45b43-9b13-4aa9-a558-6f61c2c30992",
      "geometry": null,
      "properties": {
        "kind": "SENSOR_CONTACT",
        "parent_track": "OWNSHIP",
        "time": "1900-12-12T07:50:42+00:00",
        "bearing": 32.5,
        "sensor_name": "ARRAY",
        "label": "Label"
      }
    },
    {
      "type": "Feature",
      "id": "f1fd3374-ef4a-4066-8045-f634ad7049b6",
      "geometry": null,
      "properties": {
        "kind": "SENSOR_CONTACT",
        "parent_track": "OWNSHIP",
        "time": "1900-12-12T07:51:18+00:00",
        "bearing": 32.5,
        "sensor_name": "ARRAY",
        "label": "Label"
      }
    },
    {
      "type": "Feature",
      "id": "2c164682-2a0f-4174-b3b0-ef41de75b9b7",
      "geometry": null,
      "properties": {
        "kind": "SENSOR_CONTACT",
        "parent_track": "OWNSHIP",
        "time": "1900-12-12T07:51:56+00:00",
        "bearing": 32.9,
        "sensor_name": "ARRAY",
        "label": "Label"
      }
    },
    {
      "type": "Feature",
      "id": "178a3f2b-d128-4726-885f-a48584606f49",
      "geometry": null,
      "properties": {
        "kind": "SENSOR_CONTACT",
        "parent_track": "OWNSHIP",
        "time": "1900-12-12T07:52:38+00:00",
        "bearing": 32.9,
        "sensor_name": "ARRAY",
        "label": "Label"
      }
    },
    {
      "type": "Feature",
      "id": "6260588c-d407-4268-a955-2be5b1aa9913",
      "geometry": null,
      "properties": {
        "kind": "SENSOR_CONTACT",
        "parent_track": "OWNSHIP",
        "time": "1900-12-12T07:53:22+00:00",
        "bearing": 32.9,
        "sensor_name": "ARRAY",
        "label": "Label"
      }
    },
    {
      "type": "Feature",
      "id": "f9381943-52be-4e16-9196-5bef54ef882c",
      "geometry": null,
      "properties": {
        "kind": "SENSOR_CONTACT",
        "parent_track": "OWNSHIP",
        "time": "1900-12-12T07:53:50+00:00",
        "bearing": 32.9,
        "sensor_name": "ARRAY",
        "label": "Label"
      }
    },
    {
      "type": "Feature",
      "id": "6da48b19-28b5-4365-ae19-0a215d5b3cf3",
      "geometry": null,
      "properties": {
        "kind": "SENSOR_CONTACT",
        "parent_track": "OWNSHIP",
        "time": "1900-12-12T07:54:20+00:00",
        "bearing": 33.2,
        "sensor_name": "ARRAY",
        "label": "Label"
      }
    },
    {
      "type": "Feature",
      "id": "3be705ab-b782-41ca-b1b4-12a2c50199e9",
      "geometry": null,
      "properties": {
        "kind": "SENSOR_CONTACT",
        "parent_track": "OWNSHIP",
        "time": "1900-12-12T07:54:52+00:00",
        "bearing": 33.2,
        "sensor_name": "ARRAY",
        "label": "Label"
      }
    },
    {
      "type": "Feature",
      "id": "8a339dec-8fe8-4554-b7af-8cc9d350962b",
      "geometry": null,
      "properties": {
        "kind": "SENSOR_CONTACT",
        "parent_track": "OWNSHIP",
        "time": "1900-12-12T07:55:28+00:00",
        "bearing": 32.9,
        "sensor_name": "ARRAY",
        "label": "Label"
      }
    },
    {
      "type": "Feature",
      "id": "f1ad1818-c9f9-49cf-a87b-440409059682",
      "geometry": null,
      "properties": {
        "kind": "SENSOR_CONTACT",
        "parent_track": "OWNSHIP",
        "time": "1900-12-12T07:56:02+00:00",
        "bearing": 31.9,
        "sensor_name": "ARRAY",
        "label": "Label"
      }
    },
    {
      "type": "Feature",
      "id": "8cea4832-2618-495e-bbf4-746f89a55ca9",
      "geometry": null,
      "properties": {
        "kind": "SENSOR_CONTACT",
        "parent_track": "OWNSHIP",
        "time": "1900-12-12T07:56:26+00:00",
        "bearing": 30.2,
        "sensor_name": "ARRAY",
        "label": "Label"
      }
    },
    {
      "type": "Feature",
      "id": "359afd35-9e33-4fa7-b8bf-cad5fa8a411e",
      "geometry": null,
      "properties": {
        "kind": "SENSOR_CONTACT",
        "parent_track": "OWNSHIP",
        "time": "1900-12-12T07:56:48+00:00",
        "bearing": 27.5,
        "sensor_name": "ARRAY",
        "label": "Label"
      }
    },
    {
      "type": "Feature",
      "id": "814b2da5-12d5-4c52-879b-455b83b0c71f",
      "geometry": null,
      "properties": {
        "kind": "SENSOR_CONTACT",
        "parent_track": "OWNSHIP",
        "time": "1900-12-12T07:57:14+00:00",
        "bearing": 23.9,
        "sensor_name": "ARRAY",
        "label": "Label"
      }
    },
    {
      "type": "Feature",
      "id": "5ad0cbb0-1dc2-4390-8da3-de880f27d4d5",
      "geometry": null,
      "properties": {
        "kind": "SENSOR_CONTACT",
        "parent_track": "OWNSHIP",
        "time": "1900-12-12T07:57:36+00:00",
        "bearing": 20.2,
        "sensor_name": "ARRAY",
        "label": "Label"
      }
    },
    {
      "type": "Feature",
      "id": "fbc5855f-034c-4d19-bd0f-5fccccca0a29",
      "geometry": null,
      "properties": {
        "kind": "SENSOR_CONTACT",
        "parent_track": "OWNSHIP",
        "time": "1900-12-12T07:57:58+00:00",
        "bearing": 14.8,
        "sensor_name": "ARRAY",
        "label": "Label"
      }
    },
    {
      "type": "Feature",
      "id": "8cfae2b3-f937-4298-ae76-2a19b97b2c8b",
      "geometry": null,
      "properties": {
        "kind": "SENSOR_CONTACT",
        "parent_track": "OWNSHIP",
        "time": "1900-12-12T07:58:20+00:00",
        "bearing": 8.8,
        "sensor_name": "ARRAY",
        "label": "Label"
      }
    },
    {
      "type": "Feature",
      "id": "d4816cd3-c681-4657-8d0e-983bc11b7fea",
      "geometry": null,
      "properties": {
        "kind": "SENSOR_CONTACT",
        "parent_track": "OWNSHIP",
        "time": "1900-12-12T07:58:40+00:00",
        "bearing": 3.2,
        "sensor_name": "ARRAY",
        "label": "Label"
      }
    },
    {
      "type": "Feature",
      "id": "1f34f41f-0699-4c42-b426-58379e15783f",
      "geometry": null,
      "properties": {
        "kind": "SENSOR_CONTACT",
        "parent_track": "OWNSHIP",
        "time": "1900-12-12T07:59:00+00:00",
        "bearing": 356.2,
        "sensor_name": "ARRAY",
        "label": "Label"
      }
    },
    {
      "type": "Feature",
      "id": "628b2b37-0e94-4ff1-879c-a307b2c378ce",
      "geometry": null,
      "properties": {
        "kind": "SENSOR_CONTACT",
        "parent_track": "OWNSHIP",
        "time": "1900-12-12T07:59:20+00:00",
        "bearing": 350.5,
        "sensor_name": "ARRAY",
        "label": "Label"
      }
    },
    {
      "type": "Feature",
      "id": "f6d5f80a-4873-48f5-b835-c7facc257167",
      "geometry": null,
      "properties": {
        "kind": "SENSOR_CONTACT",
        "parent_track": "OWNSHIP",
        "time": "1900-12-12T07:59:30+00:00",
        "bearing": 345.2,
        "sensor_name": "ARRAY",
        "label": "Label"
      }
    },
    {
      "type": "Feature",
      "id": "2a837e0b-d401-43c1-a37c-1880e668a640",
      "geometry": null,
      "properties": {
        "kind": "SENSOR_CONTACT",
        "parent_track": "OWNSHIP",
        "time": "1900-12-12T07:59:42+00:00",
        "bearing": 340.5,
        "sensor_name": "ARRAY",
        "label": "Label"
      }
    },
    {
      "type": "Feature",
      "id": "c48ce7e1-6209-432b-b9d9-c92b970f23af",
      "geometry": null,
      "properties": {
        "kind": "SENSOR_CONTACT",
        "parent_track": "OWNSHIP",
        "time": "1900-12-12T07:59:58+00:00",
        "bearing": 335.1,
        "sensor_name": "ARRAY",
        "label": "Label"
      }
    },
    {
      "type": "Feature",
      "id": "3db94ca1-2849-42fd-9650-15f54afd2d9f",
      "geometry": null,
      "properties": {
        "kind": "SENSOR_CONTACT",
        "parent_track": "OWNSHIP",
        "time": "1900-12-12T08:00:18+00:00",
        "bearing": 328.8,
        "sensor_name": "ARRAY",
        "label": "Label"
      }
    },
    {
      "type": "Feature",
      "id": "e0321ebd-18ad-4482-b25f-4b1fffd5d48d",
      "geometry": null,
      "properties": {
        "kind": "SENSOR_CONTACT",
        "parent_track": "OWNSHIP",
        "time": "1900-12-12T08:00:34+00:00",
        "bearing": 323.8,
        "sensor_name": "ARRAY",
        "label": "Label"
      }
    },
    {
      "type": "Feature",
      "id": "3866450d-df87-4c3d-8d05-0dcbf4162b7c",
      "geometry": null,
      "properties": {
        "kind": "SENSOR_CONTACT",
        "parent_track": "OWNSHIP",
        "time": "1900-12-12T08:00:50+00:00",
        "bearing": 319.8,
        "sensor_name": "ARRAY",
        "label": "Label"
      }
    },
    {
      "type": "Feature",
      "id": "875fa689-9752-450b-b217-20f6b8e74624",
      "geometry": null,
      "properties": {
        "kind": "SENSOR_CONTACT",
        "parent_track": "OWNSHIP",
        "time": "1900-12-12T08:01:10+00:00",
        "bearing": 313.5,
        "sensor_name": "ARRAY",
        "label": "Label"
      }
    },
    {
      "type": "Feature",
      "id": "0477bb6d-d327-41ef-ade7-8da9532b7326",
      "geometry": null,
      "properties": {
        "kind": "SENSOR_CONTACT",
        "parent_track": "OWNSHIP",
        "time": "1900-12-12T08:01:30+00:00",
        "bearing": 308.5,
        "sensor_name": "ARRAY",
        "label": "Label"
      }
    },
    {
      "type": "Feature",
      "id": "32ea1dbf-9d8f-4dca-aebf-09cccbaab0c1",
      "geometry": null,
      "properties": {
        "kind": "SENSOR_CONTACT",
        "parent_track": "OWNSHIP",
        "time": "1900-12-12T08:01:50+00:00",
        "bearing": 304.4,
        "sensor_name": "ARRAY",
        "label": "Label"
      }
    },
    {
      "type": "Feature",
      "id": "66018762-d0fe-4f2d-a5bc-ec8e17266cef",
      "geometry": null,
      "properties": {
        "kind": "SENSOR_CONTACT",
        "parent_track": "OWNSHIP",
        "time": "1900-12-12T08:02:12+00:00",
        "bearing": 299.4,
        "sensor_name": "ARRAY",
        "label": "Label"
      }
    },
    {
      "type": "Feature",
      "id": "4a8395cf-885c-458e-8aa0-16a42723c1cb",
      "geometry": null,
      "properties": {
        "kind": "SENSOR_CONTACT",
        "parent_track": "OWNSHIP",
        "time": "1900-12-12T08:02:38+00:00",
        "bearing": 293.4,
        "sensor_name": "ARRAY",
        "label": "Label"
      }
    },
    {
      "type": "Feature",
      "id": "b10e8681-4bcd-4fc1-b892-2282a46c2f4e",
      "geometry": null,
      "properties": {
        "kind": "SENSOR_CONTACT",
        "parent_track": "OWNSHIP",
        "time": "1900-12-12T08:03:06+00:00",
        "bearing": 287.1,
        "sensor_name": "ARRAY",
        "label": "Label"
      }
    },
    {
      "type": "Feature",
      "id": "e580a103-f505-4925-9e43-4a71df5f2658",
      "geometry": null,
      "properties": {
        "kind": "SENSOR_CONTACT",
        "parent_track": "OWNSHIP",
        "time": "1900-12-12T08:03:28+00:00",
        "bearing": 282.1,
        "sensor_name": "ARRAY",
        "label": "Label"
      }
    },
    {
      "type": "Feature",
      "id": "4e642f09-f08a-40e5-b97f-e45907005c81",
      "geometry": null,
      "properties": {
        "kind": "SENSOR_CONTACT",
        "parent_track": "OWNSHIP",
        "time": "1900-12-12T08:03:50+00:00",
        "bearing": 277.1,
        "sensor_name": "ARRAY",
        "label": "Label"
      }
    },
    {
      "type": "Feature",
      "id": "94016b24-aeab-4fb5-8439-33e0b6621cd6",
      "geometry": null,
      "properties": {
        "kind": "SENSOR_CONTACT",
        "parent_track": "OWNSHIP",
        "time": "1900-12-12T08:04:16+00:00",
        "bearing": 272.1,
        "sensor_name": "ARRAY",
        "label": "Label"
      }
    },
    {
      "type": "Feature",
      "id": "16428206-62dd-4e60-9c17-85881c3e1573",
      "geometry": null,
      "properties": {
        "kind": "SENSOR_CONTACT",
        "parent_track": "OWNSHIP",
        "time": "1900-12-12T08:04:36+00:00",
        "bearing": 268.1,
        "sensor_name": "ARRAY",
        "label": "Label"
      }
    },
    {
      "type": "Feature",
      "id": "9ce66158-2123-43e6-94ee-3f50ee12666a",
      "geometry": null,
      "properties": {
        "kind": "SENSOR_CONTACT",
        "parent_track": "OWNSHIP",
        "time": "1900-12-12T08:05:06+00:00",
        "bearing": 263.1,
        "sensor_name": "ARRAY",
        "label": "Label"
      }
    },
    {
      "type": "Feature",
      "id": "fc2f7111-1182-49fd-9cc8-15128d973a33",
      "geometry": null,
      "properties": {
        "kind": "SENSOR_CONTACT",
        "parent_track": "OWNSHIP",
        "time": "1900-12-12T08:05:28+00:00",
        "bearing": 258.4,
        "sensor_name": "ARRAY",
        "label": "Label"
      }
    },
    {
      "type": "Feature",
      "id": "b64a580b-3c67-4733-886e-03c19b250d5a",
      "geometry": null,
      "properties": {
        "kind": "SENSOR_CONTACT",
        "parent_track": "OWNSHIP",
        "time": "1900-12-12T08:05:56+00:00",
        "bearing": 255.1,
        "sensor_name": "ARRAY",
        "label": "Label"
      }
    },
    {
      "type": "Feature",
      "id": "ca796c22-684f-4c3e-b262-f10644f1303f",
      "geometry": null,
      "properties": {
        "kind": "SENSOR_CONTACT",
        "parent_track": "OWNSHIP",
        "time": "1900-12-12T08:06:22+00:00",
        "bearing": 252.1,
        "sensor_name": "ARRAY",
        "label": "Label"
      }
    },
    {
      "type": "Feature",
      "id": "a3c195bb-2869-458a-97ea-dc0de21b55a4",
      "geometry": null,
      "properties": {
        "kind": "SENSOR_CONTACT",
        "parent_track": "OWNSHIP",
        "time": "1900-12-12T08:06:52+00:00",
        "bearing": 248.4,
        "sensor_name": "ARRAY",
        "label": "Label"
      }
    },
    {
      "type": "Feature",
      "id": "abcc0206-bd14-45b4-ac31-da79f81c0809",
      "geometry": null,
      "properties": {
        "kind": "SENSOR_CONTACT",
        "parent_track": "OWNSHIP",
        "time": "1900-12-12T08:07:22+00:00",
        "bearing": 245.1,
        "sensor_name": "ARRAY",
        "label": "Label"
      }
    },
    {
      "type": "Feature",
      "id": "cce7cc0a-0488-4833-a53e-74375aaab2f5",
      "geometry": null,
      "properties": {
        "kind": "SENSOR_CONTACT",
        "parent_track": "OWNSHIP",
        "time": "1900-12-12T08:07:56+00:00",
        "bearing": 242.4,
        "sensor_name": "ARRAY",
        "label": "Label"
      }
    },
    {
      "type": "Feature",
      "id": "538db653-a9e9-41dc-b5ec-0c0e0ca6ba94",
      "geometry": null,
      "properties": {
        "kind": "SENSOR_CONTACT",
        "parent_track": "OWNSHIP",
        "time": "1900-12-12T08:08:28+00:00",
        "bearing": 239.7,
        "sensor_name": "ARRAY",
        "label": "Label"
      }
    },
    {
      "type": "Feature",
      "id": "eee1926a-a0c6-4bb3-a33d-90775d9e4574",
      "geometry": null,
      "properties": {
        "kind": "SENSOR_CONTACT",
        "parent_track": "OWNSHIP",
        "time": "1900-12-12T08:08:54+00:00",
        "bearing": 237.7,
        "sensor_name": "ARRAY",
        "label": "Label"
      }
    },
    {
      "type": "Feature",
      "id": "6404262e-3be6-4945-b4b2-5751d5a2fdc9",
      "geometry": null,
      "properties": {
        "kind": "SENSOR_CONTACT",
        "parent_track": "OWNSHIP",
        "time": "1900-12-12T08:09:22+00:00",
        "bearing": 236.7,
        "sensor_name": "ARRAY",
        "label": "Label"
      }
    },
    {
      "type": "Feature",
      "id": "be59d85e-cdf3-4f52-8b56-3b616ee29447",
      "geometry": null,
      "properties": {
        "kind": "SENSOR_CONTACT",
        "parent_track": "OWNSHIP",
        "time": "1900-12-12T08:09:54+00:00",
        "bearing": 236.7,
        "sensor_name": "ARRAY",
        "label": "Label"
      }
    },
    {
      "type": "Feature",
      "id": "805f47a0-6c45-4847-9a33-57c052ae9683",
      "geometry": null,
      "properties": {
        "kind": "SENSOR_CONTACT",
        "parent_track": "OWNSHIP",
        "time": "1900-12-12T08:10:32+00:00",
        "bearing": 236.7,
        "sensor_name": "ARRAY",
        "label": "Label"
      }
    },
    {
      "type": "Feature",
      "id": "f6c0f8d7-417c-4a63-bc89-6d1b452369fd",
      "geometry": null,
      "properties": {
        "kind": "SENSOR_CONTACT",
        "parent_track": "OWNSHIP",
        "time": "1900-12-12T08:11:14+00:00",
        "bearing": 236.7,
        "sensor_name": "ARRAY",
        "label": "Label"
      }
    },
    {
      "type": "Feature",
      "id": "aaa0ac33-f0c9-4628-b067-0151b8bd8449",
      "geometry": null,
      "properties": {
        "kind": "SENSOR_CONTACT",
        "parent_track": "OWNSHIP",
        "time": "1900-12-12T08:11:50+00:00",
        "bearing": 237.7,
        "sensor_name": "ARRAY",
        "label": "Label"
      }
    },
    {
      "type": "Feature",
      "id": "714b412a-0afe-42d7-9cd4-170011ec8207",
      "geometry": null,
      "properties": {
        "kind": "SENSOR_CONTACT",
        "parent_track": "OWNSHIP",
        "time": "1900-12-12T08:12:32+00:00",
        "bearing": 239.1,
        "sensor_name": "ARRAY",
        "label": "Label"
      }
    },
    {
      "type": "Feature",
      "id": "9567cdae-c6e9-4727-bbaf-8b3edbfd2ef4",
      "geometry": null,
      "properties": {
        "kind": "SENSOR_CONTACT",
        "parent_track": "OWNSHIP",
        "time": "1900-12-12T08:13:18+00:00",
        "bearing": 241.1,
        "sensor_name": "ARRAY",
        "label": "Label"
      }
    },
    {
      "type": "Feature",
      "id": "412d65d6-e3ee-46f6-adec-ec2813be14b6",
      "geometry": null,
      "properties": {
        "kind": "SENSOR_CONTACT",
        "parent_track": "OWNSHIP",
        "time": "1900-12-12T08:13:58+00:00",
        "bearing": 241.7,
        "sensor_name": "ARRAY",
        "label": "Label"
      }
    },
    {
      "type": "Feature",
      "id": "eea98fb6-26de-46cb-90ef-c8e86537070c",
      "geometry": null,
      "properties": {
        "kind": "SENSOR_CONTACT",
        "parent_track": "OWNSHIP",
        "time": "1900-12-12T08:14:34+00:00",
        "bearing": 243.1,
        "sensor_name": "ARRAY",
        "label": "Label"
      }
    },
    {
      "type": "Feature",
      "id": "f916f8a5-fc7e-4e23-8b07-207d230b231e",
      "geometry": null,
      "properties": {
        "kind": "SENSOR_CONTACT",
        "parent_track": "OWNSHIP",
        "time": "1900-12-12T08:15:18+00:00",
        "bearing": 243.7,
        "sensor_name": "ARRAY",
        "label": "Label"
      }
    },
    {
      "type": "Feature",
      "id": "1c9a2bcd-d21e-4e03-93ac-3d51b7a4617d",
      "geometry": null,
      "properties": {
        "kind": "SENSOR_CONTACT",
        "parent_track": "OWNSHIP",
        "time": "1900-12-12T08:16:00+00:00",
        "bearing": 244.7,
        "sensor_name": "ARRAY",
        "label": "Label"
      }
    },
    {
      "type": "Feature",
      "id": "97028f0b-bcda-4dbf-a089-b028ca04a0aa",
      "geometry": null,
      "properties": {
        "kind": "SENSOR_CONTACT",
        "parent_track": "OWNSHIP",
        "time": "1900-12-12T08:16:40+00:00",
        "bearing": 245.7,
        "sensor_name": "ARRAY",
        "label": "Label"
      }
    },
    {
      "type": "Feature",
      "id": "6d70124b-3cde-4db7-8e48-4b03e5120348",
      "geometry": null,
      "properties": {
        "kind": "SENSOR_CONTACT",
        "parent_track": "OWNSHIP",
        "time": "1900-12-12T08:17:16+00:00",
        "bearing": 246.7,
        "sensor_name": "ARRAY",
        "label": "Label"
      }
    },
    {
      "type": "Feature",
      "id": "af53d5cd-0b4b-4064-86db-1942461861f6",
      "geometry": null,
      "properties": {
        "kind": "SENSOR_CONTACT",
        "parent_track": "OWNSHIP",
        "time": "1900-12-12T08:17:56+00:00",
        "bearing": 248.1,
        "sensor_name": "ARRAY",
        "label": "Label"
      }
    },
    {
      "type": "Feature",
      "id": "03fae9c9-f04e-4dab-b1d7-24dec6cb0d79",
      "geometry": null,
      "properties": {
        "kind": "SENSOR_CONTACT",
        "parent_track": "OWNSHIP",
        "time": "1900-12-12T08:18:38+00:00",
        "bearing": 249.1,
        "sensor_name": "ARRAY",
        "label": "Label"
      }
    },
    {
      "type": "Feature",
      "id": "e9f5a255-3c1a-427b-ba04-7559093a1ecb",
      "geometry": null,
      "properties": {
        "kind": "SENSOR_CONTACT",
        "parent_track": "OWNSHIP",
        "time": "1900-12-12T08:19:24+00:00",
        "bearing": 249.7,
        "sensor_name": "ARRAY",
        "label": "Label"
      }
    },
    {
      "type": "Feature",
      "id": "2365a1f0-9c7f-47a3-a401-c722678f3d3a",
      "geometry": null,
      "properties": {
        "kind": "SENSOR_CONTACT",
        "parent_track": "OWNSHIP",
        "time": "1900-12-12T08:20:08+00:00",
        "bearing": 250.7,
        "sensor_name": "ARRAY",
        "label": "Label"
      }
    },
    {
      "type": "Feature",
      "id": "e6202d11-1c88-48d6-98a8-f3e2d92e8d23",
      "geometry": null,
      "properties": {
        "kind": "SENSOR_CONTACT",
        "parent_track": "OWNSHIP",
        "time": "1900-12-12T08:20:46+00:00",
        "bearing": 251.4,
        "sensor_name": "ARRAY",
        "label": "Label"
      }
    },
    {
      "type": "Feature",
      "id": "a31ebf5b-1b9c-4a9d-8f5d-ac554d61f15f",
      "geometry": null,
      "properties": {
        "kind": "SENSOR_CONTACT",
        "parent_track": "OWNSHIP",
        "time": "1900-12-12T08:21:44+00:00",
        "bearing": 252.4,
        "sensor_name": "ARRAY",
        "label": "Label"
      }
    },
    {
      "type": "Feature",
      "id": "1d86958b-c8c0-4b47-8025-e249bad24472",
      "geometry": null,
      "properties": {
        "kind": "SENSOR_CONTACT",
        "parent_track": "OWNSHIP",
        "time": "1900-12-12T08:22:20+00:00",
        "bearing": 253.4,
        "sensor_name": "ARRAY",
        "label": "Label"
      }
    },
    {
      "type": "Feature",
      "id": "59f8a32f-fb66-45e0-a6bf-6c2c3eefcd7f",
      "geometry": null,
      "properties": {
        "kind": "SENSOR_CONTACT",
        "parent_track": "OWNSHIP",
        "time": "1900-12-12T08:23:02+00:00",
        "bearing": 254.4,
        "sensor_name": "ARRAY",
        "label": "Label"
      }
    },
    {
      "type": "Feature",
      "id": "19eb5d76-c552-42f5-8be6-b96f51974d49",
      "geometry": null,
      "properties": {
        "kind": "SENSOR_CONTACT",
        "parent_track": "OWNSHIP",
        "time": "1900-12-12T08:23:38+00:00",
        "bearing": 255.1,
        "sensor_name": "ARRAY",
        "label": "Label"
      }
    },
    {
      "type": "Feature",
      "id": "ed2d8ceb-a591-400f-91d2-feb1ba563ace",
      "geometry": null,
      "properties": {
        "kind": "SENSOR_CONTACT",
        "parent_track": "OWNSHIP",
        "time": "1900-12-12T08:24:12+00:00",
        "bearing": 255.7,
        "sensor_name": "ARRAY",
        "label": "Label"
      }
    },
    {
      "type": "Feature",
      "id": "a9c8451a-1500-495c-b7b1-660a7608a595",
      "geometry": null,
      "properties": {
        "kind": "SENSOR_CONTACT",
        "parent_track": "OWNSHIP",
        "time": "1900-12-12T08:24:48+00:00",
        "bearing": 256.4,
        "sensor_name": "ARRAY",
        "label": "Label"
      }
    },
    {
      "type": "Feature",
      "id": "5a5ad46e-8469-484d-9994-a2b86f310ff8",
      "geometry": null,
      "properties": {
        "kind": "SENSOR_CONTACT",
        "parent_track": "OWNSHIP",
        "time": "1900-12-12T08:25:26+00:00",
        "bearing": 257.7,
        "sensor_name": "ARRAY",
        "label": "Label"
      }
    },
    {
      "type": "Feature",
      "id": "fbbfc0a5-5b28-4661-99e3-5f4d581cba35",
      "geometry": null,
      "properties": {
        "kind": "SENSOR_CONTACT",
        "parent_track": "OWNSHIP",
        "time": "1900-12-12T08:26:06+00:00",
        "bearing": 259.1,
        "sensor_name": "ARRAY",
        "label": "Label"
      }
    },
    {
      "type": "Feature",
      "id": "2d10467e-d15b-4840-936b-8bf0d3a4cb1b",
      "geometry": null,
      "properties": {
        "kind": "SENSOR_CONTACT",
        "parent_track": "OWNSHIP",
        "time": "1900-12-12T08:26:46+00:00",
        "bearing": 260.1,
        "sensor_name": "ARRAY",
        "label": "Label"
      }
    },
    {
      "type": "Feature",
      "id": "5577a173-6e07-43ea-bd4b-d2d1b98896d6",
      "geometry": null,
      "properties": {
        "kind": "SENSOR_CONTACT",
        "parent_track": "OWNSHIP",
        "time": "1900-12-12T08:27:32+00:00",
        "bearing": 262.1,
        "sensor_name": "ARRAY",
        "label": "Label"
      }
    },
    {
      "type": "Feature",
      "id": "f9098a45-8159-44c3-9e2d-395d71f8fd4b",
      "geometry": null,
      "properties": {
        "kind": "SENSOR_CONTACT",
        "parent_track": "OWNSHIP",
        "time": "1900-12-12T08:28:14+00:00",
        "bearing": 263.4,
        "sensor_name": "ARRAY",
        "label": "Label"
      }
    },
    {
      "type": "Feature",
      "id": "c7b2c7f2-6d24-4c42-b198-6c915c284607",
      "geometry": null,
      "properties": {
        "kind": "SENSOR_CONTACT",
        "parent_track": "OWNSHIP",
        "time": "1900-12-12T08:28:58+00:00",
        "bearing": 264.7,
        "sensor_name": "ARRAY",
        "label": "Label"
      }
    },
    {
      "type": "Feature",
      "id": "deb64acb-ceee-45bd-b28c-7ec9ccc0a72b",
      "geometry": null,
      "properties": {
        "kind": "SENSOR_CONTACT",
        "parent_track": "OWNSHIP",
        "time": "1900-12-12T08:29:42+00:00",
        "bearing": 267.1,
        "sensor_name": "ARRAY",
        "label": "Label"
      }
    },
    {
      "type": "Feature",
      "id": "e2db4ed6-3e6f-40b1-aeae-8af8724ddc69",
      "geometry": null,
      "properties": {
        "kind": "SENSOR_CONTACT",
        "parent_track": "OWNSHIP",
        "time": "1900-12-12T08:30:30+00:00",
        "bearing": 268.1,
        "sensor_name": "ARRAY",
        "label": "Label"
      }
    }
  ]
}