{
  "type": "FeatureCollection",
  "features": [
    {
      "type": "Feature",
      "id": "ae5f3422-4162-4123-8107-973f34de259e",
      "geometry": {
        "type": "LineString",
        "coordinates": [
          [
            0.0,
            5.0
          ],
          [
            4.5,
            5.0
          ],
          [
            4.7,
            2.0
          ],
          [
            7.0,
            3.0
          ],
          [
            7.5,
            1.0
          ]
        ]
      },
      "properties": {
        "kind": "POLYLINE",
        "vertex_count": 5,
        "label": "Continuous Feature",
        "symbol": "B",
        "style": {
          "stroke": true,
          "color": "#00FF00",
          "weight": 1,
          "opacity": 1.0
        }
      }
    },
    {
      "type": "Feature",
      "id": "52a77f3a-a805-45ff-b774-c88d72e5a62e",
      "geometry": {
        "type": "Polygon",
        "coordinates": [
          [
            [
              3.140532656042976,
              3.5
            ],
            [
              3.109010281067766,
              3.8194550825675737
            ],
            [
              3.0156545433344837,
              4.12663368546455
            ],
            [
              2.8640530514897176,
              4.409731107249343
            ],
            [
              2.6600317658459662,
              4.657868072765625
            ],
            [
              2.411431109994063,
              4.861508817585422
            ],
            [
              2.127804667721543,
              5.012827542088352
            ],
            [
              1.8200520441453985,
              5.106009152552287
            ],
            [
              1.5,
              5.137472731943945
            ],
            [
              1.1799479558546018,
              5.106009152552287
            ],
            [
              0.8721953322784569,
              5.012827542088352
            ],
            [
              0.5885688900059375,
              4.861508817585422
            ],
            [
              0.3399682341540342,
              4.657868072765625
            ],
            [
              0.135946948510282,
              4.409731107249343
            ],
            [
              -0.015654543334483906,
              4.12663368546455
            ],
            [
              -0.10901028106776622,
              3.819455082567574
            ],
            [
              -0.1405326560429756,
              3.5
            ],
            [
              -0.10901028106776622,
              3.1805449174324263
            ],
            [
              -0.015654543334484128,
              2.8733663145354504
            ],
            [
              0.135946948510282,
              2.590268892750658
            ],
            [
              0.33996823415403377,
              2.3421319272343744
            ],
            [
              0.5885688900059372,
              2.138491182414578
            ],
            [
              0.8721953322784559,
              1.9871724579116485
            ],
            [
              1.179947955854601,
              1.8939908474477138
            ],
            [
              1.4999999999999998,
              1.8625272680560545
            ],
            [
              1.8200520441453985,
              1.8939908474477136
            ],
            [
              2.1278046677215436,
              1.9871724579116483
            ],
            [
              2.411431109994062,
              2.138491182414578
            ],
            [
              2.660031765845966,
              2.342131927234374
            ],
            [
              2.8640530514897176,
              2.5902688927506574
            ],
            [
              3.0156545433344837,
              2.873366314535449
            ],
            [
              3.109010281067766,
              3.1805449174324254
            ],
            [
              3.140532656042976,
              3.4999999999999996
            ]
          ]
        ]
      },
      "properties": {
        "kind": "CIRCLE",
        "center": [
          1.5,
          3.5
        ],
        "radius": 182283.46452,
        "label": "166680 m",
        "symbol": "A",
        "style": {
          "fill": false,
          "fill_color": "#0000FF",
          "fill_opacity": 0.0,
          "stroke": true,
          "color": "#0000FF",
          "weight": 1,
          "opacity": 1.0
        }
      }
    },
    {
      "type": "Feature",
      "id": "5bd9d9e4-fd12-432d-a01e-1d636a0d7fcc",
      "geometry": {
        "type": "Polygon",
        "coordinates": [
          [
            [
              4.640532656042976,
              3.5
            ],
            [
              4.609010281067766,
              3.8194550825675737
            ],
            [
              4.515654543334484,
              4.12663368546455
            ],
            [
              4.364053051489718,
              4.409731107249343
            ],
            [
              4.160031765845966,
              4.657868072765625
            ],
            [
              3.911431109994063,
              4.861508817585422
            ],
            [
              3.627804667721543,
              5.012827542088352
            ],
            [
              3.3200520441453985,
              5.106009152552287
            ],
            [
              3.0,
              5.137472731943945
            ],
            [
              2.679947955854602,
              5.106009152552287
            ],
            [
              2.372195332278457,
              5.012827542088352
            ],
            [
              2.0885688900059374,
              4.861508817585422
            ],
            [
              1.8399682341540342,
              4.657868072765625
            ],
            [
              1.635946948510282,
              4.409731107249343
            ],
            [
              1.484345456665516,
              4.12663368546455
            ],
            [
              1.3909897189322338,
              3.819455082567574
            ],
            [
              1.3594673439570244,
              3.5
            ],
            [
              1.3909897189322338,
              3.1805449174324263
            ],
            [
              1.4843454566655159,
              2.8733663145354504
            ],
            [
              1.635946948510282,
              2.590268892750658
            ],
            [
              1.8399682341540338,
              2.3421319272343744
            ],
            [
              2.088568890005937,
              2.138491182414578
            ],
            [
              2.372195332278456,
              1.9871724579116485
            ],
            [
              2.679947955854601,
              1.8939908474477138
            ],
            [
              2.9999999999999996,
              1.8625272680560545
            ],
            [
              3.3200520441453985,
              1.8939908474477136
            ],
            [
              3.6278046677215436,
              1.9871724579116483
            ],
            [
              3.911431109994062,
              2.138491182414578
            ],
            [
              4.160031765845966,
              2.342131927234374
            ],
            [
              4.364053051489718,
              2.5902688927506574
            ],
            [
              4.515654543334484,
              2.873366314535449
            ],
            [
              4.609010281067766,
              3.1805449174324254
            ],
            [
              4.640532656042976,
              3.4999999999999996
            ]
          ]
        ]
      },
      "properties": {
        "kind": "CIRCLE",
        "center": [
          3.0,
          3.5
        ],
        "radius": 182283.46452,
        "label": "166680 m",
        "symbol": "A",
        "style": {
          "fill": false,
          "fill_color": "#0000FF",
          "fill_opacity": 0.0,
          "stroke": true,
          "color": "#0000FF",
          "weight": 1,
          "opacity": 1.0
        }
      }
    },
    {
      "type": "Feature",
      "id": "3039a6ba-8c00-4fa1-aa12-18a41f4ebb1e",
      "geometry": {
        "type": "Polygon",
        "coordinates": [
          [
            [
              4.654759654071505,
              3.5
            ],
            [
              4.642178630915243,
              3.627499015995113
            ],
            [
              4.604919043110834,
              3.7500983163078057
            ],
            [
              4.544412755722183,
              3.863086478581541
            ],
            [
              4.462984991441319,
              3.962121431104631
            ],
            [
              4.36376497358434,
              4.043397316191054
            ],
            [
              4.250565671794262,
              4.103790747156981
            ],
            [
              4.127737271755978,
              4.140980838319416
            ],
            [
              4.0,
              4.153538395331433
            ],
            [
              3.8722627282440216,
              4.140980838319416
            ],
            [
              3.7494343282057376,
              4.103790747156981
            ],
            [
              3.63623502641566,
              4.043397316191054
            ],
            [
              3.537015008558681,
              3.962121431104631
            ],
            [
              3.455587244277817,
              3.863086478581541
            ],
            [
              3.3950809568891662,
              3.7500983163078057
            ],
            [
              3.357821369084757,
              3.627499015995113
            ],
            [
              3.345240345928495,
              3.5
            ],
            [
              3.357821369084757,
              3.372500984004887
            ],
            [
              3.3950809568891662,
              3.2499016836921943
            ],
            [
              3.455587244277817,
              3.1369135214184594
            ],
            [
              3.5370150085586807,
              3.037878568895369
            ],
            [
              3.63623502641566,
              2.956602683808946
            ],
            [
              3.749434328205737,
              2.8962092528430197
            ],
            [
              3.872262728244021,
              2.8590191616805836
            ],
            [
              4.0,
              2.8464616046685673
            ],
            [
              4.127737271755978,
              2.8590191616805836
            ],
            [
              4.250565671794263,
              2.896209252843019
            ],
            [
              4.36376497358434,
              2.9566026838089456
            ],
            [
              4.462984991441319,
              3.037878568895369
            ],
            [
              4.544412755722183,
              3.136913521418459
            ],
            [
              4.604919043110834,
              3.249901683692194
            ],
            [
              4.642178630915243,
              3.372500984004887
            ],
            [
              4.654759654071505,
              3.5
            ]
          ]
        ]
      },
      "properties": {
        "kind": "CIRCLE",
        "center": [
          4.0,
          3.5
        ],
        "radius": 72751.8941682951,
        "label": "66524 m",
        "symbol": "A",
        "style": {
          "fill": false,
          "fill_color": "#0000FF",
          "fill_opacity": 0.0,
          "stroke": true,
          "color": "#0000FF",
          "weight": 1,
          "opacity": 1.0
        }
      }
    },
    {
      "type": "Feature",
      "id": "f15464af-4ce2-4244-8468-fd3864340c32",
      "geometry": {
        "type": "Polygon",
        "coordinates": [
          [
            [
              5.43650643604767,
              3.5
            ],
            [
              5.428119087276829,
              3.584999343996742
            ],
            [
              5.4032793620738895,
              3.6667322108718703
            ],
            [
              5.362941837148122,
              3.742057652387694
            ],
            [
              5.30865666096088,
              3.8080809540697538
            ],
            [
              5.24250998238956,
              3.862264877460703
            ],
            [
              5.167043781196175,
              3.9025271647713202
            ],
            [
              5.0851581811706525,
              3.927320558879611
            ],
            [
              5.0,
              3.9356922635542886
            ],
            [
              4.9148418188293475,
              3.927320558879611
            ],
            [
              4.832956218803825,
              3.9025271647713202
            ],
            [
              4.75749001761044,
              3.862264877460703
            ],
            [
              4.69134333903912,
              3.8080809540697538
            ],
            [
              4.637058162851878,
              3.742057652387694
            ],
            [
              4.5967206379261105,
              3.6667322108718707
            ],
            [
              4.571880912723171,
              3.584999343996742
            ],
            [
              4.56349356395233,
              3.5
            ],
            [
              4.571880912723171,
              3.415000656003258
            ],
            [
              4.5967206379261105,
              3.3332677891281297
            ],
            [
              4.637058162851878,
              3.257942347612306
            ],
            [
              4.69134333903912,
              3.1919190459302462
            ],
            [
              4.75749001761044,
              3.137735122539297
            ],
            [
              4.832956218803825,
              3.0974728352286798
            ],
            [
              4.9148418188293475,
              3.072679441120389
            ],
            [
              5.0,
              3.0643077364457114
            ],
            [
              5.0851581811706525,
              3.072679441120389
            ],
            [
              5.167043781196175,
              3.0974728352286798
            ],
            [
              5.24250998238956,
              3.137735122539297
            ],
            [
              5.30865666096088,
              3.191919045930246
            ],
            [
              5.362941837148122,
              3.257942347612306
            ],
            [
              5.4032793620738895,
              3.3332677891281293
            ],
            [
              5.428119087276829,
              3.415000656003258
            ],
            [
              5.43650643604767,
              3.5
            ]
          ]
        ]
      },
      "properties": {
        "kind": "CIRCLE",
        "center": [
          5.0,
          3.5
        ],
        "radius": 48501.262778863405,
        "label": "44349 m",
        "symbol": "A",
        "style": {
          "fill": false,
          "fill_color": "#0000FF",
          "fill_opacity": 0.0,
          "stroke": true,
          "color": "#0000FF",
          "weight": 1,
          "opacity": 1.0
        }
      }
    },
    {
      "type": "Feature",
      "id": "e28bbb76-602b-44be-a009-87aaf66def64",
      "geometry": {
        "type": "Polygon",
        "coordinates": [
          [
            [
              6.937576596115823,
              3.5
            ],
            [
              6.919561324720965,
              3.6825709520760426
            ],
            [
              6.86620782731301,
              3.8581258048507725
            ],
            [
              6.779566448876364,
              4.0199180837843524
            ],
            [
              6.6629667689953,
              4.16173020233152
            ],
            [
              6.520889647977794,
              4.27811240030566
            ],
            [
              6.358795029906781,
              4.364592175106515
            ],
            [
              6.1829121200510215,
              4.417846157486904
            ],
            [
              6.0,
              4.435827826769128
            ],
            [
              5.8170878799489785,
              4.417846157486904
            ],
            [
              5.641204970093219,
              4.364592175106515
            ],
            [
              5.479110352022206,
              4.278112400305661
            ],
            [
              5.337033231004701,
              4.16173020233152
            ],
            [
              5.2204335511236355,
              4.0199180837843524
            ],
            [
              5.13379217268699,
              3.8581258048507725
            ],
            [
              5.080438675279035,
              3.682570952076043
            ],
            [
              5.062423403884177,
              3.5
            ],
            [
              5.080438675279035,
              3.3174290479239574
            ],
            [
              5.133792172686989,
              3.1418741951492275
            ],
            [
              5.2204335511236355,
              2.980081916215648
            ],
            [
              5.3370332310047,
              2.83826979766848
            ],
            [
              5.479110352022206,
              2.7218875996943397
            ],
            [
              5.641204970093218,
              2.635407824893485
            ],
            [
              5.8170878799489785,
              2.582153842513095
            ],
            [
              6.0,
              2.5641721732308724
            ],
            [
              6.1829121200510215,
              2.582153842513095
            ],
            [
              6.358795029906781,
              2.635407824893485
            ],
            [
              6.520889647977794,
              2.7218875996943397
            ],
            [
              6.662966768995299,
              2.83826979766848
            ],
            [
              6.779566448876364,
              2.9800819162156476
            ],
            [
              6.86620782731301,
              3.141874195149227
            ],
            [
              6.919561324720965,
              3.317429047923957
            ],
            [
              6.937576596115823,
              3.4999999999999996
            ]
          ]
        ]
      },
      "properties": {
        "kind": "CIRCLE",
        "center": [
          6.0,
          3.5
        ],
        "radius": 104176.3536759393,
        "label": "95258 m",
        "symbol": "A",
        "style": {
          "fill": false,
          "fill_color": "#0000FF",
          "fill_opacity": 0.0,
          "stroke": true,
          "color": "#0000FF",
          "weight": 1,
          "opacity": 1.0
        }
      }
    },
    {
      "type": "Feature",
      "id": "53a45f98-a098-469e-bca2-d89abf87c601",
      "geometry": {
        "type": "Polygon",
        "coordinates": [
          [
            [
              7.546844218680992,
              3.5
            ],
            [
              7.536336760355922,
              3.6064850275225244
            ],
            [
              7.505218181111495,
              3.70887789515485
            ],
            [
              7.4546843504965725,
              3.8032437024164474
            ],
            [
              7.386677255281989,
              3.8859560242552087
            ],
            [
              7.303810369998021,
              3.953836272528474
            ],
            [
              7.209268222573848,
              4.004275847362784
            ],
            [
              7.106684014715133,
              4.035336384184095
            ],
            [
              7.0,
              4.045824243981315
            ],
            [
              6.893315985284867,
              4.035336384184095
            ],
            [
              6.790731777426152,
              4.004275847362784
            ],
            [
              6.696189630001979,
              3.953836272528474
            ],
            [
              6.613322744718011,
              3.8859560242552087
            ],
            [
              6.5453156495034275,
              3.8032437024164474
            ],
            [
              6.494781818888505,
              3.70887789515485
            ],
            [
              6.463663239644078,
              3.606485027522525
            ],
            [
              6.453155781319008,
              3.5
            ],
            [
              6.463663239644078,
              3.3935149724774756
            ],
            [
              6.494781818888505,
              3.29112210484515
            ],
            [
              6.5453156495034275,
              3.1967562975835526
            ],
            [
              6.613322744718011,
              3.1140439757447913
            ],
            [
              6.696189630001979,
              3.046163727471526
            ],
            [
              6.790731777426152,
              2.9957241526372163
            ],
            [
              6.893315985284867,
              2.9646636158159048
            ],
            [
              7.0,
              2.9541757560186848
            ],
            [
              7.106684014715133,
              2.9646636158159048
            ],
            [
              7.209268222573848,
              2.9957241526372163
            ],
            [
              7.303810369998021,
              3.046163727471526
            ],
            [
              7.386677255281988,
              3.1140439757447913
            ],
            [
              7.4546843504965725,
              3.1967562975835526
            ],
            [
              7.505218181111495,
              3.29112210484515
            ],
            [
              7.536336760355922,
              3.393514972477475
            ],
            [
              7.546844218680992,
              3.5
            ]
          ]
        ]
      },
      "properties": {
        "kind": "CIRCLE",
        "center": [
          7.0,
          3.5
        ],
        "radius": 60761.15484,
        "label": "55560 m",
        "symbol": "A",
        "style": {
          "fill": false,
          "fill_color": "#0000FF",
          "fill_opacity": 0.0,
          "stroke": true,
          "color": "#0000FF",
          "weight": 1,
          "opacity": 1.0
        }
      }
    },
    {
      "type": "Feature",
      "id": "c0d9a031-e78f-4093-a1b5-8a1b320ba66d",
      "geometry": {
        "type": "Polygon",
        "coordinates": [
          [
            [
              9.222780846073459,
              3.5
            ],
            [
              9.199285454987857,
              3.738107760126301
            ],
            [
              9.129702196434103,
              3.967065172563318
            ],
            [
              9.016705116015677,
              4.178073532351894
            ],
            [
              8.864636628163566,
              4.363023906560204
            ],
            [
              8.679340639584938,
              4.514808756028788
            ],
            [
              8.46793797120568,
              4.627595074114494
            ],
            [
              8.238552709015625,
              4.697048545864581
            ],
            [
              8.0,
              4.720500113309651
            ],
            [
              7.761447290984376,
              4.697048545864581
            ],
            [
              7.5320620287943205,
              4.627595074114494
            ],
            [
              7.320659360415062,
              4.514808756028788
            ],
            [
              7.1353633718364335,
              4.363023906560204
            ],
            [
              6.983294883984323,
              4.178073532351894
            ],
            [
              6.870297803565897,
              3.9670651725633186
            ],
            [
              6.800714545012144,
              3.7381077601263013
            ],
            [
              6.777219153926541,
              3.5
            ],
            [
              6.800714545012144,
              3.261892239873699
            ],
            [
              6.870297803565897,
              3.032934827436682
            ],
            [
              6.983294883984323,
              2.8219264676481064
            ],
            [
              7.1353633718364335,
              2.636976093439796
            ],
            [
              7.320659360415062,
              2.4851912439712116
            ],
            [
              7.53206202879432,
              2.3724049258855073
            ],
            [
              7.761447290984375,
              2.3029514541354192
            ],
            [
              8.0,
              2.2794998866903486
            ],
            [
              8.238552709015625,
              2.3029514541354192
            ],
            [
              8.46793797120568,
              2.372404925885507
            ],
            [
              8.679340639584938,
              2.4851912439712116
            ],
            [
              8.864636628163566,
              2.6369760934397957
            ],
            [
              9.016705116015677,
              2.8219264676481064
            ],
            [
              9.129702196434103,
              3.032934827436681
            ],
            [
              9.199285454987855,
              3.2618922398736987
            ],
            [
              9.222780846073459,
              3.4999999999999996
            ]
          ]
        ]
      },
      "properties": {
        "kind": "CIRCLE",
        "center": [
          8.0,
          3.5
        ],
        "radius": 135866.0726136304,
        "label": "124235 m",
        "symbol": "A",
        "style": {
          "fill": false,
          "fill_color": "#0000FF",
          "fill_opacity": 0.0,
          "stroke": true,
          "color": "#0000FF",
          "weight": 1,
          "opacity": 1.0
        }
      }
    }
  ]
}