{
  "type": "FeatureCollection",
  "features": [
    {
      "type": "Feature",
      "id": "476641de-4664-47ad-b46f-c2b6b33fdeb3",
      "geometry": {
        "type": "LineString",
        "coordinates": [
          [
            30.923572222222223,
            5.1826388888888895
          ],
          [
            30.923572222222223,
            5.1826388888888895
          ]
        ]
      },
      "properties": {
        "kind": "TRACK",
        "platform_id": "MAYO",
        "platform_name": "MAYO",
        "track_type": "CONTACT",
        "start_time": "2009-04-22T18:02:54.410000+00:00",
        "end_time": "2009-04-22T18:02:54.410000+00:00",
        "positions": [
          {
            "time": "2009-04-22T18:02:54.410000+00:00",
            "course": 290.0,
            "speed": 4.35,
            "depth": 18.32
          },
          {
            "time": "2009-04-22T18:02:54.410000+00:00",
            "course": 290.0,
            "speed": 4.35,
            "depth": 18.32
          }
        ],
        "style": {
          "line": {
            "color": "#0000FF"
          },
          "point": {
            "shape": "circle",
            "radius": 3.0,
            "fill_color": "#0000FF",
            "color": "#0000FF"
          }
        },
        "default_position_style": {
          "show_symbol": false,
          "symbol": "circle",
          "show_label": false
        },
        "symbol_interval": "PT1M",
        "label_interval": "PT5M",
        "provenance": [
          {
            "activity_id": "81bd2f73-71e1-404f-b27a-edc6fae9ed90",
            "timestamp": "2026-03-28T13:50:59.340964Z",
            "was_generated_by": {
              "tool": "rep-parser",
              "tool_version": "1.0.0",
              "parameters": []
            },
            "used": [],
            "generated": [
              "476641de-4664-47ad-b46f-c2b6b33fdeb3"
            ],
            "execution_duration": "PT0.000062S"
          }
        ],
        "display_name": "HNoMS Roald Amundsen",
        "nationality": "NO",
        "vessel_class": "subsurface/submarine/ssk/type212",
        "vessel_type": "type212",
        "vessel_role": "ssk",
        "domain": "subsurface"
      }
    }
  ]
}
