{
  "type": "FeatureCollection",
  "features": [
    {
      "type": "Feature",
      "id": "fe918933-c6f2-4368-8472-59f18b9ba1b6",
      "geometry": null,
      "properties": {
        "kind": "SENSOR_CONTACT",
        "parent_track": "SENSOR",
        "time": "2010-01-12T12:00:00+00:00",
        "bearing": 0.7,
        "range": 0.0,
        "sensor_name": "HM",
        "label": "SUBJECT held on HM"
      }
    },
    {
      "type": "Feature",
      "id": "2fd71364-a312-4501-9fa8-87c2a9eb541e",
      "geometry": null,
      "properties": {
        "kind": "SENSOR_CONTACT",
        "parent_track": "SENSOR",
        "time": "2010-01-12T12:02:00+00:00",
        "bearing": 0.6,
        "range": 0.0,
        "sensor_name": "HM",
        "label": "SUBJECT held on HM"
      }
    },
    {
      "type": "Feature",
      "id": "09689e19-e373-4bfb-ad89-89d5c0fd95d7",
      "geometry": null,
      "properties": {
        "kind": "SENSOR_CONTACT",
        "parent_track": "SENSOR",
        "time": "2010-01-12T12:04:00+00:00",
        "bearing": 0.6,
        "range": 0.0,
        "sensor_name": "HM",
        "label": "SUBJECT held on HM"
      }
    },
    {
      "type": "Feature",
      "id": "3030d14c-d0f8-45e3-8a3a-6d5b8d43233f",
      "geometry": null,
      "properties": {
        "kind": "SENSOR_CONTACT",
        "parent_track": "SENSOR",
        "time": "2010-01-12T12:06:00+00:00",
        "bearing": 0.6,
        "range": 0.0,
        "sensor_name": "HM",
        "label": "SUBJECT held on HM"
      }
    },
    {
      "type": "Feature",
      "id": "012cf4d1-50f0-432a-aed1-490db538fbdf",
      "geometry": null,
      "properties": {
        "kind": "SENSOR_CONTACT",
        "parent_track": "SENSOR",
        "time": "2010-01-12T12:08:00+00:00",
        "bearing": 0.6,
        "range": 0.0,
        "sensor_name": "HM",
        "label": "SUBJECT held on HM"
      }
    },
    {
      "type": "Feature",
      "id": "b9fdb5c3-a6d4-4613-af56-9a7eb2d04874",
      "geometry": null,
      "properties": {
        "kind": "SENSOR_CONTACT",
        "parent_track": "SENSOR",
        "time": "2010-01-12T12:10:00+00:00",
        "bearing": 0.6,
        "range": 0.0,
        "sensor_name": "HM",
        "label": "SUBJECT held on HM"
      }
    },
    {
      "type": "Feature",
      "id": "6051fcfa-7473-4763-8e64-7e4734b7a81a",
      "geometry": null,
      "properties": {
        "kind": "SENSOR_CONTACT",
        "parent_track": "SENSOR",
        "time": "2010-01-12T12:12:00+00:00",
        "bearing": 0.6,
        "range": 0.0,
        "sensor_name": "HM",
        "label": "SUBJECT held on HM"
      }
    },
    {
      "type": "Feature",
      "id": "2389d574-9128-44bc-9646-40bf02435576",
      "geometry": null,
      "properties": {
        "kind": "SENSOR_CONTACT",
        "parent_track": "SENSOR",
        "time": "2010-01-12T12:14:00+00:00",
        "bearing": 0.6,
        "range": 0.0,
        "sensor_name": "HM",
        "label": "SUBJECT held on HM"
      }
    },
    {
      "type": "Feature",
      "id": "45bd9479-b3c1-4476-90fb-4a9b32a43958",
      "geometry": null,
      "properties": {
        "kind": "SENSOR_CONTACT",
        "parent_track": "SENSOR",
        "time": "2010-01-12T12:16:00+00:00",
        "bearing": 0.6,
        "range": 0.0,
        "sensor_name": "HM",
        "label": "SUBJECT held on HM"
      }
    },
    {
      "type": "Feature",
      "id": "a8689a95-65a9-45e3-9a18-dcc27c5f4266",
      "geometry": null,
      "properties": {
        "kind": "SENSOR_CONTACT",
        "parent_track": "SENSOR",
        "time": "2010-01-12T12:18:00+00:00",
        "bearing": 0.6,
        "range": 0.0,
        "sensor_name": "HM",
        "label": "SUBJECT held on HM"
      }
    },
    {
      "type": "Feature",
      "id": "60bcf595-1fa2-4db7-8720-412f666ed2c8",
      "geometry": null,
      "properties": {
        "kind": "SENSOR_CONTACT",
        "parent_track": "SENSOR",
        "time": "2010-01-12T12:20:00+00:00",
        "bearing": 0.6,
        "range": 0.0,
        "sensor_name": "HM",
        "label": "SUBJECT held on HM"
      }
    },
    {
      "type": "Feature",
      "id": "b2c6fefc-3225-4286-b43f-383ed4b0647f",
      "geometry": null,
      "properties": {
        "kind": "SENSOR_CONTACT",
        "parent_track": "SENSOR",
        "time": "2010-01-12T12:22:00+00:00",
        "bearing": 0.6,
        "range": 0.0,
        "sensor_name": "HM",
        "label": "SUBJECT held on HM"
      }
    },
    {
      "type": "Feature",
      "id": "02ebf5c6-b2b2-498a-9eda-7c7681d9e5e0",
      "geometry": null,
      "properties": {
        "kind": "SENSOR_CONTACT",
        "parent_track": "SENSOR",
        "time": "2010-01-12T12:24:00+00:00",
        "bearing": 0.6,
        "range": 0.0,
        "sensor_name": "HM",
        "label": "SUBJECT held on HM"
      }
    },
    {
      "type": "Feature",
      "id": "6ede639c-1d4a-483f-977a-31f6e385fb79",
      "geometry": null,
      "properties": {
        "kind": "SENSOR_CONTACT",
        "parent_track": "SENSOR",
        "time": "2010-01-12T12:26:00+00:00",
        "bearing": 0.6,
        "range": 0.0,
        "sensor_name": "HM",
        "label": "SUBJECT held on HM"
      }
    },
    {
      "type": "Feature",
      "id": "dd0853d2-6d05-456a-ad27-4da32109e3c3",
      "geometry": null,
      "properties": {
        "kind": "SENSOR_CONTACT",
        "parent_track": "SENSOR",
        "time": "2010-01-12T12:28:00+00:00",
        "bearing": 0.5,
        "range": 0.0,
        "sensor_name": "HM",
        "label": "SUBJECT held on HM"
      }
    },
    {
      "type": "Feature",
      "id": "6ff4a6f5-c485-43aa-b898-3a30d84cfb9b",
      "geometry": null,
      "properties": {
        "kind": "SENSOR_CONTACT",
        "parent_track": "SENSOR",
        "time": "2010-01-12T12:30:00+00:00",
        "bearing": 0.5,
        "range": 0.0,
        "sensor_name": "HM",
        "label": "SUBJECT held on HM"
      }
    },
    {
      "type": "Feature",
      "id": "e0b1da01-b191-428c-9865-2a312cada417",
      "geometry": null,
      "properties": {
        "kind": "SENSOR_CONTACT",
        "parent_track": "SENSOR",
        "time": "2010-01-12T12:32:00+00:00",
        "bearing": 0.5,
        "range": 0.0,
        "sensor_name": "HM",
        "label": "SUBJECT held on HM"
      }
    },
    {
      "type": "Feature",
      "id": "f78f5217-ae65-474f-9083-73137cd8903f",
      "geometry": null,
      "properties": {
        "kind": "SENSOR_CONTACT",
        "parent_track": "SENSOR",
        "time": "2010-01-12T12:34:00+00:00",
        "bearing": 0.5,
        "range": 0.0,
        "sensor_name": "HM",
        "label": "SUBJECT held on HM"
      }
    },
    {
      "type": "Feature",
      "id": "b4138684-9af1-4433-b81e-2a4d3edc3b2a",
      "geometry": null,
      "properties": {
        "kind": "SENSOR_CONTACT",
        "parent_track": "SENSOR",
        "time": "2010-01-12T12:36:00+00:00",
        "bearing": 0.5,
        "range": 0.0,
        "sensor_name": "HM",
        "label": "SUBJECT held on HM"
      }
    },
    {
      "type": "Feature",
      "id": "1e9398dd-3189-43fd-88e9-09e6afa90383",
      "geometry": null,
      "properties": {
        "kind": "SENSOR_CONTACT",
        "parent_track": "SENSOR",
        "time": "2010-01-12T12:38:00+00:00",
        "bearing": 0.5,
        "range": 0.0,
        "sensor_name": "HM",
        "label": "SUBJECT held on HM"
      }
    },
    {
      "type": "Feature",
      "id": "7b3a1417-69a7-4dd3-bc9d-509b41d7aa83",
      "geometry": null,
      "properties": {
        "kind": "SENSOR_CONTACT",
        "parent_track": "SENSOR",
        "time": "2010-01-12T12:40:00+00:00",
        "bearing": 0.5,
        "range": 0.0,
        "sensor_name": "HM",
        "label": "SUBJECT held on HM"
      }
    },
    {
      "type": "Feature",
      "id": "d00eacc5-bbfa-4ebe-9ca9-58624cf7d731",
      "geometry": null,
      "properties": {
        "kind": "SENSOR_CONTACT",
        "parent_track": "SENSOR",
        "time": "2010-01-12T12:42:00+00:00",
        "bearing": 0.5,
        "range": 0.0,
        "sensor_name": "HM",
        "label": "SUBJECT held on HM"
      }
    },
    {
      "type": "Feature",
      "id": "10a7ef84-bd47-4c39-a2dd-2503f09398a7",
      "geometry": null,
      "properties": {
        "kind": "SENSOR_CONTACT",
        "parent_track": "SENSOR",
        "time": "2010-01-12T12:44:00+00:00",
        "bearing": 0.5,
        "range": 0.0,
        "sensor_name": "HM",
        "label": "SUBJECT held on HM"
      }
    },
    {
      "type": "Feature",
      "id": "7350295c-2508-4086-98c6-8ec7a5eb6e56",
      "geometry": null,
      "properties": {
        "kind": "SENSOR_CONTACT",
        "parent_track": "SENSOR",
        "time": "2010-01-12T12:46:00+00:00",
        "bearing": 0.5,
        "range": 0.0,
        "sensor_name": "HM",
        "label": "SUBJECT held on HM"
      }
    },
    {
      "type": "Feature",
      "id": "1faebc0e-8cd4-49a7-b56b-e09b10f4d48a",
      "geometry": null,
      "properties": {
        "kind": "SENSOR_CONTACT",
        "parent_track": "SENSOR",
        "time": "2010-01-12T12:48:00+00:00",
        "bearing": 0.5,
        "range": 0.0,
        "sensor_name": "HM",
        "label": "SUBJECT held on HM"
      }
    },
    {
      "type": "Feature",
      "id": "07e9ef18-47f2-4125-b34a-b15e26a66b96",
      "geometry": null,
      "properties": {
        "kind": "SENSOR_CONTACT",
        "parent_track": "SENSOR",
        "time": "2010-01-12T12:50:00+00:00",
        "bearing": 0.5,
        "range": 0.0,
        "sensor_name": "HM",
        "label": "SUBJECT held on HM"
      }
    },
    {
      "type": "Feature",
      "id": "8c8abefd-9e17-43e0-86cd-c465eabbf84c",
      "geometry": null,
      "properties": {
        "kind": "SENSOR_CONTACT",
        "parent_track": "SENSOR",
        "time": "2010-01-12T12:52:00+00:00",
        "bearing": 0.3,
        "range": 0.0,
        "sensor_name": "HM",
        "label": "SUBJECT held on HM"
      }
    },
    {
      "type": "Feature",
      "id": "d73d9697-f1e0-4280-8a27-bc3785ab7086",
      "geometry": null,
      "properties": {
        "kind": "SENSOR_CONTACT",
        "parent_track": "SENSOR",
        "time": "2010-01-12T12:54:00+00:00",
        "bearing": 359.6,
        "range": 0.0,
        "sensor_name": "HM",
        "label": "SUBJECT held on HM"
      }
    },
    {
      "type": "Feature",
      "id": "d273999f-42bf-4513-b4b4-0f48b85811ca",
      "geometry": null,
      "properties": {
        "kind": "SENSOR_CONTACT",
        "parent_track": "SENSOR",
        "time": "2010-01-12T12:56:00+00:00",
        "bearing": 358.6,
        "range": 0.0,
        "sensor_name": "HM",
        "label": "SUBJECT held on HM"
      }
    },
    {
      "type": "Feature",
      "id": "cb9054f8-806a-415c-ab79-8bd1e0b28bce",
      "geometry": null,
      "properties": {
        "kind": "SENSOR_CONTACT",
        "parent_track": "SENSOR",
        "time": "2010-01-12T12:58:00+00:00",
        "bearing": 357.6,
        "range": 0.0,
        "sensor_name": "HM",
        "label": "SUBJECT held on HM"
      }
    },
    {
      "type": "Feature",
      "id": "9bbbe89f-2d10-432b-a51f-583f09bc3eec",
      "geometry": null,
      "properties": {
        "kind": "SENSOR_CONTACT",
        "parent_track": "SENSOR",
        "time": "2010-01-12T13:00:00+00:00",
        "bearing": 356.7,
        "range": 0.0,
        "sensor_name": "HM",
        "label": "SUBJECT held on HM"
      }
    },
    {
      "type": "Feature",
      "id": "befc4ba2-084f-4b13-a76e-ed79eda936ae",
      "geometry": null,
      "properties": {
        "kind": "SENSOR_CONTACT",
        "parent_track": "SENSOR",
        "time": "2010-01-12T13:02:00+00:00",
        "bearing": 355.7,
        "range": 0.0,
        "sensor_name": "HM",
        "label": "SUBJECT held on HM"
      }
    },
    {
      "type": "Feature",
      "id": "5eed770b-c31e-4b83-acd6-9ecc50e69013",
      "geometry": null,
      "properties": {
        "kind": "SENSOR_CONTACT",
        "parent_track": "SENSOR",
        "time": "2010-01-12T13:04:00+00:00",
        "bearing": 355.0,
        "range": 0.0,
        "sensor_name": "HM",
        "label": "SUBJECT held on HM"
      }
    },
    {
      "type": "Feature",
      "id": "a71ad42f-e174-49c6-9963-347e9bd28cba",
      "geometry": null,
      "properties": {
        "kind": "SENSOR_CONTACT",
        "parent_track": "SENSOR",
        "time": "2010-01-12T13:06:00+00:00",
        "bearing": 354.5,
        "range": 0.0,
        "sensor_name": "HM",
        "label": "SUBJECT held on HM"
      }
    },
    {
      "type": "Feature",
      "id": "ba1fc842-640b-41fd-b9a4-154fedd95da0",
      "geometry": null,
      "properties": {
        "kind": "SENSOR_CONTACT",
        "parent_track": "SENSOR",
        "time": "2010-01-12T13:08:00+00:00",
        "bearing": 354.2,
        "range": 0.0,
        "sensor_name": "HM",
        "label": "SUBJECT held on HM"
      }
    },
    {
      "type": "Feature",
      "id": "9740e06f-d032-4f45-af7c-444ca68db7ca",
      "geometry": null,
      "properties": {
        "kind": "SENSOR_CONTACT",
        "parent_track": "SENSOR",
        "time": "2010-01-12T13:10:00+00:00",
        "bearing": 354.3,
        "range": 0.0,
        "sensor_name": "HM",
        "label": "SUBJECT held on HM"
      }
    },
    {
      "type": "Feature",
      "id": "5c69a276-9389-4554-8ec8-927598b6fb81",
      "geometry": null,
      "properties": {
        "kind": "SENSOR_CONTACT",
        "parent_track": "SENSOR",
        "time": "2010-01-12T13:12:00+00:00",
        "bearing": 354.7,
        "range": 0.0,
        "sensor_name": "HM",
        "label": "SUBJECT held on HM"
      }
    },
    {
      "type": "Feature",
      "id": "80040bf3-7751-4ebd-b18f-395757951fcf",
      "geometry": null,
      "properties": {
        "kind": "SENSOR_CONTACT",
        "parent_track": "SENSOR",
        "time": "2010-01-12T13:14:00+00:00",
        "bearing": 355.5,
        "range": 0.0,
        "sensor_name": "HM",
        "label": "SUBJECT held on HM"
      }
    },
    {
      "type": "Feature",
      "id": "055eb09a-fc9a-4c53-bd2d-5870eb676a0e",
      "geometry": null,
      "properties": {
        "kind": "SENSOR_CONTACT",
        "parent_track": "SENSOR",
        "time": "2010-01-12T13:16:00+00:00",
        "bearing": 356.4,
        "range": 0.0,
        "sensor_name": "HM",
        "label": "SUBJECT held on HM"
      }
    },
    {
      "type": "Feature",
      "id": "959884a1-a4c5-45c9-8cd5-25fe26f9745d",
      "geometry": null,
      "properties": {
        "kind": "SENSOR_CONTACT",
        "parent_track": "SENSOR",
        "time": "2010-01-12T13:18:00+00:00",
        "bearing": 357.4,
        "range": 0.0,
        "sensor_name": "HM",
        "label": "SUBJECT held on HM"
      }
    },
    {
      "type": "Feature",
      "id": "87953228-7a39-4c28-b16e-5a1cd1806242",
      "geometry": null,
      "properties": {
        "kind": "SENSOR_CONTACT",
        "parent_track": "SENSOR",
        "time": "2010-01-12T13:20:00+00:00",
        "bearing": 358.3,
        "range": 0.0,
        "sensor_name": "HM",
        "label": "SUBJECT held on HM"
      }
    },
    {
      "type": "Feature",
      "id": "a3bc73b1-fc0e-459a-b422-9f83f1cda19b",
      "geometry": null,
      "properties": {
        "kind": "SENSOR_CONTACT",
        "parent_track": "SENSOR",
        "time": "2010-01-12T13:22:00+00:00",
        "bearing": 359.2,
        "range": 0.0,
        "sensor_name": "HM",
        "label": "SUBJECT held on HM"
      }
    },
    {
      "type": "Feature",
      "id": "054b3f42-5d1b-4712-936a-d67ae7587ddc",
      "geometry": null,
      "properties": {
        "kind": "SENSOR_CONTACT",
        "parent_track": "SENSOR",
        "time": "2010-01-12T13:24:00+00:00",
        "bearing": 0.2,
        "range": 0.0,
        "sensor_name": "HM",
        "label": "SUBJECT held on HM"
      }
    },
    {
      "type": "Feature",
      "id": "b140f7c3-c30b-40ba-89d1-7d76c652c044",
      "geometry": null,
      "properties": {
        "kind": "SENSOR_CONTACT",
        "parent_track": "SENSOR",
        "time": "2010-01-12T13:26:00+00:00",
        "bearing": 1.1,
        "range": 0.0,
        "sensor_name": "HM",
        "label": "SUBJECT held on HM"
      }
    },
    {
      "type": "Feature",
      "id": "0097bee9-eb73-43ad-bfa6-9dbe8724bd2b",
      "geometry": null,
      "properties": {
        "kind": "SENSOR_CONTACT",
        "parent_track": "SENSOR",
        "time": "2010-01-12T13:28:00+00:00",
        "bearing": 1.9,
        "range": 0.0,
        "sensor_name": "HM",
        "label": "SUBJECT held on HM"
      }
    },
    {
      "type": "Feature",
      "id": "2a676021-eda5-46e3-9c61-66c9daafe725",
      "geometry": null,
      "properties": {
        "kind": "SENSOR_CONTACT",
        "parent_track": "SENSOR",
        "time": "2010-01-12T13:30:00+00:00",
        "bearing": 2.6,
        "range": 0.0,
        "sensor_name": "HM",
        "label": "SUBJECT held on HM"
      }
    },
    {
      "type": "Feature",
      "id": "73285cc0-430e-4c7e-846e-64afcc8a6c24",
      "geometry": null,
      "properties": {
        "kind": "SENSOR_CONTACT",
        "parent_track": "SENSOR",
        "time": "2010-01-12T13:32:00+00:00",
        "bearing": 2.9,
        "range": 0.0,
        "sensor_name": "HM",
        "label": "SUBJECT held on HM"
      }
    },
    {
      "type": "Feature",
      "id": "6b6d88a5-26c4-4642-8ddc-c993c0fa2b02",
      "geometry": null,
      "properties": {
        "kind": "SENSOR_CONTACT",
        "parent_track": "SENSOR",
        "time": "2010-01-12T13:34:00+00:00",
        "bearing": 3.3,
        "range": 0.0,
        "sensor_name": "HM",
        "label": "SUBJECT held on HM"
      }
    },
    {
      "type": "Feature",
      "id": "34b3651b-cd95-441b-a026-4bd2a7ceb7c7",
      "geometry": null,
      "properties": {
        "kind": "SENSOR_CONTACT",
        "parent_track": "SENSOR",
        "time": "2010-01-12T13:36:00+00:00",
        "bearing": 3.6,
        "range": 0.0,
        "sensor_name": "HM",
        "label": "SUBJECT held on HM"
      }
    },
    {
      "type": "Feature",
      "id": "615d7a21-59b6-4865-8066-c4fb04f854f1",
      "geometry": null,
      "properties": {
        "kind": "SENSOR_CONTACT",
        "parent_track": "SENSOR",
        "time": "2010-01-12T13:38:00+00:00",
        "bearing": 3.9,
        "range": 0.0,
        "sensor_name": "HM",
        "label": "SUBJECT held on HM"
      }
    },
    {
      "type": "Feature",
      "id": "1b52ff2c-a07f-41ff-ae2d-a27f7eb7a0ff",
      "geometry": null,
      "properties": {
        "kind": "SENSOR_CONTACT",
        "parent_track": "SENSOR",
        "time": "2010-01-12T13:40:00+00:00",
        "bearing": 4.3,
        "range": 0.0,
        "sensor_name": "HM",
        "label": "SUBJECT held on HM"
      }
    },
    {
      "type": "Feature",
      "id": "6f6e4698-69a8-4236-8036-d1343e567cb2",
      "geometry": null,
      "properties": {
        "kind": "SENSOR_CONTACT",
        "parent_track": "SENSOR",
        "time": "2010-01-12T13:42:00+00:00",
        "bearing": 4.6,
        "range": 0.0,
        "sensor_name": "HM",
        "label": "SUBJECT held on HM"
      }
    },
    {
      "type": "Feature",
      "id": "70fcaf0b-72de-4dcd-a304-1b10405484f9",
      "geometry": null,
      "properties": {
        "kind": "SENSOR_CONTACT",
        "parent_track": "SENSOR",
        "time": "2010-01-12T13:44:00+00:00",
        "bearing": 4.9,
        "range": 0.0,
        "sensor_name": "HM",
        "label": "SUBJECT held on HM"
      }
    },
    {
      "type": "Feature",
      "id": "da5d5c89-34d1-490a-bad7-2e5b82efcfba",
      "geometry": null,
      "properties": {
        "kind": "SENSOR_CONTACT",
        "parent_track": "SENSOR",
        "time": "2010-01-12T13:46:00+00:00",
        "bearing": 5.2,
        "range": 0.0,
        "sensor_name": "HM",
        "label": "SUBJECT held on HM"
      }
    },
    {
      "type": "Feature",
      "id": "873ab801-1e56-40a8-9cd7-29133d881aca",
      "geometry": null,
      "properties": {
        "kind": "SENSOR_CONTACT",
        "parent_track": "SENSOR",
        "time": "2010-01-12T13:48:00+00:00",
        "bearing": 5.6,
        "range": 0.0,
        "sensor_name": "HM",
        "label": "SUBJECT held on HM"
      }
    },
    {
      "type": "Feature",
      "id": "b9352db0-e3a4-45ab-b387-406641c3a329",
      "geometry": null,
      "properties": {
        "kind": "SENSOR_CONTACT",
        "parent_track": "SENSOR",
        "time": "2010-01-12T13:50:00+00:00",
        "bearing": 6.3,
        "range": 0.0,
        "sensor_name": "HM",
        "label": "SUBJECT held on HM"
      }
    },
    {
      "type": "Feature",
      "id": "375afe03-f456-467e-a02e-ed83da38ac02",
      "geometry": null,
      "properties": {
        "kind": "SENSOR_CONTACT",
        "parent_track": "SENSOR",
        "time": "2010-01-12T13:52:00+00:00",
        "bearing": 7.1,
        "range": 0.0,
        "sensor_name": "HM",
        "label": "SUBJECT held on HM"
      }
    },
    {
      "type": "Feature",
      "id": "732247c1-371b-4056-8aa3-173215e6cb26",
      "geometry": null,
      "properties": {
        "kind": "SENSOR_CONTACT",
        "parent_track": "SENSOR",
        "time": "2010-01-12T13:54:00+00:00",
        "bearing": 7.9,
        "range": 0.0,
        "sensor_name": "HM",
        "label": "SUBJECT held on HM"
      }
    },
    {
      "type": "Feature",
      "id": "66ee3f25-bf84-4b89-be35-901437de6739",
      "geometry": null,
      "properties": {
        "kind": "SENSOR_CONTACT",
        "parent_track": "SENSOR",
        "time": "2010-01-12T13:56:00+00:00",
        "bearing": 8.5,
        "range": 0.0,
        "sensor_name": "HM",
        "label": "SUBJECT held on HM"
      }
    },
    {
      "type": "Feature",
      "id": "3de0f68f-2ca7-42d9-b4c8-dfc96d77d37d",
      "geometry": null,
      "properties": {
        "kind": "SENSOR_CONTACT",
        "parent_track": "SENSOR",
        "time": "2010-01-12T13:58:00+00:00",
        "bearing": 9.2,
        "range": 0.0,
        "sensor_name": "HM",
        "label": "SUBJECT held on HM"
      }
    },
    {
      "type": "Feature",
      "id": "64c22792-e333-4903-a8f1-8273d6506a37",
      "geometry": null,
      "properties": {
        "kind": "SENSOR_CONTACT",
        "parent_track": "SENSOR",
        "time": "2010-01-12T14:00:00+00:00",
        "bearing": 9.8,
        "range": 0.0,
        "sensor_name": "HM",
        "label": "SUBJECT held on HM"
      }
    },
    {
      "type": "Feature",
      "id": "9c9a3065-56bd-4d4e-ab07-a1071592e6f0",
      "geometry": null,
      "properties": {
        "kind": "SENSOR_CONTACT",
        "parent_track": "SENSOR",
        "time": "2010-01-12T14:02:00+00:00",
        "bearing": 10.4,
        "range": 0.0,
        "sensor_name": "HM",
        "label": "SUBJECT held on HM"
      }
    },
    {
      "type": "Feature",
      "id": "e5490ef8-17bc-4e9b-a620-dcbb005a2108",
      "geometry": null,
      "properties": {
        "kind": "SENSOR_CONTACT",
        "parent_track": "SENSOR",
        "time": "2010-01-12T14:04:00+00:00",
        "bearing": 11.1,
        "range": 0.0,
        "sensor_name": "HM",
        "label": "SUBJECT held on HM"
      }
    },
    {
      "type": "Feature",
      "id": "7d33420e-34c8-433d-b3ee-2e0fbcdb53fe",
      "geometry": null,
      "properties": {
        "kind": "SENSOR_CONTACT",
        "parent_track": "SENSOR",
        "time": "2010-01-12T14:06:00+00:00",
        "bearing": 11.7,
        "range": 0.0,
        "sensor_name": "HM",
        "label": "SUBJECT held on HM"
      }
    },
    {
      "type": "Feature",
      "id": "10b51c32-3831-4774-a059-e4705ae11c40",
      "geometry": null,
      "properties": {
        "kind": "SENSOR_CONTACT",
        "parent_track": "SENSOR",
        "time": "2010-01-12T14:08:00+00:00",
        "bearing": 12.4,
        "range": 0.0,
        "sensor_name": "HM",
        "label": "SUBJECT held on HM"
      }
    },
    {
      "type": "Feature",
      "id": "220217ed-38df-4b23-aeee-c4daacebb5e5",
      "geometry": null,
      "properties": {
        "kind": "SENSOR_CONTACT",
        "parent_track": "SENSOR",
        "time": "2010-01-12T14:10:00+00:00",
        "bearing": 13.1,
        "range": 0.0,
        "sensor_name": "HM",
        "label": "SUBJECT held on HM"
      }
    },
    {
      "type": "Feature",
      "id": "71e2f2c2-89fd-40c6-9133-a6d7ba278c3c",
      "geometry": null,
      "properties": {
        "kind": "SENSOR_CONTACT",
        "parent_track": "SENSOR",
        "time": "2010-01-12T14:12:00+00:00",
        "bearing": 13.7,
        "range": 0.0,
        "sensor_name": "HM",
        "label": "SUBJECT held on HM"
      }
    },
    {
      "type": "Feature",
      "id": "4e266d0d-0e31-4704-8421-c122fcafa1ff",
      "geometry": null,
      "properties": {
        "kind": "SENSOR_CONTACT",
        "parent_track": "SENSOR",
        "time": "2010-01-12T14:14:00+00:00",
        "bearing": 14.4,
        "range": 0.0,
        "sensor_name": "HM",
        "label": "SUBJECT held on HM"
      }
    },
    {
      "type": "Feature",
      "id": "3c133418-16a4-49ab-8830-4e7e444b529a",
      "geometry": null,
      "properties": {
        "kind": "SENSOR_CONTACT",
        "parent_track": "SENSOR",
        "time": "2010-01-12T14:16:00+00:00",
        "bearing": 14.8,
        "range": 0.0,
        "sensor_name": "HM",
        "label": "SUBJECT held on HM"
      }
    },
    {
      "type": "Feature",
      "id": "02085f55-292a-441c-985a-09240c38d4c2",
      "geometry": null,
      "properties": {
        "kind": "SENSOR_CONTACT",
        "parent_track": "SENSOR",
        "time": "2010-01-12T14:18:00+00:00",
        "bearing": 15.0,
        "range": 0.0,
        "sensor_name": "HM",
        "label": "SUBJECT held on HM"
      }
    },
    {
      "type": "Feature",
      "id": "bcb7e353-7c19-4d49-989d-215e41859aa2",
      "geometry": null,
      "properties": {
        "kind": "SENSOR_CONTACT",
        "parent_track": "SENSOR",
        "time": "2010-01-12T14:20:00+00:00",
        "bearing": 15.3,
        "range": 0.0,
        "sensor_name": "HM",
        "label": "SUBJECT held on HM"
      }
    },
    {
      "type": "Feature",
      "id": "4eea3720-9ac2-4a68-83bd-b7e926440ac4",
      "geometry": null,
      "properties": {
        "kind": "SENSOR_CONTACT",
        "parent_track": "SENSOR",
        "time": "2010-01-12T14:22:00+00:00",
        "bearing": 15.5,
        "range": 0.0,
        "sensor_name": "HM",
        "label": "SUBJECT held on HM"
      }
    },
    {
      "type": "Feature",
      "id": "b72250d5-c970-42f9-ba98-4f9616e32fac",
      "geometry": null,
      "properties": {
        "kind": "SENSOR_CONTACT",
        "parent_track": "SENSOR",
        "time": "2010-01-12T14:24:00+00:00",
        "bearing": 15.8,
        "range": 0.0,
        "sensor_name": "HM",
        "label": "SUBJECT held on HM"
      }
    },
    {
      "type": "Feature",
      "id": "9af9be9b-3621-45c9-84dc-14ee5ab96b36",
      "geometry": null,
      "properties": {
        "kind": "SENSOR_CONTACT",
        "parent_track": "SENSOR",
        "time": "2010-01-12T14:26:00+00:00",
        "bearing": 16.0,
        "range": 0.0,
        "sensor_name": "HM",
        "label": "SUBJECT held on HM"
      }
    },
    {
      "type": "Feature",
      "id": "8c4ab6cb-9fdb-449e-b57b-5b7bfc23d0d9",
      "geometry": null,
      "properties": {
        "kind": "SENSOR_CONTACT",
        "parent_track": "SENSOR",
        "time": "2010-01-12T14:28:00+00:00",
        "bearing": 16.2,
        "range": 0.0,
        "sensor_name": "HM",
        "label": "SUBJECT held on HM"
      }
    },
    {
      "type": "Feature",
      "id": "1e0c606f-f208-45be-a1fd-d63007337d90",
      "geometry": null,
      "properties": {
        "kind": "SENSOR_CONTACT",
        "parent_track": "SENSOR",
        "time": "2010-01-12T14:30:00+00:00",
        "bearing": 16.5,
        "range": 0.0,
        "sensor_name": "HM",
        "label": "SUBJECT held on HM"
      }
    },
    {
      "type": "Feature",
      "id": "1522e5e5-d75d-4caa-adb7-17b66c8b09e9",
      "geometry": null,
      "properties": {
        "kind": "SENSOR_CONTACT",
        "parent_track": "SENSOR",
        "time": "2010-01-12T14:32:00+00:00",
        "bearing": 16.7,
        "range": 0.0,
        "sensor_name": "HM",
        "label": "SUBJECT held on HM"
      }
    },
    {
      "type": "Feature",
      "id": "84a918d7-9f3e-41b4-9957-65fd6ec214bf",
      "geometry": null,
      "properties": {
        "kind": "SENSOR_CONTACT",
        "parent_track": "SENSOR",
        "time": "2010-01-12T14:34:00+00:00",
        "bearing": 17.1,
        "range": 0.0,
        "sensor_name": "HM",
        "label": "SUBJECT held on HM"
      }
    },
    {
      "type": "Feature",
      "id": "8eee64c4-a4c2-4e76-98e9-fcfce99c11b3",
      "geometry": null,
      "properties": {
        "kind": "SENSOR_CONTACT",
        "parent_track": "SENSOR",
        "time": "2010-01-12T14:36:00+00:00",
        "bearing": 17.4,
        "range": 0.0,
        "sensor_name": "HM",
        "label": "SUBJECT held on HM"
      }
    },
    {
      "type": "Feature",
      "id": "b96d44b8-2630-4975-a101-855b0b280bcd",
      "geometry": null,
      "properties": {
        "kind": "SENSOR_CONTACT",
        "parent_track": "SENSOR",
        "time": "2010-01-12T14:38:00+00:00",
        "bearing": 17.8,
        "range": 0.0,
        "sensor_name": "HM",
        "label": "SUBJECT held on HM"
      }
    },
    {
      "type": "Feature",
      "id": "b961ac87-fa9e-45ab-9d20-be1c174ea7c4",
      "geometry": null,
      "properties": {
        "kind": "SENSOR_CONTACT",
        "parent_track": "SENSOR",
        "time": "2010-01-12T14:40:00+00:00",
        "bearing": 18.2,
        "range": 0.0,
        "sensor_name": "HM",
        "label": "SUBJECT held on HM"
      }
    },
    {
      "type": "Feature",
      "id": "fc6e6bee-190e-47d2-b250-11acf0641137",
      "geometry": null,
      "properties": {
        "kind": "SENSOR_CONTACT",
        "parent_track": "SENSOR",
        "time": "2010-01-12T14:42:00+00:00",
        "bearing": 18.5,
        "range": 0.0,
        "sensor_name": "HM",
        "label": "SUBJECT held on HM"
      }
    },
    {
      "type": "Feature",
      "id": "e3931b2c-a4f2-4f46-a999-5385b90945c0",
      "geometry": null,
      "properties": {
        "kind": "SENSOR_CONTACT",
        "parent_track": "SENSOR",
        "time": "2010-01-12T14:44:00+00:00",
        "bearing": 18.9,
        "range": 0.0,
        "sensor_name": "HM",
        "label": "SUBJECT held on HM"
      }
    },
    {
      "type": "Feature",
      "id": "4c5426c8-b0dc-4051-a577-52d59fb7767a",
      "geometry": null,
      "properties": {
        "kind": "SENSOR_CONTACT",
        "parent_track": "SENSOR",
        "time": "2010-01-12T14:46:00+00:00",
        "bearing": 19.3,
        "range": 0.0,
        "sensor_name": "HM",
        "label": "SUBJECT held on HM"
      }
    },
    {
      "type": "Feature",
      "id": "1af638f3-4e0b-48e8-9d6e-dedfb03d72c9",
      "geometry": null,
      "properties": {
        "kind": "SENSOR_CONTACT",
        "parent_track": "SENSOR",
        "time": "2010-01-12T14:48:00+00:00",
        "bearing": 19.6,
        "range": 0.0,
        "sensor_name": "HM",
        "label": "SUBJECT held on HM"
      }
    },
    {
      "type": "Feature",
      "id": "16a9f36a-68c6-4164-accc-3204dd111228",
      "geometry": null,
      "properties": {
        "kind": "SENSOR_CONTACT",
        "parent_track": "SENSOR",
        "time": "2010-01-12T14:50:00+00:00",
        "bearing": 20.0,
        "range": 0.0,
        "sensor_name": "HM",
        "label": "SUBJECT held on HM"
      }
    },
    {
      "type": "Feature",
      "id": "07a96496-b091-4cd5-86e6-b4b38c8ecafd",
      "geometry": null,
      "properties": {
        "kind": "SENSOR_CONTACT",
        "parent_track": "SENSOR",
        "time": "2010-01-12T14:52:00+00:00",
        "bearing": 20.4,
        "range": 0.0,
        "sensor_name": "HM",
        "label": "SUBJECT held on HM"
      }
    },
    {
      "type": "Feature",
      "id": "c4935095-58d3-4920-8d36-d827ced16846",
      "geometry": null,
      "properties": {
        "kind": "SENSOR_CONTACT",
        "parent_track": "SENSOR",
        "time": "2010-01-12T14:54:00+00:00",
        "bearing": 20.6,
        "range": 0.0,
        "sensor_name": "HM",
        "label": "SUBJECT held on HM"
      }
    },
    {
      "type": "Feature",
      "id": "c6058194-09fb-486a-9478-e7f4903a3d89",
      "geometry": null,
      "properties": {
        "kind": "SENSOR_CONTACT",
        "parent_track": "SENSOR",
        "time": "2010-01-12T14:56:00+00:00",
        "bearing": 20.6,
        "range": 0.0,
        "sensor_name": "HM",
        "label": "SUBJECT held on HM"
      }
    },
    {
      "type": "Feature",
      "id": "1f1b9882-c5eb-43e7-bcfe-a77c41c54743",
      "geometry": null,
      "properties": {
        "kind": "SENSOR_CONTACT",
        "parent_track": "SENSOR",
        "time": "2010-01-12T14:58:00+00:00",
        "bearing": 20.6,
        "range": 0.0,
        "sensor_name": "HM",
        "label": "SUBJECT held on HM"
      }
    },
    {
      "type": "Feature",
      "id": "f7a1e234-5cca-48db-984b-3e285d65d58e",
      "geometry": null,
      "properties": {
        "kind": "SENSOR_CONTACT",
        "parent_track": "SENSOR",
        "time": "2010-01-12T15:00:00+00:00",
        "bearing": 20.6,
        "range": 0.0,
        "sensor_name": "HM",
        "label": "SUBJECT held on HM"
      }
    },
    {
      "type": "Feature",
      "id": "8a00e7f0-3106-4e06-afd6-9fa68c389ebb",
      "geometry": null,
      "properties": {
        "kind": "SENSOR_CONTACT",
        "parent_track": "SENSOR",
        "time": "2010-01-12T15:02:00+00:00",
        "bearing": 20.5,
        "range": 0.0,
        "sensor_name": "HM",
        "label": "SUBJECT held on HM"
      }
    },
    {
      "type": "Feature",
      "id": "89bb1b43-2eb9-4513-9e5e-c3dfe5e0337b",
      "geometry": null,
      "properties": {
        "kind": "SENSOR_CONTACT",
        "parent_track": "SENSOR",
        "time": "2010-01-12T15:04:00+00:00",
        "bearing": 20.5,
        "range": 0.0,
        "sensor_name": "HM",
        "label": "SUBJECT held on HM"
      }
    },
    {
      "type": "Feature",
      "id": "263460ac-58c7-4e0d-b521-4e282675a07a",
      "geometry": null,
      "properties": {
        "kind": "SENSOR_CONTACT",
        "parent_track": "SENSOR",
        "time": "2010-01-12T15:06:00+00:00",
        "bearing": 20.5,
        "range": 0.0,
        "sensor_name": "HM",
        "label": "SUBJECT held on HM"
      }
    },
    {
      "type": "Feature",
      "id": "8364de84-45b2-45c7-9ede-f5e23b5fb933",
      "geometry": null,
      "properties": {
        "kind": "SENSOR_CONTACT",
        "parent_track": "SENSOR",
        "time": "2010-01-12T15:08:00+00:00",
        "bearing": 20.6,
        "range": 0.0,
        "sensor_name": "HM",
        "label": "SUBJECT held on HM"
      }
    },
    {
      "type": "Feature",
      "id": "c965e8c8-c836-4bce-a605-ec9718e8b1d8",
      "geometry": null,
      "properties": {
        "kind": "SENSOR_CONTACT",
        "parent_track": "SENSOR",
        "time": "2010-01-12T15:10:00+00:00",
        "bearing": 20.9,
        "range": 0.0,
        "sensor_name": "HM",
        "label": "SUBJECT held on HM"
      }
    },
    {
      "type": "Feature",
      "id": "085eb5a3-09cc-41ce-bb78-d3c1d403702c",
      "geometry": null,
      "properties": {
        "kind": "SENSOR_CONTACT",
        "parent_track": "SENSOR",
        "time": "2010-01-12T15:12:00+00:00",
        "bearing": 21.3,
        "range": 0.0,
        "sensor_name": "HM",
        "label": "SUBJECT held on HM"
      }
    },
    {
      "type": "Feature",
      "id": "c2cc8824-c9e5-4247-b3c8-5ec0ec5775a9",
      "geometry": null,
      "properties": {
        "kind": "SENSOR_CONTACT",
        "parent_track": "SENSOR",
        "time": "2010-01-12T15:14:00+00:00",
        "bearing": 21.7,
        "range": 0.0,
        "sensor_name": "HM",
        "label": "SUBJECT held on HM"
      }
    },
    {
      "type": "Feature",
      "id": "9b28d776-edf5-4d04-b8e2-173091662922",
      "geometry": null,
      "properties": {
        "kind": "SENSOR_CONTACT",
        "parent_track": "SENSOR",
        "time": "2010-01-12T15:16:00+00:00",
        "bearing": 22.0,
        "range": 0.0,
        "sensor_name": "HM",
        "label": "SUBJECT held on HM"
      }
    },
    {
      "type": "Feature",
      "id": "5136cae7-a7d7-44eb-88b3-3c457c08b488",
      "geometry": null,
      "properties": {
        "kind": "SENSOR_CONTACT",
        "parent_track": "SENSOR",
        "time": "2010-01-12T15:18:00+00:00",
        "bearing": 22.4,
        "range": 0.0,
        "sensor_name": "HM",
        "label": "SUBJECT held on HM"
      }
    },
    {
      "type": "Feature",
      "id": "c46fc396-6bfa-4415-a05e-9c7fde157144",
      "geometry": null,
      "properties": {
        "kind": "SENSOR_CONTACT",
        "parent_track": "SENSOR",
        "time": "2010-01-12T15:20:00+00:00",
        "bearing": 22.8,
        "range": 0.0,
        "sensor_name": "HM",
        "label": "SUBJECT held on HM"
      }
    },
    {
      "type": "Feature",
      "id": "ca256b7d-f611-407a-9a4b-d94322c0254b",
      "geometry": null,
      "properties": {
        "kind": "SENSOR_CONTACT",
        "parent_track": "SENSOR",
        "time": "2010-01-12T15:22:00+00:00",
        "bearing": 23.2,
        "range": 0.0,
        "sensor_name": "HM",
        "label": "SUBJECT held on HM"
      }
    },
    {
      "type": "Feature",
      "id": "c3a4e493-b6fd-43bb-94c9-28e03a59b611",
      "geometry": null,
      "properties": {
        "kind": "SENSOR_CONTACT",
        "parent_track": "SENSOR",
        "time": "2010-01-12T15:24:00+00:00",
        "bearing": 23.6,
        "range": 0.0,
        "sensor_name": "HM",
        "label": "SUBJECT held on HM"
      }
    },
    {
      "type": "Feature",
      "id": "982110d2-5770-4dee-8f8f-aa8cf680f01b",
      "geometry": null,
      "properties": {
        "kind": "SENSOR_CONTACT",
        "parent_track": "SENSOR",
        "time": "2010-01-12T15:26:00+00:00",
        "bearing": 23.9,
        "range": 0.0,
        "sensor_name": "HM",
        "label": "SUBJECT held on HM"
      }
    },
    {
      "type": "Feature",
      "id": "4983a5ae-1f3d-4b8b-bcf7-96fed3a9d3c2",
      "geometry": null,
      "properties": {
        "kind": "SENSOR_CONTACT",
        "parent_track": "SENSOR",
        "time": "2010-01-12T15:28:00+00:00",
        "bearing": 24.3,
        "range": 0.0,
        "sensor_name": "HM",
        "label": "SUBJECT held on HM"
      }
    },
    {
      "type": "Feature",
      "id": "164b5ff1-d80d-42a5-80f5-644ca7c8697d",
      "geometry": null,
      "properties": {
        "kind": "SENSOR_CONTACT",
        "parent_track": "SENSOR",
        "time": "2010-01-12T15:30:00+00:00",
        "bearing": 24.7,
        "range": 0.0,
        "sensor_name": "HM",
        "label": "SUBJECT held on HM"
      }
    },
    {
      "type": "Feature",
      "id": "cbb75601-2aec-4247-bda7-cb9f7cbef6bd",
      "geometry": null,
      "properties": {
        "kind": "SENSOR_CONTACT",
        "parent_track": "SENSOR",
        "time": "2010-01-12T15:32:00+00:00",
        "bearing": 25.1,
        "range": 0.0,
        "sensor_name": "HM",
        "label": "SUBJECT held on HM"
      }
    },
    {
      "type": "Feature",
      "id": "399cf69a-c47c-490e-8f51-a2a010f837ec",
      "geometry": null,
      "properties": {
        "kind": "SENSOR_CONTACT",
        "parent_track": "SENSOR",
        "time": "2010-01-12T15:34:00+00:00",
        "bearing": 25.3,
        "range": 0.0,
        "sensor_name": "HM",
        "label": "SUBJECT held on HM"
      }
    },
    {
      "type": "Feature",
      "id": "28d6e34d-3ce8-4dd6-8865-b12b4c1d7ecf",
      "geometry": null,
      "properties": {
        "kind": "SENSOR_CONTACT",
        "parent_track": "SENSOR",
        "time": "2010-01-12T15:36:00+00:00",
        "bearing": 25.3,
        "range": 0.0,
        "sensor_name": "HM",
        "label": "SUBJECT held on HM"
      }
    },
    {
      "type": "Feature",
      "id": "19111a84-b8aa-48b4-b880-2d6046107576",
      "geometry": null,
      "properties": {
        "kind": "SENSOR_CONTACT",
        "parent_track": "SENSOR",
        "time": "2010-01-12T15:38:00+00:00",
        "bearing": 25.3,
        "range": 0.0,
        "sensor_name": "HM",
        "label": "SUBJECT held on HM"
      }
    },
    {
      "type": "Feature",
      "id": "82b8207e-0538-4d4a-9651-6fff12091309",
      "geometry": null,
      "properties": {
        "kind": "SENSOR_CONTACT",
        "parent_track": "SENSOR",
        "time": "2010-01-12T15:40:00+00:00",
        "bearing": 25.3,
        "range": 0.0,
        "sensor_name": "HM",
        "label": "SUBJECT held on HM"
      }
    },
    {
      "type": "Feature",
      "id": "c6364f39-a750-42d4-80fe-38119651636c",
      "geometry": null,
      "properties": {
        "kind": "SENSOR_CONTACT",
        "parent_track": "SENSOR",
        "time": "2010-01-12T15:42:00+00:00",
        "bearing": 25.3,
        "range": 0.0,
        "sensor_name": "HM",
        "label": "SUBJECT held on HM"
      }
    },
    {
      "type": "Feature",
      "id": "f04b188e-e509-40ab-986a-cdba75c3950a",
      "geometry": null,
      "properties": {
        "kind": "SENSOR_CONTACT",
        "parent_track": "SENSOR",
        "time": "2010-01-12T15:44:00+00:00",
        "bearing": 25.3,
        "range": 0.0,
        "sensor_name": "HM",
        "label": "SUBJECT held on HM"
      }
    },
    {
      "type": "Feature",
      "id": "715f72b1-2205-4de0-a4e4-23568de1ff30",
      "geometry": null,
      "properties": {
        "kind": "SENSOR_CONTACT",
        "parent_track": "SENSOR",
        "time": "2010-01-12T15:46:00+00:00",
        "bearing": 25.3,
        "range": 0.0,
        "sensor_name": "HM",
        "label": "SUBJECT held on HM"
      }
    },
    {
      "type": "Feature",
      "id": "8b613cfa-a955-41f6-a31b-eac5051d7132",
      "geometry": null,
      "properties": {
        "kind": "SENSOR_CONTACT",
        "parent_track": "SENSOR",
        "time": "2010-01-12T15:48:00+00:00",
        "bearing": 25.3,
        "range": 0.0,
        "sensor_name": "HM",
        "label": "SUBJECT held on HM"
      }
    },
    {
      "type": "Feature",
      "id": "ad9fc386-dc9e-4a69-b9f9-27e1e3ce2643",
      "geometry": null,
      "properties": {
        "kind": "SENSOR_CONTACT",
        "parent_track": "SENSOR",
        "time": "2010-01-12T15:50:00+00:00",
        "bearing": 25.3,
        "range": 0.0,
        "sensor_name": "HM",
        "label": "SUBJECT held on HM"
      }
    },
    {
      "type": "Feature",
      "id": "51269e6f-a603-409c-8ca7-189e5f73eaf2",
      "geometry": null,
      "properties": {
        "kind": "SENSOR_CONTACT",
        "parent_track": "SENSOR",
        "time": "2010-01-12T15:52:00+00:00",
        "bearing": 25.3,
        "range": 0.0,
        "sensor_name": "HM",
        "label": "SUBJECT held on HM"
      }
    },
    {
      "type": "Feature",
      "id": "28c16370-4130-4d87-ac75-054f5ec88292",
      "geometry": null,
      "properties": {
        "kind": "SENSOR_CONTACT",
        "parent_track": "SENSOR",
        "time": "2010-01-12T15:54:00+00:00",
        "bearing": 25.3,
        "range": 0.0,
        "sensor_name": "HM",
        "label": "SUBJECT held on HM"
      }
    },
    {
      "type": "Feature",
      "id": "2a50e258-4825-4ba9-9010-bd457d4dd9cc",
      "geometry": null,
      "properties": {
        "kind": "SENSOR_CONTACT",
        "parent_track": "SENSOR",
        "time": "2010-01-12T15:56:00+00:00",
        "bearing": 25.7,
        "range": 0.0,
        "sensor_name": "HM",
        "label": "SUBJECT held on HM"
      }
    },
    {
      "type": "Feature",
      "id": "670d3c25-b06c-49ff-a101-7945d3bfc00d",
      "geometry": null,
      "properties": {
        "kind": "SENSOR_CONTACT",
        "parent_track": "SENSOR",
        "time": "2010-01-12T15:58:00+00:00",
        "bearing": 26.1,
        "range": 0.0,
        "sensor_name": "HM",
        "label": "SUBJECT held on HM"
      }
    },
    {
      "type": "Feature",
      "id": "54714a05-625d-4483-aeb5-304b77737868",
      "geometry": null,
      "properties": {
        "kind": "SENSOR_CONTACT",
        "parent_track": "SENSOR",
        "time": "2010-01-12T16:00:00+00:00",
        "bearing": 26.5,
        "range": 0.0,
        "sensor_name": "HM",
        "label": "SUBJECT held on HM"
      }
    }
  ]
}