{
  "type": "FeatureCollection",
  "features": [
    {
      "type": "Feature",
      "id": "9fedf476-f176-4462-bbaf-5179e4bff331",
      "geometry": {
        "type": "LineString",
        "coordinates": [
          [
            0.2,
            60.2
          ],
          [
            0.19808888888888887,
            60.19738888888889
          ],
          [
            0.19617777777777776,
            60.19478055555555
          ],
          [
            0.19426666666666664,
            60.19216944444444
          ],
          [
            0.19235555555555553,
            60.18955833333333
          ],
          [
            0.19044444444444444,
            60.186949999999996
          ],
          [
            0.18853333333333333,
            60.18433888888889
          ],
          [
            0.18662222222222222,
            60.18172777777777
          ],
          [
            0.1847111111111111,
            60.179116666666665
          ],
          [
            0.1828,
            60.17650833333333
          ],
          [
            0.18089166666666665,
            60.17389722222222
          ],
          [
            0.17898055555555553,
            60.17128611111111
          ],
          [
            0.17706944444444445,
            60.16867777777777
          ],
          [
            0.1751611111111111,
            60.166066666666666
          ],
          [
            0.17325,
            60.16345555555555
          ],
          [
            0.17134166666666667,
            60.16084722222222
          ],
          [
            0.16943333333333332,
            60.15823611111111
          ],
          [
            0.1675222222222222,
            60.155625
          ],
          [
            0.1656138888888889,
            60.153016666666666
          ],
          [
            0.16370555555555555,
            60.15040555555555
          ],
          [
            0.1617972222222222,
            60.14779444444444
          ],
          [
            0.15988888888888889,
            60.145183333333335
          ],
          [
            0.15798055555555554,
            60.142575
          ],
          [
            0.15607222222222222,
            60.139963888888886
          ],
          [
            0.15416388888888888,
            60.13735277777778
          ],
          [
            0.15225555555555556,
            60.13474444444444
          ],
          [
            0.15034722222222222,
            60.132133333333336
          ],
          [
            0.1484388888888889,
            60.12952222222222
          ],
          [
            0.14653333333333332,
            60.126913888888886
          ],
          [
            0.144625,
            60.12430277777778
          ],
          [
            0.14097777777777779,
            60.12229166666667
          ],
          [
            0.13555,
            60.122119444444444
          ],
          [
            0.13108611111111113,
            60.123736111111114
          ],
          [
            0.12699722222222223,
            60.12562777777778
          ],
          [
            0.12291111111111111,
            60.127516666666665
          ],
          [
            0.11882222222222222,
            60.12940555555556
          ],
          [
            0.11473333333333334,
            60.13129722222222
          ],
          [
            0.11064444444444445,
            60.13318611111111
          ],
          [
            0.10655833333333334,
            60.135075
          ],
          [
            0.10246944444444445,
            60.136963888888886
          ],
          [
            0.09837777777777777,
            60.13885555555556
          ],
          [
            0.09428888888888888,
            60.140744444444444
          ],
          [
            0.0902,
            60.142633333333336
          ],
          [
            0.08611111111111111,
            60.14452222222222
          ],
          [
            0.08201944444444445,
            60.14641388888889
          ],
          [
            0.07793055555555556,
            60.14830277777778
          ],
          [
            0.07383888888888888,
            60.150191666666665
          ],
          [
            0.06974999999999999,
            60.15208055555556
          ],
          [
            0.06565833333333333,
            60.15397222222222
          ],
          [
            0.06156666666666667,
            60.15586111111111
          ],
          [
            0.057475000000000005,
            60.15775
          ],
          [
            0.05338333333333334,
            60.159641666666666
          ],
          [
            0.049291666666666664,
            60.16153055555555
          ],
          [
            0.0452,
            60.16341944444444
          ],
          [
            0.04110833333333333,
            60.16530833333333
          ],
          [
            0.03701388888888889,
            60.1672
          ],
          [
            0.03292222222222223,
            60.169088888888886
          ],
          [
            0.02882777777777778,
            60.17097777777778
          ],
          [
            0.02473611111111111,
            60.172866666666664
          ],
          [
            0.020641666666666666,
            60.17475833333333
          ],
          [
            0.016547222222222224,
            60.17664722222222
          ],
          [
            0.012452777777777778,
            60.17853611111111
          ],
          [
            0.00836111111111111,
            60.180425
          ],
          [
            0.004263888888888889,
            60.182316666666665
          ],
          [
            0.00016944444444444445,
            60.18420555555555
          ],
          [
            -0.0039250000000000005,
            60.18609444444444
          ],
          [
            -0.006230555555555555,
            60.18855
          ],
          [
            -0.004438888888888889,
            60.19110833333333
          ],
          [
            0.0002138888888888889,
            60.192616666666666
          ],
          [
            0.005130555555555555,
            60.19393611111111
          ],
          [
            0.01005,
            60.195255555555555
          ],
          [
            0.014966666666666668,
            60.196574999999996
          ],
          [
            0.019883333333333333,
            60.197894444444444
          ],
          [
            0.024802777777777778,
            60.199213888888885
          ],
          [
            0.029722222222222223,
            60.20053333333334
          ],
          [
            0.034638888888888886,
            60.20185277777778
          ],
          [
            0.039558333333333334,
            60.20317222222223
          ],
          [
            0.044477777777777776,
            60.20449166666667
          ],
          [
            0.04939722222222222,
            60.20581111111112
          ],
          [
            0.05431388888888889,
            60.20713333333334
          ],
          [
            0.05923333333333334,
            60.20845277777778
          ],
          [
            0.06415555555555556,
            60.20977222222223
          ],
          [
            0.069075,
            60.21109166666667
          ],
          [
            0.07399444444444445,
            60.212411111111116
          ],
          [
            0.0789138888888889,
            60.21373055555556
          ],
          [
            0.08383611111111111,
            60.215050000000005
          ],
          [
            0.08875555555555555,
            60.216369444444446
          ],
          [
            0.09367777777777778,
            60.217688888888894
          ],
          [
            0.09859722222222222,
            60.219008333333335
          ],
          [
            0.10351944444444446,
            60.220330555555556
          ],
          [
            0.10843888888888889,
            60.221650000000004
          ],
          [
            0.11336111111111112,
            60.222969444444445
          ],
          [
            0.11828333333333334,
            60.22428888888889
          ],
          [
            0.12320555555555555,
            60.225608333333334
          ],
          [
            0.12812777777777778,
            60.22692777777778
          ],
          [
            0.13305,
            60.22824722222222
          ],
          [
            0.13797222222222222,
            60.22956666666667
          ],
          [
            0.14289722222222223,
            60.23088611111111
          ],
          [
            0.14781944444444445,
            60.23220555555556
          ],
          [
            0.15274166666666666,
            60.233525
          ],
          [
            0.15766666666666665,
            60.23484722222222
          ],
          [
            0.1625888888888889,
            60.23616666666667
          ],
          [
            0.16751388888888888,
            60.23748611111111
          ],
          [
            0.1724361111111111,
            60.23880555555556
          ],
          [
            0.1773611111111111,
            60.240125
          ],
          [
            0.1822861111111111,
            60.24144444444445
          ],
          [
            0.1872111111111111,
            60.24276388888889
          ],
          [
            0.1921361111111111,
            60.244083333333336
          ],
          [
            0.1970611111111111,
            60.24540277777778
          ],
          [
            0.20198611111111112,
            60.246722222222225
          ],
          [
            0.20691111111111113,
            60.248041666666666
          ],
          [
            0.21183611111111111,
            60.24936388888889
          ],
          [
            0.21676111111111113,
            60.250683333333335
          ],
          [
            0.2216888888888889,
            60.252002777777776
          ],
          [
            0.2266138888888889,
            60.253322222222224
          ],
          [
            0.23154166666666667,
            60.254641666666664
          ],
          [
            0.23646666666666666,
            60.25596111111111
          ],
          [
            0.24139444444444444,
            60.25728055555555
          ],
          [
            0.24632222222222222,
            60.2586
          ],
          [
            0.25124722222222223,
            60.25991944444444
          ],
          [
            0.256175,
            60.26123888888889
          ],
          [
            0.2611027777777778,
            60.26255833333333
          ],
          [
            0.26603055555555555,
            60.26388055555555
          ],
          [
            0.27095833333333336,
            60.2652
          ],
          [
            0.2758861111111111,
            60.26651944444444
          ],
          [
            0.28081666666666666,
            60.26783888888889
          ],
          [
            0.2857444444444444,
            60.26915833333333
          ],
          [
            0.2906722222222222,
            60.27047777777778
          ],
          [
            0.29560277777777777,
            60.27179722222222
          ],
          [
            0.3005305555555555,
            60.27311666666667
          ],
          [
            0.30546111111111107,
            60.27443611111111
          ],
          [
            0.3103916666666667,
            60.275755555555556
          ],
          [
            0.31531944444444443,
            60.277074999999996
          ],
          [
            0.32025,
            60.278397222222225
          ],
          [
            0.32518055555555553,
            60.279716666666666
          ],
          [
            0.3301111111111111,
            60.28103611111111
          ],
          [
            0.3350416666666666,
            60.282355555555554
          ],
          [
            0.33997222222222223,
            60.283674999999995
          ],
          [
            0.3449027777777778,
            60.28499444444444
          ],
          [
            0.34983333333333333,
            60.286313888888884
          ],
          [
            0.3547666666666666,
            60.28763333333333
          ],
          [
            0.3596972222222222,
            60.28895277777777
          ],
          [
            0.3646277777777778,
            60.29027222222222
          ],
          [
            0.36956111111111106,
            60.29159166666666
          ],
          [
            0.3744944444444444,
            60.29291388888889
          ]
        ]
      },
      "properties": {
        "kind": "TRACK",
        "platform_id": "SENSOR",
        "platform_name": "SENSOR",
        "track_type": "CONTACT",
        "start_time": "2010-01-12T12:00:00+00:00",
        "end_time": "2010-01-12T14:00:00+00:00",
        "positions": [
          {
            "time": "2010-01-12T12:00:00+00:00",
            "course": 200.0,
            "speed": 12.0,
            "depth": 0.0
          },
          {
            "time": "2010-01-12T12:00:50+00:00",
            "course": 200.0,
            "speed": 12.0,
            "depth": 0.0
          },
          {
            "time": "2010-01-12T12:01:40+00:00",
            "course": 200.0,
            "speed": 12.0,
            "depth": 0.0
          },
          {
            "time": "2010-01-12T12:02:30+00:00",
            "course": 200.0,
            "speed": 12.0,
            "depth": 0.0
          },
          {
            "time": "2010-01-12T12:03:20+00:00",
            "course": 200.0,
            "speed": 12.0,
            "depth": 0.0
          },
          {
            "time": "2010-01-12T12:04:10+00:00",
            "course": 200.0,
            "speed": 12.0,
            "depth": 0.0
          },
          {
            "time": "2010-01-12T12:05:00+00:00",
            "course": 200.0,
            "speed": 12.0,
            "depth": 0.0
          },
          {
            "time": "2010-01-12T12:05:50+00:00",
            "course": 200.0,
            "speed": 12.0,
            "depth": 0.0
          },
          {
            "time": "2010-01-12T12:06:40+00:00",
            "course": 200.0,
            "speed": 12.0,
            "depth": 0.0
          },
          {
            "time": "2010-01-12T12:07:30+00:00",
            "course": 200.0,
            "speed": 12.0,
            "depth": 0.0
          },
          {
            "time": "2010-01-12T12:08:20+00:00",
            "course": 200.0,
            "speed": 12.0,
            "depth": 0.0
          },
          {
            "time": "2010-01-12T12:09:10+00:00",
            "course": 200.0,
            "speed": 12.0,
            "depth": 0.0
          },
          {
            "time": "2010-01-12T12:10:00+00:00",
            "course": 200.0,
            "speed": 12.0,
            "depth": 0.0
          },
          {
            "time": "2010-01-12T12:10:50+00:00",
            "course": 200.0,
            "speed": 12.0,
            "depth": 0.0
          },
          {
            "time": "2010-01-12T12:11:40+00:00",
            "course": 200.0,
            "speed": 12.0,
            "depth": 0.0
          },
          {
            "time": "2010-01-12T12:12:30+00:00",
            "course": 200.0,
            "speed": 12.0,
            "depth": 0.0
          },
          {
            "time": "2010-01-12T12:13:20+00:00",
            "course": 200.0,
            "speed": 12.0,
            "depth": 0.0
          },
          {
            "time": "2010-01-12T12:14:10+00:00",
            "course": 200.0,
            "speed": 12.0,
            "depth": 0.0
          },
          {
            "time": "2010-01-12T12:15:00+00:00",
            "course": 200.0,
            "speed": 12.0,
            "depth": 0.0
          },
          {
            "time": "2010-01-12T12:15:50+00:00",
            "course": 200.0,
            "speed": 12.0,
            "depth": 0.0
          },
          {
            "time": "2010-01-12T12:16:40+00:00",
            "course": 200.0,
            "speed": 12.0,
            "depth": 0.0
          },
          {
            "time": "2010-01-12T12:17:30+00:00",
            "course": 200.0,
            "speed": 12.0,
            "depth": 0.0
          },
          {
            "time": "2010-01-12T12:18:20+00:00",
            "course": 200.0,
            "speed": 12.0,
            "depth": 0.0
          },
          {
            "time": "2010-01-12T12:19:10+00:00",
            "course": 200.0,
            "speed": 12.0,
            "depth": 0.0
          },
          {
            "time": "2010-01-12T12:20:00+00:00",
            "course": 200.0,
            "speed": 12.0,
            "depth": 0.0
          },
          {
            "time": "2010-01-12T12:20:50+00:00",
            "course": 200.0,
            "speed": 12.0,
            "depth": 0.0
          },
          {
            "time": "2010-01-12T12:21:40+00:00",
            "course": 200.0,
            "speed": 12.0,
            "depth": 0.0
          },
          {
            "time": "2010-01-12T12:22:30+00:00",
            "course": 200.0,
            "speed": 12.0,
            "depth": 0.0
          },
          {
            "time": "2010-01-12T12:23:20+00:00",
            "course": 200.0,
            "speed": 12.0,
            "depth": 0.0
          },
          {
            "time": "2010-01-12T12:24:10+00:00",
            "course": 200.0,
            "speed": 12.0,
            "depth": 0.0
          },
          {
            "time": "2010-01-12T12:25:00+00:00",
            "course": 244.21,
            "speed": 12.0,
            "depth": 0.0
          },
          {
            "time": "2010-01-12T12:25:50+00:00",
            "course": 288.43,
            "speed": 12.0,
            "depth": 0.0
          },
          {
            "time": "2010-01-12T12:26:40+00:00",
            "course": 312.67,
            "speed": 12.0,
            "depth": 0.0
          },
          {
            "time": "2010-01-12T12:27:30+00:00",
            "course": 312.86,
            "speed": 12.0,
            "depth": 0.0
          },
          {
            "time": "2010-01-12T12:28:20+00:00",
            "course": 312.86,
            "speed": 12.0,
            "depth": 0.0
          },
          {
            "time": "2010-01-12T12:29:10+00:00",
            "course": 312.86,
            "speed": 12.0,
            "depth": 0.0
          },
          {
            "time": "2010-01-12T12:30:00+00:00",
            "course": 312.86,
            "speed": 12.0,
            "depth": 0.0
          },
          {
            "time": "2010-01-12T12:30:50+00:00",
            "course": 312.86,
            "speed": 12.0,
            "depth": 0.0
          },
          {
            "time": "2010-01-12T12:31:40+00:00",
            "course": 312.86,
            "speed": 12.0,
            "depth": 0.0
          },
          {
            "time": "2010-01-12T12:32:30+00:00",
            "course": 312.86,
            "speed": 12.0,
            "depth": 0.0
          },
          {
            "time": "2010-01-12T12:33:20+00:00",
            "course": 312.86,
            "speed": 12.0,
            "depth": 0.0
          },
          {
            "time": "2010-01-12T12:34:10+00:00",
            "course": 312.86,
            "speed": 12.0,
            "depth": 0.0
          },
          {
            "time": "2010-01-12T12:35:00+00:00",
            "course": 312.86,
            "speed": 12.0,
            "depth": 0.0
          },
          {
            "time": "2010-01-12T12:35:50+00:00",
            "course": 312.86,
            "speed": 12.0,
            "depth": 0.0
          },
          {
            "time": "2010-01-12T12:36:40+00:00",
            "course": 312.86,
            "speed": 12.0,
            "depth": 0.0
          },
          {
            "time": "2010-01-12T12:37:30+00:00",
            "course": 312.86,
            "speed": 12.0,
            "depth": 0.0
          },
          {
            "time": "2010-01-12T12:38:20+00:00",
            "course": 312.86,
            "speed": 12.0,
            "depth": 0.0
          },
          {
            "time": "2010-01-12T12:39:10+00:00",
            "course": 312.86,
            "speed": 12.0,
            "depth": 0.0
          },
          {
            "time": "2010-01-12T12:40:00+00:00",
            "course": 312.86,
            "speed": 12.0,
            "depth": 0.0
          },
          {
            "time": "2010-01-12T12:40:50+00:00",
            "course": 312.86,
            "speed": 12.0,
            "depth": 0.0
          },
          {
            "time": "2010-01-12T12:41:40+00:00",
            "course": 312.86,
            "speed": 12.0,
            "depth": 0.0
          },
          {
            "time": "2010-01-12T12:42:30+00:00",
            "course": 312.86,
            "speed": 12.0,
            "depth": 0.0
          },
          {
            "time": "2010-01-12T12:43:20+00:00",
            "course": 312.86,
            "speed": 12.0,
            "depth": 0.0
          },
          {
            "time": "2010-01-12T12:44:10+00:00",
            "course": 312.86,
            "speed": 12.0,
            "depth": 0.0
          },
          {
            "time": "2010-01-12T12:45:00+00:00",
            "course": 312.86,
            "speed": 12.0,
            "depth": 0.0
          },
          {
            "time": "2010-01-12T12:45:50+00:00",
            "course": 312.86,
            "speed": 12.0,
            "depth": 0.0
          },
          {
            "time": "2010-01-12T12:46:40+00:00",
            "course": 312.86,
            "speed": 12.0,
            "depth": 0.0
          },
          {
            "time": "2010-01-12T12:47:30+00:00",
            "course": 312.86,
            "speed": 12.0,
            "depth": 0.0
          },
          {
            "time": "2010-01-12T12:48:20+00:00",
            "course": 312.86,
            "speed": 12.0,
            "depth": 0.0
          },
          {
            "time": "2010-01-12T12:49:10+00:00",
            "course": 312.86,
            "speed": 12.0,
            "depth": 0.0
          },
          {
            "time": "2010-01-12T12:50:00+00:00",
            "course": 312.86,
            "speed": 12.0,
            "depth": 0.0
          },
          {
            "time": "2010-01-12T12:50:50+00:00",
            "course": 312.86,
            "speed": 12.0,
            "depth": 0.0
          },
          {
            "time": "2010-01-12T12:51:40+00:00",
            "course": 312.86,
            "speed": 12.0,
            "depth": 0.0
          },
          {
            "time": "2010-01-12T12:52:30+00:00",
            "course": 312.86,
            "speed": 12.0,
            "depth": 0.0
          },
          {
            "time": "2010-01-12T12:53:20+00:00",
            "course": 312.86,
            "speed": 12.0,
            "depth": 0.0
          },
          {
            "time": "2010-01-12T12:54:10+00:00",
            "course": 312.86,
            "speed": 12.0,
            "depth": 0.0
          },
          {
            "time": "2010-01-12T12:55:00+00:00",
            "course": 357.08,
            "speed": 12.0,
            "depth": 0.0
          },
          {
            "time": "2010-01-12T12:55:50+00:00",
            "course": 41.29,
            "speed": 12.0,
            "depth": 0.0
          },
          {
            "time": "2010-01-12T12:56:40+00:00",
            "course": 61.56,
            "speed": 12.0,
            "depth": 0.0
          },
          {
            "time": "2010-01-12T12:57:30+00:00",
            "course": 61.63,
            "speed": 12.0,
            "depth": 0.0
          },
          {
            "time": "2010-01-12T12:58:20+00:00",
            "course": 61.63,
            "speed": 12.0,
            "depth": 0.0
          },
          {
            "time": "2010-01-12T12:59:10+00:00",
            "course": 61.63,
            "speed": 12.0,
            "depth": 0.0
          },
          {
            "time": "2010-01-12T13:00:00+00:00",
            "course": 61.63,
            "speed": 12.0,
            "depth": 0.0
          },
          {
            "time": "2010-01-12T13:00:50+00:00",
            "course": 61.63,
            "speed": 12.0,
            "depth": 0.0
          },
          {
            "time": "2010-01-12T13:01:40+00:00",
            "course": 61.63,
            "speed": 12.0,
            "depth": 0.0
          },
          {
            "time": "2010-01-12T13:02:30+00:00",
            "course": 61.63,
            "speed": 12.0,
            "depth": 0.0
          },
          {
            "time": "2010-01-12T13:03:20+00:00",
            "course": 61.63,
            "speed": 12.0,
            "depth": 0.0
          },
          {
            "time": "2010-01-12T13:04:10+00:00",
            "course": 61.63,
            "speed": 12.0,
            "depth": 0.0
          },
          {
            "time": "2010-01-12T13:05:00+00:00",
            "course": 61.63,
            "speed": 12.0,
            "depth": 0.0
          },
          {
            "time": "2010-01-12T13:05:50+00:00",
            "course": 61.63,
            "speed": 12.0,
            "depth": 0.0
          },
          {
            "time": "2010-01-12T13:06:40+00:00",
            "course": 61.63,
            "speed": 12.0,
            "depth": 0.0
          },
          {
            "time": "2010-01-12T13:07:30+00:00",
            "course": 61.63,
            "speed": 12.0,
            "depth": 0.0
          },
          {
            "time": "2010-01-12T13:08:20+00:00",
            "course": 61.63,
            "speed": 12.0,
            "depth": 0.0
          },
          {
            "time": "2010-01-12T13:09:10+00:00",
            "course": 61.63,
            "speed": 12.0,
            "depth": 0.0
          },
          {
            "time": "2010-01-12T13:10:00+00:00",
            "course": 61.63,
            "speed": 12.0,
            "depth": 0.0
          },
          {
            "time": "2010-01-12T13:10:50+00:00",
            "course": 61.63,
            "speed": 12.0,
            "depth": 0.0
          },
          {
            "time": "2010-01-12T13:11:40+00:00",
            "course": 61.63,
            "speed": 12.0,
            "depth": 0.0
          },
          {
            "time": "2010-01-12T13:12:30+00:00",
            "course": 61.63,
            "speed": 12.0,
            "depth": 0.0
          },
          {
            "time": "2010-01-12T13:13:20+00:00",
            "course": 61.63,
            "speed": 12.0,
            "depth": 0.0
          },
          {
            "time": "2010-01-12T13:14:10+00:00",
            "course": 61.63,
            "speed": 12.0,
            "depth": 0.0
          },
          {
            "time": "2010-01-12T13:15:00+00:00",
            "course": 61.63,
            "speed": 12.0,
            "depth": 0.0
          },
          {
            "time": "2010-01-12T13:15:50+00:00",
            "course": 61.63,
            "speed": 12.0,
            "depth": 0.0
          },
          {
            "time": "2010-01-12T13:16:40+00:00",
            "course": 61.63,
            "speed": 12.0,
            "depth": 0.0
          },
          {
            "time": "2010-01-12T13:17:30+00:00",
            "course": 61.63,
            "speed": 12.0,
            "depth": 0.0
          },
          {
            "time": "2010-01-12T13:18:20+00:00",
            "course": 61.63,
            "speed": 12.0,
            "depth": 0.0
          },
          {
            "time": "2010-01-12T13:19:10+00:00",
            "course": 61.63,
            "speed": 12.0,
            "depth": 0.0
          },
          {
            "time": "2010-01-12T13:20:00+00:00",
            "course": 61.63,
            "speed": 12.0,
            "depth": 0.0
          },
          {
            "time": "2010-01-12T13:20:50+00:00",
            "course": 61.63,
            "speed": 12.0,
            "depth": 0.0
          },
          {
            "time": "2010-01-12T13:21:40+00:00",
            "course": 61.63,
            "speed": 12.0,
            "depth": 0.0
          },
          {
            "time": "2010-01-12T13:22:30+00:00",
            "course": 61.63,
            "speed": 12.0,
            "depth": 0.0
          },
          {
            "time": "2010-01-12T13:23:20+00:00",
            "course": 61.63,
            "speed": 12.0,
            "depth": 0.0
          },
          {
            "time": "2010-01-12T13:24:10+00:00",
            "course": 61.63,
            "speed": 12.0,
            "depth": 0.0
          },
          {
            "time": "2010-01-12T13:25:00+00:00",
            "course": 61.63,
            "speed": 12.0,
            "depth": 0.0
          },
          {
            "time": "2010-01-12T13:25:50+00:00",
            "course": 61.63,
            "speed": 12.0,
            "depth": 0.0
          },
          {
            "time": "2010-01-12T13:26:40+00:00",
            "course": 61.63,
            "speed": 12.0,
            "depth": 0.0
          },
          {
            "time": "2010-01-12T13:27:30+00:00",
            "course": 61.63,
            "speed": 12.0,
            "depth": 0.0
          },
          {
            "time": "2010-01-12T13:28:20+00:00",
            "course": 61.63,
            "speed": 12.0,
            "depth": 0.0
          },
          {
            "time": "2010-01-12T13:29:10+00:00",
            "course": 61.63,
            "speed": 12.0,
            "depth": 0.0
          },
          {
            "time": "2010-01-12T13:30:00+00:00",
            "course": 61.63,
            "speed": 12.0,
            "depth": 0.0
          },
          {
            "time": "2010-01-12T13:30:50+00:00",
            "course": 61.63,
            "speed": 12.0,
            "depth": 0.0
          },
          {
            "time": "2010-01-12T13:31:40+00:00",
            "course": 61.63,
            "speed": 12.0,
            "depth": 0.0
          },
          {
            "time": "2010-01-12T13:32:30+00:00",
            "course": 61.63,
            "speed": 12.0,
            "depth": 0.0
          },
          {
            "time": "2010-01-12T13:33:20+00:00",
            "course": 61.63,
            "speed": 12.0,
            "depth": 0.0
          },
          {
            "time": "2010-01-12T13:34:10+00:00",
            "course": 61.63,
            "speed": 12.0,
            "depth": 0.0
          },
          {
            "time": "2010-01-12T13:35:00+00:00",
            "course": 61.63,
            "speed": 12.0,
            "depth": 0.0
          },
          {
            "time": "2010-01-12T13:35:50+00:00",
            "course": 61.63,
            "speed": 12.0,
            "depth": 0.0
          },
          {
            "time": "2010-01-12T13:36:40+00:00",
            "course": 61.63,
            "speed": 12.0,
            "depth": 0.0
          },
          {
            "time": "2010-01-12T13:37:30+00:00",
            "course": 61.63,
            "speed": 12.0,
            "depth": 0.0
          },
          {
            "time": "2010-01-12T13:38:20+00:00",
            "course": 61.63,
            "speed": 12.0,
            "depth": 0.0
          },
          {
            "time": "2010-01-12T13:39:10+00:00",
            "course": 61.63,
            "speed": 12.0,
            "depth": 0.0
          },
          {
            "time": "2010-01-12T13:40:00+00:00",
            "course": 61.63,
            "speed": 12.0,
            "depth": 0.0
          },
          {
            "time": "2010-01-12T13:40:50+00:00",
            "course": 61.63,
            "speed": 12.0,
            "depth": 0.0
          },
          {
            "time": "2010-01-12T13:41:40+00:00",
            "course": 61.63,
            "speed": 12.0,
            "depth": 0.0
          },
          {
            "time": "2010-01-12T13:42:30+00:00",
            "course": 61.63,
            "speed": 12.0,
            "depth": 0.0
          },
          {
            "time": "2010-01-12T13:43:20+00:00",
            "course": 61.63,
            "speed": 12.0,
            "depth": 0.0
          },
          {
            "time": "2010-01-12T13:44:10+00:00",
            "course": 61.63,
            "speed": 12.0,
            "depth": 0.0
          },
          {
            "time": "2010-01-12T13:45:00+00:00",
            "course": 61.63,
            "speed": 12.0,
            "depth": 0.0
          },
          {
            "time": "2010-01-12T13:45:50+00:00",
            "course": 61.63,
            "speed": 12.0,
            "depth": 0.0
          },
          {
            "time": "2010-01-12T13:46:40+00:00",
            "course": 61.63,
            "speed": 12.0,
            "depth": 0.0
          },
          {
            "time": "2010-01-12T13:47:30+00:00",
            "course": 61.63,
            "speed": 12.0,
            "depth": 0.0
          },
          {
            "time": "2010-01-12T13:48:20+00:00",
            "course": 61.63,
            "speed": 12.0,
            "depth": 0.0
          },
          {
            "time": "2010-01-12T13:49:10+00:00",
            "course": 61.63,
            "speed": 12.0,
            "depth": 0.0
          },
          {
            "time": "2010-01-12T13:50:00+00:00",
            "course": 61.63,
            "speed": 12.0,
            "depth": 0.0
          },
          {
            "time": "2010-01-12T13:50:50+00:00",
            "course": 61.63,
            "speed": 12.0,
            "depth": 0.0
          },
          {
            "time": "2010-01-12T13:51:40+00:00",
            "course": 61.63,
            "speed": 12.0,
            "depth": 0.0
          },
          {
            "time": "2010-01-12T13:52:30+00:00",
            "course": 61.63,
            "speed": 12.0,
            "depth": 0.0
          },
          {
            "time": "2010-01-12T13:53:20+00:00",
            "course": 61.63,
            "speed": 12.0,
            "depth": 0.0
          },
          {
            "time": "2010-01-12T13:54:10+00:00",
            "course": 61.63,
            "speed": 12.0,
            "depth": 0.0
          },
          {
            "time": "2010-01-12T13:55:00+00:00",
            "course": 61.63,
            "speed": 12.0,
            "depth": 0.0
          },
          {
            "time": "2010-01-12T13:55:50+00:00",
            "course": 61.63,
            "speed": 12.0,
            "depth": 0.0
          },
          {
            "time": "2010-01-12T13:56:40+00:00",
            "course": 61.63,
            "speed": 12.0,
            "depth": 0.0
          },
          {
            "time": "2010-01-12T13:57:30+00:00",
            "course": 61.63,
            "speed": 12.0,
            "depth": 0.0
          },
          {
            "time": "2010-01-12T13:58:20+00:00",
            "course": 61.63,
            "speed": 12.0,
            "depth": 0.0
          },
          {
            "time": "2010-01-12T13:59:10+00:00",
            "course": 61.63,
            "speed": 12.0,
            "depth": 0.0
          },
          {
            "time": "2010-01-12T14:00:00+00:00",
            "course": 61.63,
            "speed": 12.0,
            "depth": 0.0
          }
        ],
        "style": {
          "line": {
            "color": "#FFA500"
          },
          "point": {
            "shape": "circle",
            "radius": 3.0,
            "fill_color": "#FFA500",
            "color": "#FFA500"
          }
        },
        "default_position_style": {
          "show_symbol": false,
          "symbol": "circle",
          "show_label": false
        },
        "symbol_interval": "PT10M",
        "label_interval": "PT30M",
        "provenance": [
          {
            "activity_id": "f876b6aa-c5f4-4995-bea4-5f47eb61143a",
            "timestamp": "2026-04-13T23:12:30.703181Z",
            "was_generated_by": {
              "tool": "rep-parser",
              "tool_version": "1.0.0",
              "parameters": []
            },
            "used": [],
            "generated": [
              "9fedf476-f176-4462-bbaf-5179e4bff331"
            ],
            "execution_duration": "PT0.000979S"
          }
        ]
      }
    }
  ]
}