{
  "type": "FeatureCollection",
  "features": [
    {
      "type": "Feature",
      "id": "1786acb3-5959-4fde-a609-50e72dc753df",
      "geometry": null,
      "properties": {
        "kind": "SENSOR_CONTACT",
        "parent_track": "SENSOR",
        "time": "2010-01-12T12:00:00+00:00",
        "bearing": 166.0,
        "range": 0.0,
        "sensor_name": "NB_BRG",
        "label": "SUBJECT held on NB_BRG"
      }
    },
    {
      "type": "Feature",
      "id": "95ecd16d-b70e-4970-ab6c-d75a3390f06e",
      "geometry": null,
      "properties": {
        "kind": "SENSOR_CONTACT",
        "parent_track": "SENSOR",
        "time": "2010-01-12T12:00:50+00:00",
        "bearing": 165.7,
        "range": 0.0,
        "sensor_name": "NB_BRG",
        "label": "SUBJECT held on NB_BRG"
      }
    },
    {
      "type": "Feature",
      "id": "c8af08a7-8852-4172-b4ce-7f120847e6ae",
      "geometry": null,
      "properties": {
        "kind": "SENSOR_CONTACT",
        "parent_track": "SENSOR",
        "time": "2010-01-12T12:01:40+00:00",
        "bearing": 165.2,
        "range": 0.0,
        "sensor_name": "NB_BRG",
        "label": "SUBJECT held on NB_BRG"
      }
    },
    {
      "type": "Feature",
      "id": "dc17e387-e69c-4b56-a126-016b03ed3cd8",
      "geometry": null,
      "properties": {
        "kind": "SENSOR_CONTACT",
        "parent_track": "SENSOR",
        "time": "2010-01-12T12:02:30+00:00",
        "bearing": 164.8,
        "range": 0.0,
        "sensor_name": "NB_BRG",
        "label": "SUBJECT held on NB_BRG"
      }
    },
    {
      "type": "Feature",
      "id": "f8f03081-1293-4ab8-8a3e-fca2cebbe8b2",
      "geometry": null,
      "properties": {
        "kind": "SENSOR_CONTACT",
        "parent_track": "SENSOR",
        "time": "2010-01-12T12:03:20+00:00",
        "bearing": 164.3,
        "range": 0.0,
        "sensor_name": "NB_BRG",
        "label": "SUBJECT held on NB_BRG"
      }
    },
    {
      "type": "Feature",
      "id": "4efc01cf-1ae1-41d5-b5f3-259719a11199",
      "geometry": null,
      "properties": {
        "kind": "SENSOR_CONTACT",
        "parent_track": "SENSOR",
        "time": "2010-01-12T12:04:10+00:00",
        "bearing": 163.8,
        "range": 0.0,
        "sensor_name": "NB_BRG",
        "label": "SUBJECT held on NB_BRG"
      }
    },
    {
      "type": "Feature",
      "id": "023e0f44-eb0b-498c-8d2a-c5df8ad1703e",
      "geometry": null,
      "properties": {
        "kind": "SENSOR_CONTACT",
        "parent_track": "SENSOR",
        "time": "2010-01-12T12:05:00+00:00",
        "bearing": 163.2,
        "range": 0.0,
        "sensor_name": "NB_BRG",
        "label": "SUBJECT held on NB_BRG"
      }
    },
    {
      "type": "Feature",
      "id": "f0fbc989-ce0b-483d-8744-83760f0279dc",
      "geometry": null,
      "properties": {
        "kind": "SENSOR_CONTACT",
        "parent_track": "SENSOR",
        "time": "2010-01-12T12:05:50+00:00",
        "bearing": 162.5,
        "range": 0.0,
        "sensor_name": "NB_BRG",
        "label": "SUBJECT held on NB_BRG"
      }
    },
    {
      "type": "Feature",
      "id": "e1a879da-e909-410b-94d9-30a88a24e31a",
      "geometry": null,
      "properties": {
        "kind": "SENSOR_CONTACT",
        "parent_track": "SENSOR",
        "time": "2010-01-12T12:06:40+00:00",
        "bearing": 161.8,
        "range": 0.0,
        "sensor_name": "NB_BRG",
        "label": "SUBJECT held on NB_BRG"
      }
    },
    {
      "type": "Feature",
      "id": "71dde20e-11ff-4210-9788-04cc6a4a8ffb",
      "geometry": null,
      "properties": {
        "kind": "SENSOR_CONTACT",
        "parent_track": "SENSOR",
        "time": "2010-01-12T12:07:30+00:00",
        "bearing": 161.0,
        "range": 0.0,
        "sensor_name": "NB_BRG",
        "label": "SUBJECT held on NB_BRG"
      }
    },
    {
      "type": "Feature",
      "id": "3fc5f944-b5b5-4fe6-8574-d0b901322175",
      "geometry": null,
      "properties": {
        "kind": "SENSOR_CONTACT",
        "parent_track": "SENSOR",
        "time": "2010-01-12T12:08:20+00:00",
        "bearing": 160.1,
        "range": 0.0,
        "sensor_name": "NB_BRG",
        "label": "SUBJECT held on NB_BRG"
      }
    },
    {
      "type": "Feature",
      "id": "f4239cba-3714-46d0-97ff-8380cb3445f4",
      "geometry": null,
      "properties": {
        "kind": "SENSOR_CONTACT",
        "parent_track": "SENSOR",
        "time": "2010-01-12T12:09:10+00:00",
        "bearing": 159.0,
        "range": 0.0,
        "sensor_name": "NB_BRG",
        "label": "SUBJECT held on NB_BRG"
      }
    },
    {
      "type": "Feature",
      "id": "96f1bcae-17e0-4393-b7d0-421c920684cc",
      "geometry": null,
      "properties": {
        "kind": "SENSOR_CONTACT",
        "parent_track": "SENSOR",
        "time": "2010-01-12T12:10:00+00:00",
        "bearing": 157.8,
        "range": 0.0,
        "sensor_name": "NB_BRG",
        "label": "SUBJECT held on NB_BRG"
      }
    },
    {
      "type": "Feature",
      "id": "4956d2c8-4d68-4239-a1db-ab35095c1ef6",
      "geometry": null,
      "properties": {
        "kind": "SENSOR_CONTACT",
        "parent_track": "SENSOR",
        "time": "2010-01-12T12:10:50+00:00",
        "bearing": 156.3,
        "range": 0.0,
        "sensor_name": "NB_BRG",
        "label": "SUBJECT held on NB_BRG"
      }
    },
    {
      "type": "Feature",
      "id": "bec871c6-6697-447f-965f-08796914001f",
      "geometry": null,
      "properties": {
        "kind": "SENSOR_CONTACT",
        "parent_track": "SENSOR",
        "time": "2010-01-12T12:11:40+00:00",
        "bearing": 154.6,
        "range": 0.0,
        "sensor_name": "NB_BRG",
        "label": "SUBJECT held on NB_BRG"
      }
    },
    {
      "type": "Feature",
      "id": "0f9af48c-c100-44c6-ac26-ea10b5c982f2",
      "geometry": null,
      "properties": {
        "kind": "SENSOR_CONTACT",
        "parent_track": "SENSOR",
        "time": "2010-01-12T12:12:30+00:00",
        "bearing": 152.6,
        "range": 0.0,
        "sensor_name": "NB_BRG",
        "label": "SUBJECT held on NB_BRG"
      }
    },
    {
      "type": "Feature",
      "id": "86c63e94-228b-4b7d-82d1-686644308b05",
      "geometry": null,
      "properties": {
        "kind": "SENSOR_CONTACT",
        "parent_track": "SENSOR",
        "time": "2010-01-12T12:13:20+00:00",
        "bearing": 150.2,
        "range": 0.0,
        "sensor_name": "NB_BRG",
        "label": "SUBJECT held on NB_BRG"
      }
    },
    {
      "type": "Feature",
      "id": "4920432d-bbbf-4250-a5c5-d8ded4416238",
      "geometry": null,
      "properties": {
        "kind": "SENSOR_CONTACT",
        "parent_track": "SENSOR",
        "time": "2010-01-12T12:14:10+00:00",
        "bearing": 147.3,
        "range": 0.0,
        "sensor_name": "NB_BRG",
        "label": "SUBJECT held on NB_BRG"
      }
    },
    {
      "type": "Feature",
      "id": "6c9408aa-ebb4-4867-ac5f-43d49a7d9c0e",
      "geometry": null,
      "properties": {
        "kind": "SENSOR_CONTACT",
        "parent_track": "SENSOR",
        "time": "2010-01-12T12:15:00+00:00",
        "bearing": 143.6,
        "range": 0.0,
        "sensor_name": "NB_BRG",
        "label": "SUBJECT held on NB_BRG"
      }
    },
    {
      "type": "Feature",
      "id": "5f0a5123-a6b8-444d-9900-047ecbfda48b",
      "geometry": null,
      "properties": {
        "kind": "SENSOR_CONTACT",
        "parent_track": "SENSOR",
        "time": "2010-01-12T12:15:50+00:00",
        "bearing": 138.9,
        "range": 0.0,
        "sensor_name": "NB_BRG",
        "label": "SUBJECT held on NB_BRG"
      }
    },
    {
      "type": "Feature",
      "id": "d9a46f31-f9e2-4980-8acc-00c5ade67517",
      "geometry": null,
      "properties": {
        "kind": "SENSOR_CONTACT",
        "parent_track": "SENSOR",
        "time": "2010-01-12T12:16:40+00:00",
        "bearing": 132.8,
        "range": 0.0,
        "sensor_name": "NB_BRG",
        "label": "SUBJECT held on NB_BRG"
      }
    },
    {
      "type": "Feature",
      "id": "68584404-484c-495b-a57a-a51da7e53315",
      "geometry": null,
      "properties": {
        "kind": "SENSOR_CONTACT",
        "parent_track": "SENSOR",
        "time": "2010-01-12T12:17:30+00:00",
        "bearing": 124.8,
        "range": 0.0,
        "sensor_name": "NB_BRG",
        "label": "SUBJECT held on NB_BRG"
      }
    },
    {
      "type": "Feature",
      "id": "b7a96b96-aeaa-40da-9ce2-8bbf7cb1fbd6",
      "geometry": null,
      "properties": {
        "kind": "SENSOR_CONTACT",
        "parent_track": "SENSOR",
        "time": "2010-01-12T12:18:20+00:00",
        "bearing": 114.5,
        "range": 0.0,
        "sensor_name": "NB_BRG",
        "label": "SUBJECT held on NB_BRG"
      }
    },
    {
      "type": "Feature",
      "id": "19e7af99-618d-4344-9865-a5c65e2b9214",
      "geometry": null,
      "properties": {
        "kind": "SENSOR_CONTACT",
        "parent_track": "SENSOR",
        "time": "2010-01-12T12:19:10+00:00",
        "bearing": 101.5,
        "range": 0.0,
        "sensor_name": "NB_BRG",
        "label": "SUBJECT held on NB_BRG"
      }
    },
    {
      "type": "Feature",
      "id": "d00cbfcf-8782-4337-b797-47bb73f87619",
      "geometry": null,
      "properties": {
        "kind": "SENSOR_CONTACT",
        "parent_track": "SENSOR",
        "time": "2010-01-12T12:20:00+00:00",
        "bearing": 86.5,
        "range": 0.0,
        "sensor_name": "NB_BRG",
        "label": "SUBJECT held on NB_BRG"
      }
    },
    {
      "type": "Feature",
      "id": "49e3e7f5-be08-412f-911d-f43f4f8bed9d",
      "geometry": null,
      "properties": {
        "kind": "SENSOR_CONTACT",
        "parent_track": "SENSOR",
        "time": "2010-01-12T12:20:50+00:00",
        "bearing": 71.3,
        "range": 0.0,
        "sensor_name": "NB_BRG",
        "label": "SUBJECT held on NB_BRG"
      }
    },
    {
      "type": "Feature",
      "id": "14ac526f-4d15-45e9-ab46-548043f5930b",
      "geometry": null,
      "properties": {
        "kind": "SENSOR_CONTACT",
        "parent_track": "SENSOR",
        "time": "2010-01-12T12:21:40+00:00",
        "bearing": 57.7,
        "range": 0.0,
        "sensor_name": "NB_BRG",
        "label": "SUBJECT held on NB_BRG"
      }
    },
    {
      "type": "Feature",
      "id": "da3200b4-ab83-4927-9438-808edc0421c4",
      "geometry": null,
      "properties": {
        "kind": "SENSOR_CONTACT",
        "parent_track": "SENSOR",
        "time": "2010-01-12T12:22:30+00:00",
        "bearing": 46.8,
        "range": 0.0,
        "sensor_name": "NB_BRG",
        "label": "SUBJECT held on NB_BRG"
      }
    },
    {
      "type": "Feature",
      "id": "fe909e56-afe6-4bd1-a815-dcdd663a24bc",
      "geometry": null,
      "properties": {
        "kind": "SENSOR_CONTACT",
        "parent_track": "SENSOR",
        "time": "2010-01-12T12:23:20+00:00",
        "bearing": 38.3,
        "range": 0.0,
        "sensor_name": "NB_BRG",
        "label": "SUBJECT held on NB_BRG"
      }
    },
    {
      "type": "Feature",
      "id": "4f5c1ecd-c951-4bb6-aafb-3cfec53267b8",
      "geometry": null,
      "properties": {
        "kind": "SENSOR_CONTACT",
        "parent_track": "SENSOR",
        "time": "2010-01-12T12:24:10+00:00",
        "bearing": 31.8,
        "range": 0.0,
        "sensor_name": "NB_BRG",
        "label": "SUBJECT held on NB_BRG"
      }
    },
    {
      "type": "Feature",
      "id": "bd7073f7-09e8-4b9e-a001-cf6bfb5dbfab",
      "geometry": null,
      "properties": {
        "kind": "SENSOR_CONTACT",
        "parent_track": "SENSOR",
        "time": "2010-01-12T12:25:00+00:00",
        "bearing": 28.9,
        "range": 0.0,
        "sensor_name": "NB_BRG",
        "label": "SUBJECT held on NB_BRG"
      }
    },
    {
      "type": "Feature",
      "id": "f226c525-0fab-4af6-babd-1ad0b543e8a0",
      "geometry": null,
      "properties": {
        "kind": "SENSOR_CONTACT",
        "parent_track": "SENSOR",
        "time": "2010-01-12T12:25:50+00:00",
        "bearing": 29.5,
        "range": 0.0,
        "sensor_name": "NB_BRG",
        "label": "SUBJECT held on NB_BRG"
      }
    },
    {
      "type": "Feature",
      "id": "9b7baf91-511c-4075-afca-dc3b0a1a69f0",
      "geometry": null,
      "properties": {
        "kind": "SENSOR_CONTACT",
        "parent_track": "SENSOR",
        "time": "2010-01-12T12:26:40+00:00",
        "bearing": 30.9,
        "range": 0.0,
        "sensor_name": "NB_BRG",
        "label": "SUBJECT held on NB_BRG"
      }
    },
    {
      "type": "Feature",
      "id": "9f6522bd-c027-44c4-a3f3-ecac414de11e",
      "geometry": null,
      "properties": {
        "kind": "SENSOR_CONTACT",
        "parent_track": "SENSOR",
        "time": "2010-01-12T12:27:30+00:00",
        "bearing": 32.3,
        "range": 0.0,
        "sensor_name": "NB_BRG",
        "label": "SUBJECT held on NB_BRG"
      }
    },
    {
      "type": "Feature",
      "id": "773ee6e0-c792-4f4a-ac49-74c2203be82f",
      "geometry": null,
      "properties": {
        "kind": "SENSOR_CONTACT",
        "parent_track": "SENSOR",
        "time": "2010-01-12T12:28:20+00:00",
        "bearing": 33.6,
        "range": 0.0,
        "sensor_name": "NB_BRG",
        "label": "SUBJECT held on NB_BRG"
      }
    },
    {
      "type": "Feature",
      "id": "ce44be2c-a78a-442b-b342-c69017e96e1c",
      "geometry": null,
      "properties": {
        "kind": "SENSOR_CONTACT",
        "parent_track": "SENSOR",
        "time": "2010-01-12T12:29:10+00:00",
        "bearing": 34.9,
        "range": 0.0,
        "sensor_name": "NB_BRG",
        "label": "SUBJECT held on NB_BRG"
      }
    },
    {
      "type": "Feature",
      "id": "3ab7dac6-27e1-4e02-9c2e-c640b32d0b15",
      "geometry": null,
      "properties": {
        "kind": "SENSOR_CONTACT",
        "parent_track": "SENSOR",
        "time": "2010-01-12T12:30:00+00:00",
        "bearing": 36.2,
        "range": 0.0,
        "sensor_name": "NB_BRG",
        "label": "SUBJECT held on NB_BRG"
      }
    },
    {
      "type": "Feature",
      "id": "8bcda454-fb8c-4cce-bc03-53d683571efd",
      "geometry": null,
      "properties": {
        "kind": "SENSOR_CONTACT",
        "parent_track": "SENSOR",
        "time": "2010-01-12T12:30:50+00:00",
        "bearing": 37.5,
        "range": 0.0,
        "sensor_name": "NB_BRG",
        "label": "SUBJECT held on NB_BRG"
      }
    },
    {
      "type": "Feature",
      "id": "b5e74bd5-c887-41e4-bd13-9aba24912018",
      "geometry": null,
      "properties": {
        "kind": "SENSOR_CONTACT",
        "parent_track": "SENSOR",
        "time": "2010-01-12T12:31:40+00:00",
        "bearing": 38.8,
        "range": 0.0,
        "sensor_name": "NB_BRG",
        "label": "SUBJECT held on NB_BRG"
      }
    },
    {
      "type": "Feature",
      "id": "5131244d-f19b-4f49-bee0-f96a213dc706",
      "geometry": null,
      "properties": {
        "kind": "SENSOR_CONTACT",
        "parent_track": "SENSOR",
        "time": "2010-01-12T12:32:30+00:00",
        "bearing": 40.0,
        "range": 0.0,
        "sensor_name": "NB_BRG",
        "label": "SUBJECT held on NB_BRG"
      }
    },
    {
      "type": "Feature",
      "id": "e1098e6c-d1dc-4179-91b2-2a8910d45510",
      "geometry": null,
      "properties": {
        "kind": "SENSOR_CONTACT",
        "parent_track": "SENSOR",
        "time": "2010-01-12T12:33:20+00:00",
        "bearing": 41.3,
        "range": 0.0,
        "sensor_name": "NB_BRG",
        "label": "SUBJECT held on NB_BRG"
      }
    },
    {
      "type": "Feature",
      "id": "f64b9710-bb5a-435f-aa1a-4218802975d0",
      "geometry": null,
      "properties": {
        "kind": "SENSOR_CONTACT",
        "parent_track": "SENSOR",
        "time": "2010-01-12T12:34:10+00:00",
        "bearing": 42.5,
        "range": 0.0,
        "sensor_name": "NB_BRG",
        "label": "SUBJECT held on NB_BRG"
      }
    },
    {
      "type": "Feature",
      "id": "b16dab0f-4daa-4fb9-84fa-4cc4050ec689",
      "geometry": null,
      "properties": {
        "kind": "SENSOR_CONTACT",
        "parent_track": "SENSOR",
        "time": "2010-01-12T12:35:00+00:00",
        "bearing": 43.7,
        "range": 0.0,
        "sensor_name": "NB_BRG",
        "label": "SUBJECT held on NB_BRG"
      }
    },
    {
      "type": "Feature",
      "id": "51d9d3ab-37fd-4141-9e6f-fc4d284041e4",
      "geometry": null,
      "properties": {
        "kind": "SENSOR_CONTACT",
        "parent_track": "SENSOR",
        "time": "2010-01-12T12:35:50+00:00",
        "bearing": 44.9,
        "range": 0.0,
        "sensor_name": "NB_BRG",
        "label": "SUBJECT held on NB_BRG"
      }
    },
    {
      "type": "Feature",
      "id": "51a002ab-198e-465b-9f0a-c4e8d293aa34",
      "geometry": null,
      "properties": {
        "kind": "SENSOR_CONTACT",
        "parent_track": "SENSOR",
        "time": "2010-01-12T12:36:40+00:00",
        "bearing": 46.1,
        "range": 0.0,
        "sensor_name": "NB_BRG",
        "label": "SUBJECT held on NB_BRG"
      }
    },
    {
      "type": "Feature",
      "id": "5a86a0e1-1b43-44fa-b222-003cd2cad78c",
      "geometry": null,
      "properties": {
        "kind": "SENSOR_CONTACT",
        "parent_track": "SENSOR",
        "time": "2010-01-12T12:37:30+00:00",
        "bearing": 47.2,
        "range": 0.0,
        "sensor_name": "NB_BRG",
        "label": "SUBJECT held on NB_BRG"
      }
    },
    {
      "type": "Feature",
      "id": "a748c5b1-b992-4b73-ba9d-d0af75901446",
      "geometry": null,
      "properties": {
        "kind": "SENSOR_CONTACT",
        "parent_track": "SENSOR",
        "time": "2010-01-12T12:38:20+00:00",
        "bearing": 48.3,
        "range": 0.0,
        "sensor_name": "NB_BRG",
        "label": "SUBJECT held on NB_BRG"
      }
    },
    {
      "type": "Feature",
      "id": "428dc292-7571-4af6-85f7-c8fda0ee4582",
      "geometry": null,
      "properties": {
        "kind": "SENSOR_CONTACT",
        "parent_track": "SENSOR",
        "time": "2010-01-12T12:39:10+00:00",
        "bearing": 49.4,
        "range": 0.0,
        "sensor_name": "NB_BRG",
        "label": "SUBJECT held on NB_BRG"
      }
    },
    {
      "type": "Feature",
      "id": "1401a5d4-e3d1-439f-8f09-eee689fb68db",
      "geometry": null,
      "properties": {
        "kind": "SENSOR_CONTACT",
        "parent_track": "SENSOR",
        "time": "2010-01-12T12:40:00+00:00",
        "bearing": 50.7,
        "range": 0.0,
        "sensor_name": "NB_BRG",
        "label": "SUBJECT held on NB_BRG"
      }
    },
    {
      "type": "Feature",
      "id": "9d58d1c8-172e-472f-8e54-4496eaf39620",
      "geometry": null,
      "properties": {
        "kind": "SENSOR_CONTACT",
        "parent_track": "SENSOR",
        "time": "2010-01-12T12:40:50+00:00",
        "bearing": 52.1,
        "range": 0.0,
        "sensor_name": "NB_BRG",
        "label": "SUBJECT held on NB_BRG"
      }
    },
    {
      "type": "Feature",
      "id": "6ae9a226-0262-44a6-85fa-289004e0a06e",
      "geometry": null,
      "properties": {
        "kind": "SENSOR_CONTACT",
        "parent_track": "SENSOR",
        "time": "2010-01-12T12:41:40+00:00",
        "bearing": 53.5,
        "range": 0.0,
        "sensor_name": "NB_BRG",
        "label": "SUBJECT held on NB_BRG"
      }
    },
    {
      "type": "Feature",
      "id": "23d6e50f-546d-4e9d-a13e-dcd4248b7521",
      "geometry": null,
      "properties": {
        "kind": "SENSOR_CONTACT",
        "parent_track": "SENSOR",
        "time": "2010-01-12T12:42:30+00:00",
        "bearing": 54.7,
        "range": 0.0,
        "sensor_name": "NB_BRG",
        "label": "SUBJECT held on NB_BRG"
      }
    },
    {
      "type": "Feature",
      "id": "5beb83bb-b1fe-445d-ad6f-06aca0971bff",
      "geometry": null,
      "properties": {
        "kind": "SENSOR_CONTACT",
        "parent_track": "SENSOR",
        "time": "2010-01-12T12:43:20+00:00",
        "bearing": 55.8,
        "range": 0.0,
        "sensor_name": "NB_BRG",
        "label": "SUBJECT held on NB_BRG"
      }
    },
    {
      "type": "Feature",
      "id": "35d46532-0388-4dee-8430-cd566d027d7b",
      "geometry": null,
      "properties": {
        "kind": "SENSOR_CONTACT",
        "parent_track": "SENSOR",
        "time": "2010-01-12T12:44:10+00:00",
        "bearing": 56.9,
        "range": 0.0,
        "sensor_name": "NB_BRG",
        "label": "SUBJECT held on NB_BRG"
      }
    },
    {
      "type": "Feature",
      "id": "6604e6a2-6cae-44cb-91b0-f18f8186dcb3",
      "geometry": null,
      "properties": {
        "kind": "SENSOR_CONTACT",
        "parent_track": "SENSOR",
        "time": "2010-01-12T12:45:00+00:00",
        "bearing": 57.9,
        "range": 0.0,
        "sensor_name": "NB_BRG",
        "label": "SUBJECT held on NB_BRG"
      }
    },
    {
      "type": "Feature",
      "id": "273cb434-69d0-4357-8488-88b1703f720e",
      "geometry": null,
      "properties": {
        "kind": "SENSOR_CONTACT",
        "parent_track": "SENSOR",
        "time": "2010-01-12T12:45:50+00:00",
        "bearing": 58.8,
        "range": 0.0,
        "sensor_name": "NB_BRG",
        "label": "SUBJECT held on NB_BRG"
      }
    },
    {
      "type": "Feature",
      "id": "4fae966d-79ac-401d-8396-8f99ec81541b",
      "geometry": null,
      "properties": {
        "kind": "SENSOR_CONTACT",
        "parent_track": "SENSOR",
        "time": "2010-01-12T12:46:40+00:00",
        "bearing": 59.7,
        "range": 0.0,
        "sensor_name": "NB_BRG",
        "label": "SUBJECT held on NB_BRG"
      }
    },
    {
      "type": "Feature",
      "id": "063d91e9-94b3-470c-b848-425ea82e7749",
      "geometry": null,
      "properties": {
        "kind": "SENSOR_CONTACT",
        "parent_track": "SENSOR",
        "time": "2010-01-12T12:47:30+00:00",
        "bearing": 60.5,
        "range": 0.0,
        "sensor_name": "NB_BRG",
        "label": "SUBJECT held on NB_BRG"
      }
    },
    {
      "type": "Feature",
      "id": "95641022-456e-4ac0-96e7-9fdd661c59bd",
      "geometry": null,
      "properties": {
        "kind": "SENSOR_CONTACT",
        "parent_track": "SENSOR",
        "time": "2010-01-12T12:48:20+00:00",
        "bearing": 61.3,
        "range": 0.0,
        "sensor_name": "NB_BRG",
        "label": "SUBJECT held on NB_BRG"
      }
    },
    {
      "type": "Feature",
      "id": "7b3b35c7-24a8-477f-8e6a-b46bbf637bbf",
      "geometry": null,
      "properties": {
        "kind": "SENSOR_CONTACT",
        "parent_track": "SENSOR",
        "time": "2010-01-12T12:49:10+00:00",
        "bearing": 62.0,
        "range": 0.0,
        "sensor_name": "NB_BRG",
        "label": "SUBJECT held on NB_BRG"
      }
    },
    {
      "type": "Feature",
      "id": "2e7db7cb-0586-4d3d-86e9-ed0a66b8004c",
      "geometry": null,
      "properties": {
        "kind": "SENSOR_CONTACT",
        "parent_track": "SENSOR",
        "time": "2010-01-12T12:50:00+00:00",
        "bearing": 62.7,
        "range": 0.0,
        "sensor_name": "NB_BRG",
        "label": "SUBJECT held on NB_BRG"
      }
    },
    {
      "type": "Feature",
      "id": "32af01f7-488d-4cf2-acf7-789f65c540c8",
      "geometry": null,
      "properties": {
        "kind": "SENSOR_CONTACT",
        "parent_track": "SENSOR",
        "time": "2010-01-12T12:50:50+00:00",
        "bearing": 63.3,
        "range": 0.0,
        "sensor_name": "NB_BRG",
        "label": "SUBJECT held on NB_BRG"
      }
    },
    {
      "type": "Feature",
      "id": "0066eb3e-5ad1-4af5-b925-2394cbba4862",
      "geometry": null,
      "properties": {
        "kind": "SENSOR_CONTACT",
        "parent_track": "SENSOR",
        "time": "2010-01-12T12:51:40+00:00",
        "bearing": 63.9,
        "range": 0.0,
        "sensor_name": "NB_BRG",
        "label": "SUBJECT held on NB_BRG"
      }
    },
    {
      "type": "Feature",
      "id": "4b9179ab-c43f-4dfe-a2ce-3cacbf9ffcc8",
      "geometry": null,
      "properties": {
        "kind": "SENSOR_CONTACT",
        "parent_track": "SENSOR",
        "time": "2010-01-12T12:52:30+00:00",
        "bearing": 64.5,
        "range": 0.0,
        "sensor_name": "NB_BRG",
        "label": "SUBJECT held on NB_BRG"
      }
    },
    {
      "type": "Feature",
      "id": "aebe99a7-b783-4350-9b8c-902040480e33",
      "geometry": null,
      "properties": {
        "kind": "SENSOR_CONTACT",
        "parent_track": "SENSOR",
        "time": "2010-01-12T12:53:20+00:00",
        "bearing": 65.0,
        "range": 0.0,
        "sensor_name": "NB_BRG",
        "label": "SUBJECT held on NB_BRG"
      }
    },
    {
      "type": "Feature",
      "id": "7e471c1b-c96e-42fd-8473-383c68aca6ea",
      "geometry": null,
      "properties": {
        "kind": "SENSOR_CONTACT",
        "parent_track": "SENSOR",
        "time": "2010-01-12T12:54:10+00:00",
        "bearing": 65.6,
        "range": 0.0,
        "sensor_name": "NB_BRG",
        "label": "SUBJECT held on NB_BRG"
      }
    },
    {
      "type": "Feature",
      "id": "02fc92da-4da8-47e3-93dd-2479dd39da47",
      "geometry": null,
      "properties": {
        "kind": "SENSOR_CONTACT",
        "parent_track": "SENSOR",
        "time": "2010-01-12T12:55:00+00:00",
        "bearing": 66.2,
        "range": 0.0,
        "sensor_name": "NB_BRG",
        "label": "SUBJECT held on NB_BRG"
      }
    },
    {
      "type": "Feature",
      "id": "d734cb38-3a25-4612-b2c3-b16a1e7d8109",
      "geometry": null,
      "properties": {
        "kind": "SENSOR_CONTACT",
        "parent_track": "SENSOR",
        "time": "2010-01-12T12:55:50+00:00",
        "bearing": 66.2,
        "range": 0.0,
        "sensor_name": "NB_BRG",
        "label": "SUBJECT held on NB_BRG"
      }
    },
    {
      "type": "Feature",
      "id": "59adb826-9a4f-4d27-b9c1-af52c077ed57",
      "geometry": null,
      "properties": {
        "kind": "SENSOR_CONTACT",
        "parent_track": "SENSOR",
        "time": "2010-01-12T12:56:40+00:00",
        "bearing": 64.6,
        "range": 0.0,
        "sensor_name": "NB_BRG",
        "label": "SUBJECT held on NB_BRG"
      }
    },
    {
      "type": "Feature",
      "id": "d87673ba-948c-4443-ac0a-0d1546a881b8",
      "geometry": null,
      "properties": {
        "kind": "SENSOR_CONTACT",
        "parent_track": "SENSOR",
        "time": "2010-01-12T12:57:30+00:00",
        "bearing": 62.8,
        "range": 0.0,
        "sensor_name": "NB_BRG",
        "label": "SUBJECT held on NB_BRG"
      }
    },
    {
      "type": "Feature",
      "id": "87fa9d35-7879-480c-b8fa-289481e0cca0",
      "geometry": null,
      "properties": {
        "kind": "SENSOR_CONTACT",
        "parent_track": "SENSOR",
        "time": "2010-01-12T12:58:20+00:00",
        "bearing": 60.7,
        "range": 0.0,
        "sensor_name": "NB_BRG",
        "label": "SUBJECT held on NB_BRG"
      }
    },
    {
      "type": "Feature",
      "id": "610a6174-c6a1-43d6-942a-73d0c2099f73",
      "geometry": null,
      "properties": {
        "kind": "SENSOR_CONTACT",
        "parent_track": "SENSOR",
        "time": "2010-01-12T12:59:10+00:00",
        "bearing": 58.6,
        "range": 0.0,
        "sensor_name": "NB_BRG",
        "label": "SUBJECT held on NB_BRG"
      }
    },
    {
      "type": "Feature",
      "id": "60983c53-7fed-4e85-b944-a533fa11659c",
      "geometry": null,
      "properties": {
        "kind": "SENSOR_CONTACT",
        "parent_track": "SENSOR",
        "time": "2010-01-12T13:00:00+00:00",
        "bearing": 56.2,
        "range": 0.0,
        "sensor_name": "NB_BRG",
        "label": "SUBJECT held on NB_BRG"
      }
    },
    {
      "type": "Feature",
      "id": "8cebea06-40fc-418c-a17c-d1c5da85f34c",
      "geometry": null,
      "properties": {
        "kind": "SENSOR_CONTACT",
        "parent_track": "SENSOR",
        "time": "2010-01-12T13:00:50+00:00",
        "bearing": 53.7,
        "range": 0.0,
        "sensor_name": "NB_BRG",
        "label": "SUBJECT held on NB_BRG"
      }
    },
    {
      "type": "Feature",
      "id": "ab46b2ce-9d73-4950-9cec-19817160f4e1",
      "geometry": null,
      "properties": {
        "kind": "SENSOR_CONTACT",
        "parent_track": "SENSOR",
        "time": "2010-01-12T13:01:40+00:00",
        "bearing": 50.9,
        "range": 0.0,
        "sensor_name": "NB_BRG",
        "label": "SUBJECT held on NB_BRG"
      }
    },
    {
      "type": "Feature",
      "id": "857e6397-e656-4040-bf77-3cde8c9b1490",
      "geometry": null,
      "properties": {
        "kind": "SENSOR_CONTACT",
        "parent_track": "SENSOR",
        "time": "2010-01-12T13:02:30+00:00",
        "bearing": 48.0,
        "range": 0.0,
        "sensor_name": "NB_BRG",
        "label": "SUBJECT held on NB_BRG"
      }
    },
    {
      "type": "Feature",
      "id": "f9921c25-edfc-4a52-a0ef-193ebdf5b088",
      "geometry": null,
      "properties": {
        "kind": "SENSOR_CONTACT",
        "parent_track": "SENSOR",
        "time": "2010-01-12T13:03:20+00:00",
        "bearing": 44.9,
        "range": 0.0,
        "sensor_name": "NB_BRG",
        "label": "SUBJECT held on NB_BRG"
      }
    },
    {
      "type": "Feature",
      "id": "311065f3-e785-464e-8265-f4d8d8eab0f1",
      "geometry": null,
      "properties": {
        "kind": "SENSOR_CONTACT",
        "parent_track": "SENSOR",
        "time": "2010-01-12T13:04:10+00:00",
        "bearing": 41.5,
        "range": 0.0,
        "sensor_name": "NB_BRG",
        "label": "SUBJECT held on NB_BRG"
      }
    },
    {
      "type": "Feature",
      "id": "c65e14f8-e1c5-46ad-b4c2-02327d4f2856",
      "geometry": null,
      "properties": {
        "kind": "SENSOR_CONTACT",
        "parent_track": "SENSOR",
        "time": "2010-01-12T13:05:00+00:00",
        "bearing": 37.9,
        "range": 0.0,
        "sensor_name": "NB_BRG",
        "label": "SUBJECT held on NB_BRG"
      }
    },
    {
      "type": "Feature",
      "id": "1e20f04a-0106-4357-89b7-81148bd7e156",
      "geometry": null,
      "properties": {
        "kind": "SENSOR_CONTACT",
        "parent_track": "SENSOR",
        "time": "2010-01-12T13:05:50+00:00",
        "bearing": 34.2,
        "range": 0.0,
        "sensor_name": "NB_BRG",
        "label": "SUBJECT held on NB_BRG"
      }
    },
    {
      "type": "Feature",
      "id": "07a00c44-db84-40bd-9e24-9684beadcbb1",
      "geometry": null,
      "properties": {
        "kind": "SENSOR_CONTACT",
        "parent_track": "SENSOR",
        "time": "2010-01-12T13:06:40+00:00",
        "bearing": 30.2,
        "range": 0.0,
        "sensor_name": "NB_BRG",
        "label": "SUBJECT held on NB_BRG"
      }
    },
    {
      "type": "Feature",
      "id": "f8af851c-ab83-42f0-acf4-3afce384d7c8",
      "geometry": null,
      "properties": {
        "kind": "SENSOR_CONTACT",
        "parent_track": "SENSOR",
        "time": "2010-01-12T13:07:30+00:00",
        "bearing": 26.1,
        "range": 0.0,
        "sensor_name": "NB_BRG",
        "label": "SUBJECT held on NB_BRG"
      }
    },
    {
      "type": "Feature",
      "id": "d7b39e14-4ae0-4a09-aa9e-1aee12557d44",
      "geometry": null,
      "properties": {
        "kind": "SENSOR_CONTACT",
        "parent_track": "SENSOR",
        "time": "2010-01-12T13:08:20+00:00",
        "bearing": 21.9,
        "range": 0.0,
        "sensor_name": "NB_BRG",
        "label": "SUBJECT held on NB_BRG"
      }
    },
    {
      "type": "Feature",
      "id": "f16b7e87-5e91-43d7-b83b-482c037b958d",
      "geometry": null,
      "properties": {
        "kind": "SENSOR_CONTACT",
        "parent_track": "SENSOR",
        "time": "2010-01-12T13:09:10+00:00",
        "bearing": 17.6,
        "range": 0.0,
        "sensor_name": "NB_BRG",
        "label": "SUBJECT held on NB_BRG"
      }
    },
    {
      "type": "Feature",
      "id": "f3100b95-6da6-4b45-b159-c7cc12b2080a",
      "geometry": null,
      "properties": {
        "kind": "SENSOR_CONTACT",
        "parent_track": "SENSOR",
        "time": "2010-01-12T13:10:00+00:00",
        "bearing": 13.2,
        "range": 0.0,
        "sensor_name": "NB_BRG",
        "label": "SUBJECT held on NB_BRG"
      }
    },
    {
      "type": "Feature",
      "id": "9dffe684-31fa-4575-8f99-ce032209ef3b",
      "geometry": null,
      "properties": {
        "kind": "SENSOR_CONTACT",
        "parent_track": "SENSOR",
        "time": "2010-01-12T13:10:50+00:00",
        "bearing": 8.9,
        "range": 0.0,
        "sensor_name": "NB_BRG",
        "label": "SUBJECT held on NB_BRG"
      }
    },
    {
      "type": "Feature",
      "id": "720abe1f-c4d6-493c-bcad-72abb452f20f",
      "geometry": null,
      "properties": {
        "kind": "SENSOR_CONTACT",
        "parent_track": "SENSOR",
        "time": "2010-01-12T13:11:40+00:00",
        "bearing": 4.6,
        "range": 0.0,
        "sensor_name": "NB_BRG",
        "label": "SUBJECT held on NB_BRG"
      }
    },
    {
      "type": "Feature",
      "id": "3c190efa-04a7-463e-8469-5a0d45a00fe1",
      "geometry": null,
      "properties": {
        "kind": "SENSOR_CONTACT",
        "parent_track": "SENSOR",
        "time": "2010-01-12T13:12:30+00:00",
        "bearing": 0.5,
        "range": 0.0,
        "sensor_name": "NB_BRG",
        "label": "SUBJECT held on NB_BRG"
      }
    },
    {
      "type": "Feature",
      "id": "74c1e04c-8387-4532-b6eb-9be8efccefc6",
      "geometry": null,
      "properties": {
        "kind": "SENSOR_CONTACT",
        "parent_track": "SENSOR",
        "time": "2010-01-12T13:13:20+00:00",
        "bearing": -3.5,
        "range": 0.0,
        "sensor_name": "NB_BRG",
        "label": "SUBJECT held on NB_BRG"
      }
    },
    {
      "type": "Feature",
      "id": "587401f6-08ed-4bb9-bfcf-f0561ca97796",
      "geometry": null,
      "properties": {
        "kind": "SENSOR_CONTACT",
        "parent_track": "SENSOR",
        "time": "2010-01-12T13:14:10+00:00",
        "bearing": -7.4,
        "range": 0.0,
        "sensor_name": "NB_BRG",
        "label": "SUBJECT held on NB_BRG"
      }
    },
    {
      "type": "Feature",
      "id": "f9d4ff04-2771-4163-89fe-8f5496013894",
      "geometry": null,
      "properties": {
        "kind": "SENSOR_CONTACT",
        "parent_track": "SENSOR",
        "time": "2010-01-12T13:15:00+00:00",
        "bearing": -11.0,
        "range": 0.0,
        "sensor_name": "NB_BRG",
        "label": "SUBJECT held on NB_BRG"
      }
    },
    {
      "type": "Feature",
      "id": "f0175af6-1dae-4854-bde0-b83bac4dd674",
      "geometry": null,
      "properties": {
        "kind": "SENSOR_CONTACT",
        "parent_track": "SENSOR",
        "time": "2010-01-12T13:15:50+00:00",
        "bearing": -14.4,
        "range": 0.0,
        "sensor_name": "NB_BRG",
        "label": "SUBJECT held on NB_BRG"
      }
    },
    {
      "type": "Feature",
      "id": "4d58246c-de52-4837-93d9-18a7cd55aeca",
      "geometry": null,
      "properties": {
        "kind": "SENSOR_CONTACT",
        "parent_track": "SENSOR",
        "time": "2010-01-12T13:16:40+00:00",
        "bearing": -17.6,
        "range": 0.0,
        "sensor_name": "NB_BRG",
        "label": "SUBJECT held on NB_BRG"
      }
    },
    {
      "type": "Feature",
      "id": "3820281a-f57f-4579-9b5e-f59b946db074",
      "geometry": null,
      "properties": {
        "kind": "SENSOR_CONTACT",
        "parent_track": "SENSOR",
        "time": "2010-01-12T13:17:30+00:00",
        "bearing": -20.6,
        "range": 0.0,
        "sensor_name": "NB_BRG",
        "label": "SUBJECT held on NB_BRG"
      }
    },
    {
      "type": "Feature",
      "id": "66e01d22-986f-47b4-b775-abad7776eed2",
      "geometry": null,
      "properties": {
        "kind": "SENSOR_CONTACT",
        "parent_track": "SENSOR",
        "time": "2010-01-12T13:18:20+00:00",
        "bearing": -23.4,
        "range": 0.0,
        "sensor_name": "NB_BRG",
        "label": "SUBJECT held on NB_BRG"
      }
    },
    {
      "type": "Feature",
      "id": "53c33a40-3788-414b-a108-cc45c5210238",
      "geometry": null,
      "properties": {
        "kind": "SENSOR_CONTACT",
        "parent_track": "SENSOR",
        "time": "2010-01-12T13:19:10+00:00",
        "bearing": -26.7,
        "range": 0.0,
        "sensor_name": "NB_BRG",
        "label": "SUBJECT held on NB_BRG"
      }
    },
    {
      "type": "Feature",
      "id": "31f8a2e7-c6fd-4918-a88d-02f905f09384",
      "geometry": null,
      "properties": {
        "kind": "SENSOR_CONTACT",
        "parent_track": "SENSOR",
        "time": "2010-01-12T13:20:00+00:00",
        "bearing": -31.0,
        "range": 0.0,
        "sensor_name": "NB_BRG",
        "label": "SUBJECT held on NB_BRG"
      }
    },
    {
      "type": "Feature",
      "id": "f41862d8-a7ab-44ef-bde9-a9dca3cefc50",
      "geometry": null,
      "properties": {
        "kind": "SENSOR_CONTACT",
        "parent_track": "SENSOR",
        "time": "2010-01-12T13:20:50+00:00",
        "bearing": -35.9,
        "range": 0.0,
        "sensor_name": "NB_BRG",
        "label": "SUBJECT held on NB_BRG"
      }
    },
    {
      "type": "Feature",
      "id": "fcba75b6-5459-4d0c-b50f-a6ab5a58d212",
      "geometry": null,
      "properties": {
        "kind": "SENSOR_CONTACT",
        "parent_track": "SENSOR",
        "time": "2010-01-12T13:21:40+00:00",
        "bearing": -41.0,
        "range": 0.0,
        "sensor_name": "NB_BRG",
        "label": "SUBJECT held on NB_BRG"
      }
    },
    {
      "type": "Feature",
      "id": "240980aa-3db2-4c96-9eb4-c19633d2ffd8",
      "geometry": null,
      "properties": {
        "kind": "SENSOR_CONTACT",
        "parent_track": "SENSOR",
        "time": "2010-01-12T13:22:30+00:00",
        "bearing": -46.0,
        "range": 0.0,
        "sensor_name": "NB_BRG",
        "label": "SUBJECT held on NB_BRG"
      }
    },
    {
      "type": "Feature",
      "id": "3ffab22d-dc88-4764-b29c-c6e9aa4965d2",
      "geometry": null,
      "properties": {
        "kind": "SENSOR_CONTACT",
        "parent_track": "SENSOR",
        "time": "2010-01-12T13:23:20+00:00",
        "bearing": -50.9,
        "range": 0.0,
        "sensor_name": "NB_BRG",
        "label": "SUBJECT held on NB_BRG"
      }
    },
    {
      "type": "Feature",
      "id": "ff25f220-819d-4b4f-b66a-489957a05a4e",
      "geometry": null,
      "properties": {
        "kind": "SENSOR_CONTACT",
        "parent_track": "SENSOR",
        "time": "2010-01-12T13:24:10+00:00",
        "bearing": -55.7,
        "range": 0.0,
        "sensor_name": "NB_BRG",
        "label": "SUBJECT held on NB_BRG"
      }
    },
    {
      "type": "Feature",
      "id": "214a1ef7-fe0c-4c25-b557-fe45ead62db4",
      "geometry": null,
      "properties": {
        "kind": "SENSOR_CONTACT",
        "parent_track": "SENSOR",
        "time": "2010-01-12T13:25:00+00:00",
        "bearing": -60.2,
        "range": 0.0,
        "sensor_name": "NB_BRG",
        "label": "SUBJECT held on NB_BRG"
      }
    },
    {
      "type": "Feature",
      "id": "41bae454-8adf-4bd7-9df5-52ae2479a19a",
      "geometry": null,
      "properties": {
        "kind": "SENSOR_CONTACT",
        "parent_track": "SENSOR",
        "time": "2010-01-12T13:25:50+00:00",
        "bearing": -64.5,
        "range": 0.0,
        "sensor_name": "NB_BRG",
        "label": "SUBJECT held on NB_BRG"
      }
    },
    {
      "type": "Feature",
      "id": "59bcdbc4-8ffd-453c-bf8c-f120b75ce57f",
      "geometry": null,
      "properties": {
        "kind": "SENSOR_CONTACT",
        "parent_track": "SENSOR",
        "time": "2010-01-12T13:26:40+00:00",
        "bearing": -68.5,
        "range": 0.0,
        "sensor_name": "NB_BRG",
        "label": "SUBJECT held on NB_BRG"
      }
    },
    {
      "type": "Feature",
      "id": "d8e78944-249a-41e1-83e6-cb977cf98717",
      "geometry": null,
      "properties": {
        "kind": "SENSOR_CONTACT",
        "parent_track": "SENSOR",
        "time": "2010-01-12T13:27:30+00:00",
        "bearing": -72.2,
        "range": 0.0,
        "sensor_name": "NB_BRG",
        "label": "SUBJECT held on NB_BRG"
      }
    },
    {
      "type": "Feature",
      "id": "85a6ac2b-b686-4825-a8f5-8825acfe7d2c",
      "geometry": null,
      "properties": {
        "kind": "SENSOR_CONTACT",
        "parent_track": "SENSOR",
        "time": "2010-01-12T13:28:20+00:00",
        "bearing": -75.7,
        "range": 0.0,
        "sensor_name": "NB_BRG",
        "label": "SUBJECT held on NB_BRG"
      }
    },
    {
      "type": "Feature",
      "id": "b8ad859d-2816-4d1c-9e0c-80d96c815527",
      "geometry": null,
      "properties": {
        "kind": "SENSOR_CONTACT",
        "parent_track": "SENSOR",
        "time": "2010-01-12T13:29:10+00:00",
        "bearing": -78.8,
        "range": 0.0,
        "sensor_name": "NB_BRG",
        "label": "SUBJECT held on NB_BRG"
      }
    },
    {
      "type": "Feature",
      "id": "83f45bc8-58a7-45ec-85a4-501bf6f4f9f9",
      "geometry": null,
      "properties": {
        "kind": "SENSOR_CONTACT",
        "parent_track": "SENSOR",
        "time": "2010-01-12T13:30:00+00:00",
        "bearing": -81.7,
        "range": 0.0,
        "sensor_name": "NB_BRG",
        "label": "SUBJECT held on NB_BRG"
      }
    },
    {
      "type": "Feature",
      "id": "89b220c3-c586-4fcd-8696-2e200ee4ece4",
      "geometry": null,
      "properties": {
        "kind": "SENSOR_CONTACT",
        "parent_track": "SENSOR",
        "time": "2010-01-12T13:30:50+00:00",
        "bearing": -84.4,
        "range": 0.0,
        "sensor_name": "NB_BRG",
        "label": "SUBJECT held on NB_BRG"
      }
    },
    {
      "type": "Feature",
      "id": "dc4357a3-eafd-4aac-82e5-6d3ed51836c8",
      "geometry": null,
      "properties": {
        "kind": "SENSOR_CONTACT",
        "parent_track": "SENSOR",
        "time": "2010-01-12T13:31:40+00:00",
        "bearing": -86.9,
        "range": 0.0,
        "sensor_name": "NB_BRG",
        "label": "SUBJECT held on NB_BRG"
      }
    },
    {
      "type": "Feature",
      "id": "e95bd5bd-044c-4ee3-8de1-e6bec01e1e96",
      "geometry": null,
      "properties": {
        "kind": "SENSOR_CONTACT",
        "parent_track": "SENSOR",
        "time": "2010-01-12T13:32:30+00:00",
        "bearing": -89.1,
        "range": 0.0,
        "sensor_name": "NB_BRG",
        "label": "SUBJECT held on NB_BRG"
      }
    },
    {
      "type": "Feature",
      "id": "f556545f-dc99-4f05-b49d-a9502c0cbd09",
      "geometry": null,
      "properties": {
        "kind": "SENSOR_CONTACT",
        "parent_track": "SENSOR",
        "time": "2010-01-12T13:33:20+00:00",
        "bearing": -91.1,
        "range": 0.0,
        "sensor_name": "NB_BRG",
        "label": "SUBJECT held on NB_BRG"
      }
    },
    {
      "type": "Feature",
      "id": "cc0930fa-e8c9-400a-8df1-1ec9adb4f569",
      "geometry": null,
      "properties": {
        "kind": "SENSOR_CONTACT",
        "parent_track": "SENSOR",
        "time": "2010-01-12T13:34:10+00:00",
        "bearing": -93.0,
        "range": 0.0,
        "sensor_name": "NB_BRG",
        "label": "SUBJECT held on NB_BRG"
      }
    },
    {
      "type": "Feature",
      "id": "8379deb7-033a-493f-8c07-5ea758d3bdea",
      "geometry": null,
      "properties": {
        "kind": "SENSOR_CONTACT",
        "parent_track": "SENSOR",
        "time": "2010-01-12T13:35:00+00:00",
        "bearing": -94.8,
        "range": 0.0,
        "sensor_name": "NB_BRG",
        "label": "SUBJECT held on NB_BRG"
      }
    },
    {
      "type": "Feature",
      "id": "d4d79ef2-b768-41d3-82f8-db3380eef232",
      "geometry": null,
      "properties": {
        "kind": "SENSOR_CONTACT",
        "parent_track": "SENSOR",
        "time": "2010-01-12T13:35:50+00:00",
        "bearing": -96.4,
        "range": 0.0,
        "sensor_name": "NB_BRG",
        "label": "SUBJECT held on NB_BRG"
      }
    },
    {
      "type": "Feature",
      "id": "9d9bef3f-1299-4163-bcb9-3a8073802d56",
      "geometry": null,
      "properties": {
        "kind": "SENSOR_CONTACT",
        "parent_track": "SENSOR",
        "time": "2010-01-12T13:36:40+00:00",
        "bearing": -97.8,
        "range": 0.0,
        "sensor_name": "NB_BRG",
        "label": "SUBJECT held on NB_BRG"
      }
    },
    {
      "type": "Feature",
      "id": "684c2863-30d1-443d-aef5-402133270092",
      "geometry": null,
      "properties": {
        "kind": "SENSOR_CONTACT",
        "parent_track": "SENSOR",
        "time": "2010-01-12T13:37:30+00:00",
        "bearing": -99.2,
        "range": 0.0,
        "sensor_name": "NB_BRG",
        "label": "SUBJECT held on NB_BRG"
      }
    },
    {
      "type": "Feature",
      "id": "4fc23496-e3c0-437f-a2dd-296590def23e",
      "geometry": null,
      "properties": {
        "kind": "SENSOR_CONTACT",
        "parent_track": "SENSOR",
        "time": "2010-01-12T13:38:20+00:00",
        "bearing": -100.4,
        "range": 0.0,
        "sensor_name": "NB_BRG",
        "label": "SUBJECT held on NB_BRG"
      }
    },
    {
      "type": "Feature",
      "id": "dbda55fd-9cce-4d40-8f93-ea3205e2c2c2",
      "geometry": null,
      "properties": {
        "kind": "SENSOR_CONTACT",
        "parent_track": "SENSOR",
        "time": "2010-01-12T13:39:10+00:00",
        "bearing": -101.6,
        "range": 0.0,
        "sensor_name": "NB_BRG",
        "label": "SUBJECT held on NB_BRG"
      }
    },
    {
      "type": "Feature",
      "id": "ccc11686-bd0a-4840-a255-5038eeaf1a1b",
      "geometry": null,
      "properties": {
        "kind": "SENSOR_CONTACT",
        "parent_track": "SENSOR",
        "time": "2010-01-12T13:40:00+00:00",
        "bearing": -102.7,
        "range": 0.0,
        "sensor_name": "NB_BRG",
        "label": "SUBJECT held on NB_BRG"
      }
    },
    {
      "type": "Feature",
      "id": "d443ce83-8b40-4f61-907d-452111af5da7",
      "geometry": null,
      "properties": {
        "kind": "SENSOR_CONTACT",
        "parent_track": "SENSOR",
        "time": "2010-01-12T13:40:50+00:00",
        "bearing": -103.7,
        "range": 0.0,
        "sensor_name": "NB_BRG",
        "label": "SUBJECT held on NB_BRG"
      }
    },
    {
      "type": "Feature",
      "id": "6d95727b-fad6-4724-acab-fca99d2d4f4f",
      "geometry": null,
      "properties": {
        "kind": "SENSOR_CONTACT",
        "parent_track": "SENSOR",
        "time": "2010-01-12T13:41:40+00:00",
        "bearing": -104.7,
        "range": 0.0,
        "sensor_name": "NB_BRG",
        "label": "SUBJECT held on NB_BRG"
      }
    },
    {
      "type": "Feature",
      "id": "20879f86-fe13-4088-8bbb-7d2fd7508762",
      "geometry": null,
      "properties": {
        "kind": "SENSOR_CONTACT",
        "parent_track": "SENSOR",
        "time": "2010-01-12T13:42:30+00:00",
        "bearing": -105.5,
        "range": 0.0,
        "sensor_name": "NB_BRG",
        "label": "SUBJECT held on NB_BRG"
      }
    },
    {
      "type": "Feature",
      "id": "e89aa974-ff06-4d29-a5b6-27d233c623c8",
      "geometry": null,
      "properties": {
        "kind": "SENSOR_CONTACT",
        "parent_track": "SENSOR",
        "time": "2010-01-12T13:43:20+00:00",
        "bearing": -106.4,
        "range": 0.0,
        "sensor_name": "NB_BRG",
        "label": "SUBJECT held on NB_BRG"
      }
    },
    {
      "type": "Feature",
      "id": "ace08924-06d0-4f73-82b8-95eb08b982f0",
      "geometry": null,
      "properties": {
        "kind": "SENSOR_CONTACT",
        "parent_track": "SENSOR",
        "time": "2010-01-12T13:44:10+00:00",
        "bearing": -107.1,
        "range": 0.0,
        "sensor_name": "NB_BRG",
        "label": "SUBJECT held on NB_BRG"
      }
    },
    {
      "type": "Feature",
      "id": "b5fbcdbb-ba47-4386-b6bd-b16849389f52",
      "geometry": null,
      "properties": {
        "kind": "SENSOR_CONTACT",
        "parent_track": "SENSOR",
        "time": "2010-01-12T13:45:00+00:00",
        "bearing": -107.9,
        "range": 0.0,
        "sensor_name": "NB_BRG",
        "label": "SUBJECT held on NB_BRG"
      }
    },
    {
      "type": "Feature",
      "id": "05efa179-937a-4338-8ae8-7543c5987051",
      "geometry": null,
      "properties": {
        "kind": "SENSOR_CONTACT",
        "parent_track": "SENSOR",
        "time": "2010-01-12T13:45:50+00:00",
        "bearing": -108.6,
        "range": 0.0,
        "sensor_name": "NB_BRG",
        "label": "SUBJECT held on NB_BRG"
      }
    },
    {
      "type": "Feature",
      "id": "c3b50a61-094f-41ec-a31a-7e35c2d49332",
      "geometry": null,
      "properties": {
        "kind": "SENSOR_CONTACT",
        "parent_track": "SENSOR",
        "time": "2010-01-12T13:46:40+00:00",
        "bearing": -109.2,
        "range": 0.0,
        "sensor_name": "NB_BRG",
        "label": "SUBJECT held on NB_BRG"
      }
    },
    {
      "type": "Feature",
      "id": "a9b68547-c8de-4f03-8d72-8d721fbac5f3",
      "geometry": null,
      "properties": {
        "kind": "SENSOR_CONTACT",
        "parent_track": "SENSOR",
        "time": "2010-01-12T13:47:30+00:00",
        "bearing": -109.8,
        "range": 0.0,
        "sensor_name": "NB_BRG",
        "label": "SUBJECT held on NB_BRG"
      }
    },
    {
      "type": "Feature",
      "id": "9cd4ec33-bc7e-4ede-bac4-6a0282c3be18",
      "geometry": null,
      "properties": {
        "kind": "SENSOR_CONTACT",
        "parent_track": "SENSOR",
        "time": "2010-01-12T13:48:20+00:00",
        "bearing": -110.4,
        "range": 0.0,
        "sensor_name": "NB_BRG",
        "label": "SUBJECT held on NB_BRG"
      }
    },
    {
      "type": "Feature",
      "id": "b08062bc-256d-4d3b-b584-5808882fdc77",
      "geometry": null,
      "properties": {
        "kind": "SENSOR_CONTACT",
        "parent_track": "SENSOR",
        "time": "2010-01-12T13:49:10+00:00",
        "bearing": -110.9,
        "range": 0.0,
        "sensor_name": "NB_BRG",
        "label": "SUBJECT held on NB_BRG"
      }
    },
    {
      "type": "Feature",
      "id": "1982351c-5ec9-4284-b137-4def09024702",
      "geometry": null,
      "properties": {
        "kind": "SENSOR_CONTACT",
        "parent_track": "SENSOR",
        "time": "2010-01-12T13:50:00+00:00",
        "bearing": -111.4,
        "range": 0.0,
        "sensor_name": "NB_BRG",
        "label": "SUBJECT held on NB_BRG"
      }
    },
    {
      "type": "Feature",
      "id": "7f511082-7367-4c42-b1f5-ea026315a7ff",
      "geometry": null,
      "properties": {
        "kind": "SENSOR_CONTACT",
        "parent_track": "SENSOR",
        "time": "2010-01-12T13:50:50+00:00",
        "bearing": -111.9,
        "range": 0.0,
        "sensor_name": "NB_BRG",
        "label": "SUBJECT held on NB_BRG"
      }
    },
    {
      "type": "Feature",
      "id": "111c2f50-85c2-4c5b-bf84-46f94f9a89c8",
      "geometry": null,
      "properties": {
        "kind": "SENSOR_CONTACT",
        "parent_track": "SENSOR",
        "time": "2010-01-12T13:51:40+00:00",
        "bearing": -112.4,
        "range": 0.0,
        "sensor_name": "NB_BRG",
        "label": "SUBJECT held on NB_BRG"
      }
    },
    {
      "type": "Feature",
      "id": "1ee3ea1f-b07b-42cf-b86a-0b66617873ab",
      "geometry": null,
      "properties": {
        "kind": "SENSOR_CONTACT",
        "parent_track": "SENSOR",
        "time": "2010-01-12T13:52:30+00:00",
        "bearing": -112.8,
        "range": 0.0,
        "sensor_name": "NB_BRG",
        "label": "SUBJECT held on NB_BRG"
      }
    },
    {
      "type": "Feature",
      "id": "a79b4cbf-4b71-4943-bd06-eb0b514a62c9",
      "geometry": null,
      "properties": {
        "kind": "SENSOR_CONTACT",
        "parent_track": "SENSOR",
        "time": "2010-01-12T13:53:20+00:00",
        "bearing": -113.3,
        "range": 0.0,
        "sensor_name": "NB_BRG",
        "label": "SUBJECT held on NB_BRG"
      }
    },
    {
      "type": "Feature",
      "id": "305e6333-2820-4610-9b55-c39f1ad81fcd",
      "geometry": null,
      "properties": {
        "kind": "SENSOR_CONTACT",
        "parent_track": "SENSOR",
        "time": "2010-01-12T13:54:10+00:00",
        "bearing": -113.7,
        "range": 0.0,
        "sensor_name": "NB_BRG",
        "label": "SUBJECT held on NB_BRG"
      }
    },
    {
      "type": "Feature",
      "id": "e15b2eb3-29c9-4947-b90c-9cb339d054d5",
      "geometry": null,
      "properties": {
        "kind": "SENSOR_CONTACT",
        "parent_track": "SENSOR",
        "time": "2010-01-12T13:55:00+00:00",
        "bearing": -114.0,
        "range": 0.0,
        "sensor_name": "NB_BRG",
        "label": "SUBJECT held on NB_BRG"
      }
    },
    {
      "type": "Feature",
      "id": "6ab9ecd6-ab18-48e0-a0f1-559952d92e09",
      "geometry": null,
      "properties": {
        "kind": "SENSOR_CONTACT",
        "parent_track": "SENSOR",
        "time": "2010-01-12T13:55:50+00:00",
        "bearing": -114.4,
        "range": 0.0,
        "sensor_name": "NB_BRG",
        "label": "SUBJECT held on NB_BRG"
      }
    },
    {
      "type": "Feature",
      "id": "276119a2-6558-4d69-a200-10dcebd0f1f0",
      "geometry": null,
      "properties": {
        "kind": "SENSOR_CONTACT",
        "parent_track": "SENSOR",
        "time": "2010-01-12T13:56:40+00:00",
        "bearing": -114.8,
        "range": 0.0,
        "sensor_name": "NB_BRG",
        "label": "SUBJECT held on NB_BRG"
      }
    },
    {
      "type": "Feature",
      "id": "5a78b6d0-d196-4e14-9d98-ebf86ba1bb25",
      "geometry": null,
      "properties": {
        "kind": "SENSOR_CONTACT",
        "parent_track": "SENSOR",
        "time": "2010-01-12T13:57:30+00:00",
        "bearing": -115.1,
        "range": 0.0,
        "sensor_name": "NB_BRG",
        "label": "SUBJECT held on NB_BRG"
      }
    },
    {
      "type": "Feature",
      "id": "969bfc74-a9d8-415b-a7c0-d3ebff04846a",
      "geometry": null,
      "properties": {
        "kind": "SENSOR_CONTACT",
        "parent_track": "SENSOR",
        "time": "2010-01-12T13:58:20+00:00",
        "bearing": -115.4,
        "range": 0.0,
        "sensor_name": "NB_BRG",
        "label": "SUBJECT held on NB_BRG"
      }
    },
    {
      "type": "Feature",
      "id": "0086b521-0d61-4c83-a235-273d9fe585d3",
      "geometry": null,
      "properties": {
        "kind": "SENSOR_CONTACT",
        "parent_track": "SENSOR",
        "time": "2010-01-12T13:59:10+00:00",
        "bearing": -115.7,
        "range": 0.0,
        "sensor_name": "NB_BRG",
        "label": "SUBJECT held on NB_BRG"
      }
    },
    {
      "type": "Feature",
      "id": "f8c79033-21f2-4a7c-8bf1-f64ba2470eb2",
      "geometry": null,
      "properties": {
        "kind": "SENSOR_CONTACT",
        "parent_track": "SENSOR",
        "time": "2010-01-12T14:00:00+00:00",
        "bearing": -116.0,
        "range": 0.0,
        "sensor_name": "NB_BRG",
        "label": "SUBJECT held on NB_BRG"
      }
    }
  ]
}