{
  "type": "FeatureCollection",
  "features": [
    {
      "type": "Feature",
      "id": "66e70f7c-88c7-4781-9992-7e1071f63403",
      "geometry": {
        "type": "LineString",
        "coordinates": [
          [
            0.2,
            60.18
          ],
          [
            0.1992358,
            60.1789559
          ],
          [
            0.1984716,
            60.1779118
          ],
          [
            0.1977075,
            60.1768677
          ],
          [
            0.1969434,
            60.1758236
          ],
          [
            0.1961793,
            60.1747795
          ],
          [
            0.1954152,
            60.1737354
          ],
          [
            0.1946511,
            60.1726913
          ],
          [
            0.1938871,
            60.1716472
          ],
          [
            0.1931231,
            60.1706031
          ],
          [
            0.1923591,
            60.169559
          ],
          [
            0.1915952,
            60.1685149
          ],
          [
            0.1908313,
            60.1674708
          ],
          [
            0.1900674,
            60.1664267
          ],
          [
            0.1893035,
            60.1653826
          ],
          [
            0.1885396,
            60.1643385
          ],
          [
            0.1877758,
            60.1632944
          ],
          [
            0.187012,
            60.1622503
          ],
          [
            0.1862482,
            60.1612061
          ],
          [
            0.1854845,
            60.160162
          ],
          [
            0.1847207,
            60.1591179
          ],
          [
            0.183957,
            60.1580738
          ],
          [
            0.1831933,
            60.1570297
          ],
          [
            0.1824297,
            60.1559856
          ],
          [
            0.181666,
            60.1549415
          ],
          [
            0.1809024,
            60.1538974
          ],
          [
            0.1801388,
            60.1528533
          ],
          [
            0.1793753,
            60.1518092
          ],
          [
            0.1786117,
            60.1507651
          ],
          [
            0.1778482,
            60.149721
          ],
          [
            0.1770847,
            60.1486769
          ],
          [
            0.1763213,
            60.1476328
          ],
          [
            0.1755578,
            60.1465887
          ],
          [
            0.1747944,
            60.1455446
          ],
          [
            0.174031,
            60.1445005
          ],
          [
            0.1732676,
            60.1434564
          ],
          [
            0.1725043,
            60.1424123
          ],
          [
            0.171741,
            60.1413682
          ],
          [
            0.1709777,
            60.1403241
          ],
          [
            0.1702144,
            60.13928
          ],
          [
            0.1694511,
            60.1382359
          ],
          [
            0.1686879,
            60.1371918
          ],
          [
            0.1679247,
            60.1361477
          ],
          [
            0.1671615,
            60.1351036
          ],
          [
            0.1663984,
            60.1340595
          ],
          [
            0.1656353,
            60.1330154
          ],
          [
            0.1648722,
            60.1319713
          ],
          [
            0.1641091,
            60.1309272
          ],
          [
            0.163346,
            60.1298831
          ],
          [
            0.162583,
            60.128839
          ],
          [
            0.16182,
            60.1277949
          ],
          [
            0.161057,
            60.1267508
          ],
          [
            0.160294,
            60.1257066
          ],
          [
            0.1595311,
            60.1246625
          ],
          [
            0.1587682,
            60.1236184
          ],
          [
            0.1580053,
            60.1225743
          ],
          [
            0.1572425,
            60.1215302
          ]
        ]
      },
      "properties": {
        "kind": "TRACK",
        "platform_id": "SENSOR",
        "platform_name": "SENSOR",
        "track_type": "CONTACT",
        "start_time": "2010-01-12T12:00:00+00:00",
        "end_time": "2010-01-12T12:18:40+00:00",
        "positions": [
          {
            "time": "2010-01-12T12:00:00+00:00",
            "course": 200.0,
            "speed": 12.0,
            "depth": 0.0
          },
          {
            "time": "2010-01-12T12:00:20+00:00",
            "course": 200.0,
            "speed": 12.0,
            "depth": 0.0
          },
          {
            "time": "2010-01-12T12:00:40+00:00",
            "course": 200.0,
            "speed": 12.0,
            "depth": 0.0
          },
          {
            "time": "2010-01-12T12:01:00+00:00",
            "course": 200.0,
            "speed": 12.0,
            "depth": 0.0
          },
          {
            "time": "2010-01-12T12:01:20+00:00",
            "course": 200.0,
            "speed": 12.0,
            "depth": 0.0
          },
          {
            "time": "2010-01-12T12:01:40+00:00",
            "course": 200.0,
            "speed": 12.0,
            "depth": 0.0
          },
          {
            "time": "2010-01-12T12:02:00+00:00",
            "course": 200.0,
            "speed": 12.0,
            "depth": 0.0
          },
          {
            "time": "2010-01-12T12:02:20+00:00",
            "course": 200.0,
            "speed": 12.0,
            "depth": 0.0
          },
          {
            "time": "2010-01-12T12:02:40+00:00",
            "course": 200.0,
            "speed": 12.0,
            "depth": 0.0
          },
          {
            "time": "2010-01-12T12:03:00+00:00",
            "course": 200.0,
            "speed": 12.0,
            "depth": 0.0
          },
          {
            "time": "2010-01-12T12:03:20+00:00",
            "course": 200.0,
            "speed": 12.0,
            "depth": 0.0
          },
          {
            "time": "2010-01-12T12:03:40+00:00",
            "course": 200.0,
            "speed": 12.0,
            "depth": 0.0
          },
          {
            "time": "2010-01-12T12:04:00+00:00",
            "course": 200.0,
            "speed": 12.0,
            "depth": 0.0
          },
          {
            "time": "2010-01-12T12:04:20+00:00",
            "course": 200.0,
            "speed": 12.0,
            "depth": 0.0
          },
          {
            "time": "2010-01-12T12:04:40+00:00",
            "course": 200.0,
            "speed": 12.0,
            "depth": 0.0
          },
          {
            "time": "2010-01-12T12:05:00+00:00",
            "course": 200.0,
            "speed": 12.0,
            "depth": 0.0
          },
          {
            "time": "2010-01-12T12:05:20+00:00",
            "course": 200.0,
            "speed": 12.0,
            "depth": 0.0
          },
          {
            "time": "2010-01-12T12:05:40+00:00",
            "course": 200.0,
            "speed": 12.0,
            "depth": 0.0
          },
          {
            "time": "2010-01-12T12:06:00+00:00",
            "course": 200.0,
            "speed": 12.0,
            "depth": 0.0
          },
          {
            "time": "2010-01-12T12:06:20+00:00",
            "course": 200.0,
            "speed": 12.0,
            "depth": 0.0
          },
          {
            "time": "2010-01-12T12:06:40+00:00",
            "course": 200.0,
            "speed": 12.0,
            "depth": 0.0
          },
          {
            "time": "2010-01-12T12:07:00+00:00",
            "course": 200.0,
            "speed": 12.0,
            "depth": 0.0
          },
          {
            "time": "2010-01-12T12:07:20+00:00",
            "course": 200.0,
            "speed": 12.0,
            "depth": 0.0
          },
          {
            "time": "2010-01-12T12:07:40+00:00",
            "course": 200.0,
            "speed": 12.0,
            "depth": 0.0
          },
          {
            "time": "2010-01-12T12:08:00+00:00",
            "course": 200.0,
            "speed": 12.0,
            "depth": 0.0
          },
          {
            "time": "2010-01-12T12:08:20+00:00",
            "course": 200.0,
            "speed": 12.0,
            "depth": 0.0
          },
          {
            "time": "2010-01-12T12:08:40+00:00",
            "course": 200.0,
            "speed": 12.0,
            "depth": 0.0
          },
          {
            "time": "2010-01-12T12:09:00+00:00",
            "course": 200.0,
            "speed": 12.0,
            "depth": 0.0
          },
          {
            "time": "2010-01-12T12:09:20+00:00",
            "course": 200.0,
            "speed": 12.0,
            "depth": 0.0
          },
          {
            "time": "2010-01-12T12:09:40+00:00",
            "course": 200.0,
            "speed": 12.0,
            "depth": 0.0
          },
          {
            "time": "2010-01-12T12:10:00+00:00",
            "course": 200.0,
            "speed": 12.0,
            "depth": 0.0
          },
          {
            "time": "2010-01-12T12:10:20+00:00",
            "course": 200.0,
            "speed": 12.0,
            "depth": 0.0
          },
          {
            "time": "2010-01-12T12:10:40+00:00",
            "course": 200.0,
            "speed": 12.0,
            "depth": 0.0
          },
          {
            "time": "2010-01-12T12:11:00+00:00",
            "course": 200.0,
            "speed": 12.0,
            "depth": 0.0
          },
          {
            "time": "2010-01-12T12:11:20+00:00",
            "course": 200.0,
            "speed": 12.0,
            "depth": 0.0
          },
          {
            "time": "2010-01-12T12:11:40+00:00",
            "course": 200.0,
            "speed": 12.0,
            "depth": 0.0
          },
          {
            "time": "2010-01-12T12:12:00+00:00",
            "course": 200.0,
            "speed": 12.0,
            "depth": 0.0
          },
          {
            "time": "2010-01-12T12:12:20+00:00",
            "course": 200.0,
            "speed": 12.0,
            "depth": 0.0
          },
          {
            "time": "2010-01-12T12:12:40+00:00",
            "course": 200.0,
            "speed": 12.0,
            "depth": 0.0
          },
          {
            "time": "2010-01-12T12:13:00+00:00",
            "course": 200.0,
            "speed": 12.0,
            "depth": 0.0
          },
          {
            "time": "2010-01-12T12:13:20+00:00",
            "course": 200.0,
            "speed": 12.0,
            "depth": 0.0
          },
          {
            "time": "2010-01-12T12:13:40+00:00",
            "course": 200.0,
            "speed": 12.0,
            "depth": 0.0
          },
          {
            "time": "2010-01-12T12:14:00+00:00",
            "course": 200.0,
            "speed": 12.0,
            "depth": 0.0
          },
          {
            "time": "2010-01-12T12:14:20+00:00",
            "course": 200.0,
            "speed": 12.0,
            "depth": 0.0
          },
          {
            "time": "2010-01-12T12:14:40+00:00",
            "course": 200.0,
            "speed": 12.0,
            "depth": 0.0
          },
          {
            "time": "2010-01-12T12:15:00+00:00",
            "course": 200.0,
            "speed": 12.0,
            "depth": 0.0
          },
          {
            "time": "2010-01-12T12:15:20+00:00",
            "course": 200.0,
            "speed": 12.0,
            "depth": 0.0
          },
          {
            "time": "2010-01-12T12:15:40+00:00",
            "course": 200.0,
            "speed": 12.0,
            "depth": 0.0
          },
          {
            "time": "2010-01-12T12:16:00+00:00",
            "course": 200.0,
            "speed": 12.0,
            "depth": 0.0
          },
          {
            "time": "2010-01-12T12:16:20+00:00",
            "course": 200.0,
            "speed": 12.0,
            "depth": 0.0
          },
          {
            "time": "2010-01-12T12:16:40+00:00",
            "course": 200.0,
            "speed": 12.0,
            "depth": 0.0
          },
          {
            "time": "2010-01-12T12:17:00+00:00",
            "course": 200.0,
            "speed": 12.0,
            "depth": 0.0
          },
          {
            "time": "2010-01-12T12:17:20+00:00",
            "course": 200.0,
            "speed": 12.0,
            "depth": 0.0
          },
          {
            "time": "2010-01-12T12:17:40+00:00",
            "course": 200.0,
            "speed": 12.0,
            "depth": 0.0
          },
          {
            "time": "2010-01-12T12:18:00+00:00",
            "course": 200.0,
            "speed": 12.0,
            "depth": 0.0
          },
          {
            "time": "2010-01-12T12:18:20+00:00",
            "course": 200.0,
            "speed": 12.0,
            "depth": 0.0
          },
          {
            "time": "2010-01-12T12:18:40+00:00",
            "course": 200.0,
            "speed": 12.0,
            "depth": 0.0
          }
        ],
        "style": {
          "line": {
            "color": "#808080"
          },
          "point": {
            "shape": "circle",
            "radius": 3.0,
            "fill_color": "#808080",
            "color": "#808080"
          }
        },
        "default_position_style": {
          "show_symbol": false,
          "symbol": "circle",
          "show_label": false
        },
        "symbol_interval": "PT1M",
        "label_interval": "PT5M"
      }
    },
    {
      "type": "Feature",
      "id": "efc68bbf-4132-439f-af91-2fad8e6d7bb8",
      "geometry": null,
      "properties": {
        "kind": "SENSOR_CONTACT",
        "parent_track": "SENSOR",
        "sensor_name": "BOW_BRG",
        "bearing": 162.6,
        "time": "2010-01-12T12:00:00+00:00",
        "label": "SUBJECT held on BOW_BRG"
      }
    },
    {
      "type": "Feature",
      "id": "59834b01-3e59-4f60-bfa4-0ef57e81ae18",
      "geometry": null,
      "properties": {
        "kind": "SENSOR_CONTACT",
        "parent_track": "SENSOR",
        "sensor_name": "BOW_BRG",
        "bearing": 162.3,
        "time": "2010-01-12T12:00:20+00:00",
        "label": "SUBJECT held on BOW_BRG"
      }
    },
    {
      "type": "Feature",
      "id": "70ba0087-48c2-4d12-a696-f1a44e241984",
      "geometry": null,
      "properties": {
        "kind": "SENSOR_CONTACT",
        "parent_track": "SENSOR",
        "sensor_name": "BOW_BRG",
        "bearing": 162.1,
        "time": "2010-01-12T12:00:40+00:00",
        "label": "SUBJECT held on BOW_BRG"
      }
    },
    {
      "type": "Feature",
      "id": "f0b92466-7895-40ec-a43d-e0303af23e69",
      "geometry": null,
      "properties": {
        "kind": "SENSOR_CONTACT",
        "parent_track": "SENSOR",
        "sensor_name": "BOW_BRG",
        "bearing": 161.8,
        "time": "2010-01-12T12:01:00+00:00",
        "label": "SUBJECT held on BOW_BRG"
      }
    },
    {
      "type": "Feature",
      "id": "9bd64b00-47be-4a3e-8862-c41d6caf4fc2",
      "geometry": null,
      "properties": {
        "kind": "SENSOR_CONTACT",
        "parent_track": "SENSOR",
        "sensor_name": "BOW_BRG",
        "bearing": 161.5,
        "time": "2010-01-12T12:01:20+00:00",
        "label": "SUBJECT held on BOW_BRG"
      }
    },
    {
      "type": "Feature",
      "id": "ea978227-d15b-4f84-8d33-c24e0e8712e1",
      "geometry": null,
      "properties": {
        "kind": "SENSOR_CONTACT",
        "parent_track": "SENSOR",
        "sensor_name": "BOW_BRG",
        "bearing": 161.2,
        "time": "2010-01-12T12:01:40+00:00",
        "label": "SUBJECT held on BOW_BRG"
      }
    },
    {
      "type": "Feature",
      "id": "cef77e3d-d814-4ade-ad54-83e9bd84c582",
      "geometry": null,
      "properties": {
        "kind": "SENSOR_CONTACT",
        "parent_track": "SENSOR",
        "sensor_name": "BOW_BRG",
        "bearing": 160.9,
        "time": "2010-01-12T12:02:00+00:00",
        "label": "SUBJECT held on BOW_BRG"
      }
    },
    {
      "type": "Feature",
      "id": "ffc1dc36-bada-446a-9ece-1bccb7727fe6",
      "geometry": null,
      "properties": {
        "kind": "SENSOR_CONTACT",
        "parent_track": "SENSOR",
        "sensor_name": "BOW_BRG",
        "bearing": 160.6,
        "time": "2010-01-12T12:02:20+00:00",
        "label": "SUBJECT held on BOW_BRG"
      }
    },
    {
      "type": "Feature",
      "id": "51f07eef-5c7b-47c4-85b0-a376401f5a79",
      "geometry": null,
      "properties": {
        "kind": "SENSOR_CONTACT",
        "parent_track": "SENSOR",
        "sensor_name": "BOW_BRG",
        "bearing": 160.2,
        "time": "2010-01-12T12:02:40+00:00",
        "label": "SUBJECT held on BOW_BRG"
      }
    },
    {
      "type": "Feature",
      "id": "8974eea5-e97d-4983-b181-c15f13b41f26",
      "geometry": null,
      "properties": {
        "kind": "SENSOR_CONTACT",
        "parent_track": "SENSOR",
        "sensor_name": "BOW_BRG",
        "bearing": 159.9,
        "time": "2010-01-12T12:03:00+00:00",
        "label": "SUBJECT held on BOW_BRG"
      }
    },
    {
      "type": "Feature",
      "id": "70bed73f-e3d3-487f-8f1b-60728a61a7ee",
      "geometry": null,
      "properties": {
        "kind": "SENSOR_CONTACT",
        "parent_track": "SENSOR",
        "sensor_name": "BOW_BRG",
        "bearing": 159.5,
        "time": "2010-01-12T12:03:20+00:00",
        "label": "SUBJECT held on BOW_BRG"
      }
    },
    {
      "type": "Feature",
      "id": "ea02219d-6f2a-4e1a-8d90-e3ed9b1bca6e",
      "geometry": null,
      "properties": {
        "kind": "SENSOR_CONTACT",
        "parent_track": "SENSOR",
        "sensor_name": "BOW_BRG",
        "bearing": 159.1,
        "time": "2010-01-12T12:03:40+00:00",
        "label": "SUBJECT held on BOW_BRG"
      }
    },
    {
      "type": "Feature",
      "id": "2e9ef2d2-3c94-4f19-be56-a6fd032cb98c",
      "geometry": null,
      "properties": {
        "kind": "SENSOR_CONTACT",
        "parent_track": "SENSOR",
        "sensor_name": "BOW_BRG",
        "bearing": 158.7,
        "time": "2010-01-12T12:04:00+00:00",
        "label": "SUBJECT held on BOW_BRG"
      }
    },
    {
      "type": "Feature",
      "id": "fc7ba307-e4f9-4b24-b9bb-a1790a2cd4ca",
      "geometry": null,
      "properties": {
        "kind": "SENSOR_CONTACT",
        "parent_track": "SENSOR",
        "sensor_name": "BOW_BRG",
        "bearing": 158.3,
        "time": "2010-01-12T12:04:20+00:00",
        "label": "SUBJECT held on BOW_BRG"
      }
    },
    {
      "type": "Feature",
      "id": "0aba2081-9ba1-428a-9417-ff22f8845328",
      "geometry": null,
      "properties": {
        "kind": "SENSOR_CONTACT",
        "parent_track": "SENSOR",
        "sensor_name": "BOW_BRG",
        "bearing": 157.8,
        "time": "2010-01-12T12:04:40+00:00",
        "label": "SUBJECT held on BOW_BRG"
      }
    },
    {
      "type": "Feature",
      "id": "5c2e9029-12c5-4a5c-9904-b10a7a85c87a",
      "geometry": null,
      "properties": {
        "kind": "SENSOR_CONTACT",
        "parent_track": "SENSOR",
        "sensor_name": "BOW_BRG",
        "bearing": 157.4,
        "time": "2010-01-12T12:05:00+00:00",
        "label": "SUBJECT held on BOW_BRG"
      }
    },
    {
      "type": "Feature",
      "id": "dd8e33fd-e100-41be-bec4-fcc25d336a9b",
      "geometry": null,
      "properties": {
        "kind": "SENSOR_CONTACT",
        "parent_track": "SENSOR",
        "sensor_name": "BOW_BRG",
        "bearing": 156.9,
        "time": "2010-01-12T12:05:20+00:00",
        "label": "SUBJECT held on BOW_BRG"
      }
    },
    {
      "type": "Feature",
      "id": "fa0c2bda-1c61-4006-86fa-b1368895abbe",
      "geometry": null,
      "properties": {
        "kind": "SENSOR_CONTACT",
        "parent_track": "SENSOR",
        "sensor_name": "BOW_BRG",
        "bearing": 156.3,
        "time": "2010-01-12T12:05:40+00:00",
        "label": "SUBJECT held on BOW_BRG"
      }
    },
    {
      "type": "Feature",
      "id": "a0f49d65-934b-48f2-828a-853744af58fa",
      "geometry": null,
      "properties": {
        "kind": "SENSOR_CONTACT",
        "parent_track": "SENSOR",
        "sensor_name": "BOW_BRG",
        "bearing": 155.8,
        "time": "2010-01-12T12:06:00+00:00",
        "label": "SUBJECT held on BOW_BRG"
      }
    },
    {
      "type": "Feature",
      "id": "bc61d3a5-a51b-41e8-b453-85cc52c86760",
      "geometry": null,
      "properties": {
        "kind": "SENSOR_CONTACT",
        "parent_track": "SENSOR",
        "sensor_name": "BOW_BRG",
        "bearing": 155.2,
        "time": "2010-01-12T12:06:20+00:00",
        "label": "SUBJECT held on BOW_BRG"
      }
    },
    {
      "type": "Feature",
      "id": "3d6f874b-1599-41fe-ab9d-39203ed7750a",
      "geometry": null,
      "properties": {
        "kind": "SENSOR_CONTACT",
        "parent_track": "SENSOR",
        "sensor_name": "BOW_BRG",
        "bearing": 154.5,
        "time": "2010-01-12T12:06:40+00:00",
        "label": "SUBJECT held on BOW_BRG"
      }
    },
    {
      "type": "Feature",
      "id": "73ce9784-1eea-4665-b9f8-9aed825b9e24",
      "geometry": null,
      "properties": {
        "kind": "SENSOR_CONTACT",
        "parent_track": "SENSOR",
        "sensor_name": "BOW_BRG",
        "bearing": 153.8,
        "time": "2010-01-12T12:07:00+00:00",
        "label": "SUBJECT held on BOW_BRG"
      }
    },
    {
      "type": "Feature",
      "id": "a40cf532-63e6-49dd-a2d8-c1605ce5ffb6",
      "geometry": null,
      "properties": {
        "kind": "SENSOR_CONTACT",
        "parent_track": "SENSOR",
        "sensor_name": "BOW_BRG",
        "bearing": 153.1,
        "time": "2010-01-12T12:07:20+00:00",
        "label": "SUBJECT held on BOW_BRG"
      }
    },
    {
      "type": "Feature",
      "id": "7650a566-4b74-4fe2-a14b-e859a0c65f18",
      "geometry": null,
      "properties": {
        "kind": "SENSOR_CONTACT",
        "parent_track": "SENSOR",
        "sensor_name": "BOW_BRG",
        "bearing": 152.4,
        "time": "2010-01-12T12:07:40+00:00",
        "label": "SUBJECT held on BOW_BRG"
      }
    },
    {
      "type": "Feature",
      "id": "91ba40ea-227a-44a4-b93c-b98214d2f70c",
      "geometry": null,
      "properties": {
        "kind": "SENSOR_CONTACT",
        "parent_track": "SENSOR",
        "sensor_name": "BOW_BRG",
        "bearing": 151.5,
        "time": "2010-01-12T12:08:00+00:00",
        "label": "SUBJECT held on BOW_BRG"
      }
    },
    {
      "type": "Feature",
      "id": "08e3ed3a-3cf2-4495-a5ac-ee29cd509a2b",
      "geometry": null,
      "properties": {
        "kind": "SENSOR_CONTACT",
        "parent_track": "SENSOR",
        "sensor_name": "BOW_BRG",
        "bearing": 150.6,
        "time": "2010-01-12T12:08:20+00:00",
        "label": "SUBJECT held on BOW_BRG"
      }
    },
    {
      "type": "Feature",
      "id": "564242d0-bf6b-424c-bb5b-2ccb7b82e294",
      "geometry": null,
      "properties": {
        "kind": "SENSOR_CONTACT",
        "parent_track": "SENSOR",
        "sensor_name": "BOW_BRG",
        "bearing": 149.7,
        "time": "2010-01-12T12:08:40+00:00",
        "label": "SUBJECT held on BOW_BRG"
      }
    },
    {
      "type": "Feature",
      "id": "401195bf-1800-4094-9153-d0e7118992d9",
      "geometry": null,
      "properties": {
        "kind": "SENSOR_CONTACT",
        "parent_track": "SENSOR",
        "sensor_name": "BOW_BRG",
        "bearing": 148.7,
        "time": "2010-01-12T12:09:00+00:00",
        "label": "SUBJECT held on BOW_BRG"
      }
    },
    {
      "type": "Feature",
      "id": "6b5d42cc-6034-4974-b59a-8104c6d288dd",
      "geometry": null,
      "properties": {
        "kind": "SENSOR_CONTACT",
        "parent_track": "SENSOR",
        "sensor_name": "BOW_BRG",
        "bearing": 147.6,
        "time": "2010-01-12T12:09:20+00:00",
        "label": "SUBJECT held on BOW_BRG"
      }
    },
    {
      "type": "Feature",
      "id": "dbebab4a-7f12-41de-9760-15a6d7f3a4ea",
      "geometry": null,
      "properties": {
        "kind": "SENSOR_CONTACT",
        "parent_track": "SENSOR",
        "sensor_name": "BOW_BRG",
        "bearing": 146.4,
        "time": "2010-01-12T12:09:40+00:00",
        "label": "SUBJECT held on BOW_BRG"
      }
    },
    {
      "type": "Feature",
      "id": "fdc84f55-9b13-4881-b88d-6fd9b12d353d",
      "geometry": null,
      "properties": {
        "kind": "SENSOR_CONTACT",
        "parent_track": "SENSOR",
        "sensor_name": "BOW_BRG",
        "bearing": 145.1,
        "time": "2010-01-12T12:10:00+00:00",
        "label": "SUBJECT held on BOW_BRG"
      }
    },
    {
      "type": "Feature",
      "id": "2e7e2e09-e654-44ef-9c7f-3bfe4db23e88",
      "geometry": null,
      "properties": {
        "kind": "SENSOR_CONTACT",
        "parent_track": "SENSOR",
        "sensor_name": "BOW_BRG",
        "bearing": 143.7,
        "time": "2010-01-12T12:10:20+00:00",
        "label": "SUBJECT held on BOW_BRG"
      }
    },
    {
      "type": "Feature",
      "id": "5be7c20c-c777-495d-adf2-2a87cb7293bb",
      "geometry": null,
      "properties": {
        "kind": "SENSOR_CONTACT",
        "parent_track": "SENSOR",
        "sensor_name": "BOW_BRG",
        "bearing": 142.2,
        "time": "2010-01-12T12:10:40+00:00",
        "label": "SUBJECT held on BOW_BRG"
      }
    },
    {
      "type": "Feature",
      "id": "a0472461-31b6-448c-b0d9-ed298cc8ff38",
      "geometry": null,
      "properties": {
        "kind": "SENSOR_CONTACT",
        "parent_track": "SENSOR",
        "sensor_name": "BOW_BRG",
        "bearing": 140.5,
        "time": "2010-01-12T12:11:00+00:00",
        "label": "SUBJECT held on BOW_BRG"
      }
    },
    {
      "type": "Feature",
      "id": "d62313eb-47ee-4201-937a-9d85f27bcf7c",
      "geometry": null,
      "properties": {
        "kind": "SENSOR_CONTACT",
        "parent_track": "SENSOR",
        "sensor_name": "BOW_BRG",
        "bearing": 138.7,
        "time": "2010-01-12T12:11:20+00:00",
        "label": "SUBJECT held on BOW_BRG"
      }
    },
    {
      "type": "Feature",
      "id": "194a253d-4818-4161-af25-f871d01cc359",
      "geometry": null,
      "properties": {
        "kind": "SENSOR_CONTACT",
        "parent_track": "SENSOR",
        "sensor_name": "BOW_BRG",
        "bearing": 136.7,
        "time": "2010-01-12T12:11:40+00:00",
        "label": "SUBJECT held on BOW_BRG"
      }
    },
    {
      "type": "Feature",
      "id": "78fe14b9-38c6-48d4-a191-d55b48796697",
      "geometry": null,
      "properties": {
        "kind": "SENSOR_CONTACT",
        "parent_track": "SENSOR",
        "sensor_name": "BOW_BRG",
        "bearing": 134.5,
        "time": "2010-01-12T12:12:00+00:00",
        "label": "SUBJECT held on BOW_BRG"
      }
    },
    {
      "type": "Feature",
      "id": "53d021b8-ec0e-45eb-a4a4-e428deed4e5d",
      "geometry": null,
      "properties": {
        "kind": "SENSOR_CONTACT",
        "parent_track": "SENSOR",
        "sensor_name": "BOW_BRG",
        "bearing": 132.1,
        "time": "2010-01-12T12:12:20+00:00",
        "label": "SUBJECT held on BOW_BRG"
      }
    },
    {
      "type": "Feature",
      "id": "df1361d7-d449-4d02-8254-9f8456d860b9",
      "geometry": null,
      "properties": {
        "kind": "SENSOR_CONTACT",
        "parent_track": "SENSOR",
        "sensor_name": "BOW_BRG",
        "bearing": 129.4,
        "time": "2010-01-12T12:12:40+00:00",
        "label": "SUBJECT held on BOW_BRG"
      }
    },
    {
      "type": "Feature",
      "id": "8b770f52-0250-4743-b4d7-43e9c40ce4d6",
      "geometry": null,
      "properties": {
        "kind": "SENSOR_CONTACT",
        "parent_track": "SENSOR",
        "sensor_name": "BOW_BRG",
        "bearing": 126.5,
        "time": "2010-01-12T12:13:00+00:00",
        "label": "SUBJECT held on BOW_BRG"
      }
    },
    {
      "type": "Feature",
      "id": "331c5512-c9f6-433f-9ee9-87dcae488e69",
      "geometry": null,
      "properties": {
        "kind": "SENSOR_CONTACT",
        "parent_track": "SENSOR",
        "sensor_name": "BOW_BRG",
        "bearing": 123.3,
        "time": "2010-01-12T12:13:20+00:00",
        "label": "SUBJECT held on BOW_BRG"
      }
    },
    {
      "type": "Feature",
      "id": "088445b9-d328-4146-b6fe-8f5c8185ceba",
      "geometry": null,
      "properties": {
        "kind": "SENSOR_CONTACT",
        "parent_track": "SENSOR",
        "sensor_name": "BOW_BRG",
        "bearing": 119.8,
        "time": "2010-01-12T12:13:40+00:00",
        "label": "SUBJECT held on BOW_BRG"
      }
    },
    {
      "type": "Feature",
      "id": "1b0937d5-eca5-4eb6-a441-36af41dd324f",
      "geometry": null,
      "properties": {
        "kind": "SENSOR_CONTACT",
        "parent_track": "SENSOR",
        "sensor_name": "BOW_BRG",
        "bearing": 115.9,
        "time": "2010-01-12T12:14:00+00:00",
        "label": "SUBJECT held on BOW_BRG"
      }
    },
    {
      "type": "Feature",
      "id": "e9bcb197-3142-4930-a97f-71e9988e14bc",
      "geometry": null,
      "properties": {
        "kind": "SENSOR_CONTACT",
        "parent_track": "SENSOR",
        "sensor_name": "BOW_BRG",
        "bearing": 111.7,
        "time": "2010-01-12T12:14:20+00:00",
        "label": "SUBJECT held on BOW_BRG"
      }
    },
    {
      "type": "Feature",
      "id": "3cb36689-743f-4189-863d-b25dacf2c155",
      "geometry": null,
      "properties": {
        "kind": "SENSOR_CONTACT",
        "parent_track": "SENSOR",
        "sensor_name": "BOW_BRG",
        "bearing": 107.2,
        "time": "2010-01-12T12:14:40+00:00",
        "label": "SUBJECT held on BOW_BRG"
      }
    },
    {
      "type": "Feature",
      "id": "8a197a2a-a16d-42a6-8807-3ac1ae15cbb8",
      "geometry": null,
      "properties": {
        "kind": "SENSOR_CONTACT",
        "parent_track": "SENSOR",
        "sensor_name": "BOW_BRG",
        "bearing": 102.3,
        "time": "2010-01-12T12:15:00+00:00",
        "label": "SUBJECT held on BOW_BRG"
      }
    },
    {
      "type": "Feature",
      "id": "4f8aa261-08d8-4367-9454-6a6bd8c1d161",
      "geometry": null,
      "properties": {
        "kind": "SENSOR_CONTACT",
        "parent_track": "SENSOR",
        "sensor_name": "BOW_BRG",
        "bearing": 97.2,
        "time": "2010-01-12T12:15:20+00:00",
        "label": "SUBJECT held on BOW_BRG"
      }
    },
    {
      "type": "Feature",
      "id": "5a5f684c-89fc-4767-97fc-7f0f62803dfc",
      "geometry": null,
      "properties": {
        "kind": "SENSOR_CONTACT",
        "parent_track": "SENSOR",
        "sensor_name": "BOW_BRG",
        "bearing": 91.9,
        "time": "2010-01-12T12:15:40+00:00",
        "label": "SUBJECT held on BOW_BRG"
      }
    },
    {
      "type": "Feature",
      "id": "fb46b94f-f1d5-4a13-9378-4b7931180ac3",
      "geometry": null,
      "properties": {
        "kind": "SENSOR_CONTACT",
        "parent_track": "SENSOR",
        "sensor_name": "BOW_BRG",
        "bearing": 86.4,
        "time": "2010-01-12T12:16:00+00:00",
        "label": "SUBJECT held on BOW_BRG"
      }
    },
    {
      "type": "Feature",
      "id": "5d9b7a7a-bbd9-45d7-a179-476a605c22bf",
      "geometry": null,
      "properties": {
        "kind": "SENSOR_CONTACT",
        "parent_track": "SENSOR",
        "sensor_name": "BOW_BRG",
        "bearing": 80.9,
        "time": "2010-01-12T12:16:20+00:00",
        "label": "SUBJECT held on BOW_BRG"
      }
    },
    {
      "type": "Feature",
      "id": "023f7b6b-9510-42ee-8d0c-16943aaf31b4",
      "geometry": null,
      "properties": {
        "kind": "SENSOR_CONTACT",
        "parent_track": "SENSOR",
        "sensor_name": "BOW_BRG",
        "bearing": 75.5,
        "time": "2010-01-12T12:16:40+00:00",
        "label": "SUBJECT held on BOW_BRG"
      }
    },
    {
      "type": "Feature",
      "id": "e38376bb-dbcc-4ca8-9e53-45e75c883bea",
      "geometry": null,
      "properties": {
        "kind": "SENSOR_CONTACT",
        "parent_track": "SENSOR",
        "sensor_name": "BOW_BRG",
        "bearing": 70.2,
        "time": "2010-01-12T12:17:00+00:00",
        "label": "SUBJECT held on BOW_BRG"
      }
    },
    {
      "type": "Feature",
      "id": "3a1a5d93-89c2-47d2-89ad-40da033ff6fb",
      "geometry": null,
      "properties": {
        "kind": "SENSOR_CONTACT",
        "parent_track": "SENSOR",
        "sensor_name": "BOW_BRG",
        "bearing": 65.2,
        "time": "2010-01-12T12:17:20+00:00",
        "label": "SUBJECT held on BOW_BRG"
      }
    },
    {
      "type": "Feature",
      "id": "c81a444e-a5f5-49ec-b585-4c41857ff2aa",
      "geometry": null,
      "properties": {
        "kind": "SENSOR_CONTACT",
        "parent_track": "SENSOR",
        "sensor_name": "BOW_BRG",
        "bearing": 60.5,
        "time": "2010-01-12T12:17:40+00:00",
        "label": "SUBJECT held on BOW_BRG"
      }
    },
    {
      "type": "Feature",
      "id": "780d5d18-3fe8-4044-b9f7-e263ec9be8cc",
      "geometry": null,
      "properties": {
        "kind": "SENSOR_CONTACT",
        "parent_track": "SENSOR",
        "sensor_name": "BOW_BRG",
        "bearing": 56.1,
        "time": "2010-01-12T12:18:00+00:00",
        "label": "SUBJECT held on BOW_BRG"
      }
    },
    {
      "type": "Feature",
      "id": "dc09c361-aeee-40eb-ab51-3e776b73cf21",
      "geometry": null,
      "properties": {
        "kind": "SENSOR_CONTACT",
        "parent_track": "SENSOR",
        "sensor_name": "BOW_BRG",
        "bearing": 52.0,
        "time": "2010-01-12T12:18:20+00:00",
        "label": "SUBJECT held on BOW_BRG"
      }
    },
    {
      "type": "Feature",
      "id": "12a96b5c-a840-478b-889c-7b89d385a49c",
      "geometry": null,
      "properties": {
        "kind": "SENSOR_CONTACT",
        "parent_track": "SENSOR",
        "sensor_name": "TAIL_BRG",
        "bearing": 166.1,
        "time": "2010-01-12T12:00:05+00:00",
        "label": "SUBJECT held on TAIL_BRG"
      }
    },
    {
      "type": "Feature",
      "id": "37033d37-eebb-4fea-9efb-5fc0c05d397e",
      "geometry": null,
      "properties": {
        "kind": "SENSOR_CONTACT",
        "parent_track": "SENSOR",
        "sensor_name": "TAIL_BRG",
        "bearing": 166.0,
        "time": "2010-01-12T12:00:25+00:00",
        "label": "SUBJECT held on TAIL_BRG"
      }
    },
    {
      "type": "Feature",
      "id": "f9ad075b-f281-46f9-8898-c2d430e6766c",
      "geometry": null,
      "properties": {
        "kind": "SENSOR_CONTACT",
        "parent_track": "SENSOR",
        "sensor_name": "TAIL_BRG",
        "bearing": 165.8,
        "time": "2010-01-12T12:00:45+00:00",
        "label": "SUBJECT held on TAIL_BRG"
      }
    },
    {
      "type": "Feature",
      "id": "16eca316-6446-4aad-8f4a-d4c44b40e964",
      "geometry": null,
      "properties": {
        "kind": "SENSOR_CONTACT",
        "parent_track": "SENSOR",
        "sensor_name": "TAIL_BRG",
        "bearing": 165.6,
        "time": "2010-01-12T12:01:05+00:00",
        "label": "SUBJECT held on TAIL_BRG"
      }
    },
    {
      "type": "Feature",
      "id": "4486a2fd-7f23-49df-aa88-1cb17091280f",
      "geometry": null,
      "properties": {
        "kind": "SENSOR_CONTACT",
        "parent_track": "SENSOR",
        "sensor_name": "TAIL_BRG",
        "bearing": 165.5,
        "time": "2010-01-12T12:01:25+00:00",
        "label": "SUBJECT held on TAIL_BRG"
      }
    },
    {
      "type": "Feature",
      "id": "d4e10d76-192f-4edb-b02f-a914c351bcea",
      "geometry": null,
      "properties": {
        "kind": "SENSOR_CONTACT",
        "parent_track": "SENSOR",
        "sensor_name": "TAIL_BRG",
        "bearing": 165.3,
        "time": "2010-01-12T12:01:45+00:00",
        "label": "SUBJECT held on TAIL_BRG"
      }
    },
    {
      "type": "Feature",
      "id": "f701255e-7837-417b-94f2-4be4d8adaf69",
      "geometry": null,
      "properties": {
        "kind": "SENSOR_CONTACT",
        "parent_track": "SENSOR",
        "sensor_name": "TAIL_BRG",
        "bearing": 165.1,
        "time": "2010-01-12T12:02:05+00:00",
        "label": "SUBJECT held on TAIL_BRG"
      }
    },
    {
      "type": "Feature",
      "id": "48beb1c0-4ae7-4595-ab89-4612df9ab056",
      "geometry": null,
      "properties": {
        "kind": "SENSOR_CONTACT",
        "parent_track": "SENSOR",
        "sensor_name": "TAIL_BRG",
        "bearing": 164.9,
        "time": "2010-01-12T12:02:25+00:00",
        "label": "SUBJECT held on TAIL_BRG"
      }
    },
    {
      "type": "Feature",
      "id": "893cff2a-12c5-4a7f-a344-d661b8758a43",
      "geometry": null,
      "properties": {
        "kind": "SENSOR_CONTACT",
        "parent_track": "SENSOR",
        "sensor_name": "TAIL_BRG",
        "bearing": 164.7,
        "time": "2010-01-12T12:02:40+00:00",
        "label": "SUBJECT held on TAIL_BRG"
      }
    },
    {
      "type": "Feature",
      "id": "19fb87f4-c0f1-4a01-969b-55a38343bc7b",
      "geometry": null,
      "properties": {
        "kind": "SENSOR_CONTACT",
        "parent_track": "SENSOR",
        "sensor_name": "TAIL_BRG",
        "bearing": 164.4,
        "time": "2010-01-12T12:03:00+00:00",
        "label": "SUBJECT held on TAIL_BRG"
      }
    },
    {
      "type": "Feature",
      "id": "1d0eeade-92d3-40e7-a191-4da37960aaa1",
      "geometry": null,
      "properties": {
        "kind": "SENSOR_CONTACT",
        "parent_track": "SENSOR",
        "sensor_name": "TAIL_BRG",
        "bearing": 164.2,
        "time": "2010-01-12T12:03:20+00:00",
        "label": "SUBJECT held on TAIL_BRG"
      }
    },
    {
      "type": "Feature",
      "id": "4f5931e8-c199-4019-81d0-39ea7faeb1a8",
      "geometry": null,
      "properties": {
        "kind": "SENSOR_CONTACT",
        "parent_track": "SENSOR",
        "sensor_name": "TAIL_BRG",
        "bearing": 164.0,
        "time": "2010-01-12T12:03:40+00:00",
        "label": "SUBJECT held on TAIL_BRG"
      }
    },
    {
      "type": "Feature",
      "id": "84d70bae-67ad-49c1-b79c-dd2cf139fc3b",
      "geometry": null,
      "properties": {
        "kind": "SENSOR_CONTACT",
        "parent_track": "SENSOR",
        "sensor_name": "TAIL_BRG",
        "bearing": 163.7,
        "time": "2010-01-12T12:04:00+00:00",
        "label": "SUBJECT held on TAIL_BRG"
      }
    },
    {
      "type": "Feature",
      "id": "e2a4df89-84f8-4fa8-8df7-368e9d6b9ba3",
      "geometry": null,
      "properties": {
        "kind": "SENSOR_CONTACT",
        "parent_track": "SENSOR",
        "sensor_name": "TAIL_BRG",
        "bearing": 163.4,
        "time": "2010-01-12T12:04:20+00:00",
        "label": "SUBJECT held on TAIL_BRG"
      }
    },
    {
      "type": "Feature",
      "id": "f06cf962-706f-42fd-8c2f-1fee630e4f4f",
      "geometry": null,
      "properties": {
        "kind": "SENSOR_CONTACT",
        "parent_track": "SENSOR",
        "sensor_name": "TAIL_BRG",
        "bearing": 163.2,
        "time": "2010-01-12T12:04:40+00:00",
        "label": "SUBJECT held on TAIL_BRG"
      }
    },
    {
      "type": "Feature",
      "id": "b56a7e6d-c71f-44b6-b7f4-4aa9fd2fce52",
      "geometry": null,
      "properties": {
        "kind": "SENSOR_CONTACT",
        "parent_track": "SENSOR",
        "sensor_name": "TAIL_BRG",
        "bearing": 162.9,
        "time": "2010-01-12T12:05:00+00:00",
        "label": "SUBJECT held on TAIL_BRG"
      }
    },
    {
      "type": "Feature",
      "id": "934ff9c5-e366-4fc1-9fc4-e3ef96e8d24a",
      "geometry": null,
      "properties": {
        "kind": "SENSOR_CONTACT",
        "parent_track": "SENSOR",
        "sensor_name": "TAIL_BRG",
        "bearing": 162.6,
        "time": "2010-01-12T12:05:20+00:00",
        "label": "SUBJECT held on TAIL_BRG"
      }
    },
    {
      "type": "Feature",
      "id": "d178a527-dc73-4c86-a3b8-4262f873e53b",
      "geometry": null,
      "properties": {
        "kind": "SENSOR_CONTACT",
        "parent_track": "SENSOR",
        "sensor_name": "TAIL_BRG",
        "bearing": 162.2,
        "time": "2010-01-12T12:05:40+00:00",
        "label": "SUBJECT held on TAIL_BRG"
      }
    },
    {
      "type": "Feature",
      "id": "f97ffe4c-5222-4b39-a27f-dfa7ef38b0d4",
      "geometry": null,
      "properties": {
        "kind": "SENSOR_CONTACT",
        "parent_track": "SENSOR",
        "sensor_name": "TAIL_BRG",
        "bearing": 161.9,
        "time": "2010-01-12T12:06:00+00:00",
        "label": "SUBJECT held on TAIL_BRG"
      }
    },
    {
      "type": "Feature",
      "id": "ce3995d0-aa9f-48bc-b171-cdfd0ef5d5a3",
      "geometry": null,
      "properties": {
        "kind": "SENSOR_CONTACT",
        "parent_track": "SENSOR",
        "sensor_name": "TAIL_BRG",
        "bearing": 161.5,
        "time": "2010-01-12T12:06:20+00:00",
        "label": "SUBJECT held on TAIL_BRG"
      }
    },
    {
      "type": "Feature",
      "id": "a1d4421f-b644-4810-b748-8dfe1b4810a4",
      "geometry": null,
      "properties": {
        "kind": "SENSOR_CONTACT",
        "parent_track": "SENSOR",
        "sensor_name": "TAIL_BRG",
        "bearing": 161.1,
        "time": "2010-01-12T12:06:40+00:00",
        "label": "SUBJECT held on TAIL_BRG"
      }
    },
    {
      "type": "Feature",
      "id": "199d8d5a-f6b2-4008-9e6d-6793af8b4924",
      "geometry": null,
      "properties": {
        "kind": "SENSOR_CONTACT",
        "parent_track": "SENSOR",
        "sensor_name": "TAIL_BRG",
        "bearing": 160.7,
        "time": "2010-01-12T12:07:00+00:00",
        "label": "SUBJECT held on TAIL_BRG"
      }
    },
    {
      "type": "Feature",
      "id": "a1aa7e7a-714d-4f74-b35d-4916346a9384",
      "geometry": null,
      "properties": {
        "kind": "SENSOR_CONTACT",
        "parent_track": "SENSOR",
        "sensor_name": "TAIL_BRG",
        "bearing": 160.3,
        "time": "2010-01-12T12:07:20+00:00",
        "label": "SUBJECT held on TAIL_BRG"
      }
    },
    {
      "type": "Feature",
      "id": "2a4c4a53-7215-41cf-8346-54544a7924bb",
      "geometry": null,
      "properties": {
        "kind": "SENSOR_CONTACT",
        "parent_track": "SENSOR",
        "sensor_name": "TAIL_BRG",
        "bearing": 159.9,
        "time": "2010-01-12T12:07:40+00:00",
        "label": "SUBJECT held on TAIL_BRG"
      }
    },
    {
      "type": "Feature",
      "id": "0360c654-a74b-494b-9de9-85f0ac3999b4",
      "geometry": null,
      "properties": {
        "kind": "SENSOR_CONTACT",
        "parent_track": "SENSOR",
        "sensor_name": "TAIL_BRG",
        "bearing": 159.4,
        "time": "2010-01-12T12:08:00+00:00",
        "label": "SUBJECT held on TAIL_BRG"
      }
    },
    {
      "type": "Feature",
      "id": "bb7d530f-2645-4d4a-bb31-d19485fc8cee",
      "geometry": null,
      "properties": {
        "kind": "SENSOR_CONTACT",
        "parent_track": "SENSOR",
        "sensor_name": "TAIL_BRG",
        "bearing": 158.9,
        "time": "2010-01-12T12:08:20+00:00",
        "label": "SUBJECT held on TAIL_BRG"
      }
    },
    {
      "type": "Feature",
      "id": "f4f189bf-c1d1-468a-bf21-2405ebac892b",
      "geometry": null,
      "properties": {
        "kind": "SENSOR_CONTACT",
        "parent_track": "SENSOR",
        "sensor_name": "TAIL_BRG",
        "bearing": 158.3,
        "time": "2010-01-12T12:08:40+00:00",
        "label": "SUBJECT held on TAIL_BRG"
      }
    },
    {
      "type": "Feature",
      "id": "b264a0a3-722e-469e-a535-17a900789ba1",
      "geometry": null,
      "properties": {
        "kind": "SENSOR_CONTACT",
        "parent_track": "SENSOR",
        "sensor_name": "TAIL_BRG",
        "bearing": 157.7,
        "time": "2010-01-12T12:09:00+00:00",
        "label": "SUBJECT held on TAIL_BRG"
      }
    },
    {
      "type": "Feature",
      "id": "6eef2c2d-4527-4507-8d06-e48e8415b40d",
      "geometry": null,
      "properties": {
        "kind": "SENSOR_CONTACT",
        "parent_track": "SENSOR",
        "sensor_name": "TAIL_BRG",
        "bearing": 157.1,
        "time": "2010-01-12T12:09:20+00:00",
        "label": "SUBJECT held on TAIL_BRG"
      }
    },
    {
      "type": "Feature",
      "id": "3574574c-0a40-4f08-bb02-f9b7e33c8752",
      "geometry": null,
      "properties": {
        "kind": "SENSOR_CONTACT",
        "parent_track": "SENSOR",
        "sensor_name": "TAIL_BRG",
        "bearing": 156.4,
        "time": "2010-01-12T12:09:40+00:00",
        "label": "SUBJECT held on TAIL_BRG"
      }
    },
    {
      "type": "Feature",
      "id": "81ae54c9-8c31-46ba-8e43-516a99aa3d7d",
      "geometry": null,
      "properties": {
        "kind": "SENSOR_CONTACT",
        "parent_track": "SENSOR",
        "sensor_name": "TAIL_BRG",
        "bearing": 155.7,
        "time": "2010-01-12T12:10:00+00:00",
        "label": "SUBJECT held on TAIL_BRG"
      }
    },
    {
      "type": "Feature",
      "id": "6f55b099-f885-43e8-895a-9ae9fbcf202b",
      "geometry": null,
      "properties": {
        "kind": "SENSOR_CONTACT",
        "parent_track": "SENSOR",
        "sensor_name": "TAIL_BRG",
        "bearing": 154.9,
        "time": "2010-01-12T12:10:20+00:00",
        "label": "SUBJECT held on TAIL_BRG"
      }
    },
    {
      "type": "Feature",
      "id": "9dc680c4-a133-46cb-b2b0-1595d1a62da9",
      "geometry": null,
      "properties": {
        "kind": "SENSOR_CONTACT",
        "parent_track": "SENSOR",
        "sensor_name": "TAIL_BRG",
        "bearing": 154.0,
        "time": "2010-01-12T12:10:40+00:00",
        "label": "SUBJECT held on TAIL_BRG"
      }
    },
    {
      "type": "Feature",
      "id": "6e1b6b5f-07b8-43e5-901e-d3c3a948e6c3",
      "geometry": null,
      "properties": {
        "kind": "SENSOR_CONTACT",
        "parent_track": "SENSOR",
        "sensor_name": "TAIL_BRG",
        "bearing": 153.1,
        "time": "2010-01-12T12:11:00+00:00",
        "label": "SUBJECT held on TAIL_BRG"
      }
    },
    {
      "type": "Feature",
      "id": "beef441c-1248-448e-b377-c59a96e6631c",
      "geometry": null,
      "properties": {
        "kind": "SENSOR_CONTACT",
        "parent_track": "SENSOR",
        "sensor_name": "TAIL_BRG",
        "bearing": 152.1,
        "time": "2010-01-12T12:11:20+00:00",
        "label": "SUBJECT held on TAIL_BRG"
      }
    },
    {
      "type": "Feature",
      "id": "6966d48c-ff60-4d78-8b45-deb989364f40",
      "geometry": null,
      "properties": {
        "kind": "SENSOR_CONTACT",
        "parent_track": "SENSOR",
        "sensor_name": "TAIL_BRG",
        "bearing": 151.0,
        "time": "2010-01-12T12:11:40+00:00",
        "label": "SUBJECT held on TAIL_BRG"
      }
    },
    {
      "type": "Feature",
      "id": "c70067fd-24ed-4c8c-824d-6ec4914dab6d",
      "geometry": null,
      "properties": {
        "kind": "SENSOR_CONTACT",
        "parent_track": "SENSOR",
        "sensor_name": "TAIL_BRG",
        "bearing": 149.8,
        "time": "2010-01-12T12:12:00+00:00",
        "label": "SUBJECT held on TAIL_BRG"
      }
    },
    {
      "type": "Feature",
      "id": "22160778-0c69-4630-8fea-8273b3fe68b8",
      "geometry": null,
      "properties": {
        "kind": "SENSOR_CONTACT",
        "parent_track": "SENSOR",
        "sensor_name": "TAIL_BRG",
        "bearing": 148.5,
        "time": "2010-01-12T12:12:20+00:00",
        "label": "SUBJECT held on TAIL_BRG"
      }
    },
    {
      "type": "Feature",
      "id": "66d20d02-c1b6-46e6-90bc-c1d49a405037",
      "geometry": null,
      "properties": {
        "kind": "SENSOR_CONTACT",
        "parent_track": "SENSOR",
        "sensor_name": "TAIL_BRG",
        "bearing": 147.0,
        "time": "2010-01-12T12:12:40+00:00",
        "label": "SUBJECT held on TAIL_BRG"
      }
    },
    {
      "type": "Feature",
      "id": "336f97c4-4026-4f1f-b711-897df2230008",
      "geometry": null,
      "properties": {
        "kind": "SENSOR_CONTACT",
        "parent_track": "SENSOR",
        "sensor_name": "TAIL_BRG",
        "bearing": 145.4,
        "time": "2010-01-12T12:13:00+00:00",
        "label": "SUBJECT held on TAIL_BRG"
      }
    },
    {
      "type": "Feature",
      "id": "a6a2a425-ef6e-4dbe-9d4f-c131650cfecf",
      "geometry": null,
      "properties": {
        "kind": "SENSOR_CONTACT",
        "parent_track": "SENSOR",
        "sensor_name": "TAIL_BRG",
        "bearing": 143.6,
        "time": "2010-01-12T12:13:20+00:00",
        "label": "SUBJECT held on TAIL_BRG"
      }
    },
    {
      "type": "Feature",
      "id": "34c48d03-3152-49bf-b0b7-8a7c9bf22c8a",
      "geometry": null,
      "properties": {
        "kind": "SENSOR_CONTACT",
        "parent_track": "SENSOR",
        "sensor_name": "TAIL_BRG",
        "bearing": 141.5,
        "time": "2010-01-12T12:13:40+00:00",
        "label": "SUBJECT held on TAIL_BRG"
      }
    },
    {
      "type": "Feature",
      "id": "de470531-09ef-4261-9b96-a9b80e83745a",
      "geometry": null,
      "properties": {
        "kind": "SENSOR_CONTACT",
        "parent_track": "SENSOR",
        "sensor_name": "TAIL_BRG",
        "bearing": 139.3,
        "time": "2010-01-12T12:14:00+00:00",
        "label": "SUBJECT held on TAIL_BRG"
      }
    },
    {
      "type": "Feature",
      "id": "8b22bfe3-b15f-4a41-8b95-d306aae7afc3",
      "geometry": null,
      "properties": {
        "kind": "SENSOR_CONTACT",
        "parent_track": "SENSOR",
        "sensor_name": "TAIL_BRG",
        "bearing": 136.8,
        "time": "2010-01-12T12:14:20+00:00",
        "label": "SUBJECT held on TAIL_BRG"
      }
    },
    {
      "type": "Feature",
      "id": "8bc57abf-54af-455a-852a-d719f7c3957c",
      "geometry": null,
      "properties": {
        "kind": "SENSOR_CONTACT",
        "parent_track": "SENSOR",
        "sensor_name": "TAIL_BRG",
        "bearing": 133.9,
        "time": "2010-01-12T12:14:40+00:00",
        "label": "SUBJECT held on TAIL_BRG"
      }
    },
    {
      "type": "Feature",
      "id": "48e96249-1682-46dc-8f99-08fcbfcd903d",
      "geometry": null,
      "properties": {
        "kind": "SENSOR_CONTACT",
        "parent_track": "SENSOR",
        "sensor_name": "TAIL_BRG",
        "bearing": 130.7,
        "time": "2010-01-12T12:15:00+00:00",
        "label": "SUBJECT held on TAIL_BRG"
      }
    },
    {
      "type": "Feature",
      "id": "c86e79b9-70a5-4e8b-9e0f-2bb928078d80",
      "geometry": null,
      "properties": {
        "kind": "SENSOR_CONTACT",
        "parent_track": "SENSOR",
        "sensor_name": "TAIL_BRG",
        "bearing": 127.0,
        "time": "2010-01-12T12:15:20+00:00",
        "label": "SUBJECT held on TAIL_BRG"
      }
    },
    {
      "type": "Feature",
      "id": "747014d9-75a9-4a05-9ff1-49ae8e9eb61d",
      "geometry": null,
      "properties": {
        "kind": "SENSOR_CONTACT",
        "parent_track": "SENSOR",
        "sensor_name": "TAIL_BRG",
        "bearing": 122.8,
        "time": "2010-01-12T12:15:40+00:00",
        "label": "SUBJECT held on TAIL_BRG"
      }
    },
    {
      "type": "Feature",
      "id": "4a09bb40-3a7a-4208-86dc-e890fd2bea7a",
      "geometry": null,
      "properties": {
        "kind": "SENSOR_CONTACT",
        "parent_track": "SENSOR",
        "sensor_name": "TAIL_BRG",
        "bearing": 118.2,
        "time": "2010-01-12T12:16:00+00:00",
        "label": "SUBJECT held on TAIL_BRG"
      }
    },
    {
      "type": "Feature",
      "id": "af2ead2b-9fe9-4581-8fdf-54338d0a130b",
      "geometry": null,
      "properties": {
        "kind": "SENSOR_CONTACT",
        "parent_track": "SENSOR",
        "sensor_name": "TAIL_BRG",
        "bearing": 112.9,
        "time": "2010-01-12T12:16:20+00:00",
        "label": "SUBJECT held on TAIL_BRG"
      }
    },
    {
      "type": "Feature",
      "id": "f537e248-a632-40c5-93a6-dc5f57dc10fe",
      "geometry": null,
      "properties": {
        "kind": "SENSOR_CONTACT",
        "parent_track": "SENSOR",
        "sensor_name": "TAIL_BRG",
        "bearing": 107.1,
        "time": "2010-01-12T12:16:40+00:00",
        "label": "SUBJECT held on TAIL_BRG"
      }
    },
    {
      "type": "Feature",
      "id": "3d5ae4cb-0da8-48f5-bc8f-d34ccd9d6cd0",
      "geometry": null,
      "properties": {
        "kind": "SENSOR_CONTACT",
        "parent_track": "SENSOR",
        "sensor_name": "TAIL_BRG",
        "bearing": 100.8,
        "time": "2010-01-12T12:17:00+00:00",
        "label": "SUBJECT held on TAIL_BRG"
      }
    },
    {
      "type": "Feature",
      "id": "2ec8ad78-a8f2-4d24-b314-c1ba0ec9b833",
      "geometry": null,
      "properties": {
        "kind": "SENSOR_CONTACT",
        "parent_track": "SENSOR",
        "sensor_name": "TAIL_BRG",
        "bearing": 94.0,
        "time": "2010-01-12T12:17:20+00:00",
        "label": "SUBJECT held on TAIL_BRG"
      }
    },
    {
      "type": "Feature",
      "id": "1181a6ef-de92-46bc-9b14-5c7af9cb9485",
      "geometry": null,
      "properties": {
        "kind": "SENSOR_CONTACT",
        "parent_track": "SENSOR",
        "sensor_name": "TAIL_BRG",
        "bearing": 87.0,
        "time": "2010-01-12T12:17:40+00:00",
        "label": "SUBJECT held on TAIL_BRG"
      }
    },
    {
      "type": "Feature",
      "id": "76a4c625-bba0-49a6-a6ac-1067bfe7eef1",
      "geometry": null,
      "properties": {
        "kind": "SENSOR_CONTACT",
        "parent_track": "SENSOR",
        "sensor_name": "TAIL_BRG",
        "bearing": 79.9,
        "time": "2010-01-12T12:18:00+00:00",
        "label": "SUBJECT held on TAIL_BRG"
      }
    },
    {
      "type": "Feature",
      "id": "9acd0eef-203f-4507-88a7-d8fc2301a4e7",
      "geometry": null,
      "properties": {
        "kind": "SENSOR_CONTACT",
        "parent_track": "SENSOR",
        "sensor_name": "TAIL_BRG",
        "bearing": 72.9,
        "time": "2010-01-12T12:18:20+00:00",
        "label": "SUBJECT held on TAIL_BRG"
      }
    },
    {
      "type": "Feature",
      "id": "05de975c-7110-46ff-8e32-a37a229137f2",
      "geometry": {
        "type": "LineString",
        "coordinates": [
          [
            0.25,
            60.1
          ],
          [
            0.2489254,
            60.1006384
          ],
          [
            0.2478508,
            60.1012767
          ],
          [
            0.2467762,
            60.1019151
          ],
          [
            0.2457016,
            60.1025535
          ],
          [
            0.2446269,
            60.1031919
          ],
          [
            0.2435522,
            60.1038302
          ],
          [
            0.2424776,
            60.1044686
          ],
          [
            0.2414028,
            60.105107
          ],
          [
            0.2403281,
            60.1057453
          ],
          [
            0.2392533,
            60.1063837
          ],
          [
            0.2381786,
            60.1070221
          ],
          [
            0.2371037,
            60.1076604
          ],
          [
            0.2360289,
            60.1082988
          ],
          [
            0.2349541,
            60.1089372
          ],
          [
            0.2338792,
            60.1095756
          ],
          [
            0.2328043,
            60.1102139
          ],
          [
            0.2317294,
            60.1108523
          ],
          [
            0.2306545,
            60.1114907
          ],
          [
            0.2295795,
            60.112129
          ],
          [
            0.2285046,
            60.1127674
          ],
          [
            0.2274296,
            60.1134058
          ],
          [
            0.2263546,
            60.1140441
          ],
          [
            0.2252795,
            60.1146825
          ],
          [
            0.2242045,
            60.1153209
          ],
          [
            0.2231294,
            60.1159593
          ],
          [
            0.2220543,
            60.1165976
          ],
          [
            0.2209792,
            60.117236
          ],
          [
            0.2199041,
            60.1178744
          ],
          [
            0.2188289,
            60.1185127
          ],
          [
            0.2177537,
            60.1191511
          ],
          [
            0.2166785,
            60.1197895
          ],
          [
            0.2156033,
            60.1204279
          ],
          [
            0.2145281,
            60.1210662
          ],
          [
            0.2134528,
            60.1217046
          ],
          [
            0.2123775,
            60.122343
          ],
          [
            0.2113022,
            60.1229813
          ],
          [
            0.2102269,
            60.1236197
          ],
          [
            0.2091516,
            60.1242581
          ],
          [
            0.2080762,
            60.1248964
          ],
          [
            0.2070008,
            60.1255348
          ],
          [
            0.2059254,
            60.1261732
          ],
          [
            0.20485,
            60.1268116
          ],
          [
            0.2037745,
            60.1274499
          ],
          [
            0.2026991,
            60.1280883
          ],
          [
            0.2016236,
            60.1287267
          ],
          [
            0.2005481,
            60.129365
          ],
          [
            0.1994725,
            60.1300034
          ],
          [
            0.198397,
            60.1306418
          ],
          [
            0.1973214,
            60.1312801
          ],
          [
            0.1962458,
            60.1319185
          ],
          [
            0.1951702,
            60.1325569
          ],
          [
            0.1940946,
            60.1331953
          ],
          [
            0.1930189,
            60.1338336
          ],
          [
            0.1919432,
            60.134472
          ],
          [
            0.1908675,
            60.1351104
          ]
        ]
      },
      "properties": {
        "kind": "TRACK",
        "platform_id": "SUBJECT",
        "platform_name": "SUBJECT",
        "track_type": "CONTACT",
        "start_time": "2010-01-12T12:00:00+00:00",
        "end_time": "2010-01-12T12:18:20+00:00",
        "positions": [
          {
            "time": "2010-01-12T12:00:00+00:00",
            "course": 320.0,
            "speed": 9.0,
            "depth": 0.0
          },
          {
            "time": "2010-01-12T12:00:20+00:00",
            "course": 320.0,
            "speed": 9.0,
            "depth": 0.0
          },
          {
            "time": "2010-01-12T12:00:40+00:00",
            "course": 320.0,
            "speed": 9.0,
            "depth": 0.0
          },
          {
            "time": "2010-01-12T12:01:00+00:00",
            "course": 320.0,
            "speed": 9.0,
            "depth": 0.0
          },
          {
            "time": "2010-01-12T12:01:20+00:00",
            "course": 320.0,
            "speed": 9.0,
            "depth": 0.0
          },
          {
            "time": "2010-01-12T12:01:40+00:00",
            "course": 320.0,
            "speed": 9.0,
            "depth": 0.0
          },
          {
            "time": "2010-01-12T12:02:00+00:00",
            "course": 320.0,
            "speed": 9.0,
            "depth": 0.0
          },
          {
            "time": "2010-01-12T12:02:20+00:00",
            "course": 320.0,
            "speed": 9.0,
            "depth": 0.0
          },
          {
            "time": "2010-01-12T12:02:40+00:00",
            "course": 320.0,
            "speed": 9.0,
            "depth": 0.0
          },
          {
            "time": "2010-01-12T12:03:00+00:00",
            "course": 320.0,
            "speed": 9.0,
            "depth": 0.0
          },
          {
            "time": "2010-01-12T12:03:20+00:00",
            "course": 320.0,
            "speed": 9.0,
            "depth": 0.0
          },
          {
            "time": "2010-01-12T12:03:40+00:00",
            "course": 320.0,
            "speed": 9.0,
            "depth": 0.0
          },
          {
            "time": "2010-01-12T12:04:00+00:00",
            "course": 320.0,
            "speed": 9.0,
            "depth": 0.0
          },
          {
            "time": "2010-01-12T12:04:20+00:00",
            "course": 320.0,
            "speed": 9.0,
            "depth": 0.0
          },
          {
            "time": "2010-01-12T12:04:40+00:00",
            "course": 320.0,
            "speed": 9.0,
            "depth": 0.0
          },
          {
            "time": "2010-01-12T12:05:00+00:00",
            "course": 320.0,
            "speed": 9.0,
            "depth": 0.0
          },
          {
            "time": "2010-01-12T12:05:20+00:00",
            "course": 320.0,
            "speed": 9.0,
            "depth": 0.0
          },
          {
            "time": "2010-01-12T12:05:40+00:00",
            "course": 320.0,
            "speed": 9.0,
            "depth": 0.0
          },
          {
            "time": "2010-01-12T12:06:00+00:00",
            "course": 320.0,
            "speed": 9.0,
            "depth": 0.0
          },
          {
            "time": "2010-01-12T12:06:20+00:00",
            "course": 320.0,
            "speed": 9.0,
            "depth": 0.0
          },
          {
            "time": "2010-01-12T12:06:40+00:00",
            "course": 320.0,
            "speed": 9.0,
            "depth": 0.0
          },
          {
            "time": "2010-01-12T12:07:00+00:00",
            "course": 320.0,
            "speed": 9.0,
            "depth": 0.0
          },
          {
            "time": "2010-01-12T12:07:20+00:00",
            "course": 320.0,
            "speed": 9.0,
            "depth": 0.0
          },
          {
            "time": "2010-01-12T12:07:40+00:00",
            "course": 320.0,
            "speed": 9.0,
            "depth": 0.0
          },
          {
            "time": "2010-01-12T12:08:00+00:00",
            "course": 320.0,
            "speed": 9.0,
            "depth": 0.0
          },
          {
            "time": "2010-01-12T12:08:20+00:00",
            "course": 320.0,
            "speed": 9.0,
            "depth": 0.0
          },
          {
            "time": "2010-01-12T12:08:40+00:00",
            "course": 320.0,
            "speed": 9.0,
            "depth": 0.0
          },
          {
            "time": "2010-01-12T12:09:00+00:00",
            "course": 320.0,
            "speed": 9.0,
            "depth": 0.0
          },
          {
            "time": "2010-01-12T12:09:20+00:00",
            "course": 320.0,
            "speed": 9.0,
            "depth": 0.0
          },
          {
            "time": "2010-01-12T12:09:40+00:00",
            "course": 320.0,
            "speed": 9.0,
            "depth": 0.0
          },
          {
            "time": "2010-01-12T12:10:00+00:00",
            "course": 320.0,
            "speed": 9.0,
            "depth": 0.0
          },
          {
            "time": "2010-01-12T12:10:20+00:00",
            "course": 320.0,
            "speed": 9.0,
            "depth": 0.0
          },
          {
            "time": "2010-01-12T12:10:40+00:00",
            "course": 320.0,
            "speed": 9.0,
            "depth": 0.0
          },
          {
            "time": "2010-01-12T12:11:00+00:00",
            "course": 320.0,
            "speed": 9.0,
            "depth": 0.0
          },
          {
            "time": "2010-01-12T12:11:20+00:00",
            "course": 320.0,
            "speed": 9.0,
            "depth": 0.0
          },
          {
            "time": "2010-01-12T12:11:40+00:00",
            "course": 320.0,
            "speed": 9.0,
            "depth": 0.0
          },
          {
            "time": "2010-01-12T12:12:00+00:00",
            "course": 320.0,
            "speed": 9.0,
            "depth": 0.0
          },
          {
            "time": "2010-01-12T12:12:20+00:00",
            "course": 320.0,
            "speed": 9.0,
            "depth": 0.0
          },
          {
            "time": "2010-01-12T12:12:40+00:00",
            "course": 320.0,
            "speed": 9.0,
            "depth": 0.0
          },
          {
            "time": "2010-01-12T12:13:00+00:00",
            "course": 320.0,
            "speed": 9.0,
            "depth": 0.0
          },
          {
            "time": "2010-01-12T12:13:20+00:00",
            "course": 320.0,
            "speed": 9.0,
            "depth": 0.0
          },
          {
            "time": "2010-01-12T12:13:40+00:00",
            "course": 320.0,
            "speed": 9.0,
            "depth": 0.0
          },
          {
            "time": "2010-01-12T12:14:00+00:00",
            "course": 320.0,
            "speed": 9.0,
            "depth": 0.0
          },
          {
            "time": "2010-01-12T12:14:20+00:00",
            "course": 320.0,
            "speed": 9.0,
            "depth": 0.0
          },
          {
            "time": "2010-01-12T12:14:40+00:00",
            "course": 320.0,
            "speed": 9.0,
            "depth": 0.0
          },
          {
            "time": "2010-01-12T12:15:00+00:00",
            "course": 320.0,
            "speed": 9.0,
            "depth": 0.0
          },
          {
            "time": "2010-01-12T12:15:20+00:00",
            "course": 320.0,
            "speed": 9.0,
            "depth": 0.0
          },
          {
            "time": "2010-01-12T12:15:40+00:00",
            "course": 320.0,
            "speed": 9.0,
            "depth": 0.0
          },
          {
            "time": "2010-01-12T12:16:00+00:00",
            "course": 320.0,
            "speed": 9.0,
            "depth": 0.0
          },
          {
            "time": "2010-01-12T12:16:20+00:00",
            "course": 320.0,
            "speed": 9.0,
            "depth": 0.0
          },
          {
            "time": "2010-01-12T12:16:40+00:00",
            "course": 320.0,
            "speed": 9.0,
            "depth": 0.0
          },
          {
            "time": "2010-01-12T12:17:00+00:00",
            "course": 320.0,
            "speed": 9.0,
            "depth": 0.0
          },
          {
            "time": "2010-01-12T12:17:20+00:00",
            "course": 320.0,
            "speed": 9.0,
            "depth": 0.0
          },
          {
            "time": "2010-01-12T12:17:40+00:00",
            "course": 320.0,
            "speed": 9.0,
            "depth": 0.0
          },
          {
            "time": "2010-01-12T12:18:00+00:00",
            "course": 320.0,
            "speed": 9.0,
            "depth": 0.0
          },
          {
            "time": "2010-01-12T12:18:20+00:00",
            "course": 320.0,
            "speed": 9.0,
            "depth": 0.0
          }
        ],
        "style": {
          "line": {
            "color": "#808080"
          },
          "point": {
            "shape": "circle",
            "radius": 3.0,
            "fill_color": "#808080",
            "color": "#808080"
          }
        },
        "default_position_style": {
          "show_symbol": false,
          "symbol": "circle",
          "show_label": false
        },
        "symbol_interval": "PT1M",
        "label_interval": "PT5M"
      }
    }
  ]
}