{
  "type": "FeatureCollection",
  "features": [
    {
      "type": "Feature",
      "id": "5987c5bf-8d3f-46c9-8d55-8068aeb6af23",
      "geometry": {
        "type": "Polygon",
        "coordinates": [
          [
            [
              -21.721597222222222,
              22.054258333333333
            ],
            [
              -21.560805555555557,
              22.054258333333333
            ],
            [
              -21.560805555555557,
              21.927283333333335
            ],
            [
              -21.721597222222222,
              21.927283333333335
            ],
            [
              -21.721597222222222,
              22.054258333333333
            ]
          ]
        ]
      },
      "properties": {
        "kind": "RECTANGLE",
        "label": "RED SEARCH ALPHA",
        "symbol": "C",
        "style": {
          "fill": false,
          "fill_color": "#FF0000",
          "fill_opacity": 0.0,
          "stroke": true,
          "color": "#FF0000",
          "weight": 1,
          "opacity": 1.0
        }
      }
    },
    {
      "type": "Feature",
      "id": "97b12a5d-5f49-4c15-a4d1-524452be0602",
      "geometry": {
        "type": "Polygon",
        "coordinates": [
          [
            [
              -21.894402777777778,
              22.054258333333333
            ],
            [
              -21.743358333333333,
              22.054258333333333
            ],
            [
              -21.743358333333333,
              21.927283333333335
            ],
            [
              -21.894402777777778,
              21.927283333333335
            ],
            [
              -21.894402777777778,
              22.054258333333333
            ]
          ]
        ]
      },
      "properties": {
        "kind": "RECTANGLE",
        "label": "RED SEARCH BRAVO",
        "symbol": "C",
        "style": {
          "fill": false,
          "fill_color": "#FF0000",
          "fill_opacity": 0.0,
          "stroke": true,
          "color": "#FF0000",
          "weight": 1,
          "opacity": 1.0
        }
      }
    },
    {
      "type": "Feature",
      "id": "af366103-21cc-4707-8853-d5c383f2201f",
      "geometry": {
        "type": "Polygon",
        "coordinates": [
          [
            [
              -21.93165,
              22.20677222222222
            ],
            [
              -21.471280555555555,
              22.20677222222222
            ],
            [
              -21.471280555555555,
              21.864075
            ],
            [
              -21.93165,
              21.864075
            ],
            [
              -21.93165,
              22.20677222222222
            ]
          ]
        ]
      },
      "properties": {
        "kind": "RECTANGLE",
        "label": "SERIAL 12E",
        "symbol": "C",
        "style": {
          "fill": false,
          "fill_color": "#FF0000",
          "fill_opacity": 0.0,
          "stroke": true,
          "color": "#FF0000",
          "weight": 1,
          "opacity": 1.0
        }
      }
    }
  ]
}