{
  "type": "FeatureCollection",
  "features": [
    {
      "type": "Feature",
      "id": "609d77d6-9dff-47e3-83cb-e08fd2594dbc",
      "geometry": {
        "type": "LineString",
        "coordinates": [
          [
            0.0215972,
            0.0512972
          ],
          [
            0.0215972,
            0.0503722
          ],
          [
            0.0215972,
            0.0494444
          ],
          [
            0.0215972,
            0.0485194
          ],
          [
            0.0215972,
            0.0475944
          ],
          [
            0.0215972,
            0.0466667
          ],
          [
            0.0215972,
            0.0457417
          ],
          [
            0.0215972,
            0.0448167
          ],
          [
            0.0215972,
            0.0438889
          ],
          [
            0.0215972,
            0.0429639
          ],
          [
            0.0215972,
            0.0420389
          ],
          [
            0.0215972,
            0.0411111
          ],
          [
            0.0215972,
            0.0401861
          ],
          [
            0.0212917,
            0.0393306
          ],
          [
            0.0205167,
            0.0388583
          ],
          [
            0.019625,
            0.0386111
          ],
          [
            0.0187306,
            0.0383667
          ],
          [
            0.0178389,
            0.0381194
          ],
          [
            0.0169444,
            0.037875
          ],
          [
            0.0160528,
            0.0376278
          ],
          [
            0.0151611,
            0.0373833
          ],
          [
            0.0142667,
            0.0371361
          ],
          [
            0.013375,
            0.0368917
          ],
          [
            0.0124833,
            0.0366444
          ],
          [
            0.0115889,
            0.0364
          ],
          [
            0.0106972,
            0.0361528
          ],
          [
            0.0098056,
            0.0359056
          ],
          [
            0.0089111,
            0.0356611
          ],
          [
            0.0080194,
            0.0354139
          ],
          [
            0.0071278,
            0.0351694
          ],
          [
            0.0062333,
            0.0349222
          ],
          [
            0.0053417,
            0.0346778
          ],
          [
            0.0044472,
            0.0344306
          ],
          [
            0.0035556,
            0.0341861
          ],
          [
            0.0028139,
            0.0336639
          ],
          [
            0.0025667,
            0.0327889
          ],
          [
            0.0026778,
            0.0318694
          ],
          [
            0.0027889,
            0.03095
          ],
          [
            0.0029028,
            0.0300306
          ],
          [
            0.0030139,
            0.0291139
          ],
          [
            0.003125,
            0.0281944
          ],
          [
            0.0032361,
            0.027275
          ],
          [
            0.00335,
            0.0263556
          ],
          [
            0.0034611,
            0.0254361
          ],
          [
            0.0035722,
            0.0245167
          ],
          [
            0.0036861,
            0.0235972
          ],
          [
            0.0040917,
            0.0227861
          ],
          [
            0.0049194,
            0.0224139
          ],
          [
            0.0058444,
            0.0224444
          ],
          [
            0.0067694,
            0.0224861
          ],
          [
            0.0076944,
            0.022525
          ],
          [
            0.0086194,
            0.0225639
          ],
          [
            0.0095444,
            0.0226056
          ],
          [
            0.0104694,
            0.0226444
          ],
          [
            0.0113944,
            0.0226861
          ],
          [
            0.0123194,
            0.022725
          ],
          [
            0.0132444,
            0.0227639
          ],
          [
            0.0141694,
            0.0228056
          ],
          [
            0.0150944,
            0.0228444
          ],
          [
            0.0160222,
            0.0228861
          ],
          [
            0.0169472,
            0.022925
          ],
          [
            0.0178722,
            0.0229639
          ],
          [
            0.0187972,
            0.0230056
          ],
          [
            0.0197222,
            0.0230444
          ],
          [
            0.0206472,
            0.0230833
          ],
          [
            0.0215722,
            0.023125
          ],
          [
            0.0224972,
            0.0231639
          ],
          [
            0.0234222,
            0.0232056
          ],
          [
            0.0243472,
            0.0232444
          ],
          [
            0.0252722,
            0.0232833
          ],
          [
            0.0261972,
            0.023325
          ],
          [
            0.0271222,
            0.0233639
          ],
          [
            0.0280472,
            0.0234056
          ],
          [
            0.0289139,
            0.0231361
          ],
          [
            0.0294167,
            0.0223806
          ],
          [
            0.0294361,
            0.0214583
          ],
          [
            0.0294083,
            0.0205306
          ],
          [
            0.0293778,
            0.0196056
          ],
          [
            0.02935,
            0.0186806
          ],
          [
            0.0293194,
            0.0177556
          ],
          [
            0.0292889,
            0.0168306
          ],
          [
            0.0292611,
            0.0159056
          ],
          [
            0.0292306,
            0.0149778
          ],
          [
            0.0292028,
            0.0140528
          ],
          [
            0.0291722,
            0.0131278
          ],
          [
            0.0291444,
            0.0122028
          ],
          [
            0.0291139,
            0.0112778
          ],
          [
            0.0290833,
            0.0103528
          ],
          [
            0.0290556,
            0.009425
          ],
          [
            0.029025,
            0.0085
          ],
          [
            0.0289972,
            0.007575
          ],
          [
            0.0289667,
            0.00665
          ],
          [
            0.0289361,
            0.005725
          ],
          [
            0.0289083,
            0.0048
          ],
          [
            0.0288778,
            0.0038722
          ],
          [
            0.02885,
            0.0029472
          ],
          [
            0.0288194,
            0.0020222
          ],
          [
            0.0287917,
            0.0010972
          ],
          [
            0.0287611,
            0.0001722
          ],
          [
            0.0287306,
            -0.0007528
          ],
          [
            0.0287028,
            -0.0016806
          ],
          [
            0.0286722,
            -0.0026056
          ],
          [
            0.0286444,
            -0.0035306
          ],
          [
            0.0286139,
            -0.0044556
          ],
          [
            0.0285833,
            -0.0053806
          ],
          [
            0.0285556,
            -0.0063056
          ]
        ]
      },
      "properties": {
        "kind": "TRACK",
        "platform_id": "SENSOR",
        "platform_name": "SENSOR",
        "track_type": "CONTACT",
        "start_time": "2010-01-12T12:00:00+00:00",
        "end_time": "2010-01-12T12:35:00+00:00",
        "positions": [
          {
            "time": "2010-01-12T12:00:00+00:00",
            "course": 180.0,
            "speed": 9.0,
            "depth": -0.0
          },
          {
            "time": "2010-01-12T12:00:20+00:00",
            "course": 180.0,
            "speed": 10.0,
            "depth": -0.0
          },
          {
            "time": "2010-01-12T12:00:40+00:00",
            "course": 180.0,
            "speed": 10.0,
            "depth": -0.0
          },
          {
            "time": "2010-01-12T12:01:00+00:00",
            "course": 180.0,
            "speed": 10.0,
            "depth": -0.0
          },
          {
            "time": "2010-01-12T12:01:20+00:00",
            "course": 180.0,
            "speed": 10.0,
            "depth": -0.0
          },
          {
            "time": "2010-01-12T12:01:40+00:00",
            "course": 180.0,
            "speed": 10.0,
            "depth": -0.0
          },
          {
            "time": "2010-01-12T12:02:00+00:00",
            "course": 180.0,
            "speed": 10.0,
            "depth": -0.0
          },
          {
            "time": "2010-01-12T12:02:20+00:00",
            "course": 180.0,
            "speed": 10.0,
            "depth": -0.0
          },
          {
            "time": "2010-01-12T12:02:40+00:00",
            "course": 180.0,
            "speed": 10.0,
            "depth": -0.0
          },
          {
            "time": "2010-01-12T12:03:00+00:00",
            "course": 180.0,
            "speed": 10.0,
            "depth": -0.0
          },
          {
            "time": "2010-01-12T12:03:20+00:00",
            "course": 180.0,
            "speed": 10.0,
            "depth": -0.0
          },
          {
            "time": "2010-01-12T12:03:40+00:00",
            "course": 180.0,
            "speed": 10.0,
            "depth": -0.0
          },
          {
            "time": "2010-01-12T12:04:00+00:00",
            "course": 180.0,
            "speed": 10.0,
            "depth": -0.0
          },
          {
            "time": "2010-01-12T12:04:20+00:00",
            "course": 219.3,
            "speed": 10.0,
            "depth": -0.0
          },
          {
            "time": "2010-01-12T12:04:40+00:00",
            "course": 253.82,
            "speed": 10.0,
            "depth": -0.0
          },
          {
            "time": "2010-01-12T12:05:00+00:00",
            "course": 254.6,
            "speed": 10.0,
            "depth": -0.0
          },
          {
            "time": "2010-01-12T12:05:20+00:00",
            "course": 254.6,
            "speed": 10.0,
            "depth": -0.0
          },
          {
            "time": "2010-01-12T12:05:40+00:00",
            "course": 254.6,
            "speed": 10.0,
            "depth": -0.0
          },
          {
            "time": "2010-01-12T12:06:00+00:00",
            "course": 254.6,
            "speed": 10.0,
            "depth": -0.0
          },
          {
            "time": "2010-01-12T12:06:20+00:00",
            "course": 254.6,
            "speed": 10.0,
            "depth": -0.0
          },
          {
            "time": "2010-01-12T12:06:40+00:00",
            "course": 254.6,
            "speed": 10.0,
            "depth": -0.0
          },
          {
            "time": "2010-01-12T12:07:00+00:00",
            "course": 254.6,
            "speed": 10.0,
            "depth": -0.0
          },
          {
            "time": "2010-01-12T12:07:20+00:00",
            "course": 254.6,
            "speed": 10.0,
            "depth": -0.0
          },
          {
            "time": "2010-01-12T12:07:40+00:00",
            "course": 254.6,
            "speed": 10.0,
            "depth": -0.0
          },
          {
            "time": "2010-01-12T12:08:00+00:00",
            "course": 254.6,
            "speed": 10.0,
            "depth": -0.0
          },
          {
            "time": "2010-01-12T12:08:20+00:00",
            "course": 254.6,
            "speed": 10.0,
            "depth": -0.0
          },
          {
            "time": "2010-01-12T12:08:40+00:00",
            "course": 254.6,
            "speed": 10.0,
            "depth": -0.0
          },
          {
            "time": "2010-01-12T12:09:00+00:00",
            "course": 254.6,
            "speed": 10.0,
            "depth": -0.0
          },
          {
            "time": "2010-01-12T12:09:20+00:00",
            "course": 254.6,
            "speed": 10.0,
            "depth": -0.0
          },
          {
            "time": "2010-01-12T12:09:40+00:00",
            "course": 254.6,
            "speed": 10.0,
            "depth": -0.0
          },
          {
            "time": "2010-01-12T12:10:00+00:00",
            "course": 254.6,
            "speed": 10.0,
            "depth": -0.0
          },
          {
            "time": "2010-01-12T12:10:20+00:00",
            "course": 254.6,
            "speed": 10.0,
            "depth": -0.0
          },
          {
            "time": "2010-01-12T12:10:40+00:00",
            "course": 254.6,
            "speed": 10.0,
            "depth": -0.0
          },
          {
            "time": "2010-01-12T12:11:00+00:00",
            "course": 254.6,
            "speed": 10.0,
            "depth": -0.0
          },
          {
            "time": "2010-01-12T12:11:20+00:00",
            "course": 215.3,
            "speed": 10.0,
            "depth": -0.0
          },
          {
            "time": "2010-01-12T12:11:40+00:00",
            "course": 176.0,
            "speed": 10.0,
            "depth": -0.0
          },
          {
            "time": "2010-01-12T12:12:00+00:00",
            "course": 173.07,
            "speed": 10.0,
            "depth": -0.0
          },
          {
            "time": "2010-01-12T12:12:20+00:00",
            "course": 173.06,
            "speed": 10.0,
            "depth": -0.0
          },
          {
            "time": "2010-01-12T12:12:40+00:00",
            "course": 173.06,
            "speed": 10.0,
            "depth": -0.0
          },
          {
            "time": "2010-01-12T12:13:00+00:00",
            "course": 173.06,
            "speed": 10.0,
            "depth": -0.0
          },
          {
            "time": "2010-01-12T12:13:20+00:00",
            "course": 173.06,
            "speed": 10.0,
            "depth": -0.0
          },
          {
            "time": "2010-01-12T12:13:40+00:00",
            "course": 173.06,
            "speed": 10.0,
            "depth": -0.0
          },
          {
            "time": "2010-01-12T12:14:00+00:00",
            "course": 173.06,
            "speed": 10.0,
            "depth": -0.0
          },
          {
            "time": "2010-01-12T12:14:20+00:00",
            "course": 173.06,
            "speed": 10.0,
            "depth": -0.0
          },
          {
            "time": "2010-01-12T12:14:40+00:00",
            "course": 173.06,
            "speed": 10.0,
            "depth": -0.0
          },
          {
            "time": "2010-01-12T12:15:00+00:00",
            "course": 173.06,
            "speed": 10.0,
            "depth": -0.0
          },
          {
            "time": "2010-01-12T12:15:20+00:00",
            "course": 133.76,
            "speed": 10.0,
            "depth": -0.0
          },
          {
            "time": "2010-01-12T12:15:40+00:00",
            "course": 94.46,
            "speed": 10.0,
            "depth": -0.0
          },
          {
            "time": "2010-01-12T12:16:00+00:00",
            "course": 87.55,
            "speed": 10.0,
            "depth": -0.0
          },
          {
            "time": "2010-01-12T12:16:20+00:00",
            "course": 87.53,
            "speed": 10.0,
            "depth": -0.0
          },
          {
            "time": "2010-01-12T12:16:40+00:00",
            "course": 87.53,
            "speed": 10.0,
            "depth": -0.0
          },
          {
            "time": "2010-01-12T12:17:00+00:00",
            "course": 87.53,
            "speed": 10.0,
            "depth": -0.0
          },
          {
            "time": "2010-01-12T12:17:20+00:00",
            "course": 87.53,
            "speed": 10.0,
            "depth": -0.0
          },
          {
            "time": "2010-01-12T12:17:40+00:00",
            "course": 87.53,
            "speed": 10.0,
            "depth": -0.0
          },
          {
            "time": "2010-01-12T12:18:00+00:00",
            "course": 87.53,
            "speed": 10.0,
            "depth": -0.0
          },
          {
            "time": "2010-01-12T12:18:20+00:00",
            "course": 87.53,
            "speed": 10.0,
            "depth": -0.0
          },
          {
            "time": "2010-01-12T12:18:40+00:00",
            "course": 87.53,
            "speed": 10.0,
            "depth": -0.0
          },
          {
            "time": "2010-01-12T12:19:00+00:00",
            "course": 87.53,
            "speed": 10.0,
            "depth": -0.0
          },
          {
            "time": "2010-01-12T12:19:20+00:00",
            "course": 87.53,
            "speed": 10.0,
            "depth": -0.0
          },
          {
            "time": "2010-01-12T12:19:40+00:00",
            "course": 87.53,
            "speed": 10.0,
            "depth": -0.0
          },
          {
            "time": "2010-01-12T12:20:00+00:00",
            "course": 87.53,
            "speed": 10.0,
            "depth": -0.0
          },
          {
            "time": "2010-01-12T12:20:20+00:00",
            "course": 87.53,
            "speed": 10.0,
            "depth": -0.0
          },
          {
            "time": "2010-01-12T12:20:40+00:00",
            "course": 87.53,
            "speed": 10.0,
            "depth": -0.0
          },
          {
            "time": "2010-01-12T12:21:00+00:00",
            "course": 87.53,
            "speed": 10.0,
            "depth": -0.0
          },
          {
            "time": "2010-01-12T12:21:20+00:00",
            "course": 87.53,
            "speed": 10.0,
            "depth": -0.0
          },
          {
            "time": "2010-01-12T12:21:40+00:00",
            "course": 87.53,
            "speed": 10.0,
            "depth": -0.0
          },
          {
            "time": "2010-01-12T12:22:00+00:00",
            "course": 87.53,
            "speed": 10.0,
            "depth": -0.0
          },
          {
            "time": "2010-01-12T12:22:20+00:00",
            "course": 87.53,
            "speed": 10.0,
            "depth": -0.0
          },
          {
            "time": "2010-01-12T12:22:40+00:00",
            "course": 87.53,
            "speed": 10.0,
            "depth": -0.0
          },
          {
            "time": "2010-01-12T12:23:00+00:00",
            "course": 87.53,
            "speed": 10.0,
            "depth": -0.0
          },
          {
            "time": "2010-01-12T12:23:20+00:00",
            "course": 87.53,
            "speed": 10.0,
            "depth": -0.0
          },
          {
            "time": "2010-01-12T12:23:40+00:00",
            "course": 87.53,
            "speed": 10.0,
            "depth": -0.0
          },
          {
            "time": "2010-01-12T12:24:00+00:00",
            "course": 87.53,
            "speed": 10.0,
            "depth": -0.0
          },
          {
            "time": "2010-01-12T12:24:20+00:00",
            "course": 126.83,
            "speed": 10.0,
            "depth": -0.0
          },
          {
            "time": "2010-01-12T12:24:40+00:00",
            "course": 166.13,
            "speed": 10.0,
            "depth": -0.0
          },
          {
            "time": "2010-01-12T12:25:00+00:00",
            "course": 181.76,
            "speed": 10.0,
            "depth": -0.0
          },
          {
            "time": "2010-01-12T12:25:20+00:00",
            "course": 181.82,
            "speed": 10.0,
            "depth": -0.0
          },
          {
            "time": "2010-01-12T12:25:40+00:00",
            "course": 181.82,
            "speed": 10.0,
            "depth": -0.0
          },
          {
            "time": "2010-01-12T12:26:00+00:00",
            "course": 181.82,
            "speed": 10.0,
            "depth": -0.0
          },
          {
            "time": "2010-01-12T12:26:20+00:00",
            "course": 181.82,
            "speed": 10.0,
            "depth": -0.0
          },
          {
            "time": "2010-01-12T12:26:40+00:00",
            "course": 181.82,
            "speed": 10.0,
            "depth": -0.0
          },
          {
            "time": "2010-01-12T12:27:00+00:00",
            "course": 181.82,
            "speed": 10.0,
            "depth": -0.0
          },
          {
            "time": "2010-01-12T12:27:20+00:00",
            "course": 181.82,
            "speed": 10.0,
            "depth": -0.0
          },
          {
            "time": "2010-01-12T12:27:40+00:00",
            "course": 181.82,
            "speed": 10.0,
            "depth": -0.0
          },
          {
            "time": "2010-01-12T12:28:00+00:00",
            "course": 181.82,
            "speed": 10.0,
            "depth": -0.0
          },
          {
            "time": "2010-01-12T12:28:20+00:00",
            "course": 181.82,
            "speed": 10.0,
            "depth": -0.0
          },
          {
            "time": "2010-01-12T12:28:40+00:00",
            "course": 181.82,
            "speed": 10.0,
            "depth": -0.0
          },
          {
            "time": "2010-01-12T12:29:00+00:00",
            "course": 181.82,
            "speed": 10.0,
            "depth": -0.0
          },
          {
            "time": "2010-01-12T12:29:20+00:00",
            "course": 181.82,
            "speed": 10.0,
            "depth": -0.0
          },
          {
            "time": "2010-01-12T12:29:40+00:00",
            "course": 181.82,
            "speed": 10.0,
            "depth": -0.0
          },
          {
            "time": "2010-01-12T12:30:00+00:00",
            "course": 181.82,
            "speed": 10.0,
            "depth": -0.0
          },
          {
            "time": "2010-01-12T12:30:20+00:00",
            "course": 181.82,
            "speed": 10.0,
            "depth": -0.0
          },
          {
            "time": "2010-01-12T12:30:40+00:00",
            "course": 181.82,
            "speed": 10.0,
            "depth": -0.0
          },
          {
            "time": "2010-01-12T12:31:00+00:00",
            "course": 181.82,
            "speed": 10.0,
            "depth": -0.0
          },
          {
            "time": "2010-01-12T12:31:20+00:00",
            "course": 181.82,
            "speed": 10.0,
            "depth": -0.0
          },
          {
            "time": "2010-01-12T12:31:40+00:00",
            "course": 181.82,
            "speed": 10.0,
            "depth": -0.0
          },
          {
            "time": "2010-01-12T12:32:00+00:00",
            "course": 181.82,
            "speed": 10.0,
            "depth": -0.0
          },
          {
            "time": "2010-01-12T12:32:20+00:00",
            "course": 181.82,
            "speed": 10.0,
            "depth": -0.0
          },
          {
            "time": "2010-01-12T12:32:40+00:00",
            "course": 181.82,
            "speed": 10.0,
            "depth": -0.0
          },
          {
            "time": "2010-01-12T12:33:00+00:00",
            "course": 181.82,
            "speed": 10.0,
            "depth": -0.0
          },
          {
            "time": "2010-01-12T12:33:20+00:00",
            "course": 181.82,
            "speed": 10.0,
            "depth": -0.0
          },
          {
            "time": "2010-01-12T12:33:40+00:00",
            "course": 181.82,
            "speed": 10.0,
            "depth": -0.0
          },
          {
            "time": "2010-01-12T12:34:00+00:00",
            "course": 181.82,
            "speed": 10.0,
            "depth": -0.0
          },
          {
            "time": "2010-01-12T12:34:20+00:00",
            "course": 181.82,
            "speed": 10.0,
            "depth": -0.0
          },
          {
            "time": "2010-01-12T12:34:40+00:00",
            "course": 181.82,
            "speed": 10.0,
            "depth": -0.0
          },
          {
            "time": "2010-01-12T12:35:00+00:00",
            "course": 181.82,
            "speed": 10.0,
            "depth": -0.0
          }
        ],
        "style": {
          "line": {
            "color": "#808080"
          },
          "point": {
            "shape": "circle",
            "radius": 3.0,
            "fill_color": "#808080",
            "color": "#808080"
          }
        },
        "default_position_style": {
          "show_symbol": false,
          "symbol": "circle",
          "show_label": false
        },
        "symbol_interval": "PT5M",
        "label_interval": "PT15M"
      }
    },
    {
      "type": "Feature",
      "id": "0c0e24be-f25d-4e42-a4b8-0a4a2a29015f",
      "geometry": null,
      "properties": {
        "kind": "SENSOR_CONTACT",
        "parent_track": "SENSOR",
        "sensor_name": "Plain",
        "bearing": -116.6,
        "time": "2010-01-12T12:00:00+00:00",
        "label": "Cookie SUBJECT held on Plain Cookie"
      }
    },
    {
      "type": "Feature",
      "id": "61e1250b-8c10-4f24-9cd5-cd86ec738eba",
      "geometry": null,
      "properties": {
        "kind": "SENSOR_CONTACT",
        "parent_track": "SENSOR",
        "sensor_name": "Plain",
        "bearing": -115.0,
        "time": "2010-01-12T12:00:20+00:00",
        "label": "Cookie SUBJECT held on Plain Cookie"
      }
    },
    {
      "type": "Feature",
      "id": "7df9030c-f1d5-43ec-8086-e341fdba2006",
      "geometry": null,
      "properties": {
        "kind": "SENSOR_CONTACT",
        "parent_track": "SENSOR",
        "sensor_name": "Plain",
        "bearing": -111.7,
        "time": "2010-01-12T12:01:00+00:00",
        "label": "Cookie SUBJECT held on Plain Cookie"
      }
    },
    {
      "type": "Feature",
      "id": "fd5d6252-e9a0-4575-9e56-a16034e833dd",
      "geometry": null,
      "properties": {
        "kind": "SENSOR_CONTACT",
        "parent_track": "SENSOR",
        "sensor_name": "Plain",
        "bearing": -108.2,
        "time": "2010-01-12T12:01:40+00:00",
        "label": "Cookie SUBJECT held on Plain Cookie"
      }
    },
    {
      "type": "Feature",
      "id": "6d48b8bf-563c-4a92-9fa6-a3b388e1477c",
      "geometry": null,
      "properties": {
        "kind": "SENSOR_CONTACT",
        "parent_track": "SENSOR",
        "sensor_name": "Plain",
        "bearing": -106.4,
        "time": "2010-01-12T12:02:00+00:00",
        "label": "Cookie SUBJECT held on Plain Cookie"
      }
    },
    {
      "type": "Feature",
      "id": "a8d0fe89-e6c3-450c-9cbc-422b2e9a2f23",
      "geometry": null,
      "properties": {
        "kind": "SENSOR_CONTACT",
        "parent_track": "SENSOR",
        "sensor_name": "Plain",
        "bearing": -102.7,
        "time": "2010-01-12T12:02:40+00:00",
        "label": "Cookie SUBJECT held on Plain Cookie"
      }
    },
    {
      "type": "Feature",
      "id": "ace78d2d-3d01-4945-8c97-742c152b1e99",
      "geometry": null,
      "properties": {
        "kind": "SENSOR_CONTACT",
        "parent_track": "SENSOR",
        "sensor_name": "Plain",
        "bearing": -93.6,
        "time": "2010-01-12T12:04:20+00:00",
        "label": "Cookie SUBJECT held on Plain Cookie"
      }
    },
    {
      "type": "Feature",
      "id": "d28c3010-6d2a-48b8-b28d-de86eb279733",
      "geometry": null,
      "properties": {
        "kind": "SENSOR_CONTACT",
        "parent_track": "SENSOR",
        "sensor_name": "Plain",
        "bearing": -96.8,
        "time": "2010-01-12T12:05:00+00:00",
        "label": "Cookie SUBJECT held on Plain Cookie"
      }
    },
    {
      "type": "Feature",
      "id": "e66d7b48-e4ca-4355-bf53-bc178b686131",
      "geometry": null,
      "properties": {
        "kind": "SENSOR_CONTACT",
        "parent_track": "SENSOR",
        "sensor_name": "Plain",
        "bearing": -99.7,
        "time": "2010-01-12T12:05:20+00:00",
        "label": "Cookie SUBJECT held on Plain Cookie"
      }
    },
    {
      "type": "Feature",
      "id": "507f80ff-9f22-4fd5-b385-1fe450a47193",
      "geometry": null,
      "properties": {
        "kind": "SENSOR_CONTACT",
        "parent_track": "SENSOR",
        "sensor_name": "Plain",
        "bearing": -107.8,
        "time": "2010-01-12T12:06:00+00:00",
        "label": "Cookie SUBJECT held on Plain Cookie"
      }
    },
    {
      "type": "Feature",
      "id": "541db312-71cf-459d-b8d5-941e75a72ae0",
      "geometry": null,
      "properties": {
        "kind": "SENSOR_CONTACT",
        "parent_track": "SENSOR",
        "sensor_name": "Plain",
        "bearing": -113.5,
        "time": "2010-01-12T12:06:20+00:00",
        "label": "Cookie SUBJECT held on Plain Cookie"
      }
    },
    {
      "type": "Feature",
      "id": "ff278f7a-fd6c-422b-855b-d802abdf69eb",
      "geometry": null,
      "properties": {
        "kind": "SENSOR_CONTACT",
        "parent_track": "SENSOR",
        "sensor_name": "Plain",
        "bearing": -120.8,
        "time": "2010-01-12T12:06:40+00:00",
        "label": "Cookie SUBJECT held on Plain Cookie"
      }
    },
    {
      "type": "Feature",
      "id": "969e3ccf-cc5c-4b6e-a88c-032f9382cd43",
      "geometry": null,
      "properties": {
        "kind": "SENSOR_CONTACT",
        "parent_track": "SENSOR",
        "sensor_name": "Plain",
        "bearing": -141.3,
        "time": "2010-01-12T12:07:20+00:00",
        "label": "Cookie SUBJECT held on Plain Cookie"
      }
    },
    {
      "type": "Feature",
      "id": "07460c87-537d-4a59-8c86-e3be9b5ac3a6",
      "geometry": null,
      "properties": {
        "kind": "SENSOR_CONTACT",
        "parent_track": "SENSOR",
        "sensor_name": "Plain",
        "bearing": -168.4,
        "time": "2010-01-12T12:08:00+00:00",
        "label": "Cookie SUBJECT held on Plain Cookie"
      }
    },
    {
      "type": "Feature",
      "id": "b1a7ee9a-2b3c-4903-82e2-0bb02fd0aef3",
      "geometry": null,
      "properties": {
        "kind": "SENSOR_CONTACT",
        "parent_track": "SENSOR",
        "sensor_name": "Plain",
        "bearing": 178.6,
        "time": "2010-01-12T12:08:20+00:00",
        "label": "Cookie SUBJECT held on Plain Cookie"
      }
    },
    {
      "type": "Feature",
      "id": "7eae9c9f-cc9c-4e73-b92a-d2101f870701",
      "geometry": null,
      "properties": {
        "kind": "SENSOR_CONTACT",
        "parent_track": "SENSOR",
        "sensor_name": "Plain",
        "bearing": 166.9,
        "time": "2010-01-12T12:08:40+00:00",
        "label": "Cookie SUBJECT held on Plain Cookie"
      }
    },
    {
      "type": "Feature",
      "id": "0fbe923a-79e8-4a0f-bb01-e4b22de1e603",
      "geometry": null,
      "properties": {
        "kind": "SENSOR_CONTACT",
        "parent_track": "SENSOR",
        "sensor_name": "Plain",
        "bearing": 156.6,
        "time": "2010-01-12T12:09:00+00:00",
        "label": "Cookie SUBJECT held on Plain Cookie"
      }
    },
    {
      "type": "Feature",
      "id": "dba342ed-f43a-488b-adc6-3a75a4b3cd25",
      "geometry": null,
      "properties": {
        "kind": "SENSOR_CONTACT",
        "parent_track": "SENSOR",
        "sensor_name": "Plain",
        "bearing": 147.8,
        "time": "2010-01-12T12:09:20+00:00",
        "label": "Cookie SUBJECT held on Plain Cookie"
      }
    },
    {
      "type": "Feature",
      "id": "513dc9ef-2714-4368-8454-b0853bd241eb",
      "geometry": null,
      "properties": {
        "kind": "SENSOR_CONTACT",
        "parent_track": "SENSOR",
        "sensor_name": "Plain",
        "bearing": 140.4,
        "time": "2010-01-12T12:09:40+00:00",
        "label": "Cookie SUBJECT held on Plain Cookie"
      }
    },
    {
      "type": "Feature",
      "id": "48dd36ba-a0c1-482f-837d-402a86f79bd1",
      "geometry": null,
      "properties": {
        "kind": "SENSOR_CONTACT",
        "parent_track": "SENSOR",
        "sensor_name": "Plain",
        "bearing": 134.2,
        "time": "2010-01-12T12:10:00+00:00",
        "label": "Cookie SUBJECT held on Plain Cookie"
      }
    },
    {
      "type": "Feature",
      "id": "6142eac9-dfc6-48ad-83b0-5188144e1337",
      "geometry": null,
      "properties": {
        "kind": "SENSOR_CONTACT",
        "parent_track": "SENSOR",
        "sensor_name": "Plain",
        "bearing": 128.9,
        "time": "2010-01-12T12:10:20+00:00",
        "label": "Cookie SUBJECT held on Plain Cookie"
      }
    },
    {
      "type": "Feature",
      "id": "15a5473b-d989-4fe5-abff-68ad39941534",
      "geometry": null,
      "properties": {
        "kind": "SENSOR_CONTACT",
        "parent_track": "SENSOR",
        "sensor_name": "Plain",
        "bearing": 124.6,
        "time": "2010-01-12T12:10:40+00:00",
        "label": "Cookie SUBJECT held on Plain Cookie"
      }
    },
    {
      "type": "Feature",
      "id": "30612c10-7d5c-4574-bf01-0f4f8f499c2d",
      "geometry": null,
      "properties": {
        "kind": "SENSOR_CONTACT",
        "parent_track": "SENSOR",
        "sensor_name": "Plain",
        "bearing": 121.2,
        "time": "2010-01-12T12:11:00+00:00",
        "label": "Cookie SUBJECT held on Plain Cookie"
      }
    },
    {
      "type": "Feature",
      "id": "ac91f0b2-7ce2-43d3-aada-6ce2f4f5dfea",
      "geometry": null,
      "properties": {
        "kind": "SENSOR_CONTACT",
        "parent_track": "SENSOR",
        "sensor_name": "Plain",
        "bearing": 114.2,
        "time": "2010-01-12T12:11:40+00:00",
        "label": "Cookie SUBJECT held on Plain Cookie"
      }
    },
    {
      "type": "Feature",
      "id": "561d034a-f61d-4fce-8ea2-6ac1b124d9b0",
      "geometry": null,
      "properties": {
        "kind": "SENSOR_CONTACT",
        "parent_track": "SENSOR",
        "sensor_name": "Plain",
        "bearing": 108.4,
        "time": "2010-01-12T12:12:20+00:00",
        "label": "Cookie SUBJECT held on Plain Cookie"
      }
    },
    {
      "type": "Feature",
      "id": "99a8e4f7-4b67-430f-a506-ee1fba259b16",
      "geometry": null,
      "properties": {
        "kind": "SENSOR_CONTACT",
        "parent_track": "SENSOR",
        "sensor_name": "Plain",
        "bearing": 105.5,
        "time": "2010-01-12T12:12:40+00:00",
        "label": "Cookie SUBJECT held on Plain Cookie"
      }
    },
    {
      "type": "Feature",
      "id": "d074b80a-a93d-47c5-962f-fbc4aad41212",
      "geometry": null,
      "properties": {
        "kind": "SENSOR_CONTACT",
        "parent_track": "SENSOR",
        "sensor_name": "Plain",
        "bearing": 97.5,
        "time": "2010-01-12T12:13:40+00:00",
        "label": "Cookie SUBJECT held on Plain Cookie"
      }
    },
    {
      "type": "Feature",
      "id": "0ed98421-8fc2-47b3-8fd3-e66ef3e70a33",
      "geometry": null,
      "properties": {
        "kind": "SENSOR_CONTACT",
        "parent_track": "SENSOR",
        "sensor_name": "Plain",
        "bearing": 90.2,
        "time": "2010-01-12T12:14:40+00:00",
        "label": "Cookie SUBJECT held on Plain Cookie"
      }
    },
    {
      "type": "Feature",
      "id": "6f62c4b9-fa89-4f86-99a6-f9bca63a7142",
      "geometry": null,
      "properties": {
        "kind": "SENSOR_CONTACT",
        "parent_track": "SENSOR",
        "sensor_name": "Plain",
        "bearing": 86.2,
        "time": "2010-01-12T12:15:20+00:00",
        "label": "Cookie SUBJECT held on Plain Cookie"
      }
    },
    {
      "type": "Feature",
      "id": "35095e9d-6c17-45a4-bf62-b3c624ba7f69",
      "geometry": null,
      "properties": {
        "kind": "SENSOR_CONTACT",
        "parent_track": "SENSOR",
        "sensor_name": "Plain",
        "bearing": 86.1,
        "time": "2010-01-12T12:15:40+00:00",
        "label": "Cookie SUBJECT held on Plain Cookie"
      }
    },
    {
      "type": "Feature",
      "id": "4bfa3bc3-e776-4731-a5c0-c88fbe824338",
      "geometry": null,
      "properties": {
        "kind": "SENSOR_CONTACT",
        "parent_track": "SENSOR",
        "sensor_name": "Plain",
        "bearing": 89.2,
        "time": "2010-01-12T12:16:20+00:00",
        "label": "Cookie SUBJECT held on Plain Cookie"
      }
    },
    {
      "type": "Feature",
      "id": "8f44cc6b-c94a-4790-9b6e-e86fbabfe996",
      "geometry": null,
      "properties": {
        "kind": "SENSOR_CONTACT",
        "parent_track": "SENSOR",
        "sensor_name": "Plain",
        "bearing": 97.3,
        "time": "2010-01-12T12:17:40+00:00",
        "label": "Cookie SUBJECT held on Plain Cookie"
      }
    },
    {
      "type": "Feature",
      "id": "6037c073-b1d4-4b0e-9212-45b7ac98564f",
      "geometry": null,
      "properties": {
        "kind": "SENSOR_CONTACT",
        "parent_track": "SENSOR",
        "sensor_name": "Plain",
        "bearing": 102.4,
        "time": "2010-01-12T12:18:20+00:00",
        "label": "Cookie SUBJECT held on Plain Cookie"
      }
    },
    {
      "type": "Feature",
      "id": "d6508c24-86ec-482b-81de-c257d045e6fb",
      "geometry": null,
      "properties": {
        "kind": "SENSOR_CONTACT",
        "parent_track": "SENSOR",
        "sensor_name": "Plain",
        "bearing": 108.4,
        "time": "2010-01-12T12:19:00+00:00",
        "label": "Cookie SUBJECT held on Plain Cookie"
      }
    },
    {
      "type": "Feature",
      "id": "808ec5b3-4c78-4cfe-8486-ee8762d28ee2",
      "geometry": null,
      "properties": {
        "kind": "SENSOR_CONTACT",
        "parent_track": "SENSOR",
        "sensor_name": "Plain",
        "bearing": 119.1,
        "time": "2010-01-12T12:20:00+00:00",
        "label": "Cookie SUBJECT held on Plain Cookie"
      }
    },
    {
      "type": "Feature",
      "id": "041324e7-8238-4b41-99b4-b1c513171428",
      "geometry": null,
      "properties": {
        "kind": "SENSOR_CONTACT",
        "parent_track": "SENSOR",
        "sensor_name": "Plain",
        "bearing": 123.4,
        "time": "2010-01-12T12:20:20+00:00",
        "label": "Cookie SUBJECT held on Plain Cookie"
      }
    },
    {
      "type": "Feature",
      "id": "e0f53270-292b-4eaf-bab1-48df4b813b4c",
      "geometry": null,
      "properties": {
        "kind": "SENSOR_CONTACT",
        "parent_track": "SENSOR",
        "sensor_name": "Plain",
        "bearing": 134.4,
        "time": "2010-01-12T12:21:00+00:00",
        "label": "Cookie SUBJECT held on Plain Cookie"
      }
    },
    {
      "type": "Feature",
      "id": "47e15f29-26cd-4677-9fe5-8c5068e289eb",
      "geometry": null,
      "properties": {
        "kind": "SENSOR_CONTACT",
        "parent_track": "SENSOR",
        "sensor_name": "Plain",
        "bearing": 148.3,
        "time": "2010-01-12T12:21:40+00:00",
        "label": "Cookie SUBJECT held on Plain Cookie"
      }
    },
    {
      "type": "Feature",
      "id": "247680e0-72d9-469f-8011-d0d3371b362f",
      "geometry": null,
      "properties": {
        "kind": "SENSOR_CONTACT",
        "parent_track": "SENSOR",
        "sensor_name": "Plain",
        "bearing": 156.0,
        "time": "2010-01-12T12:22:00+00:00",
        "label": "Cookie SUBJECT held on Plain Cookie"
      }
    },
    {
      "type": "Feature",
      "id": "a418f8b6-fac1-47ef-8995-ed701ba16d6f",
      "geometry": null,
      "properties": {
        "kind": "SENSOR_CONTACT",
        "parent_track": "SENSOR",
        "sensor_name": "Plain",
        "bearing": 163.7,
        "time": "2010-01-12T12:22:20+00:00",
        "label": "Cookie SUBJECT held on Plain Cookie"
      }
    },
    {
      "type": "Feature",
      "id": "f2a48938-b528-4aa1-a6a5-458f1d5b5f83",
      "geometry": null,
      "properties": {
        "kind": "SENSOR_CONTACT",
        "parent_track": "SENSOR",
        "sensor_name": "Plain",
        "bearing": 170.7,
        "time": "2010-01-12T12:22:40+00:00",
        "label": "Cookie SUBJECT held on Plain Cookie"
      }
    },
    {
      "type": "Feature",
      "id": "8288e857-bbac-4f1d-8691-a843e076e555",
      "geometry": null,
      "properties": {
        "kind": "SENSOR_CONTACT",
        "parent_track": "SENSOR",
        "sensor_name": "Plain",
        "bearing": -177.2,
        "time": "2010-01-12T12:23:20+00:00",
        "label": "Cookie SUBJECT held on Plain Cookie"
      }
    },
    {
      "type": "Feature",
      "id": "f1b04a75-f886-4f93-bca2-e17c25499ad3",
      "geometry": null,
      "properties": {
        "kind": "SENSOR_CONTACT",
        "parent_track": "SENSOR",
        "sensor_name": "Plain",
        "bearing": -163.9,
        "time": "2010-01-12T12:24:20+00:00",
        "label": "Cookie SUBJECT held on Plain Cookie"
      }
    },
    {
      "type": "Feature",
      "id": "3522685a-c5c2-4ebe-bd88-6fc5a335323a",
      "geometry": null,
      "properties": {
        "kind": "SENSOR_CONTACT",
        "parent_track": "SENSOR",
        "sensor_name": "Plain",
        "bearing": -160.3,
        "time": "2010-01-12T12:25:00+00:00",
        "label": "Cookie SUBJECT held on Plain Cookie"
      }
    },
    {
      "type": "Feature",
      "id": "3d80c48c-7c0e-4cda-8819-9b0809039f9d",
      "geometry": null,
      "properties": {
        "kind": "SENSOR_CONTACT",
        "parent_track": "SENSOR",
        "sensor_name": "Plain",
        "bearing": -158.4,
        "time": "2010-01-12T12:26:00+00:00",
        "label": "Cookie SUBJECT held on Plain Cookie"
      }
    },
    {
      "type": "Feature",
      "id": "97cc8c01-2ab3-4ff3-9413-8d93c23e7cde",
      "geometry": null,
      "properties": {
        "kind": "SENSOR_CONTACT",
        "parent_track": "SENSOR",
        "sensor_name": "Plain",
        "bearing": -157.7,
        "time": "2010-01-12T12:26:20+00:00",
        "label": "Cookie SUBJECT held on Plain Cookie"
      }
    },
    {
      "type": "Feature",
      "id": "8f13a54c-6f40-4cb5-b2eb-01961b90877e",
      "geometry": null,
      "properties": {
        "kind": "SENSOR_CONTACT",
        "parent_track": "SENSOR",
        "sensor_name": "Plain",
        "bearing": -156.1,
        "time": "2010-01-12T12:27:00+00:00",
        "label": "Cookie SUBJECT held on Plain Cookie"
      }
    },
    {
      "type": "Feature",
      "id": "e8bd0423-4c3d-42d6-8bd4-dd3196bb998a",
      "geometry": null,
      "properties": {
        "kind": "SENSOR_CONTACT",
        "parent_track": "SENSOR",
        "sensor_name": "Plain",
        "bearing": -155.2,
        "time": "2010-01-12T12:27:20+00:00",
        "label": "Cookie SUBJECT held on Plain Cookie"
      }
    },
    {
      "type": "Feature",
      "id": "6e60eb3c-8e28-435c-a535-bb821e0377bb",
      "geometry": null,
      "properties": {
        "kind": "SENSOR_CONTACT",
        "parent_track": "SENSOR",
        "sensor_name": "Plain",
        "bearing": -153.1,
        "time": "2010-01-12T12:28:00+00:00",
        "label": "Cookie SUBJECT held on Plain Cookie"
      }
    },
    {
      "type": "Feature",
      "id": "377cb666-b76d-40a9-831b-26489f4670bb",
      "geometry": null,
      "properties": {
        "kind": "SENSOR_CONTACT",
        "parent_track": "SENSOR",
        "sensor_name": "Plain",
        "bearing": -150.8,
        "time": "2010-01-12T12:28:40+00:00",
        "label": "Cookie SUBJECT held on Plain Cookie"
      }
    },
    {
      "type": "Feature",
      "id": "5a104f4d-3ab0-4b0a-8982-d90353dfae56",
      "geometry": null,
      "properties": {
        "kind": "SENSOR_CONTACT",
        "parent_track": "SENSOR",
        "sensor_name": "Plain",
        "bearing": -147.9,
        "time": "2010-01-12T12:29:20+00:00",
        "label": "Cookie SUBJECT held on Plain Cookie"
      }
    },
    {
      "type": "Feature",
      "id": "23f210ba-35f7-4e73-94a3-3dcdfa4c4437",
      "geometry": null,
      "properties": {
        "kind": "SENSOR_CONTACT",
        "parent_track": "SENSOR",
        "sensor_name": "Plain",
        "bearing": -142.5,
        "time": "2010-01-12T12:30:20+00:00",
        "label": "Cookie SUBJECT held on Plain Cookie"
      }
    },
    {
      "type": "Feature",
      "id": "bde0cc86-77f3-49df-a163-21b83cc30fe6",
      "geometry": null,
      "properties": {
        "kind": "SENSOR_CONTACT",
        "parent_track": "SENSOR",
        "sensor_name": "Plain",
        "bearing": -140.4,
        "time": "2010-01-12T12:30:40+00:00",
        "label": "Cookie SUBJECT held on Plain Cookie"
      }
    },
    {
      "type": "Feature",
      "id": "9ace945d-0a67-4977-9cb8-31f20c58a86c",
      "geometry": null,
      "properties": {
        "kind": "SENSOR_CONTACT",
        "parent_track": "SENSOR",
        "sensor_name": "Plain",
        "bearing": -137.9,
        "time": "2010-01-12T12:31:00+00:00",
        "label": "Cookie SUBJECT held on Plain Cookie"
      }
    },
    {
      "type": "Feature",
      "id": "31dc0053-95ae-4e61-adad-4679c9b9876b",
      "geometry": null,
      "properties": {
        "kind": "SENSOR_CONTACT",
        "parent_track": "SENSOR",
        "sensor_name": "Plain",
        "bearing": -135.3,
        "time": "2010-01-12T12:31:20+00:00",
        "label": "Cookie SUBJECT held on Plain Cookie"
      }
    },
    {
      "type": "Feature",
      "id": "e5979d7f-891c-4812-b1aa-a49b4770a882",
      "geometry": null,
      "properties": {
        "kind": "SENSOR_CONTACT",
        "parent_track": "SENSOR",
        "sensor_name": "Plain",
        "bearing": -129.0,
        "time": "2010-01-12T12:32:00+00:00",
        "label": "Cookie SUBJECT held on Plain Cookie"
      }
    },
    {
      "type": "Feature",
      "id": "64684d58-a7de-4217-8d81-6e6d32815543",
      "geometry": null,
      "properties": {
        "kind": "SENSOR_CONTACT",
        "parent_track": "SENSOR",
        "sensor_name": "Plain",
        "bearing": -125.4,
        "time": "2010-01-12T12:32:20+00:00",
        "label": "Cookie SUBJECT held on Plain Cookie"
      }
    },
    {
      "type": "Feature",
      "id": "477203a4-c1df-420b-ad83-d1c2dfb93b12",
      "geometry": null,
      "properties": {
        "kind": "SENSOR_CONTACT",
        "parent_track": "SENSOR",
        "sensor_name": "Plain",
        "bearing": -116.9,
        "time": "2010-01-12T12:33:00+00:00",
        "label": "Cookie SUBJECT held on Plain Cookie"
      }
    },
    {
      "type": "Feature",
      "id": "ccec2362-74a2-4872-a869-e67e2bdeff62",
      "geometry": null,
      "properties": {
        "kind": "SENSOR_CONTACT",
        "parent_track": "SENSOR",
        "sensor_name": "Plain",
        "bearing": -95.4,
        "time": "2010-01-12T12:34:20+00:00",
        "label": "Cookie SUBJECT held on Plain Cookie"
      }
    },
    {
      "type": "Feature",
      "id": "7f15951b-7f63-48bd-bc97-0f8b8469979e",
      "geometry": null,
      "properties": {
        "kind": "SENSOR_CONTACT",
        "parent_track": "SENSOR",
        "sensor_name": "Plain",
        "bearing": -89.4,
        "time": "2010-01-12T12:34:40+00:00",
        "label": "Cookie SUBJECT held on Plain Cookie"
      }
    },
    {
      "type": "Feature",
      "id": "35dbf1b9-e6d2-424e-888c-be19f40b29ce",
      "geometry": null,
      "properties": {
        "kind": "SENSOR_CONTACT",
        "parent_track": "SENSOR",
        "sensor_name": "Plain",
        "bearing": -83.4,
        "time": "2010-01-12T12:35:00+00:00",
        "label": "Cookie SUBJECT held on Plain Cookie"
      }
    },
    {
      "type": "Feature",
      "id": "2db645c2-d038-434f-ba2c-fd537c774646",
      "geometry": {
        "type": "LineString",
        "coordinates": [
          [
            0.0108,
            0.0458972
          ],
          [
            0.0108,
            0.0453417
          ],
          [
            0.0108,
            0.0447861
          ],
          [
            0.0108,
            0.0442306
          ],
          [
            0.0108,
            0.043675
          ],
          [
            0.0108,
            0.0431194
          ],
          [
            0.0108,
            0.0425639
          ],
          [
            0.0108,
            0.0420083
          ],
          [
            0.0108,
            0.0414528
          ],
          [
            0.0108,
            0.0408972
          ],
          [
            0.0108,
            0.0403417
          ],
          [
            0.0108,
            0.0397861
          ],
          [
            0.0108,
            0.0392306
          ],
          [
            0.0108,
            0.038675
          ],
          [
            0.0108,
            0.0381194
          ],
          [
            0.0108,
            0.0375639
          ],
          [
            0.0108,
            0.0370083
          ],
          [
            0.0108,
            0.0364528
          ],
          [
            0.0108,
            0.0358972
          ],
          [
            0.0108,
            0.0353417
          ],
          [
            0.0108,
            0.0347861
          ],
          [
            0.0108,
            0.0342306
          ],
          [
            0.0108,
            0.033675
          ],
          [
            0.0108,
            0.0331194
          ],
          [
            0.0108,
            0.0325639
          ],
          [
            0.0108,
            0.0320083
          ],
          [
            0.0108417,
            0.0314528
          ],
          [
            0.0109694,
            0.0309139
          ],
          [
            0.0111778,
            0.0304
          ],
          [
            0.0114639,
            0.029925
          ],
          [
            0.0118194,
            0.0294972
          ],
          [
            0.0122306,
            0.029125
          ],
          [
            0.0126556,
            0.0287667
          ],
          [
            0.0130778,
            0.0284083
          ],
          [
            0.0135028,
            0.0280472
          ],
          [
            0.0139278,
            0.0276889
          ],
          [
            0.01435,
            0.0273306
          ],
          [
            0.014775,
            0.0269694
          ],
          [
            0.0151972,
            0.0266111
          ],
          [
            0.0156222,
            0.0262528
          ],
          [
            0.0160444,
            0.0258917
          ],
          [
            0.0164694,
            0.0255333
          ],
          [
            0.0168944,
            0.025175
          ],
          [
            0.0173167,
            0.0248139
          ],
          [
            0.0177417,
            0.0244556
          ],
          [
            0.0181639,
            0.0240972
          ],
          [
            0.0185889,
            0.0237389
          ],
          [
            0.0190111,
            0.0233778
          ],
          [
            0.0194361,
            0.0230194
          ],
          [
            0.0198611,
            0.0226611
          ],
          [
            0.0202833,
            0.0223
          ],
          [
            0.0207083,
            0.0219417
          ],
          [
            0.0211306,
            0.0215833
          ],
          [
            0.0215556,
            0.0212222
          ],
          [
            0.0219778,
            0.0208639
          ],
          [
            0.0224028,
            0.0205056
          ],
          [
            0.0228278,
            0.0201444
          ],
          [
            0.02325,
            0.0197861
          ],
          [
            0.023675,
            0.0194278
          ],
          [
            0.0240972,
            0.0190667
          ],
          [
            0.0245222,
            0.0187083
          ],
          [
            0.0249167,
            0.0183194
          ],
          [
            0.0252472,
            0.0178722
          ],
          [
            0.0255028,
            0.0173806
          ],
          [
            0.0256806,
            0.0168556
          ],
          [
            0.0257778,
            0.0163083
          ],
          [
            0.0257889,
            0.0157528
          ],
          [
            0.0257694,
            0.0151972
          ],
          [
            0.02575,
            0.0146417
          ],
          [
            0.0257306,
            0.0140861
          ],
          [
            0.0257111,
            0.0135333
          ],
          [
            0.0256917,
            0.0129778
          ],
          [
            0.0256722,
            0.0124222
          ],
          [
            0.0256528,
            0.0118667
          ],
          [
            0.0256333,
            0.0113111
          ],
          [
            0.0256139,
            0.0107556
          ],
          [
            0.0255944,
            0.0102
          ],
          [
            0.025575,
            0.0096444
          ],
          [
            0.0255556,
            0.0090917
          ],
          [
            0.0255361,
            0.0085361
          ],
          [
            0.0255167,
            0.0079806
          ],
          [
            0.0255,
            0.007425
          ],
          [
            0.0254806,
            0.0068694
          ],
          [
            0.0254611,
            0.0063139
          ],
          [
            0.0254417,
            0.0057583
          ],
          [
            0.0254222,
            0.0052028
          ],
          [
            0.0254028,
            0.00465
          ],
          [
            0.0253833,
            0.0040944
          ],
          [
            0.0253639,
            0.0035389
          ],
          [
            0.0253444,
            0.0029833
          ],
          [
            0.025325,
            0.0024278
          ],
          [
            0.0253056,
            0.0018722
          ],
          [
            0.0252861,
            0.0013167
          ],
          [
            0.0252667,
            0.0007611
          ],
          [
            0.0252472,
            0.0002056
          ],
          [
            0.0252278,
            -0.0003472
          ],
          [
            0.0252083,
            -0.0009028
          ],
          [
            0.0251889,
            -0.0014583
          ],
          [
            0.0251694,
            -0.0020139
          ],
          [
            0.02515,
            -0.0025694
          ],
          [
            0.0251306,
            -0.003125
          ],
          [
            0.0251111,
            -0.0036806
          ],
          [
            0.0250917,
            -0.0042361
          ],
          [
            0.0250722,
            -0.0047889
          ],
          [
            0.0250528,
            -0.0053444
          ],
          [
            0.0250333,
            -0.0059
          ]
        ]
      },
      "properties": {
        "kind": "TRACK",
        "platform_id": "SUBJECT",
        "platform_name": "SUBJECT",
        "track_type": "CONTACT",
        "start_time": "2010-01-12T12:00:00+00:00",
        "end_time": "2010-01-12T12:35:00+00:00",
        "positions": [
          {
            "time": "2010-01-12T12:00:00+00:00",
            "course": 180.0,
            "speed": 6.0,
            "depth": -0.0
          },
          {
            "time": "2010-01-12T12:00:20+00:00",
            "course": 180.0,
            "speed": 6.0,
            "depth": -0.0
          },
          {
            "time": "2010-01-12T12:00:40+00:00",
            "course": 180.0,
            "speed": 6.0,
            "depth": -0.0
          },
          {
            "time": "2010-01-12T12:01:00+00:00",
            "course": 180.0,
            "speed": 6.0,
            "depth": -0.0
          },
          {
            "time": "2010-01-12T12:01:20+00:00",
            "course": 180.0,
            "speed": 6.0,
            "depth": -0.0
          },
          {
            "time": "2010-01-12T12:01:40+00:00",
            "course": 180.0,
            "speed": 6.0,
            "depth": -0.0
          },
          {
            "time": "2010-01-12T12:02:00+00:00",
            "course": 180.0,
            "speed": 6.0,
            "depth": -0.0
          },
          {
            "time": "2010-01-12T12:02:20+00:00",
            "course": 180.0,
            "speed": 6.0,
            "depth": -0.0
          },
          {
            "time": "2010-01-12T12:02:40+00:00",
            "course": 180.0,
            "speed": 6.0,
            "depth": -0.0
          },
          {
            "time": "2010-01-12T12:03:00+00:00",
            "course": 180.0,
            "speed": 6.0,
            "depth": -0.0
          },
          {
            "time": "2010-01-12T12:03:20+00:00",
            "course": 180.0,
            "speed": 6.0,
            "depth": -0.0
          },
          {
            "time": "2010-01-12T12:03:40+00:00",
            "course": 180.0,
            "speed": 6.0,
            "depth": -0.0
          },
          {
            "time": "2010-01-12T12:04:00+00:00",
            "course": 180.0,
            "speed": 6.0,
            "depth": -0.0
          },
          {
            "time": "2010-01-12T12:04:20+00:00",
            "course": 180.0,
            "speed": 6.0,
            "depth": -0.0
          },
          {
            "time": "2010-01-12T12:04:40+00:00",
            "course": 180.0,
            "speed": 6.0,
            "depth": -0.0
          },
          {
            "time": "2010-01-12T12:05:00+00:00",
            "course": 180.0,
            "speed": 6.0,
            "depth": -0.0
          },
          {
            "time": "2010-01-12T12:05:20+00:00",
            "course": 180.0,
            "speed": 6.0,
            "depth": -0.0
          },
          {
            "time": "2010-01-12T12:05:40+00:00",
            "course": 180.0,
            "speed": 6.0,
            "depth": -0.0
          },
          {
            "time": "2010-01-12T12:06:00+00:00",
            "course": 180.0,
            "speed": 6.0,
            "depth": -0.0
          },
          {
            "time": "2010-01-12T12:06:20+00:00",
            "course": 180.0,
            "speed": 6.0,
            "depth": -0.0
          },
          {
            "time": "2010-01-12T12:06:40+00:00",
            "course": 180.0,
            "speed": 6.0,
            "depth": -0.0
          },
          {
            "time": "2010-01-12T12:07:00+00:00",
            "course": 180.0,
            "speed": 6.0,
            "depth": -0.0
          },
          {
            "time": "2010-01-12T12:07:20+00:00",
            "course": 180.0,
            "speed": 6.0,
            "depth": -0.0
          },
          {
            "time": "2010-01-12T12:07:40+00:00",
            "course": 180.0,
            "speed": 6.0,
            "depth": -0.0
          },
          {
            "time": "2010-01-12T12:08:00+00:00",
            "course": 180.0,
            "speed": 6.0,
            "depth": -0.0
          },
          {
            "time": "2010-01-12T12:08:20+00:00",
            "course": 180.0,
            "speed": 6.0,
            "depth": -0.0
          },
          {
            "time": "2010-01-12T12:08:40+00:00",
            "course": 171.16,
            "speed": 6.0,
            "depth": -0.0
          },
          {
            "time": "2010-01-12T12:09:00+00:00",
            "course": 162.31,
            "speed": 6.0,
            "depth": -0.0
          },
          {
            "time": "2010-01-12T12:09:20+00:00",
            "course": 153.47,
            "speed": 6.0,
            "depth": -0.0
          },
          {
            "time": "2010-01-12T12:09:40+00:00",
            "course": 144.63,
            "speed": 6.0,
            "depth": -0.0
          },
          {
            "time": "2010-01-12T12:10:00+00:00",
            "course": 135.79,
            "speed": 6.0,
            "depth": -0.0
          },
          {
            "time": "2010-01-12T12:10:20+00:00",
            "course": 130.34,
            "speed": 6.0,
            "depth": -0.0
          },
          {
            "time": "2010-01-12T12:10:40+00:00",
            "course": 130.28,
            "speed": 6.0,
            "depth": -0.0
          },
          {
            "time": "2010-01-12T12:11:00+00:00",
            "course": 130.28,
            "speed": 6.0,
            "depth": -0.0
          },
          {
            "time": "2010-01-12T12:11:20+00:00",
            "course": 130.28,
            "speed": 6.0,
            "depth": -0.0
          },
          {
            "time": "2010-01-12T12:11:40+00:00",
            "course": 130.28,
            "speed": 6.0,
            "depth": -0.0
          },
          {
            "time": "2010-01-12T12:12:00+00:00",
            "course": 130.28,
            "speed": 6.0,
            "depth": -0.0
          },
          {
            "time": "2010-01-12T12:12:20+00:00",
            "course": 130.28,
            "speed": 6.0,
            "depth": -0.0
          },
          {
            "time": "2010-01-12T12:12:40+00:00",
            "course": 130.28,
            "speed": 6.0,
            "depth": -0.0
          },
          {
            "time": "2010-01-12T12:13:00+00:00",
            "course": 130.28,
            "speed": 6.0,
            "depth": -0.0
          },
          {
            "time": "2010-01-12T12:13:20+00:00",
            "course": 130.28,
            "speed": 6.0,
            "depth": -0.0
          },
          {
            "time": "2010-01-12T12:13:40+00:00",
            "course": 130.28,
            "speed": 6.0,
            "depth": -0.0
          },
          {
            "time": "2010-01-12T12:14:00+00:00",
            "course": 130.28,
            "speed": 6.0,
            "depth": -0.0
          },
          {
            "time": "2010-01-12T12:14:20+00:00",
            "course": 130.28,
            "speed": 6.0,
            "depth": -0.0
          },
          {
            "time": "2010-01-12T12:14:40+00:00",
            "course": 130.28,
            "speed": 6.0,
            "depth": -0.0
          },
          {
            "time": "2010-01-12T12:15:00+00:00",
            "course": 130.28,
            "speed": 6.0,
            "depth": -0.0
          },
          {
            "time": "2010-01-12T12:15:20+00:00",
            "course": 130.28,
            "speed": 6.0,
            "depth": -0.0
          },
          {
            "time": "2010-01-12T12:15:40+00:00",
            "course": 130.28,
            "speed": 6.0,
            "depth": -0.0
          },
          {
            "time": "2010-01-12T12:16:00+00:00",
            "course": 130.28,
            "speed": 6.0,
            "depth": -0.0
          },
          {
            "time": "2010-01-12T12:16:20+00:00",
            "course": 130.28,
            "speed": 6.0,
            "depth": -0.0
          },
          {
            "time": "2010-01-12T12:16:40+00:00",
            "course": 130.28,
            "speed": 6.0,
            "depth": -0.0
          },
          {
            "time": "2010-01-12T12:17:00+00:00",
            "course": 130.28,
            "speed": 6.0,
            "depth": -0.0
          },
          {
            "time": "2010-01-12T12:17:20+00:00",
            "course": 130.28,
            "speed": 6.0,
            "depth": -0.0
          },
          {
            "time": "2010-01-12T12:17:40+00:00",
            "course": 130.28,
            "speed": 6.0,
            "depth": -0.0
          },
          {
            "time": "2010-01-12T12:18:00+00:00",
            "course": 130.28,
            "speed": 6.0,
            "depth": -0.0
          },
          {
            "time": "2010-01-12T12:18:20+00:00",
            "course": 130.28,
            "speed": 6.0,
            "depth": -0.0
          },
          {
            "time": "2010-01-12T12:18:40+00:00",
            "course": 130.28,
            "speed": 6.0,
            "depth": -0.0
          },
          {
            "time": "2010-01-12T12:19:00+00:00",
            "course": 130.28,
            "speed": 6.0,
            "depth": -0.0
          },
          {
            "time": "2010-01-12T12:19:20+00:00",
            "course": 130.28,
            "speed": 6.0,
            "depth": -0.0
          },
          {
            "time": "2010-01-12T12:19:40+00:00",
            "course": 130.28,
            "speed": 6.0,
            "depth": -0.0
          },
          {
            "time": "2010-01-12T12:20:00+00:00",
            "course": 130.28,
            "speed": 6.0,
            "depth": -0.0
          },
          {
            "time": "2010-01-12T12:20:20+00:00",
            "course": 139.13,
            "speed": 6.0,
            "depth": -0.0
          },
          {
            "time": "2010-01-12T12:20:40+00:00",
            "course": 147.97,
            "speed": 6.0,
            "depth": -0.0
          },
          {
            "time": "2010-01-12T12:21:00+00:00",
            "course": 156.81,
            "speed": 6.0,
            "depth": -0.0
          },
          {
            "time": "2010-01-12T12:21:20+00:00",
            "course": 165.65,
            "speed": 6.0,
            "depth": -0.0
          },
          {
            "time": "2010-01-12T12:21:40+00:00",
            "course": 174.5,
            "speed": 6.0,
            "depth": -0.0
          },
          {
            "time": "2010-01-12T12:22:00+00:00",
            "course": 181.96,
            "speed": 6.0,
            "depth": -0.0
          },
          {
            "time": "2010-01-12T12:22:20+00:00",
            "course": 182.0,
            "speed": 6.0,
            "depth": -0.0
          },
          {
            "time": "2010-01-12T12:22:40+00:00",
            "course": 182.0,
            "speed": 6.0,
            "depth": -0.0
          },
          {
            "time": "2010-01-12T12:23:00+00:00",
            "course": 182.0,
            "speed": 6.0,
            "depth": -0.0
          },
          {
            "time": "2010-01-12T12:23:20+00:00",
            "course": 182.0,
            "speed": 6.0,
            "depth": -0.0
          },
          {
            "time": "2010-01-12T12:23:40+00:00",
            "course": 182.0,
            "speed": 6.0,
            "depth": -0.0
          },
          {
            "time": "2010-01-12T12:24:00+00:00",
            "course": 182.0,
            "speed": 6.0,
            "depth": -0.0
          },
          {
            "time": "2010-01-12T12:24:20+00:00",
            "course": 182.0,
            "speed": 6.0,
            "depth": -0.0
          },
          {
            "time": "2010-01-12T12:24:40+00:00",
            "course": 182.0,
            "speed": 6.0,
            "depth": -0.0
          },
          {
            "time": "2010-01-12T12:25:00+00:00",
            "course": 182.0,
            "speed": 6.0,
            "depth": -0.0
          },
          {
            "time": "2010-01-12T12:25:20+00:00",
            "course": 182.0,
            "speed": 6.0,
            "depth": -0.0
          },
          {
            "time": "2010-01-12T12:25:40+00:00",
            "course": 182.0,
            "speed": 6.0,
            "depth": -0.0
          },
          {
            "time": "2010-01-12T12:26:00+00:00",
            "course": 182.0,
            "speed": 6.0,
            "depth": -0.0
          },
          {
            "time": "2010-01-12T12:26:20+00:00",
            "course": 182.0,
            "speed": 6.0,
            "depth": -0.0
          },
          {
            "time": "2010-01-12T12:26:40+00:00",
            "course": 182.0,
            "speed": 6.0,
            "depth": -0.0
          },
          {
            "time": "2010-01-12T12:27:00+00:00",
            "course": 182.0,
            "speed": 6.0,
            "depth": -0.0
          },
          {
            "time": "2010-01-12T12:27:20+00:00",
            "course": 182.0,
            "speed": 6.0,
            "depth": -0.0
          },
          {
            "time": "2010-01-12T12:27:40+00:00",
            "course": 182.0,
            "speed": 6.0,
            "depth": -0.0
          },
          {
            "time": "2010-01-12T12:28:00+00:00",
            "course": 182.0,
            "speed": 6.0,
            "depth": -0.0
          },
          {
            "time": "2010-01-12T12:28:20+00:00",
            "course": 182.0,
            "speed": 6.0,
            "depth": -0.0
          },
          {
            "time": "2010-01-12T12:28:40+00:00",
            "course": 182.0,
            "speed": 6.0,
            "depth": -0.0
          },
          {
            "time": "2010-01-12T12:29:00+00:00",
            "course": 182.0,
            "speed": 6.0,
            "depth": -0.0
          },
          {
            "time": "2010-01-12T12:29:20+00:00",
            "course": 182.0,
            "speed": 6.0,
            "depth": -0.0
          },
          {
            "time": "2010-01-12T12:29:40+00:00",
            "course": 182.0,
            "speed": 6.0,
            "depth": -0.0
          },
          {
            "time": "2010-01-12T12:30:00+00:00",
            "course": 182.0,
            "speed": 6.0,
            "depth": -0.0
          },
          {
            "time": "2010-01-12T12:30:20+00:00",
            "course": 182.0,
            "speed": 6.0,
            "depth": -0.0
          },
          {
            "time": "2010-01-12T12:30:40+00:00",
            "course": 182.0,
            "speed": 6.0,
            "depth": -0.0
          },
          {
            "time": "2010-01-12T12:31:00+00:00",
            "course": 182.0,
            "speed": 6.0,
            "depth": -0.0
          },
          {
            "time": "2010-01-12T12:31:20+00:00",
            "course": 182.0,
            "speed": 6.0,
            "depth": -0.0
          },
          {
            "time": "2010-01-12T12:31:40+00:00",
            "course": 182.0,
            "speed": 6.0,
            "depth": -0.0
          },
          {
            "time": "2010-01-12T12:32:00+00:00",
            "course": 182.0,
            "speed": 6.0,
            "depth": -0.0
          },
          {
            "time": "2010-01-12T12:32:20+00:00",
            "course": 182.0,
            "speed": 6.0,
            "depth": -0.0
          },
          {
            "time": "2010-01-12T12:32:40+00:00",
            "course": 182.0,
            "speed": 6.0,
            "depth": -0.0
          },
          {
            "time": "2010-01-12T12:33:00+00:00",
            "course": 182.0,
            "speed": 6.0,
            "depth": -0.0
          },
          {
            "time": "2010-01-12T12:33:20+00:00",
            "course": 182.0,
            "speed": 6.0,
            "depth": -0.0
          },
          {
            "time": "2010-01-12T12:33:40+00:00",
            "course": 182.0,
            "speed": 6.0,
            "depth": -0.0
          },
          {
            "time": "2010-01-12T12:34:00+00:00",
            "course": 182.0,
            "speed": 6.0,
            "depth": -0.0
          },
          {
            "time": "2010-01-12T12:34:20+00:00",
            "course": 182.0,
            "speed": 6.0,
            "depth": -0.0
          },
          {
            "time": "2010-01-12T12:34:40+00:00",
            "course": 182.0,
            "speed": 6.0,
            "depth": -0.0
          },
          {
            "time": "2010-01-12T12:35:00+00:00",
            "course": 182.0,
            "speed": 6.0,
            "depth": -0.0
          }
        ],
        "style": {
          "line": {
            "color": "#808080"
          },
          "point": {
            "shape": "circle",
            "radius": 3.0,
            "fill_color": "#808080",
            "color": "#808080"
          }
        },
        "default_position_style": {
          "show_symbol": false,
          "symbol": "circle",
          "show_label": false
        },
        "symbol_interval": "PT5M",
        "label_interval": "PT15M"
      }
    }
  ]
}