{
  "type": "FeatureCollection",
  "features": [
    {
      "type": "Feature",
      "id": "36fc5bd9-b888-4320-bbcd-d3a778705076",
      "geometry": null,
      "properties": {
        "kind": "SENSOR_CONTACT",
        "parent_track": "OWNSHIP",
        "time": "2010-01-12T12:13:14+00:00",
        "bearing": 2.4,
        "range": 12000.0,
        "sensor_name": "Plain",
        "label": "Cookie SUBJECT held on Plain Cookie"
      }
    },
    {
      "type": "Feature",
      "id": "46f146ee-ae5f-4d60-ab0d-e36883f6b5f8",
      "geometry": null,
      "properties": {
        "kind": "SENSOR_CONTACT",
        "parent_track": "OWNSHIP",
        "time": "2010-01-12T12:14:44+00:00",
        "bearing": 1.6,
        "range": 12000.0,
        "sensor_name": "Plain",
        "label": "Cookie SUBJECT held on Plain Cookie"
      }
    },
    {
      "type": "Feature",
      "id": "e9739384-0bc6-4777-9fab-c5bd7441e6b7",
      "geometry": null,
      "properties": {
        "kind": "SENSOR_CONTACT",
        "parent_track": "OWNSHIP",
        "time": "2010-01-12T12:16:14+00:00",
        "bearing": 2.7,
        "range": 12000.0,
        "sensor_name": "Plain",
        "label": "Cookie SUBJECT held on Plain Cookie"
      }
    },
    {
      "type": "Feature",
      "id": "6b98df43-29c8-46b1-905c-7b23fb101a14",
      "geometry": null,
      "properties": {
        "kind": "SENSOR_CONTACT",
        "parent_track": "OWNSHIP",
        "time": "2010-01-12T12:17:44+00:00",
        "bearing": 3.8,
        "range": 12000.0,
        "sensor_name": "Plain",
        "label": "Cookie SUBJECT held on Plain Cookie"
      }
    },
    {
      "type": "Feature",
      "id": "f08d19bf-9477-4bff-b59d-a3f57bb51ab8",
      "geometry": null,
      "properties": {
        "kind": "SENSOR_CONTACT",
        "parent_track": "OWNSHIP",
        "time": "2010-01-12T12:19:14+00:00",
        "bearing": 3.4,
        "range": 12000.0,
        "sensor_name": "Plain",
        "label": "Cookie SUBJECT held on Plain Cookie"
      }
    },
    {
      "type": "Feature",
      "id": "ead05bc9-f369-4af6-8d40-164b3f18f0f6",
      "geometry": null,
      "properties": {
        "kind": "SENSOR_CONTACT",
        "parent_track": "OWNSHIP",
        "time": "2010-01-12T12:21:59+00:00",
        "bearing": -2.6,
        "range": 12000.0,
        "sensor_name": "Plain",
        "label": "Cookie SUBJECT held on Plain Cookie"
      }
    },
    {
      "type": "Feature",
      "id": "a70a22d2-25d3-4b9e-8fd7-b1fa6586eeb8",
      "geometry": null,
      "properties": {
        "kind": "SENSOR_CONTACT",
        "parent_track": "OWNSHIP",
        "time": "2010-01-12T12:23:29+00:00",
        "bearing": -6.8,
        "range": 12000.0,
        "sensor_name": "Plain",
        "label": "Cookie SUBJECT held on Plain Cookie"
      }
    },
    {
      "type": "Feature",
      "id": "bdc69156-a0dd-4ae4-aad3-0621179c2a00",
      "geometry": null,
      "properties": {
        "kind": "SENSOR_CONTACT",
        "parent_track": "OWNSHIP",
        "time": "2010-01-12T12:24:59+00:00",
        "bearing": -11.9,
        "range": 12000.0,
        "sensor_name": "Plain",
        "label": "Cookie SUBJECT held on Plain Cookie"
      }
    },
    {
      "type": "Feature",
      "id": "24b2aaf9-21dd-48fb-9771-8641dcdb3828",
      "geometry": null,
      "properties": {
        "kind": "SENSOR_CONTACT",
        "parent_track": "OWNSHIP",
        "time": "2010-01-12T12:26:29+00:00",
        "bearing": -18.1,
        "range": 12000.0,
        "sensor_name": "Plain",
        "label": "Cookie SUBJECT held on Plain Cookie"
      }
    },
    {
      "type": "Feature",
      "id": "a765519e-84d6-4f54-968a-794a3b6703e1",
      "geometry": null,
      "properties": {
        "kind": "SENSOR_CONTACT",
        "parent_track": "OWNSHIP",
        "time": "2010-01-12T12:28:14+00:00",
        "bearing": -26.9,
        "range": 12000.0,
        "sensor_name": "Plain",
        "label": "Cookie SUBJECT held on Plain Cookie"
      }
    },
    {
      "type": "Feature",
      "id": "3c675952-80e2-4fd6-a476-62ad15089083",
      "geometry": null,
      "properties": {
        "kind": "SENSOR_CONTACT",
        "parent_track": "OWNSHIP",
        "time": "2010-01-12T12:29:59+00:00",
        "bearing": -34.2,
        "range": 12000.0,
        "sensor_name": "Plain",
        "label": "Cookie SUBJECT held on Plain Cookie"
      }
    }
  ]
}