{
  "type": "FeatureCollection",
  "features": [
    {
      "type": "Feature",
      "id": "1b241b9c-d1f6-478a-ba2d-a4013396eb5f",
      "geometry": null,
      "properties": {
        "kind": "SENSOR_CONTACT",
        "parent_track": "OWNSHIP",
        "time": "2010-01-12T12:13:14+00:00",
        "bearing": 2.4,
        "range": 12000.0,
        "sensor_name": "Plain",
        "label": "Cookie SUBJECT held on Plain Cookie"
      }
    },
    {
      "type": "Feature",
      "id": "38776129-c1a1-425d-815c-e66a68991344",
      "geometry": null,
      "properties": {
        "kind": "SENSOR_CONTACT",
        "parent_track": "OWNSHIP",
        "time": "2010-01-12T12:14:44+00:00",
        "bearing": 1.6,
        "range": 12000.0,
        "sensor_name": "Plain",
        "label": "Cookie SUBJECT held on Plain Cookie"
      }
    },
    {
      "type": "Feature",
      "id": "6f4cb67a-f57c-40a6-afb5-01229fca1020",
      "geometry": null,
      "properties": {
        "kind": "SENSOR_CONTACT",
        "parent_track": "OWNSHIP",
        "time": "2010-01-12T12:16:14+00:00",
        "bearing": 2.7,
        "range": 12000.0,
        "sensor_name": "Plain",
        "label": "Cookie SUBJECT held on Plain Cookie"
      }
    },
    {
      "type": "Feature",
      "id": "4a1f7e21-dd8e-4916-b624-4bc8cef06bc9",
      "geometry": null,
      "properties": {
        "kind": "SENSOR_CONTACT",
        "parent_track": "OWNSHIP",
        "time": "2010-01-12T12:17:44+00:00",
        "bearing": 3.8,
        "range": 12000.0,
        "sensor_name": "Plain",
        "label": "Cookie SUBJECT held on Plain Cookie"
      }
    },
    {
      "type": "Feature",
      "id": "e7447d8f-485a-4aa8-b730-47a5e3590b4f",
      "geometry": null,
      "properties": {
        "kind": "SENSOR_CONTACT",
        "parent_track": "OWNSHIP",
        "time": "2010-01-12T12:19:14+00:00",
        "bearing": 3.4,
        "range": 12000.0,
        "sensor_name": "Plain",
        "label": "Cookie SUBJECT held on Plain Cookie"
      }
    },
    {
      "type": "Feature",
      "id": "9fffebfb-9021-4d70-96f6-71e3bc55008d",
      "geometry": null,
      "properties": {
        "kind": "SENSOR_CONTACT",
        "parent_track": "OWNSHIP",
        "time": "2010-01-12T12:21:59+00:00",
        "bearing": -2.6,
        "range": 12000.0,
        "sensor_name": "Plain",
        "label": "Cookie SUBJECT held on Plain Cookie"
      }
    },
    {
      "type": "Feature",
      "id": "d5218d01-3c6d-4be0-a3e1-f4925bf59c4f",
      "geometry": null,
      "properties": {
        "kind": "SENSOR_CONTACT",
        "parent_track": "OWNSHIP",
        "time": "2010-01-12T12:23:29+00:00",
        "bearing": -6.8,
        "range": 12000.0,
        "sensor_name": "Plain",
        "label": "Cookie SUBJECT held on Plain Cookie"
      }
    },
    {
      "type": "Feature",
      "id": "9a636baf-ab77-440b-ae15-b41559d0f8d6",
      "geometry": null,
      "properties": {
        "kind": "SENSOR_CONTACT",
        "parent_track": "OWNSHIP",
        "time": "2010-01-12T12:24:59+00:00",
        "bearing": -11.9,
        "range": 12000.0,
        "sensor_name": "Plain",
        "label": "Cookie SUBJECT held on Plain Cookie"
      }
    },
    {
      "type": "Feature",
      "id": "1b363028-6da9-473b-81c7-f8a9e52207f5",
      "geometry": null,
      "properties": {
        "kind": "SENSOR_CONTACT",
        "parent_track": "OWNSHIP",
        "time": "2010-01-12T12:26:29+00:00",
        "bearing": -18.1,
        "range": 12000.0,
        "sensor_name": "Plain",
        "label": "Cookie SUBJECT held on Plain Cookie"
      }
    },
    {
      "type": "Feature",
      "id": "a72f6d17-fc1e-4b0f-a5e5-1f2356deb9bf",
      "geometry": null,
      "properties": {
        "kind": "SENSOR_CONTACT",
        "parent_track": "OWNSHIP",
        "time": "2010-01-12T12:28:14+00:00",
        "bearing": -26.9,
        "range": 12000.0,
        "sensor_name": "Plain",
        "label": "Cookie SUBJECT held on Plain Cookie"
      }
    },
    {
      "type": "Feature",
      "id": "11a81654-24fc-4680-9031-4a0750fe68d4",
      "geometry": null,
      "properties": {
        "kind": "SENSOR_CONTACT",
        "parent_track": "OWNSHIP",
        "time": "2010-01-12T12:29:59+00:00",
        "bearing": -34.2,
        "range": 12000.0,
        "sensor_name": "Plain",
        "label": "Cookie SUBJECT held on Plain Cookie"
      }
    }
  ]
}