{
  "type": "FeatureCollection",
  "features": [
    {
      "type": "Feature",
      "id": "e4cf3d20-5011-4ced-a6ac-0ee0e8d19bd8",
      "geometry": {
        "type": "LineString",
        "coordinates": [
          [
            -21.697880555555557,
            22.186286111111112
          ],
          [
            -21.70082777777778,
            22.18627222222222
          ],
          [
            -21.704113888888887,
            22.186252777777778
          ],
          [
            -21.707575,
            22.186252777777778
          ],
          [
            -21.71120277777778,
            22.18618888888889
          ],
          [
            -21.71485277777778,
            22.186219444444443
          ],
          [
            -21.718552777777777,
            22.186183333333332
          ],
          [
            -21.722316666666664,
            22.186133333333334
          ],
          [
            -21.72602222222222,
            22.18616111111111
          ],
          [
            -21.729794444444444,
            22.18616388888889
          ],
          [
            -21.733575000000002,
            22.186097222222223
          ],
          [
            -21.737291666666668,
            22.186194444444446
          ],
          [
            -21.741005555555557,
            22.18615
          ],
          [
            -21.74423888888889,
            22.18515
          ],
          [
            -21.747408333333333,
            22.183966666666667
          ],
          [
            -21.75065,
            22.182797222222224
          ],
          [
            -21.753944444444443,
            22.18153888888889
          ],
          [
            -21.75718611111111,
            22.180244444444444
          ],
          [
            -21.760447222222222,
            22.178955555555557
          ],
          [
            -21.763755555555555,
            22.177697222222225
          ],
          [
            -21.767005555555556,
            22.1764
          ],
          [
            -21.770338888888887,
            22.17513611111111
          ],
          [
            -21.77361388888889,
            22.173855555555555
          ],
          [
            -21.776916666666665,
            22.17255
          ],
          [
            -21.780194444444444,
            22.171269444444444
          ],
          [
            -21.783458333333336,
            22.169961111111114
          ],
          [
            -21.786744444444444,
            22.168647222222223
          ],
          [
            -21.790011111111113,
            22.167380555555557
          ],
          [
            -21.793311111111112,
            22.166094444444443
          ],
          [
            -21.796572222222224,
            22.164830555555554
          ],
          [
            -21.79982777777778,
            22.163519444444443
          ],
          [
            -21.803130555555555,
            22.16224722222222
          ],
          [
            -21.806405555555557,
            22.160969444444444
          ],
          [
            -21.809672222222222,
            22.15968611111111
          ],
          [
            -21.81297222222222,
            22.158405555555554
          ],
          [
            -21.816247222222223,
            22.157105555555553
          ],
          [
            -21.819522222222222,
            22.155808333333333
          ],
          [
            -21.822780555555557,
            22.15453611111111
          ],
          [
            -21.82605,
            22.153252777777777
          ],
          [
            -21.82934722222222,
            22.151944444444442
          ],
          [
            -21.83261111111111,
            22.150627777777775
          ],
          [
            -21.835963888888887,
            22.149330555555554
          ],
          [
            -21.839227777777776,
            22.148033333333334
          ],
          [
            -21.84248611111111,
            22.146727777777777
          ],
          [
            -21.84579722222222,
            22.145458333333334
          ],
          [
            -21.849080555555556,
            22.144163888888887
          ],
          [
            -21.85236666666667,
            22.142883333333334
          ],
          [
            -21.855630555555557,
            22.141608333333334
          ],
          [
            -21.85888888888889,
            22.140349999999998
          ],
          [
            -21.862180555555558,
            22.139052777777778
          ],
          [
            -21.865166666666667,
            22.13757777777778
          ],
          [
            -21.865658333333336,
            22.135341666666665
          ],
          [
            -21.86573888888889,
            22.13295
          ],
          [
            -21.865797222222223,
            22.130477777777777
          ],
          [
            -21.86581388888889,
            22.127980555555556
          ],
          [
            -21.865875000000003,
            22.125416666666666
          ],
          [
            -21.865861111111112,
            22.122841666666666
          ],
          [
            -21.86590277777778,
            22.120255555555556
          ],
          [
            -21.8659,
            22.117691666666666
          ],
          [
            -21.86593888888889,
            22.11508611111111
          ],
          [
            -21.865972222222222,
            22.112505555555558
          ],
          [
            -21.86595555555556,
            22.109919444444447
          ],
          [
            -21.865983333333336,
            22.107330555555556
          ],
          [
            -21.865972222222222,
            22.10476388888889
          ],
          [
            -21.866019444444447,
            22.102169444444446
          ],
          [
            -21.86605,
            22.099602777777775
          ],
          [
            -21.866080555555556,
            22.09700833333333
          ],
          [
            -21.864911111111113,
            22.094702777777776
          ],
          [
            -21.863147222222224,
            22.092530555555555
          ],
          [
            -21.861283333333336,
            22.09033611111111
          ],
          [
            -21.85945277777778,
            22.08812222222222
          ],
          [
            -21.857561111111114,
            22.085891666666665
          ],
          [
            -21.855700000000002,
            22.08363611111111
          ],
          [
            -21.853816666666667,
            22.08141388888889
          ],
          [
            -21.85196666666667,
            22.07918611111111
          ],
          [
            -21.850072222222224,
            22.076952777777777
          ],
          [
            -21.84821111111111,
            22.074744444444445
          ],
          [
            -21.84628888888889,
            22.07251388888889
          ],
          [
            -21.844391666666667,
            22.0703
          ],
          [
            -21.842552777777776,
            22.068069444444443
          ],
          [
            -21.840688888888888,
            22.065841666666667
          ],
          [
            -21.838819444444443,
            22.063591666666667
          ],
          [
            -21.83695833333333,
            22.061355555555558
          ],
          [
            -21.835063888888886,
            22.059097222222224
          ],
          [
            -21.83317222222222,
            22.05686111111111
          ],
          [
            -21.831280555555555,
            22.054602777777777
          ],
          [
            -21.82938888888889,
            22.05238611111111
          ],
          [
            -21.828488888888888,
            22.050044444444445
          ],
          [
            -21.829580555555555,
            22.047808333333336
          ],
          [
            -21.830797222222223,
            22.045494444444447
          ],
          [
            -21.832083333333333,
            22.043158333333334
          ],
          [
            -21.833347222222223,
            22.04077777777778
          ],
          [
            -21.83465,
            22.038386111111112
          ],
          [
            -21.835952777777777,
            22.03598888888889
          ],
          [
            -21.837249999999997,
            22.033583333333336
          ],
          [
            -21.838569444444442,
            22.03118611111111
          ],
          [
            -21.8399,
            22.028780555555553
          ],
          [
            -21.841224999999998,
            22.02634722222222
          ],
          [
            -21.84248611111111,
            22.023930555555555
          ],
          [
            -21.84383611111111,
            22.02152222222222
          ],
          [
            -21.84513611111111,
            22.019122222222222
          ],
          [
            -21.846433333333334,
            22.016719444444444
          ],
          [
            -21.847766666666665,
            22.014316666666666
          ],
          [
            -21.84904722222222,
            22.011902777777777
          ],
          [
            -21.850383333333333,
            22.009483333333332
          ],
          [
            -21.851669444444447,
            22.007083333333334
          ],
          [
            -21.852961111111114,
            22.00467777777778
          ],
          [
            -21.854280555555558,
            22.00226111111111
          ],
          [
            -21.855583333333335,
            21.999858333333336
          ],
          [
            -21.856886111111113,
            21.997452777777777
          ],
          [
            -21.85818888888889,
            21.995044444444446
          ],
          [
            -21.85945277777778,
            21.992619444444447
          ],
          [
            -21.858705555555556,
            21.990375
          ],
          [
            -21.85677777777778,
            21.988347222222224
          ],
          [
            -21.85474166666667,
            21.986316666666667
          ],
          [
            -21.85266388888889,
            21.98423888888889
          ],
          [
            -21.85053611111111,
            21.982166666666664
          ],
          [
            -21.848416666666665,
            21.98001111111111
          ],
          [
            -21.84628888888889,
            21.97788333333333
          ],
          [
            -21.844113888888888,
            21.975777777777775
          ],
          [
            -21.841966666666664,
            21.97367222222222
          ],
          [
            -21.839830555555555,
            21.971538888888887
          ],
          [
            -21.837663888888887,
            21.96941111111111
          ],
          [
            -21.835538888888887,
            21.967291666666664
          ],
          [
            -21.833413888888888,
            21.965202777777776
          ],
          [
            -21.831255555555554,
            21.96306111111111
          ],
          [
            -21.829113888888887,
            21.96095
          ],
          [
            -21.82696111111111,
            21.95883611111111
          ],
          [
            -21.824791666666666,
            21.956699999999998
          ],
          [
            -21.824969444444445,
            21.95453611111111
          ],
          [
            -21.82766388888889,
            21.954072222222223
          ],
          [
            -21.830480555555557,
            21.954780555555555
          ],
          [
            -21.83357222222222,
            21.955555555555556
          ],
          [
            -21.83683333333333,
            21.956377777777778
          ],
          [
            -21.840233333333334,
            21.957213888888887
          ],
          [
            -21.842330555555556,
            21.958855555555555
          ],
          [
            -21.840852777777776,
            21.960391666666666
          ],
          [
            -21.838491666666666,
            21.961705555555554
          ],
          [
            -21.83591388888889,
            21.963158333333332
          ],
          [
            -21.83322777777778,
            21.964716666666664
          ],
          [
            -21.830430555555555,
            21.966308333333334
          ],
          [
            -21.827627777777778,
            21.967930555555554
          ],
          [
            -21.824783333333333,
            21.969575
          ],
          [
            -21.82191388888889,
            21.9712
          ],
          [
            -21.81904722222222,
            21.972838888888887
          ],
          [
            -21.816119444444446,
            21.974505555555552
          ],
          [
            -21.813244444444447,
            21.97617222222222
          ],
          [
            -21.81033888888889,
            21.977816666666666
          ],
          [
            -21.807405555555555,
            21.97945833333333
          ],
          [
            -21.80452777777778,
            21.981125
          ],
          [
            -21.801616666666668,
            21.982763888888886
          ],
          [
            -21.79876666666667,
            21.984408333333334
          ],
          [
            -21.795869444444445,
            21.98605277777778
          ],
          [
            -21.792722222222224,
            21.98691666666667
          ],
          [
            -21.790144444444447,
            21.985669444444447
          ],
          [
            -21.78756388888889,
            21.9842
          ],
          [
            -21.784869444444446,
            21.982616666666665
          ],
          [
            -21.782075,
            21.981052777777776
          ],
          [
            -21.77925833333333,
            21.979416666666665
          ],
          [
            -21.776438888888887,
            21.977755555555554
          ],
          [
            -21.773574999999997,
            21.976094444444442
          ],
          [
            -21.770766666666667,
            21.97443333333333
          ],
          [
            -21.767875,
            21.972805555555553
          ],
          [
            -21.765033333333335,
            21.97116111111111
          ],
          [
            -21.762158333333332,
            21.969502777777777
          ],
          [
            -21.759275,
            21.96786111111111
          ],
          [
            -21.75643611111111,
            21.966155555555556
          ],
          [
            -21.753569444444445,
            21.96449722222222
          ],
          [
            -21.75067222222222,
            21.96283611111111
          ],
          [
            -21.747794444444445,
            21.961180555555554
          ],
          [
            -21.744922222222222,
            21.9595
          ],
          [
            -21.742105555555558,
            21.95784722222222
          ],
          [
            -21.73923611111111,
            21.95618888888889
          ],
          [
            -21.7364,
            21.954505555555556
          ],
          [
            -21.73346111111111,
            21.952861111111112
          ],
          [
            -21.73058611111111,
            21.951180555555556
          ],
          [
            -21.727713888888886,
            21.94953611111111
          ],
          [
            -21.72481111111111,
            21.94785277777778
          ],
          [
            -21.721630555555553,
            21.947094444444446
          ],
          [
            -21.718474999999998,
            21.94781111111111
          ],
          [
            -21.715169444444445,
            21.948627777777777
          ],
          [
            -21.711758333333332,
            21.949447222222222
          ],
          [
            -21.708258333333333,
            21.95031388888889
          ],
          [
            -21.704719444444443,
            21.951180555555556
          ],
          [
            -21.70116388888889,
            21.952033333333333
          ],
          [
            -21.697605555555555,
            21.952949999999998
          ],
          [
            -21.694058333333334,
            21.953819444444445
          ],
          [
            -21.69048611111111,
            21.95468888888889
          ],
          [
            -21.68691111111111,
            21.955580555555557
          ],
          [
            -21.683363888888888,
            21.956452777777777
          ],
          [
            -21.679797222222223,
            21.957325
          ],
          [
            -21.676269444444447,
            21.95819722222222
          ],
          [
            -21.672747222222224,
            21.9591
          ],
          [
            -21.669172222222223,
            21.959958333333333
          ],
          [
            -21.665625,
            21.960841666666667
          ],
          [
            -21.66204722222222,
            21.96172222222222
          ],
          [
            -21.65850833333333,
            21.962588888888888
          ],
          [
            -21.65494722222222,
            21.963438888888888
          ],
          [
            -21.651416666666666,
            21.96433611111111
          ],
          [
            -21.647877777777776,
            21.965244444444444
          ],
          [
            -21.644313888888888,
            21.96616111111111
          ],
          [
            -21.64078333333333,
            21.96701111111111
          ],
          [
            -21.637255555555555,
            21.96721388888889
          ],
          [
            -21.634291666666666,
            21.966044444444442
          ],
          [
            -21.631258333333335,
            21.964791666666667
          ],
          [
            -21.628075,
            21.963555555555555
          ],
          [
            -21.624886111111113,
            21.962269444444445
          ],
          [
            -21.621619444444445,
            21.960955555555554
          ],
          [
            -21.61838888888889,
            21.95969722222222
          ],
          [
            -21.615008333333336,
            21.958655555555556
          ],
          [
            -21.611416666666667,
            21.958777777777776
          ],
          [
            -21.607750000000003,
            21.95898888888889
          ],
          [
            -21.604075,
            21.95921388888889
          ],
          [
            -21.600344444444445,
            21.959438888888887
          ],
          [
            -21.59663611111111,
            21.959658333333334
          ],
          [
            -21.592916666666664,
            21.959888888888887
          ],
          [
            -21.58917222222222,
            21.960091666666667
          ],
          [
            -21.58545833333333,
            21.9603
          ],
          [
            -21.581702777777778,
            21.96053611111111
          ],
          [
            -21.57978333333333,
            21.962033333333334
          ],
          [
            -21.581152777777778,
            21.963619444444443
          ],
          [
            -21.58372222222222,
            21.964619444444445
          ],
          [
            -21.586552777777776,
            21.965752777777777
          ],
          [
            -21.589552777777776,
            21.966944444444444
          ],
          [
            -21.592633333333332,
            21.968205555555553
          ],
          [
            -21.595747222222222,
            21.969455555555555
          ],
          [
            -21.59896388888889,
            21.970724999999998
          ],
          [
            -21.602172222222222,
            21.97199722222222
          ],
          [
            -21.605397222222223,
            21.973280555555554
          ],
          [
            -21.608675,
            21.97458611111111
          ],
          [
            -21.611922222222223,
            21.9759
          ],
          [
            -21.615136111111113,
            21.977172222222222
          ],
          [
            -21.618425000000002,
            21.978491666666667
          ],
          [
            -21.621683333333333,
            21.97978611111111
          ],
          [
            -21.624938888888888,
            21.98108333333333
          ],
          [
            -21.628161111111112,
            21.98237222222222
          ],
          [
            -21.631383333333332,
            21.983652777777777
          ],
          [
            -21.634674999999998,
            21.98496111111111
          ],
          [
            -21.63800277777778,
            21.98624166666667
          ],
          [
            -21.64126388888889,
            21.987502777777777
          ],
          [
            -21.64453333333333,
            21.988802777777778
          ],
          [
            -21.64737222222222,
            21.990366666666667
          ],
          [
            -21.648494444444445,
            21.992622222222224
          ],
          [
            -21.64965,
            21.994944444444446
          ],
          [
            -21.65084444444444,
            21.99730277777778
          ],
          [
            -21.652052777777776,
            21.999686111111114
          ],
          [
            -21.65331111111111,
            22.00210277777778
          ],
          [
            -21.654577777777778,
            22.00453611111111
          ],
          [
            -21.65585833333333,
            22.006958333333333
          ],
          [
            -21.657169444444442,
            22.00936111111111
          ],
          [
            -21.65843611111111,
            22.011791666666667
          ],
          [
            -21.65969722222222,
            22.014205555555556
          ],
          [
            -21.66076111111111,
            22.016677777777776
          ],
          [
            -21.659563888888886,
            22.018922222222223
          ],
          [
            -21.656769444444443,
            22.020297222222222
          ],
          [
            -21.653855555555555,
            22.02168611111111
          ],
          [
            -21.65072222222222,
            22.022975
          ],
          [
            -21.647547222222222,
            22.024258333333332
          ],
          [
            -21.64429722222222,
            22.025516666666665
          ],
          [
            -21.641063888888887,
            22.026822222222222
          ],
          [
            -21.637791666666665,
            22.02811111111111
          ],
          [
            -21.63454722222222,
            22.02938888888889
          ],
          [
            -21.631280555555556,
            22.030691666666666
          ],
          [
            -21.627991666666667,
            22.031977777777776
          ],
          [
            -21.624713888888888,
            22.03325
          ],
          [
            -21.621436111111112,
            22.034561111111113
          ],
          [
            -21.619788888888888,
            22.036511111111114
          ],
          [
            -21.62166388888889,
            22.037986111111113
          ],
          [
            -21.62441388888889,
            22.039069444444447
          ],
          [
            -21.627377777777777,
            22.040233333333337
          ],
          [
            -21.630477777777777,
            22.04145
          ],
          [
            -21.63363888888889,
            22.042719444444447
          ],
          [
            -21.636824999999998,
            22.043991666666667
          ],
          [
            -21.64005277777778,
            22.045247222222223
          ],
          [
            -21.643275,
            22.046536111111113
          ],
          [
            -21.64651388888889,
            22.047822222222223
          ],
          [
            -21.64981388888889,
            22.049111111111113
          ],
          [
            -21.653074999999998,
            22.05040277777778
          ],
          [
            -21.656338888888886,
            22.0517
          ],
          [
            -21.659599999999998,
            22.052975
          ],
          [
            -21.662869444444443,
            22.05426388888889
          ],
          [
            -21.666158333333332,
            22.05556111111111
          ],
          [
            -21.66939166666667,
            22.056841666666667
          ],
          [
            -21.67265,
            22.058119444444444
          ],
          [
            -21.67588055555556,
            22.05941388888889
          ],
          [
            -21.67915,
            22.060694444444444
          ],
          [
            -21.68238888888889,
            22.06198611111111
          ],
          [
            -21.685655555555556,
            22.063275
          ],
          [
            -21.68906388888889,
            22.06423888888889
          ],
          [
            -21.692716666666666,
            22.06428888888889
          ],
          [
            -21.696105555555555,
            22.064719444444446
          ],
          [
            -21.697555555555557,
            22.06664166666667
          ],
          [
            -21.698697222222222,
            22.068844444444444
          ],
          [
            -21.699908333333333,
            22.071133333333332
          ],
          [
            -21.70116388888889,
            22.073466666666665
          ],
          [
            -21.702416666666664,
            22.075866666666666
          ],
          [
            -21.703733333333332,
            22.07826111111111
          ],
          [
            -21.705019444444442,
            22.080683333333333
          ],
          [
            -21.706308333333332,
            22.083111111111112
          ],
          [
            -21.707544444444444,
            22.085530555555554
          ],
          [
            -21.708861111111112,
            22.08793888888889
          ],
          [
            -21.71013333333333,
            22.090349999999997
          ],
          [
            -21.711402777777778,
            22.092780555555553
          ],
          [
            -21.712688888888888,
            22.095191666666665
          ],
          [
            -21.713938888888887,
            22.097624999999997
          ],
          [
            -21.7152,
            22.100033333333336
          ],
          [
            -21.716497222222223,
            22.102469444444445
          ],
          [
            -21.71778611111111,
            22.104908333333334
          ],
          [
            -21.71904722222222,
            22.107322222222223
          ],
          [
            -21.72030833333333,
            22.109761111111112
          ],
          [
            -21.721577777777775,
            22.112197222222225
          ],
          [
            -21.724130555555554,
            22.11360555555556
          ],
          [
            -21.727413888888886,
            22.113991666666667
          ],
          [
            -21.730902777777775,
            22.11443611111111
          ],
          [
            -21.73443888888889,
            22.114872222222225
          ],
          [
            -21.738058333333335,
            22.115305555555558
          ],
          [
            -21.741747222222223,
            22.115791666666667
          ],
          [
            -21.74545,
            22.116233333333334
          ],
          [
            -21.749169444444444,
            22.116705555555555
          ],
          [
            -21.752919444444444,
            22.117127777777778
          ],
          [
            -21.756633333333333,
            22.117569444444445
          ],
          [
            -21.76035,
            22.11803888888889
          ],
          [
            -21.764069444444445,
            22.118458333333333
          ],
          [
            -21.767827777777775,
            22.118927777777778
          ],
          [
            -21.771577777777775,
            22.11940277777778
          ],
          [
            -21.775330555555556,
            22.11986111111111
          ],
          [
            -21.77905277777778,
            22.120297222222224
          ],
          [
            -21.782777777777778,
            22.120769444444445
          ],
          [
            -21.7865,
            22.12122777777778
          ],
          [
            -21.790222222222223,
            22.121691666666667
          ],
          [
            -21.793791666666667,
            22.122383333333335
          ],
          [
            -21.79446111111111,
            22.12431388888889
          ],
          [
            -21.7923,
            22.12548888888889
          ],
          [
            -21.789572222222223,
            22.126555555555555
          ],
          [
            -21.786597222222223,
            22.127716666666668
          ],
          [
            -21.783525,
            22.12890277777778
          ],
          [
            -21.78011111111111,
            22.129280555555557
          ],
          [
            -21.777344444444445,
            22.127994444444443
          ],
          [
            -21.77588611111111,
            22.12626388888889
          ],
          [
            -21.77463611111111,
            22.124783333333333
          ],
          [
            -21.773566666666667,
            22.123519444444444
          ],
          [
            -21.7721,
            22.122688888888888
          ],
          [
            -21.77046111111111,
            22.122055555555555
          ],
          [
            -21.768952777777777,
            22.121308333333335
          ],
          [
            -21.76736111111111,
            22.120730555555557
          ],
          [
            -21.765733333333333,
            22.120997222222222
          ],
          [
            -21.76516388888889,
            22.121925
          ],
          [
            -21.765847222222224,
            22.12273888888889
          ],
          [
            -21.76717777777778,
            22.122944444444446
          ],
          [
            -21.768625,
            22.122611111111112
          ],
          [
            -21.769816666666667,
            22.121941666666668
          ],
          [
            -21.76992222222222,
            22.12089166666667
          ],
          [
            -21.768780555555555,
            22.120144444444445
          ],
          [
            -21.767180555555555,
            22.11985277777778
          ],
          [
            -21.765575,
            22.119622222222223
          ],
          [
            -21.764519444444446,
            22.118727777777778
          ],
          [
            -21.76518888888889,
            22.117622222222224
          ],
          [
            -21.76721111111111,
            22.117516666666667
          ],
          [
            -21.76823611111111,
            22.118702777777777
          ],
          [
            -21.76688611111111,
            22.12017777777778
          ],
          [
            -21.764588888888888,
            22.119941666666666
          ],
          [
            -21.763997222222223,
            22.118886111111113
          ],
          [
            -21.763383333333334,
            22.117880555555555
          ],
          [
            -21.762047222222222,
            22.117633333333334
          ],
          [
            -21.760833333333334,
            22.1186
          ],
          [
            -21.760519444444444,
            22.11992777777778
          ],
          [
            -21.7591,
            22.12075
          ],
          [
            -21.757891666666666,
            22.120244444444445
          ],
          [
            -21.757316666666668,
            22.11937222222222
          ],
          [
            -21.756691666666665,
            22.11845277777778
          ],
          [
            -21.75526111111111,
            22.118022222222223
          ],
          [
            -21.75406388888889,
            22.11852222222222
          ],
          [
            -21.752994444444443,
            22.119263888888888
          ],
          [
            -21.75165,
            22.11956111111111
          ],
          [
            -21.750516666666666,
            22.118716666666668
          ],
          [
            -21.75164722222222,
            22.117644444444444
          ],
          [
            -21.753016666666667,
            22.118058333333334
          ],
          [
            -21.753858333333334,
            22.11877777777778
          ],
          [
            -21.754372222222223,
            22.119766666666667
          ],
          [
            -21.75402777777778,
            22.12112777777778
          ],
          [
            -21.752111111111113,
            22.122155555555555
          ],
          [
            -21.749758333333336,
            22.121850000000002
          ],
          [
            -21.748875,
            22.120741666666667
          ],
          [
            -21.748883333333335,
            22.119677777777778
          ],
          [
            -21.748944444444444,
            22.118625
          ],
          [
            -21.74952222222222,
            22.11725277777778
          ],
          [
            -21.751622222222224,
            22.116283333333335
          ],
          [
            -21.754141666666666,
            22.116841666666666
          ],
          [
            -21.75535,
            22.11861111111111
          ],
          [
            -21.756391666666666,
            22.12064722222222
          ],
          [
            -21.75709722222222,
            22.122597222222222
          ],
          [
            -21.75628888888889,
            22.124005555555556
          ],
          [
            -21.755583333333334,
            22.125258333333335
          ],
          [
            -21.754975,
            22.126444444444445
          ],
          [
            -21.7543,
            22.127694444444444
          ],
          [
            -21.75346111111111,
            22.129219444444445
          ],
          [
            -21.75251111111111,
            22.130997222222224
          ],
          [
            -21.75141111111111,
            22.133030555555557
          ],
          [
            -21.750216666666667,
            22.135177777777777
          ],
          [
            -21.749011111111113,
            22.137416666666667
          ],
          [
            -21.74778611111111,
            22.13970833333333
          ],
          [
            -21.746694444444444,
            22.141738888888888
          ]
        ]
      },
      "properties": {
        "kind": "TRACK",
        "platform_id": "NELSON",
        "platform_name": "NELSON",
        "track_type": "CONTACT",
        "start_time": "1995-12-12T05:00:00+00:00",
        "end_time": "1995-12-12T11:41:00+00:00",
        "positions": [
          {
            "time": "1995-12-12T05:00:00+00:00",
            "course": 269.7,
            "speed": 2.0,
            "depth": 0.0
          },
          {
            "time": "1995-12-12T05:01:00+00:00",
            "course": 269.7,
            "speed": 2.0,
            "depth": 0.0
          },
          {
            "time": "1995-12-12T05:02:00+00:00",
            "course": 269.9,
            "speed": 2.0,
            "depth": 0.0
          },
          {
            "time": "1995-12-12T05:03:00+00:00",
            "course": 268.7,
            "speed": 2.0,
            "depth": 0.0
          },
          {
            "time": "1995-12-12T05:04:00+00:00",
            "course": 270.6,
            "speed": 2.0,
            "depth": 0.0
          },
          {
            "time": "1995-12-12T05:05:00+00:00",
            "course": 269.4,
            "speed": 2.0,
            "depth": 0.0
          },
          {
            "time": "1995-12-12T05:06:00+00:00",
            "course": 269.0,
            "speed": 2.0,
            "depth": 0.0
          },
          {
            "time": "1995-12-12T05:07:00+00:00",
            "course": 270.5,
            "speed": 2.0,
            "depth": 0.0
          },
          {
            "time": "1995-12-12T05:08:00+00:00",
            "course": 269.9,
            "speed": 2.0,
            "depth": 0.0
          },
          {
            "time": "1995-12-12T05:09:00+00:00",
            "course": 268.6,
            "speed": 2.0,
            "depth": 0.0
          },
          {
            "time": "1995-12-12T05:10:00+00:00",
            "course": 272.1,
            "speed": 2.0,
            "depth": 0.0
          },
          {
            "time": "1995-12-12T05:11:00+00:00",
            "course": 269.1,
            "speed": 2.0,
            "depth": 0.0
          },
          {
            "time": "1995-12-12T05:12:00+00:00",
            "course": 245.8,
            "speed": 2.0,
            "depth": 0.0
          },
          {
            "time": "1995-12-12T05:13:00+00:00",
            "course": 241.5,
            "speed": 2.0,
            "depth": 0.0
          },
          {
            "time": "1995-12-12T05:14:00+00:00",
            "course": 242.3,
            "speed": 2.0,
            "depth": 0.0
          },
          {
            "time": "1995-12-12T05:15:00+00:00",
            "course": 240.9,
            "speed": 2.0,
            "depth": 0.0
          },
          {
            "time": "1995-12-12T05:16:00+00:00",
            "course": 239.9,
            "speed": 2.0,
            "depth": 0.0
          },
          {
            "time": "1995-12-12T05:17:00+00:00",
            "course": 240.1,
            "speed": 2.0,
            "depth": 0.0
          },
          {
            "time": "1995-12-12T05:18:00+00:00",
            "course": 241.0,
            "speed": 2.0,
            "depth": 0.0
          },
          {
            "time": "1995-12-12T05:19:00+00:00",
            "course": 239.9,
            "speed": 2.0,
            "depth": 0.0
          },
          {
            "time": "1995-12-12T05:20:00+00:00",
            "course": 241.1,
            "speed": 2.0,
            "depth": 0.0
          },
          {
            "time": "1995-12-12T05:21:00+00:00",
            "course": 240.3,
            "speed": 2.0,
            "depth": 0.0
          },
          {
            "time": "1995-12-12T05:22:00+00:00",
            "course": 240.1,
            "speed": 2.0,
            "depth": 0.0
          },
          {
            "time": "1995-12-12T05:23:00+00:00",
            "course": 240.3,
            "speed": 2.0,
            "depth": 0.0
          },
          {
            "time": "1995-12-12T05:24:00+00:00",
            "course": 239.8,
            "speed": 2.0,
            "depth": 0.0
          },
          {
            "time": "1995-12-12T05:25:00+00:00",
            "course": 239.8,
            "speed": 2.0,
            "depth": 0.0
          },
          {
            "time": "1995-12-12T05:26:00+00:00",
            "course": 240.6,
            "speed": 2.0,
            "depth": 0.0
          },
          {
            "time": "1995-12-12T05:27:00+00:00",
            "course": 240.5,
            "speed": 2.0,
            "depth": 0.0
          },
          {
            "time": "1995-12-12T05:28:00+00:00",
            "course": 240.5,
            "speed": 2.0,
            "depth": 0.0
          },
          {
            "time": "1995-12-12T05:29:00+00:00",
            "course": 239.7,
            "speed": 2.0,
            "depth": 0.0
          },
          {
            "time": "1995-12-12T05:30:00+00:00",
            "course": 240.7,
            "speed": 2.0,
            "depth": 0.0
          },
          {
            "time": "1995-12-12T05:31:00+00:00",
            "course": 240.4,
            "speed": 2.0,
            "depth": 0.0
          },
          {
            "time": "1995-12-12T05:32:00+00:00",
            "course": 240.3,
            "speed": 2.0,
            "depth": 0.0
          },
          {
            "time": "1995-12-12T05:33:00+00:00",
            "course": 240.5,
            "speed": 2.0,
            "depth": 0.0
          },
          {
            "time": "1995-12-12T05:34:00+00:00",
            "course": 240.0,
            "speed": 2.0,
            "depth": 0.0
          },
          {
            "time": "1995-12-12T05:35:00+00:00",
            "course": 240.1,
            "speed": 2.0,
            "depth": 0.0
          },
          {
            "time": "1995-12-12T05:36:00+00:00",
            "course": 240.4,
            "speed": 2.0,
            "depth": 0.0
          },
          {
            "time": "1995-12-12T05:37:00+00:00",
            "course": 240.2,
            "speed": 2.0,
            "depth": 0.0
          },
          {
            "time": "1995-12-12T05:38:00+00:00",
            "course": 240.0,
            "speed": 2.0,
            "depth": 0.0
          },
          {
            "time": "1995-12-12T05:39:00+00:00",
            "course": 239.6,
            "speed": 2.0,
            "depth": 0.0
          },
          {
            "time": "1995-12-12T05:40:00+00:00",
            "course": 240.6,
            "speed": 2.0,
            "depth": 0.0
          },
          {
            "time": "1995-12-12T05:41:00+00:00",
            "course": 240.0,
            "speed": 2.0,
            "depth": 0.0
          },
          {
            "time": "1995-12-12T05:42:00+00:00",
            "course": 239.8,
            "speed": 2.0,
            "depth": 0.0
          },
          {
            "time": "1995-12-12T05:43:00+00:00",
            "course": 240.9,
            "speed": 2.0,
            "depth": 0.0
          },
          {
            "time": "1995-12-12T05:44:00+00:00",
            "course": 240.2,
            "speed": 2.0,
            "depth": 0.0
          },
          {
            "time": "1995-12-12T05:45:00+00:00",
            "course": 240.4,
            "speed": 2.0,
            "depth": 0.0
          },
          {
            "time": "1995-12-12T05:46:00+00:00",
            "course": 240.4,
            "speed": 2.0,
            "depth": 0.0
          },
          {
            "time": "1995-12-12T05:47:00+00:00",
            "course": 240.7,
            "speed": 2.0,
            "depth": 0.0
          },
          {
            "time": "1995-12-12T05:48:00+00:00",
            "course": 240.2,
            "speed": 2.0,
            "depth": 0.0
          },
          {
            "time": "1995-12-12T05:49:00+00:00",
            "course": 234.3,
            "speed": 2.0,
            "depth": 0.0
          },
          {
            "time": "1995-12-12T05:50:00+00:00",
            "course": 188.6,
            "speed": 2.0,
            "depth": 0.0
          },
          {
            "time": "1995-12-12T05:51:00+00:00",
            "course": 181.3,
            "speed": 2.0,
            "depth": 0.0
          },
          {
            "time": "1995-12-12T05:52:00+00:00",
            "course": 180.9,
            "speed": 2.0,
            "depth": 0.0
          },
          {
            "time": "1995-12-12T05:53:00+00:00",
            "course": 180.3,
            "speed": 2.0,
            "depth": 0.0
          },
          {
            "time": "1995-12-12T05:54:00+00:00",
            "course": 180.9,
            "speed": 2.0,
            "depth": 0.0
          },
          {
            "time": "1995-12-12T05:55:00+00:00",
            "course": 179.8,
            "speed": 2.0,
            "depth": 0.0
          },
          {
            "time": "1995-12-12T05:56:00+00:00",
            "course": 180.6,
            "speed": 2.0,
            "depth": 0.0
          },
          {
            "time": "1995-12-12T05:57:00+00:00",
            "course": 179.9,
            "speed": 2.0,
            "depth": 0.0
          },
          {
            "time": "1995-12-12T05:58:00+00:00",
            "course": 180.6,
            "speed": 2.0,
            "depth": 0.0
          },
          {
            "time": "1995-12-12T05:59:00+00:00",
            "course": 180.5,
            "speed": 2.0,
            "depth": 0.0
          },
          {
            "time": "1995-12-12T06:00:00+00:00",
            "course": 179.8,
            "speed": 2.0,
            "depth": 0.0
          },
          {
            "time": "1995-12-12T06:01:00+00:00",
            "course": 180.4,
            "speed": 2.0,
            "depth": 0.0
          },
          {
            "time": "1995-12-12T06:02:00+00:00",
            "course": 179.8,
            "speed": 2.0,
            "depth": 0.0
          },
          {
            "time": "1995-12-12T06:03:00+00:00",
            "course": 180.7,
            "speed": 2.0,
            "depth": 0.0
          },
          {
            "time": "1995-12-12T06:04:00+00:00",
            "course": 180.4,
            "speed": 2.0,
            "depth": 0.0
          },
          {
            "time": "1995-12-12T06:05:00+00:00",
            "course": 180.5,
            "speed": 2.0,
            "depth": 0.0
          },
          {
            "time": "1995-12-12T06:06:00+00:00",
            "course": 160.8,
            "speed": 2.0,
            "depth": 0.0
          },
          {
            "time": "1995-12-12T06:07:00+00:00",
            "course": 151.0,
            "speed": 2.0,
            "depth": 0.0
          },
          {
            "time": "1995-12-12T06:08:00+00:00",
            "course": 149.8,
            "speed": 2.0,
            "depth": 0.0
          },
          {
            "time": "1995-12-12T06:09:00+00:00",
            "course": 150.5,
            "speed": 2.0,
            "depth": 0.0
          },
          {
            "time": "1995-12-12T06:10:00+00:00",
            "course": 149.9,
            "speed": 2.0,
            "depth": 0.0
          },
          {
            "time": "1995-12-12T06:11:00+00:00",
            "course": 150.5,
            "speed": 2.0,
            "depth": 0.0
          },
          {
            "time": "1995-12-12T06:12:00+00:00",
            "course": 149.9,
            "speed": 2.0,
            "depth": 0.0
          },
          {
            "time": "1995-12-12T06:13:00+00:00",
            "course": 150.4,
            "speed": 2.0,
            "depth": 0.0
          },
          {
            "time": "1995-12-12T06:14:00+00:00",
            "course": 149.8,
            "speed": 2.0,
            "depth": 0.0
          },
          {
            "time": "1995-12-12T06:15:00+00:00",
            "course": 150.1,
            "speed": 2.0,
            "depth": 0.0
          },
          {
            "time": "1995-12-12T06:16:00+00:00",
            "course": 149.5,
            "speed": 2.0,
            "depth": 0.0
          },
          {
            "time": "1995-12-12T06:17:00+00:00",
            "course": 149.6,
            "speed": 2.0,
            "depth": 0.0
          },
          {
            "time": "1995-12-12T06:18:00+00:00",
            "course": 150.6,
            "speed": 2.0,
            "depth": 0.0
          },
          {
            "time": "1995-12-12T06:19:00+00:00",
            "course": 150.2,
            "speed": 2.0,
            "depth": 0.0
          },
          {
            "time": "1995-12-12T06:20:00+00:00",
            "course": 150.4,
            "speed": 2.0,
            "depth": 0.0
          },
          {
            "time": "1995-12-12T06:21:00+00:00",
            "course": 150.3,
            "speed": 2.0,
            "depth": 0.0
          },
          {
            "time": "1995-12-12T06:22:00+00:00",
            "course": 150.1,
            "speed": 2.0,
            "depth": 0.0
          },
          {
            "time": "1995-12-12T06:23:00+00:00",
            "course": 149.9,
            "speed": 2.0,
            "depth": 0.0
          },
          {
            "time": "1995-12-12T06:24:00+00:00",
            "course": 150.2,
            "speed": 2.0,
            "depth": 0.0
          },
          {
            "time": "1995-12-12T06:25:00+00:00",
            "course": 149.7,
            "speed": 2.0,
            "depth": 0.0
          },
          {
            "time": "1995-12-12T06:26:00+00:00",
            "course": 165.2,
            "speed": 2.0,
            "depth": 0.0
          },
          {
            "time": "1995-12-12T06:27:00+00:00",
            "course": 198.5,
            "speed": 2.0,
            "depth": 0.0
          },
          {
            "time": "1995-12-12T06:28:00+00:00",
            "course": 199.8,
            "speed": 2.0,
            "depth": 0.0
          },
          {
            "time": "1995-12-12T06:29:00+00:00",
            "course": 200.7,
            "speed": 2.0,
            "depth": 0.0
          },
          {
            "time": "1995-12-12T06:30:00+00:00",
            "course": 200.0,
            "speed": 2.0,
            "depth": 0.0
          },
          {
            "time": "1995-12-12T06:31:00+00:00",
            "course": 200.5,
            "speed": 2.0,
            "depth": 0.0
          },
          {
            "time": "1995-12-12T06:32:00+00:00",
            "course": 200.4,
            "speed": 2.0,
            "depth": 0.0
          },
          {
            "time": "1995-12-12T06:33:00+00:00",
            "course": 200.4,
            "speed": 2.0,
            "depth": 0.0
          },
          {
            "time": "1995-12-12T06:34:00+00:00",
            "course": 200.7,
            "speed": 2.0,
            "depth": 0.0
          },
          {
            "time": "1995-12-12T06:35:00+00:00",
            "course": 200.8,
            "speed": 2.0,
            "depth": 0.0
          },
          {
            "time": "1995-12-12T06:36:00+00:00",
            "course": 200.5,
            "speed": 2.0,
            "depth": 0.0
          },
          {
            "time": "1995-12-12T06:37:00+00:00",
            "course": 199.7,
            "speed": 2.0,
            "depth": 0.0
          },
          {
            "time": "1995-12-12T06:38:00+00:00",
            "course": 201.1,
            "speed": 2.0,
            "depth": 0.0
          },
          {
            "time": "1995-12-12T06:39:00+00:00",
            "course": 200.4,
            "speed": 2.0,
            "depth": 0.0
          },
          {
            "time": "1995-12-12T06:40:00+00:00",
            "course": 200.4,
            "speed": 2.0,
            "depth": 0.0
          },
          {
            "time": "1995-12-12T06:41:00+00:00",
            "course": 200.8,
            "speed": 2.0,
            "depth": 0.0
          },
          {
            "time": "1995-12-12T06:42:00+00:00",
            "course": 200.0,
            "speed": 2.0,
            "depth": 0.0
          },
          {
            "time": "1995-12-12T06:43:00+00:00",
            "course": 200.8,
            "speed": 2.0,
            "depth": 0.0
          },
          {
            "time": "1995-12-12T06:44:00+00:00",
            "course": 200.2,
            "speed": 2.0,
            "depth": 0.0
          },
          {
            "time": "1995-12-12T06:45:00+00:00",
            "course": 200.2,
            "speed": 2.0,
            "depth": 0.0
          },
          {
            "time": "1995-12-12T06:46:00+00:00",
            "course": 200.6,
            "speed": 2.0,
            "depth": 0.0
          },
          {
            "time": "1995-12-12T06:47:00+00:00",
            "course": 200.4,
            "speed": 2.0,
            "depth": 0.0
          },
          {
            "time": "1995-12-12T06:48:00+00:00",
            "course": 200.4,
            "speed": 2.0,
            "depth": 0.0
          },
          {
            "time": "1995-12-12T06:49:00+00:00",
            "course": 200.4,
            "speed": 2.0,
            "depth": 0.0
          },
          {
            "time": "1995-12-12T06:50:00+00:00",
            "course": 199.7,
            "speed": 2.0,
            "depth": 0.0
          },
          {
            "time": "1995-12-12T06:51:00+00:00",
            "course": 167.1,
            "speed": 2.0,
            "depth": 0.0
          },
          {
            "time": "1995-12-12T06:52:00+00:00",
            "course": 146.9,
            "speed": 2.0,
            "depth": 0.0
          },
          {
            "time": "1995-12-12T06:53:00+00:00",
            "course": 145.5,
            "speed": 2.0,
            "depth": 0.0
          },
          {
            "time": "1995-12-12T06:54:00+00:00",
            "course": 145.6,
            "speed": 2.0,
            "depth": 0.0
          },
          {
            "time": "1995-12-12T06:55:00+00:00",
            "course": 144.9,
            "speed": 2.0,
            "depth": 0.0
          },
          {
            "time": "1995-12-12T06:56:00+00:00",
            "course": 146.0,
            "speed": 2.0,
            "depth": 0.0
          },
          {
            "time": "1995-12-12T06:57:00+00:00",
            "course": 145.6,
            "speed": 2.0,
            "depth": 0.0
          },
          {
            "time": "1995-12-12T06:58:00+00:00",
            "course": 144.7,
            "speed": 2.0,
            "depth": 0.0
          },
          {
            "time": "1995-12-12T06:59:00+00:00",
            "course": 145.0,
            "speed": 2.0,
            "depth": 0.0
          },
          {
            "time": "1995-12-12T07:00:00+00:00",
            "course": 145.5,
            "speed": 2.0,
            "depth": 0.0
          },
          {
            "time": "1995-12-12T07:01:00+00:00",
            "course": 145.1,
            "speed": 2.0,
            "depth": 0.0
          },
          {
            "time": "1995-12-12T07:02:00+00:00",
            "course": 145.4,
            "speed": 2.0,
            "depth": 0.0
          },
          {
            "time": "1995-12-12T07:03:00+00:00",
            "course": 145.2,
            "speed": 2.0,
            "depth": 0.0
          },
          {
            "time": "1995-12-12T07:04:00+00:00",
            "course": 145.3,
            "speed": 2.0,
            "depth": 0.0
          },
          {
            "time": "1995-12-12T07:05:00+00:00",
            "course": 145.2,
            "speed": 2.0,
            "depth": 0.0
          },
          {
            "time": "1995-12-12T07:06:00+00:00",
            "course": 145.1,
            "speed": 2.0,
            "depth": 0.0
          },
          {
            "time": "1995-12-12T07:07:00+00:00",
            "course": 145.1,
            "speed": 2.0,
            "depth": 0.0
          },
          {
            "time": "1995-12-12T07:08:00+00:00",
            "course": 183.2,
            "speed": 2.0,
            "depth": 0.0
          },
          {
            "time": "1995-12-12T07:09:00+00:00",
            "course": 256.0,
            "speed": 2.0,
            "depth": 0.0
          },
          {
            "time": "1995-12-12T07:10:00+00:00",
            "course": 290.0,
            "speed": 2.0,
            "depth": 0.0
          },
          {
            "time": "1995-12-12T07:11:00+00:00",
            "course": 289.9,
            "speed": 2.0,
            "depth": 0.0
          },
          {
            "time": "1995-12-12T07:12:00+00:00",
            "course": 290.1,
            "speed": 2.0,
            "depth": 0.0
          },
          {
            "time": "1995-12-12T07:13:00+00:00",
            "course": 289.5,
            "speed": 2.0,
            "depth": 0.0
          },
          {
            "time": "1995-12-12T07:14:00+00:00",
            "course": 318.6,
            "speed": 2.0,
            "depth": 0.0
          },
          {
            "time": "1995-12-12T07:15:00+00:00",
            "course": 33.4,
            "speed": 2.0,
            "depth": 0.0
          },
          {
            "time": "1995-12-12T07:16:00+00:00",
            "course": 50.9,
            "speed": 2.0,
            "depth": 0.0
          },
          {
            "time": "1995-12-12T07:17:00+00:00",
            "course": 50.5,
            "speed": 2.0,
            "depth": 0.0
          },
          {
            "time": "1995-12-12T07:18:00+00:00",
            "course": 49.7,
            "speed": 2.0,
            "depth": 0.0
          },
          {
            "time": "1995-12-12T07:19:00+00:00",
            "course": 50.3,
            "speed": 2.0,
            "depth": 0.0
          },
          {
            "time": "1995-12-12T07:20:00+00:00",
            "course": 49.8,
            "speed": 2.0,
            "depth": 0.0
          },
          {
            "time": "1995-12-12T07:21:00+00:00",
            "course": 49.8,
            "speed": 2.0,
            "depth": 0.0
          },
          {
            "time": "1995-12-12T07:22:00+00:00",
            "course": 50.4,
            "speed": 2.0,
            "depth": 0.0
          },
          {
            "time": "1995-12-12T07:23:00+00:00",
            "course": 50.1,
            "speed": 2.0,
            "depth": 0.0
          },
          {
            "time": "1995-12-12T07:24:00+00:00",
            "course": 50.3,
            "speed": 2.0,
            "depth": 0.0
          },
          {
            "time": "1995-12-12T07:25:00+00:00",
            "course": 49.7,
            "speed": 2.0,
            "depth": 0.0
          },
          {
            "time": "1995-12-12T07:26:00+00:00",
            "course": 50.4,
            "speed": 2.0,
            "depth": 0.0
          },
          {
            "time": "1995-12-12T07:27:00+00:00",
            "course": 50.8,
            "speed": 2.0,
            "depth": 0.0
          },
          {
            "time": "1995-12-12T07:28:00+00:00",
            "course": 49.8,
            "speed": 2.0,
            "depth": 0.0
          },
          {
            "time": "1995-12-12T07:29:00+00:00",
            "course": 50.5,
            "speed": 2.0,
            "depth": 0.0
          },
          {
            "time": "1995-12-12T07:30:00+00:00",
            "course": 49.9,
            "speed": 2.0,
            "depth": 0.0
          },
          {
            "time": "1995-12-12T07:31:00+00:00",
            "course": 50.3,
            "speed": 2.0,
            "depth": 0.0
          },
          {
            "time": "1995-12-12T07:32:00+00:00",
            "course": 68.1,
            "speed": 2.0,
            "depth": 0.0
          },
          {
            "time": "1995-12-12T07:33:00+00:00",
            "course": 125.3,
            "speed": 2.0,
            "depth": 0.0
          },
          {
            "time": "1995-12-12T07:34:00+00:00",
            "course": 129.7,
            "speed": 2.0,
            "depth": 0.0
          },
          {
            "time": "1995-12-12T07:35:00+00:00",
            "course": 130.6,
            "speed": 2.0,
            "depth": 0.0
          },
          {
            "time": "1995-12-12T07:36:00+00:00",
            "course": 129.3,
            "speed": 2.0,
            "depth": 0.0
          },
          {
            "time": "1995-12-12T07:37:00+00:00",
            "course": 130.3,
            "speed": 2.0,
            "depth": 0.0
          },
          {
            "time": "1995-12-12T07:38:00+00:00",
            "course": 130.7,
            "speed": 2.0,
            "depth": 0.0
          },
          {
            "time": "1995-12-12T07:39:00+00:00",
            "course": 130.3,
            "speed": 2.0,
            "depth": 0.0
          },
          {
            "time": "1995-12-12T07:40:00+00:00",
            "course": 130.8,
            "speed": 2.0,
            "depth": 0.0
          },
          {
            "time": "1995-12-12T07:41:00+00:00",
            "course": 129.5,
            "speed": 2.0,
            "depth": 0.0
          },
          {
            "time": "1995-12-12T07:42:00+00:00",
            "course": 130.2,
            "speed": 2.0,
            "depth": 0.0
          },
          {
            "time": "1995-12-12T07:43:00+00:00",
            "course": 130.1,
            "speed": 2.0,
            "depth": 0.0
          },
          {
            "time": "1995-12-12T07:44:00+00:00",
            "course": 129.7,
            "speed": 2.0,
            "depth": 0.0
          },
          {
            "time": "1995-12-12T07:45:00+00:00",
            "course": 131.2,
            "speed": 2.0,
            "depth": 0.0
          },
          {
            "time": "1995-12-12T07:46:00+00:00",
            "course": 130.2,
            "speed": 2.0,
            "depth": 0.0
          },
          {
            "time": "1995-12-12T07:47:00+00:00",
            "course": 129.9,
            "speed": 2.0,
            "depth": 0.0
          },
          {
            "time": "1995-12-12T07:48:00+00:00",
            "course": 130.0,
            "speed": 2.0,
            "depth": 0.0
          },
          {
            "time": "1995-12-12T07:49:00+00:00",
            "course": 130.5,
            "speed": 2.0,
            "depth": 0.0
          },
          {
            "time": "1995-12-12T07:50:00+00:00",
            "course": 130.6,
            "speed": 2.0,
            "depth": 0.0
          },
          {
            "time": "1995-12-12T07:51:00+00:00",
            "course": 130.2,
            "speed": 2.0,
            "depth": 0.0
          },
          {
            "time": "1995-12-12T07:52:00+00:00",
            "course": 130.9,
            "speed": 2.0,
            "depth": 0.0
          },
          {
            "time": "1995-12-12T07:53:00+00:00",
            "course": 129.3,
            "speed": 2.0,
            "depth": 0.0
          },
          {
            "time": "1995-12-12T07:54:00+00:00",
            "course": 130.5,
            "speed": 2.0,
            "depth": 0.0
          },
          {
            "time": "1995-12-12T07:55:00+00:00",
            "course": 129.9,
            "speed": 2.0,
            "depth": 0.0
          },
          {
            "time": "1995-12-12T07:56:00+00:00",
            "course": 130.2,
            "speed": 2.0,
            "depth": 0.0
          },
          {
            "time": "1995-12-12T07:57:00+00:00",
            "course": 109.3,
            "speed": 2.0,
            "depth": 0.0
          },
          {
            "time": "1995-12-12T07:58:00+00:00",
            "course": 71.5,
            "speed": 2.0,
            "depth": 0.0
          },
          {
            "time": "1995-12-12T07:59:00+00:00",
            "course": 70.1,
            "speed": 2.0,
            "depth": 0.0
          },
          {
            "time": "1995-12-12T08:00:00+00:00",
            "course": 70.6,
            "speed": 2.0,
            "depth": 0.0
          },
          {
            "time": "1995-12-12T08:01:00+00:00",
            "course": 70.1,
            "speed": 2.0,
            "depth": 0.0
          },
          {
            "time": "1995-12-12T08:02:00+00:00",
            "course": 70.3,
            "speed": 2.0,
            "depth": 0.0
          },
          {
            "time": "1995-12-12T08:03:00+00:00",
            "course": 70.6,
            "speed": 2.0,
            "depth": 0.0
          },
          {
            "time": "1995-12-12T08:04:00+00:00",
            "course": 69.3,
            "speed": 2.0,
            "depth": 0.0
          },
          {
            "time": "1995-12-12T08:05:00+00:00",
            "course": 70.2,
            "speed": 2.0,
            "depth": 0.0
          },
          {
            "time": "1995-12-12T08:06:00+00:00",
            "course": 70.3,
            "speed": 2.0,
            "depth": 0.0
          },
          {
            "time": "1995-12-12T08:07:00+00:00",
            "course": 69.9,
            "speed": 2.0,
            "depth": 0.0
          },
          {
            "time": "1995-12-12T08:08:00+00:00",
            "course": 70.2,
            "speed": 2.0,
            "depth": 0.0
          },
          {
            "time": "1995-12-12T08:09:00+00:00",
            "course": 70.2,
            "speed": 2.0,
            "depth": 0.0
          },
          {
            "time": "1995-12-12T08:10:00+00:00",
            "course": 70.0,
            "speed": 2.0,
            "depth": 0.0
          },
          {
            "time": "1995-12-12T08:11:00+00:00",
            "course": 69.5,
            "speed": 2.0,
            "depth": 0.0
          },
          {
            "time": "1995-12-12T08:12:00+00:00",
            "course": 70.6,
            "speed": 2.0,
            "depth": 0.0
          },
          {
            "time": "1995-12-12T08:13:00+00:00",
            "course": 69.9,
            "speed": 2.0,
            "depth": 0.0
          },
          {
            "time": "1995-12-12T08:14:00+00:00",
            "course": 70.1,
            "speed": 2.0,
            "depth": 0.0
          },
          {
            "time": "1995-12-12T08:15:00+00:00",
            "course": 70.3,
            "speed": 2.0,
            "depth": 0.0
          },
          {
            "time": "1995-12-12T08:16:00+00:00",
            "course": 70.7,
            "speed": 2.0,
            "depth": 0.0
          },
          {
            "time": "1995-12-12T08:17:00+00:00",
            "course": 69.6,
            "speed": 2.0,
            "depth": 0.0
          },
          {
            "time": "1995-12-12T08:18:00+00:00",
            "course": 69.4,
            "speed": 2.0,
            "depth": 0.0
          },
          {
            "time": "1995-12-12T08:19:00+00:00",
            "course": 69.4,
            "speed": 2.0,
            "depth": 0.0
          },
          {
            "time": "1995-12-12T08:20:00+00:00",
            "course": 70.5,
            "speed": 2.0,
            "depth": 0.0
          },
          {
            "time": "1995-12-12T08:21:00+00:00",
            "course": 85.1,
            "speed": 2.0,
            "depth": 0.0
          },
          {
            "time": "1995-12-12T08:22:00+00:00",
            "course": 120.0,
            "speed": 2.0,
            "depth": 0.0
          },
          {
            "time": "1995-12-12T08:23:00+00:00",
            "course": 121.2,
            "speed": 2.0,
            "depth": 0.0
          },
          {
            "time": "1995-12-12T08:24:00+00:00",
            "course": 119.6,
            "speed": 2.0,
            "depth": 0.0
          },
          {
            "time": "1995-12-12T08:25:00+00:00",
            "course": 120.5,
            "speed": 2.0,
            "depth": 0.0
          },
          {
            "time": "1995-12-12T08:26:00+00:00",
            "course": 120.4,
            "speed": 2.0,
            "depth": 0.0
          },
          {
            "time": "1995-12-12T08:27:00+00:00",
            "course": 119.7,
            "speed": 2.0,
            "depth": 0.0
          },
          {
            "time": "1995-12-12T08:28:00+00:00",
            "course": 114.3,
            "speed": 2.0,
            "depth": 0.0
          },
          {
            "time": "1995-12-12T08:29:00+00:00",
            "course": 87.0,
            "speed": 2.0,
            "depth": 0.0
          },
          {
            "time": "1995-12-12T08:30:00+00:00",
            "course": 85.1,
            "speed": 2.0,
            "depth": 0.0
          },
          {
            "time": "1995-12-12T08:31:00+00:00",
            "course": 84.8,
            "speed": 2.0,
            "depth": 0.0
          },
          {
            "time": "1995-12-12T08:32:00+00:00",
            "course": 84.8,
            "speed": 2.0,
            "depth": 0.0
          },
          {
            "time": "1995-12-12T08:33:00+00:00",
            "course": 84.9,
            "speed": 2.0,
            "depth": 0.0
          },
          {
            "time": "1995-12-12T08:34:00+00:00",
            "course": 84.7,
            "speed": 2.0,
            "depth": 0.0
          },
          {
            "time": "1995-12-12T08:35:00+00:00",
            "course": 85.4,
            "speed": 2.0,
            "depth": 0.0
          },
          {
            "time": "1995-12-12T08:36:00+00:00",
            "course": 85.1,
            "speed": 2.0,
            "depth": 0.0
          },
          {
            "time": "1995-12-12T08:37:00+00:00",
            "course": 84.6,
            "speed": 2.0,
            "depth": 0.0
          },
          {
            "time": "1995-12-12T08:38:00+00:00",
            "course": 41.3,
            "speed": 2.0,
            "depth": 0.0
          },
          {
            "time": "1995-12-12T08:39:00+00:00",
            "course": 329.3,
            "speed": 2.0,
            "depth": 0.0
          },
          {
            "time": "1995-12-12T08:40:00+00:00",
            "course": 299.4,
            "speed": 2.0,
            "depth": 0.0
          },
          {
            "time": "1995-12-12T08:41:00+00:00",
            "course": 300.1,
            "speed": 2.0,
            "depth": 0.0
          },
          {
            "time": "1995-12-12T08:42:00+00:00",
            "course": 300.0,
            "speed": 2.0,
            "depth": 0.0
          },
          {
            "time": "1995-12-12T08:43:00+00:00",
            "course": 300.6,
            "speed": 2.0,
            "depth": 0.0
          },
          {
            "time": "1995-12-12T08:44:00+00:00",
            "course": 300.2,
            "speed": 2.0,
            "depth": 0.0
          },
          {
            "time": "1995-12-12T08:45:00+00:00",
            "course": 299.8,
            "speed": 2.0,
            "depth": 0.0
          },
          {
            "time": "1995-12-12T08:46:00+00:00",
            "course": 299.9,
            "speed": 2.0,
            "depth": 0.0
          },
          {
            "time": "1995-12-12T08:47:00+00:00",
            "course": 300.0,
            "speed": 2.0,
            "depth": 0.0
          },
          {
            "time": "1995-12-12T08:48:00+00:00",
            "course": 300.0,
            "speed": 2.0,
            "depth": 0.0
          },
          {
            "time": "1995-12-12T08:49:00+00:00",
            "course": 300.4,
            "speed": 2.0,
            "depth": 0.0
          },
          {
            "time": "1995-12-12T08:50:00+00:00",
            "course": 299.9,
            "speed": 2.0,
            "depth": 0.0
          },
          {
            "time": "1995-12-12T08:51:00+00:00",
            "course": 300.2,
            "speed": 2.0,
            "depth": 0.0
          },
          {
            "time": "1995-12-12T08:52:00+00:00",
            "course": 299.9,
            "speed": 2.0,
            "depth": 0.0
          },
          {
            "time": "1995-12-12T08:53:00+00:00",
            "course": 300.0,
            "speed": 2.0,
            "depth": 0.0
          },
          {
            "time": "1995-12-12T08:54:00+00:00",
            "course": 300.1,
            "speed": 2.0,
            "depth": 0.0
          },
          {
            "time": "1995-12-12T08:55:00+00:00",
            "course": 300.0,
            "speed": 2.0,
            "depth": 0.0
          },
          {
            "time": "1995-12-12T08:56:00+00:00",
            "course": 300.0,
            "speed": 2.0,
            "depth": 0.0
          },
          {
            "time": "1995-12-12T08:57:00+00:00",
            "course": 299.1,
            "speed": 2.0,
            "depth": 0.0
          },
          {
            "time": "1995-12-12T08:58:00+00:00",
            "course": 299.3,
            "speed": 2.0,
            "depth": 0.0
          },
          {
            "time": "1995-12-12T08:59:00+00:00",
            "course": 300.0,
            "speed": 2.0,
            "depth": 0.0
          },
          {
            "time": "1995-12-12T09:00:00+00:00",
            "course": 308.6,
            "speed": 2.0,
            "depth": 0.0
          },
          {
            "time": "1995-12-12T09:01:00+00:00",
            "course": 341.1,
            "speed": 2.0,
            "depth": 0.0
          },
          {
            "time": "1995-12-12T09:02:00+00:00",
            "course": 341.1,
            "speed": 2.0,
            "depth": 0.0
          },
          {
            "time": "1995-12-12T09:03:00+00:00",
            "course": 340.8,
            "speed": 2.0,
            "depth": 0.0
          },
          {
            "time": "1995-12-12T09:04:00+00:00",
            "course": 340.8,
            "speed": 2.0,
            "depth": 0.0
          },
          {
            "time": "1995-12-12T09:05:00+00:00",
            "course": 340.3,
            "speed": 2.0,
            "depth": 0.0
          },
          {
            "time": "1995-12-12T09:06:00+00:00",
            "course": 340.3,
            "speed": 2.0,
            "depth": 0.0
          },
          {
            "time": "1995-12-12T09:07:00+00:00",
            "course": 340.0,
            "speed": 2.0,
            "depth": 0.0
          },
          {
            "time": "1995-12-12T09:08:00+00:00",
            "course": 339.5,
            "speed": 2.0,
            "depth": 0.0
          },
          {
            "time": "1995-12-12T09:09:00+00:00",
            "course": 340.3,
            "speed": 2.0,
            "depth": 0.0
          },
          {
            "time": "1995-12-12T09:10:00+00:00",
            "course": 340.3,
            "speed": 2.0,
            "depth": 0.0
          },
          {
            "time": "1995-12-12T09:11:00+00:00",
            "course": 343.5,
            "speed": 2.0,
            "depth": 0.0
          },
          {
            "time": "1995-12-12T09:12:00+00:00",
            "course": 20.1,
            "speed": 2.0,
            "depth": 0.0
          },
          {
            "time": "1995-12-12T09:13:00+00:00",
            "course": 54.2,
            "speed": 2.0,
            "depth": 0.0
          },
          {
            "time": "1995-12-12T09:14:00+00:00",
            "course": 55.1,
            "speed": 2.0,
            "depth": 0.0
          },
          {
            "time": "1995-12-12T09:15:00+00:00",
            "course": 58.9,
            "speed": 2.0,
            "depth": 0.0
          },
          {
            "time": "1995-12-12T09:16:00+00:00",
            "course": 59.4,
            "speed": 2.0,
            "depth": 0.0
          },
          {
            "time": "1995-12-12T09:17:00+00:00",
            "course": 60.4,
            "speed": 2.0,
            "depth": 0.0
          },
          {
            "time": "1995-12-12T09:18:00+00:00",
            "course": 59.4,
            "speed": 2.0,
            "depth": 0.0
          },
          {
            "time": "1995-12-12T09:19:00+00:00",
            "course": 60.0,
            "speed": 2.0,
            "depth": 0.0
          },
          {
            "time": "1995-12-12T09:20:00+00:00",
            "course": 60.0,
            "speed": 2.0,
            "depth": 0.0
          },
          {
            "time": "1995-12-12T09:21:00+00:00",
            "course": 59.7,
            "speed": 2.0,
            "depth": 0.0
          },
          {
            "time": "1995-12-12T09:22:00+00:00",
            "course": 60.2,
            "speed": 2.0,
            "depth": 0.0
          },
          {
            "time": "1995-12-12T09:23:00+00:00",
            "course": 60.4,
            "speed": 2.0,
            "depth": 0.0
          },
          {
            "time": "1995-12-12T09:24:00+00:00",
            "course": 59.6,
            "speed": 2.0,
            "depth": 0.0
          },
          {
            "time": "1995-12-12T09:25:00+00:00",
            "course": 30.1,
            "speed": 2.0,
            "depth": 0.0
          },
          {
            "time": "1995-12-12T09:26:00+00:00",
            "course": 318.9,
            "speed": 2.0,
            "depth": 0.0
          },
          {
            "time": "1995-12-12T09:27:00+00:00",
            "course": 299.8,
            "speed": 2.0,
            "depth": 0.0
          },
          {
            "time": "1995-12-12T09:28:00+00:00",
            "course": 299.7,
            "speed": 2.0,
            "depth": 0.0
          },
          {
            "time": "1995-12-12T09:29:00+00:00",
            "course": 299.7,
            "speed": 2.0,
            "depth": 0.0
          },
          {
            "time": "1995-12-12T09:30:00+00:00",
            "course": 300.3,
            "speed": 2.0,
            "depth": 0.0
          },
          {
            "time": "1995-12-12T09:31:00+00:00",
            "course": 300.1,
            "speed": 2.0,
            "depth": 0.0
          },
          {
            "time": "1995-12-12T09:32:00+00:00",
            "course": 299.5,
            "speed": 2.0,
            "depth": 0.0
          },
          {
            "time": "1995-12-12T09:33:00+00:00",
            "course": 300.2,
            "speed": 2.0,
            "depth": 0.0
          },
          {
            "time": "1995-12-12T09:34:00+00:00",
            "course": 300.0,
            "speed": 2.0,
            "depth": 0.0
          },
          {
            "time": "1995-12-12T09:35:00+00:00",
            "course": 299.6,
            "speed": 2.0,
            "depth": 0.0
          },
          {
            "time": "1995-12-12T09:36:00+00:00",
            "course": 299.9,
            "speed": 2.0,
            "depth": 0.0
          },
          {
            "time": "1995-12-12T09:37:00+00:00",
            "course": 300.0,
            "speed": 2.0,
            "depth": 0.0
          },
          {
            "time": "1995-12-12T09:38:00+00:00",
            "course": 299.6,
            "speed": 2.0,
            "depth": 0.0
          },
          {
            "time": "1995-12-12T09:39:00+00:00",
            "course": 299.8,
            "speed": 2.0,
            "depth": 0.0
          },
          {
            "time": "1995-12-12T09:40:00+00:00",
            "course": 299.8,
            "speed": 2.0,
            "depth": 0.0
          },
          {
            "time": "1995-12-12T09:41:00+00:00",
            "course": 299.9,
            "speed": 2.0,
            "depth": 0.0
          },
          {
            "time": "1995-12-12T09:42:00+00:00",
            "course": 299.7,
            "speed": 2.0,
            "depth": 0.0
          },
          {
            "time": "1995-12-12T09:43:00+00:00",
            "course": 300.2,
            "speed": 2.0,
            "depth": 0.0
          },
          {
            "time": "1995-12-12T09:44:00+00:00",
            "course": 299.6,
            "speed": 2.0,
            "depth": 0.0
          },
          {
            "time": "1995-12-12T09:45:00+00:00",
            "course": 300.0,
            "speed": 2.0,
            "depth": 0.0
          },
          {
            "time": "1995-12-12T09:46:00+00:00",
            "course": 299.8,
            "speed": 2.0,
            "depth": 0.0
          },
          {
            "time": "1995-12-12T09:47:00+00:00",
            "course": 292.3,
            "speed": 2.0,
            "depth": 0.0
          },
          {
            "time": "1995-12-12T09:48:00+00:00",
            "course": 271.0,
            "speed": 2.0,
            "depth": 0.0
          },
          {
            "time": "1995-12-12T09:49:00+00:00",
            "course": 280.4,
            "speed": 2.0,
            "depth": 0.0
          },
          {
            "time": "1995-12-12T09:50:00+00:00",
            "course": 332.7,
            "speed": 2.0,
            "depth": 0.0
          },
          {
            "time": "1995-12-12T09:51:00+00:00",
            "course": 340.4,
            "speed": 2.0,
            "depth": 0.0
          },
          {
            "time": "1995-12-12T09:52:00+00:00",
            "course": 340.0,
            "speed": 2.0,
            "depth": 0.0
          },
          {
            "time": "1995-12-12T09:53:00+00:00",
            "course": 339.8,
            "speed": 2.0,
            "depth": 0.0
          },
          {
            "time": "1995-12-12T09:54:00+00:00",
            "course": 340.3,
            "speed": 2.0,
            "depth": 0.0
          },
          {
            "time": "1995-12-12T09:55:00+00:00",
            "course": 339.4,
            "speed": 2.0,
            "depth": 0.0
          },
          {
            "time": "1995-12-12T09:56:00+00:00",
            "course": 340.0,
            "speed": 2.0,
            "depth": 0.0
          },
          {
            "time": "1995-12-12T09:57:00+00:00",
            "course": 340.0,
            "speed": 2.0,
            "depth": 0.0
          },
          {
            "time": "1995-12-12T09:58:00+00:00",
            "course": 340.7,
            "speed": 2.0,
            "depth": 0.0
          },
          {
            "time": "1995-12-12T09:59:00+00:00",
            "course": 339.4,
            "speed": 2.0,
            "depth": 0.0
          },
          {
            "time": "1995-12-12T10:00:00+00:00",
            "course": 340.1,
            "speed": 2.0,
            "depth": 0.0
          },
          {
            "time": "1995-12-12T10:01:00+00:00",
            "course": 340.3,
            "speed": 2.0,
            "depth": 0.0
          },
          {
            "time": "1995-12-12T10:02:00+00:00",
            "course": 339.9,
            "speed": 2.0,
            "depth": 0.0
          },
          {
            "time": "1995-12-12T10:03:00+00:00",
            "course": 340.6,
            "speed": 2.0,
            "depth": 0.0
          },
          {
            "time": "1995-12-12T10:04:00+00:00",
            "course": 340.2,
            "speed": 2.0,
            "depth": 0.0
          },
          {
            "time": "1995-12-12T10:05:00+00:00",
            "course": 340.0,
            "speed": 2.0,
            "depth": 0.0
          },
          {
            "time": "1995-12-12T10:06:00+00:00",
            "course": 340.1,
            "speed": 2.0,
            "depth": 0.0
          },
          {
            "time": "1995-12-12T10:07:00+00:00",
            "course": 340.3,
            "speed": 2.0,
            "depth": 0.0
          },
          {
            "time": "1995-12-12T10:08:00+00:00",
            "course": 340.5,
            "speed": 2.0,
            "depth": 0.0
          },
          {
            "time": "1995-12-12T10:09:00+00:00",
            "course": 340.3,
            "speed": 2.0,
            "depth": 0.0
          },
          {
            "time": "1995-12-12T10:10:00+00:00",
            "course": 308.8,
            "speed": 2.0,
            "depth": 0.0
          },
          {
            "time": "1995-12-12T10:11:00+00:00",
            "course": 279.6,
            "speed": 2.0,
            "depth": 0.0
          },
          {
            "time": "1995-12-12T10:12:00+00:00",
            "course": 280.4,
            "speed": 2.0,
            "depth": 0.0
          },
          {
            "time": "1995-12-12T10:13:00+00:00",
            "course": 280.0,
            "speed": 2.0,
            "depth": 0.0
          },
          {
            "time": "1995-12-12T10:14:00+00:00",
            "course": 279.8,
            "speed": 2.0,
            "depth": 0.0
          },
          {
            "time": "1995-12-12T10:15:00+00:00",
            "course": 280.7,
            "speed": 2.0,
            "depth": 0.0
          },
          {
            "time": "1995-12-12T10:16:00+00:00",
            "course": 279.8,
            "speed": 2.0,
            "depth": 0.0
          },
          {
            "time": "1995-12-12T10:17:00+00:00",
            "course": 280.4,
            "speed": 2.0,
            "depth": 0.0
          },
          {
            "time": "1995-12-12T10:18:00+00:00",
            "course": 279.1,
            "speed": 2.0,
            "depth": 0.0
          },
          {
            "time": "1995-12-12T10:19:00+00:00",
            "course": 279.7,
            "speed": 2.0,
            "depth": 0.0
          },
          {
            "time": "1995-12-12T10:20:00+00:00",
            "course": 280.3,
            "speed": 2.0,
            "depth": 0.0
          },
          {
            "time": "1995-12-12T10:21:00+00:00",
            "course": 279.2,
            "speed": 2.0,
            "depth": 0.0
          },
          {
            "time": "1995-12-12T10:22:00+00:00",
            "course": 280.2,
            "speed": 2.0,
            "depth": 0.0
          },
          {
            "time": "1995-12-12T10:23:00+00:00",
            "course": 280.4,
            "speed": 2.0,
            "depth": 0.0
          },
          {
            "time": "1995-12-12T10:24:00+00:00",
            "course": 280.0,
            "speed": 2.0,
            "depth": 0.0
          },
          {
            "time": "1995-12-12T10:25:00+00:00",
            "course": 279.5,
            "speed": 2.0,
            "depth": 0.0
          },
          {
            "time": "1995-12-12T10:26:00+00:00",
            "course": 280.4,
            "speed": 2.0,
            "depth": 0.0
          },
          {
            "time": "1995-12-12T10:27:00+00:00",
            "course": 280.0,
            "speed": 2.0,
            "depth": 0.0
          },
          {
            "time": "1995-12-12T10:28:00+00:00",
            "course": 280.2,
            "speed": 2.0,
            "depth": 0.0
          },
          {
            "time": "1995-12-12T10:29:00+00:00",
            "course": 285.6,
            "speed": 2.0,
            "depth": 0.0
          },
          {
            "time": "1995-12-12T10:30:00+00:00",
            "course": 346.6,
            "speed": 2.0,
            "depth": 0.0
          },
          {
            "time": "1995-12-12T10:31:00+00:00",
            "course": 51.5,
            "speed": 2.0,
            "depth": 0.0
          },
          {
            "time": "1995-12-12T10:32:00+00:00",
            "course": 60.1,
            "speed": 2.0,
            "depth": 0.0
          },
          {
            "time": "1995-12-12T10:33:00+00:00",
            "course": 60.2,
            "speed": 2.0,
            "depth": 0.0
          },
          {
            "time": "1995-12-12T10:34:00+00:00",
            "course": 60.5,
            "speed": 2.0,
            "depth": 0.0
          },
          {
            "time": "1995-12-12T10:35:00+00:00",
            "course": 80.7,
            "speed": 2.0,
            "depth": 0.0
          },
          {
            "time": "1995-12-12T10:36:00+00:00",
            "course": 124.3,
            "speed": 2.0,
            "depth": 0.0
          },
          {
            "time": "1995-12-12T10:37:00+00:00",
            "course": 150.1,
            "speed": 2.0,
            "depth": 0.0
          },
          {
            "time": "1995-12-12T10:38:00+00:00",
            "course": 150.0,
            "speed": 2.0,
            "depth": 0.0
          },
          {
            "time": "1995-12-12T10:39:00+00:00",
            "course": 149.9,
            "speed": 2.0,
            "depth": 0.0
          },
          {
            "time": "1995-12-12T10:40:00+00:00",
            "course": 129.7,
            "speed": 2.0,
            "depth": 0.0
          },
          {
            "time": "1995-12-12T10:41:00+00:00",
            "course": 119.5,
            "speed": 2.0,
            "depth": 0.0
          },
          {
            "time": "1995-12-12T10:42:00+00:00",
            "course": 126.0,
            "speed": 2.0,
            "depth": 0.0
          },
          {
            "time": "1995-12-12T10:43:00+00:00",
            "course": 118.0,
            "speed": 2.0,
            "depth": 0.0
          },
          {
            "time": "1995-12-12T10:44:00+00:00",
            "course": 76.4,
            "speed": 2.0,
            "depth": 0.0
          },
          {
            "time": "1995-12-12T10:45:00+00:00",
            "course": 22.8,
            "speed": 2.0,
            "depth": 0.0
          },
          {
            "time": "1995-12-12T10:46:00+00:00",
            "course": 330.1,
            "speed": 2.0,
            "depth": 0.0
          },
          {
            "time": "1995-12-12T10:47:00+00:00",
            "course": 282.6,
            "speed": 2.0,
            "depth": 0.0
          },
          {
            "time": "1995-12-12T10:48:00+00:00",
            "course": 251.6,
            "speed": 2.0,
            "depth": 0.0
          },
          {
            "time": "1995-12-12T10:49:00+00:00",
            "course": 230.6,
            "speed": 2.0,
            "depth": 0.0
          },
          {
            "time": "1995-12-12T10:50:00+00:00",
            "course": 184.0,
            "speed": 2.0,
            "depth": 0.0
          },
          {
            "time": "1995-12-12T10:51:00+00:00",
            "course": 133.8,
            "speed": 2.0,
            "depth": 0.0
          },
          {
            "time": "1995-12-12T10:52:00+00:00",
            "course": 105.0,
            "speed": 2.0,
            "depth": 0.0
          },
          {
            "time": "1995-12-12T10:53:00+00:00",
            "course": 102.1,
            "speed": 2.0,
            "depth": 0.0
          },
          {
            "time": "1995-12-12T10:54:00+00:00",
            "course": 141.1,
            "speed": 2.0,
            "depth": 0.0
          },
          {
            "time": "1995-12-12T10:55:00+00:00",
            "course": 202.5,
            "speed": 2.0,
            "depth": 0.0
          },
          {
            "time": "1995-12-12T10:56:00+00:00",
            "course": 265.7,
            "speed": 2.0,
            "depth": 0.0
          },
          {
            "time": "1995-12-12T10:57:00+00:00",
            "course": 329.3,
            "speed": 2.0,
            "depth": 0.0
          },
          {
            "time": "1995-12-12T10:58:00+00:00",
            "course": 32.1,
            "speed": 2.0,
            "depth": 0.0
          },
          {
            "time": "1995-12-12T10:59:00+00:00",
            "course": 98.7,
            "speed": 2.0,
            "depth": 0.0
          },
          {
            "time": "1995-12-12T11:00:00+00:00",
            "course": 159.0,
            "speed": 2.0,
            "depth": 0.0
          },
          {
            "time": "1995-12-12T11:01:00+00:00",
            "course": 157.3,
            "speed": 2.0,
            "depth": 0.0
          },
          {
            "time": "1995-12-12T11:02:00+00:00",
            "course": 105.3,
            "speed": 2.0,
            "depth": 0.0
          },
          {
            "time": "1995-12-12T11:03:00+00:00",
            "course": 40.7,
            "speed": 2.0,
            "depth": 0.0
          },
          {
            "time": "1995-12-12T11:04:00+00:00",
            "course": 9.3,
            "speed": 2.0,
            "depth": 0.0
          },
          {
            "time": "1995-12-12T11:05:00+00:00",
            "course": 49.6,
            "speed": 2.0,
            "depth": 0.0
          },
          {
            "time": "1995-12-12T11:06:00+00:00",
            "course": 121.6,
            "speed": 2.0,
            "depth": 0.0
          },
          {
            "time": "1995-12-12T11:07:00+00:00",
            "course": 155.6,
            "speed": 2.0,
            "depth": 0.0
          },
          {
            "time": "1995-12-12T11:08:00+00:00",
            "course": 155.1,
            "speed": 2.0,
            "depth": 0.0
          },
          {
            "time": "1995-12-12T11:09:00+00:00",
            "course": 113.9,
            "speed": 2.0,
            "depth": 0.0
          },
          {
            "time": "1995-12-12T11:10:00+00:00",
            "course": 58.5,
            "speed": 2.0,
            "depth": 0.0
          },
          {
            "time": "1995-12-12T11:11:00+00:00",
            "course": 44.7,
            "speed": 2.0,
            "depth": 0.0
          },
          {
            "time": "1995-12-12T11:12:00+00:00",
            "course": 71.9,
            "speed": 2.0,
            "depth": 0.0
          },
          {
            "time": "1995-12-12T11:13:00+00:00",
            "course": 137.5,
            "speed": 2.0,
            "depth": 0.0
          },
          {
            "time": "1995-12-12T11:14:00+00:00",
            "course": 215.8,
            "speed": 2.0,
            "depth": 0.0
          },
          {
            "time": "1995-12-12T11:15:00+00:00",
            "course": 293.6,
            "speed": 2.0,
            "depth": 0.0
          },
          {
            "time": "1995-12-12T11:16:00+00:00",
            "course": 321.4,
            "speed": 2.0,
            "depth": 0.0
          },
          {
            "time": "1995-12-12T11:17:00+00:00",
            "course": 340.3,
            "speed": 2.0,
            "depth": 0.0
          },
          {
            "time": "1995-12-12T11:18:00+00:00",
            "course": 9.8,
            "speed": 2.0,
            "depth": 0.0
          },
          {
            "time": "1995-12-12T11:19:00+00:00",
            "course": 51.9,
            "speed": 2.0,
            "depth": 0.0
          },
          {
            "time": "1995-12-12T11:20:00+00:00",
            "course": 100.9,
            "speed": 2.0,
            "depth": 0.0
          },
          {
            "time": "1995-12-12T11:21:00+00:00",
            "course": 151.3,
            "speed": 2.0,
            "depth": 0.0
          },
          {
            "time": "1995-12-12T11:22:00+00:00",
            "course": 180.3,
            "speed": 2.0,
            "depth": 0.0
          },
          {
            "time": "1995-12-12T11:23:00+00:00",
            "course": 182.3,
            "speed": 2.0,
            "depth": 0.0
          },
          {
            "time": "1995-12-12T11:24:00+00:00",
            "course": 196.1,
            "speed": 2.0,
            "depth": 0.0
          },
          {
            "time": "1995-12-12T11:25:00+00:00",
            "course": 236.1,
            "speed": 2.0,
            "depth": 0.0
          },
          {
            "time": "1995-12-12T11:26:00+00:00",
            "course": 287.7,
            "speed": 2.0,
            "depth": 0.0
          },
          {
            "time": "1995-12-12T11:27:00+00:00",
            "course": 334.9,
            "speed": 2.0,
            "depth": 0.0
          },
          {
            "time": "1995-12-12T11:28:00+00:00",
            "course": 340.7,
            "speed": 2.0,
            "depth": 0.0
          },
          {
            "time": "1995-12-12T11:29:00+00:00",
            "course": 346.1,
            "speed": 2.0,
            "depth": 0.0
          },
          {
            "time": "1995-12-12T11:30:00+00:00",
            "course": 21.4,
            "speed": 2.0,
            "depth": 0.0
          },
          {
            "time": "1995-12-12T11:31:00+00:00",
            "course": 21.0,
            "speed": 2.0,
            "depth": 0.0
          },
          {
            "time": "1995-12-12T11:32:00+00:00",
            "course": 19.3,
            "speed": 2.0,
            "depth": 0.0
          },
          {
            "time": "1995-12-12T11:33:00+00:00",
            "course": 20.3,
            "speed": 2.0,
            "depth": 0.0
          },
          {
            "time": "1995-12-12T11:34:00+00:00",
            "course": 20.6,
            "speed": 2.0,
            "depth": 0.0
          },
          {
            "time": "1995-12-12T11:35:00+00:00",
            "course": 20.1,
            "speed": 2.0,
            "depth": 0.0
          },
          {
            "time": "1995-12-12T11:36:00+00:00",
            "course": 20.3,
            "speed": 2.0,
            "depth": 0.0
          },
          {
            "time": "1995-12-12T11:37:00+00:00",
            "course": 20.8,
            "speed": 2.0,
            "depth": 0.0
          },
          {
            "time": "1995-12-12T11:38:00+00:00",
            "course": 20.2,
            "speed": 2.0,
            "depth": 0.0
          },
          {
            "time": "1995-12-12T11:39:00+00:00",
            "course": 20.1,
            "speed": 2.0,
            "depth": 0.0
          },
          {
            "time": "1995-12-12T11:40:00+00:00",
            "course": 20.2,
            "speed": 2.0,
            "depth": 0.0
          },
          {
            "time": "1995-12-12T11:41:00+00:00",
            "course": 20.2,
            "speed": 2.0,
            "depth": 0.0
          }
        ],
        "style": {
          "line": {
            "color": "#FF0000"
          },
          "point": {
            "shape": "circle",
            "radius": 3.0,
            "fill_color": "#FF0000",
            "color": "#FF0000"
          }
        },
        "default_position_style": {
          "show_symbol": false,
          "symbol": "circle",
          "show_label": false
        },
        "symbol_interval": "PT15M",
        "label_interval": "PT1H",
        "provenance": [
          {
            "activity_id": "2a17eb60-60ee-4bd4-acdf-b05378c08016",
            "timestamp": "2026-04-13T23:12:32.604597Z",
            "was_generated_by": {
              "tool": "rep-parser",
              "tool_version": "1.0.0",
              "parameters": []
            },
            "used": [],
            "generated": [
              "e4cf3d20-5011-4ced-a6ac-0ee0e8d19bd8"
            ],
            "execution_duration": "PT0.002436S"
          }
        ]
      }
    }
  ]
}