{
  "type": "FeatureCollection",
  "features": [
    {
      "type": "Feature",
      "id": "b7391d46-985a-4a64-a5e5-015ad76fb76b",
      "geometry": {
        "type": "LineString",
        "coordinates": [
          [
            -0.0,
            60.0
          ],
          [
            -0.0,
            60.0
          ],
          [
            -0.002677777777777778,
            60.00159722222222
          ],
          [
            -0.005355555555555556,
            60.003191666666666
          ],
          [
            -0.00803611111111111,
            60.00478888888889
          ],
          [
            -0.010713888888888889,
            60.00638333333333
          ],
          [
            -0.013391666666666666,
            60.007980555555555
          ],
          [
            -0.01607222222222222,
            60.009575
          ],
          [
            -0.01875,
            60.01117222222222
          ],
          [
            -0.021430555555555557,
            60.012766666666664
          ],
          [
            -0.02411111111111111,
            60.01436388888889
          ],
          [
            -0.02678888888888889,
            60.01595833333333
          ],
          [
            -0.029469444444444444,
            60.01755555555555
          ],
          [
            -0.03215,
            60.019149999999996
          ],
          [
            -0.03482777777777778,
            60.02074722222222
          ],
          [
            -0.03750833333333333,
            60.02234166666666
          ],
          [
            -0.040188888888888885,
            60.023938888888885
          ],
          [
            -0.042869444444444446,
            60.02553611111111
          ],
          [
            -0.04555,
            60.02713055555555
          ],
          [
            -0.048230555555555554,
            60.028727777777775
          ],
          [
            -0.050911111111111115,
            60.030322222222225
          ],
          [
            -0.05359166666666667,
            60.03191944444444
          ],
          [
            -0.056272222222222223,
            60.03351388888888
          ],
          [
            -0.05895277777777778,
            60.03511111111111
          ],
          [
            -0.06163333333333334,
            60.03670555555556
          ],
          [
            -0.06431666666666667,
            60.03830277777777
          ],
          [
            -0.06699722222222222,
            60.03989722222222
          ],
          [
            -0.06967777777777778,
            60.041494444444446
          ],
          [
            -0.07236111111111111,
            60.04308888888889
          ],
          [
            -0.07504166666666666,
            60.04468611111111
          ],
          [
            -0.077725,
            60.046280555555555
          ],
          [
            -0.08040555555555555,
            60.04787777777778
          ],
          [
            -0.08308888888888888,
            60.049475
          ],
          [
            -0.08577222222222222,
            60.051069444444444
          ],
          [
            -0.08845277777777777,
            60.05266666666667
          ],
          [
            -0.09113611111111111,
            60.05426111111111
          ],
          [
            -0.09381944444444444,
            60.05585833333333
          ],
          [
            -0.09650277777777777,
            60.057452777777776
          ],
          [
            -0.09918611111111111,
            60.05905
          ],
          [
            -0.10186944444444446,
            60.06064444444444
          ],
          [
            -0.10455,
            60.062241666666665
          ],
          [
            -0.10723611111111112,
            60.06383611111111
          ],
          [
            -0.10991944444444444,
            60.06543333333333
          ],
          [
            -0.11260277777777779,
            60.06702777777778
          ],
          [
            -0.11528611111111112,
            60.068625000000004
          ],
          [
            -0.11796944444444445,
            60.07021944444445
          ],
          [
            -0.11961666666666666,
            60.07210555555556
          ],
          [
            -0.12033055555555555,
            60.07415833333334
          ],
          [
            -0.12104166666666667,
            60.076211111111114
          ],
          [
            -0.12175555555555556,
            60.07826388888889
          ],
          [
            -0.12246944444444445,
            60.08031666666667
          ],
          [
            -0.12318055555555556,
            60.082369444444446
          ],
          [
            -0.12389444444444445,
            60.08442222222222
          ],
          [
            -0.12460833333333333,
            60.086475
          ],
          [
            -0.12531944444444446,
            60.08852777777778
          ],
          [
            -0.12603333333333333,
            60.090580555555555
          ],
          [
            -0.12674722222222223,
            60.09263333333334
          ],
          [
            -0.1274611111111111,
            60.094686111111116
          ],
          [
            -0.128175,
            60.09673888888889
          ],
          [
            -0.12888611111111112,
            60.09879166666667
          ],
          [
            -0.1296,
            60.10084444444445
          ],
          [
            -0.1303138888888889,
            60.102897222222225
          ],
          [
            -0.13102777777777777,
            60.10495
          ],
          [
            -0.13174166666666667,
            60.10700277777778
          ],
          [
            -0.13245555555555555,
            60.10905555555556
          ],
          [
            -0.13316666666666666,
            60.111108333333334
          ],
          [
            -0.13388055555555556,
            60.11316111111111
          ],
          [
            -0.13459444444444443,
            60.11521388888889
          ],
          [
            -0.13530833333333334,
            60.117266666666666
          ],
          [
            -0.1360222222222222,
            60.11931944444444
          ],
          [
            -0.1367361111111111,
            60.12137222222222
          ],
          [
            -0.13745,
            60.123425
          ],
          [
            -0.1381638888888889,
            60.12547777777778
          ],
          [
            -0.13887777777777777,
            60.12753055555556
          ],
          [
            -0.13959166666666667,
            60.129583333333336
          ],
          [
            -0.14030555555555554,
            60.13163611111111
          ],
          [
            -0.14101944444444445,
            60.13368888888889
          ],
          [
            -0.14173611111111112,
            60.13574166666667
          ],
          [
            -0.14245,
            60.137794444444445
          ],
          [
            -0.1431638888888889,
            60.13984722222222
          ],
          [
            -0.14387777777777777,
            60.1419
          ],
          [
            -0.14459166666666667,
            60.14395277777778
          ],
          [
            -0.14530555555555555,
            60.146005555555554
          ],
          [
            -0.14601944444444445,
            60.14805833333333
          ],
          [
            -0.14673611111111112,
            60.15011111111111
          ],
          [
            -0.14745,
            60.152163888888886
          ],
          [
            -0.14816388888888887,
            60.15421666666666
          ],
          [
            -0.14887777777777778,
            60.15626944444444
          ],
          [
            -0.14959444444444445,
            60.15832222222222
          ],
          [
            -0.15030833333333332,
            60.160375
          ],
          [
            -0.15102222222222222,
            60.16242777777778
          ],
          [
            -0.1517361111111111,
            60.164477777777776
          ],
          [
            -0.15245277777777777,
            60.16653055555555
          ],
          [
            -0.15316666666666667,
            60.16858333333333
          ],
          [
            -0.15388333333333332,
            60.17063611111111
          ],
          [
            -0.15459722222222222,
            60.172688888888885
          ],
          [
            -0.1553111111111111,
            60.17474166666666
          ],
          [
            -0.15602777777777777,
            60.17679444444444
          ],
          [
            -0.15674166666666667,
            60.17884722222222
          ],
          [
            -0.15745833333333334,
            60.1809
          ],
          [
            -0.15817222222222221,
            60.18295277777778
          ],
          [
            -0.15888888888888889,
            60.185005555555556
          ],
          [
            -0.15960277777777776,
            60.18705833333333
          ],
          [
            -0.16031944444444443,
            60.18911111111111
          ],
          [
            -0.16103333333333333,
            60.19116388888889
          ],
          [
            -0.16175,
            60.193216666666665
          ],
          [
            -0.16246388888888888,
            60.19526944444444
          ],
          [
            -0.16318055555555555,
            60.19732222222222
          ],
          [
            -0.16389444444444445,
            60.199374999999996
          ],
          [
            -0.1646111111111111,
            60.20142777777778
          ],
          [
            -0.16532777777777777,
            60.20348055555556
          ],
          [
            -0.16604166666666667,
            60.205533333333335
          ],
          [
            -0.16675833333333331,
            60.20758611111111
          ],
          [
            -0.16747222222222222,
            60.20963888888889
          ],
          [
            -0.1681888888888889,
            60.21169166666667
          ],
          [
            -0.16890555555555556,
            60.213744444444444
          ],
          [
            -0.1696222222222222,
            60.21579722222223
          ],
          [
            -0.1703361111111111,
            60.21785
          ],
          [
            -0.17105277777777778,
            60.21990277777778
          ],
          [
            -0.17176944444444445,
            60.22195555555556
          ],
          [
            -0.1724861111111111,
            60.22400833333334
          ],
          [
            -0.1732,
            60.226061111111115
          ],
          [
            -0.17391666666666666,
            60.22811388888889
          ],
          [
            -0.17575833333333332,
            60.229955555555556
          ],
          [
            -0.1789611111111111,
            60.231297222222224
          ],
          [
            -0.1822111111111111,
            60.232616666666665
          ],
          [
            -0.1854611111111111,
            60.23393333333333
          ],
          [
            -0.1887111111111111,
            60.23525277777778
          ],
          [
            -0.1919611111111111,
            60.23656944444445
          ],
          [
            -0.19521111111111109,
            60.23788888888889
          ],
          [
            -0.1984611111111111,
            60.23920555555556
          ],
          [
            -0.2017138888888889,
            60.240522222222225
          ],
          [
            -0.2049638888888889,
            60.241841666666666
          ],
          [
            -0.2082138888888889,
            60.243158333333334
          ],
          [
            -0.2114638888888889,
            60.24447777777778
          ],
          [
            -0.21471666666666667,
            60.24579444444444
          ],
          [
            -0.21796666666666667,
            60.24711388888889
          ],
          [
            -0.22121944444444444,
            60.24843055555556
          ],
          [
            -0.22446944444444444,
            60.24975
          ],
          [
            -0.22772222222222221,
            60.25106666666667
          ],
          [
            -0.23097222222222222,
            60.252386111111115
          ],
          [
            -0.23422500000000002,
            60.253702777777775
          ],
          [
            -0.2374777777777778,
            60.25502222222222
          ],
          [
            -0.24073055555555556,
            60.25633888888889
          ],
          [
            -0.24398055555555556,
            60.25765555555556
          ],
          [
            -0.24723333333333333,
            60.258975
          ]
        ]
      },
      "properties": {
        "kind": "TRACK",
        "platform_id": "SUBJECT",
        "platform_name": "SUBJECT",
        "track_type": "CONTACT",
        "start_time": "2010-01-12T12:00:00+00:00",
        "end_time": "2010-01-12T14:00:00+00:00",
        "positions": [
          {
            "time": "2010-01-12T12:00:00+00:00",
            "course": 320.0,
            "speed": 9.0,
            "depth": 0.0
          },
          {
            "time": "2010-01-12T12:00:00+00:00",
            "course": 320.0,
            "speed": 9.0,
            "depth": 0.0
          },
          {
            "time": "2010-01-12T12:00:50+00:00",
            "course": 320.0,
            "speed": 9.0,
            "depth": 0.0
          },
          {
            "time": "2010-01-12T12:01:40+00:00",
            "course": 320.0,
            "speed": 9.0,
            "depth": 0.0
          },
          {
            "time": "2010-01-12T12:02:30+00:00",
            "course": 320.0,
            "speed": 9.0,
            "depth": 0.0
          },
          {
            "time": "2010-01-12T12:03:20+00:00",
            "course": 320.0,
            "speed": 9.0,
            "depth": 0.0
          },
          {
            "time": "2010-01-12T12:04:10+00:00",
            "course": 320.0,
            "speed": 9.0,
            "depth": 0.0
          },
          {
            "time": "2010-01-12T12:05:00+00:00",
            "course": 320.0,
            "speed": 9.0,
            "depth": 0.0
          },
          {
            "time": "2010-01-12T12:05:50+00:00",
            "course": 320.0,
            "speed": 9.0,
            "depth": 0.0
          },
          {
            "time": "2010-01-12T12:06:40+00:00",
            "course": 320.0,
            "speed": 9.0,
            "depth": 0.0
          },
          {
            "time": "2010-01-12T12:07:30+00:00",
            "course": 320.0,
            "speed": 9.0,
            "depth": 0.0
          },
          {
            "time": "2010-01-12T12:08:20+00:00",
            "course": 320.0,
            "speed": 9.0,
            "depth": 0.0
          },
          {
            "time": "2010-01-12T12:09:10+00:00",
            "course": 320.0,
            "speed": 9.0,
            "depth": 0.0
          },
          {
            "time": "2010-01-12T12:10:00+00:00",
            "course": 320.0,
            "speed": 9.0,
            "depth": 0.0
          },
          {
            "time": "2010-01-12T12:10:50+00:00",
            "course": 320.0,
            "speed": 9.0,
            "depth": 0.0
          },
          {
            "time": "2010-01-12T12:11:40+00:00",
            "course": 320.0,
            "speed": 9.0,
            "depth": 0.0
          },
          {
            "time": "2010-01-12T12:12:30+00:00",
            "course": 320.0,
            "speed": 9.0,
            "depth": 0.0
          },
          {
            "time": "2010-01-12T12:13:20+00:00",
            "course": 320.0,
            "speed": 9.0,
            "depth": 0.0
          },
          {
            "time": "2010-01-12T12:14:10+00:00",
            "course": 320.0,
            "speed": 9.0,
            "depth": 0.0
          },
          {
            "time": "2010-01-12T12:15:00+00:00",
            "course": 320.0,
            "speed": 9.0,
            "depth": 0.0
          },
          {
            "time": "2010-01-12T12:15:50+00:00",
            "course": 320.0,
            "speed": 9.0,
            "depth": 0.0
          },
          {
            "time": "2010-01-12T12:16:40+00:00",
            "course": 320.0,
            "speed": 9.0,
            "depth": 0.0
          },
          {
            "time": "2010-01-12T12:17:30+00:00",
            "course": 320.0,
            "speed": 9.0,
            "depth": 0.0
          },
          {
            "time": "2010-01-12T12:18:20+00:00",
            "course": 320.0,
            "speed": 9.0,
            "depth": 0.0
          },
          {
            "time": "2010-01-12T12:19:10+00:00",
            "course": 320.0,
            "speed": 9.0,
            "depth": 0.0
          },
          {
            "time": "2010-01-12T12:20:00+00:00",
            "course": 320.0,
            "speed": 9.0,
            "depth": 0.0
          },
          {
            "time": "2010-01-12T12:20:50+00:00",
            "course": 320.0,
            "speed": 9.0,
            "depth": 0.0
          },
          {
            "time": "2010-01-12T12:21:40+00:00",
            "course": 320.0,
            "speed": 9.0,
            "depth": 0.0
          },
          {
            "time": "2010-01-12T12:22:30+00:00",
            "course": 320.0,
            "speed": 9.0,
            "depth": 0.0
          },
          {
            "time": "2010-01-12T12:23:20+00:00",
            "course": 320.0,
            "speed": 9.0,
            "depth": 0.0
          },
          {
            "time": "2010-01-12T12:24:10+00:00",
            "course": 320.0,
            "speed": 9.0,
            "depth": 0.0
          },
          {
            "time": "2010-01-12T12:25:00+00:00",
            "course": 320.0,
            "speed": 9.0,
            "depth": 0.0
          },
          {
            "time": "2010-01-12T12:25:50+00:00",
            "course": 320.0,
            "speed": 9.0,
            "depth": 0.0
          },
          {
            "time": "2010-01-12T12:26:40+00:00",
            "course": 320.0,
            "speed": 9.0,
            "depth": 0.0
          },
          {
            "time": "2010-01-12T12:27:30+00:00",
            "course": 320.0,
            "speed": 9.0,
            "depth": 0.0
          },
          {
            "time": "2010-01-12T12:28:20+00:00",
            "course": 320.0,
            "speed": 9.0,
            "depth": 0.0
          },
          {
            "time": "2010-01-12T12:29:10+00:00",
            "course": 320.0,
            "speed": 9.0,
            "depth": 0.0
          },
          {
            "time": "2010-01-12T12:30:00+00:00",
            "course": 320.0,
            "speed": 9.0,
            "depth": 0.0
          },
          {
            "time": "2010-01-12T12:30:50+00:00",
            "course": 320.0,
            "speed": 9.0,
            "depth": 0.0
          },
          {
            "time": "2010-01-12T12:31:40+00:00",
            "course": 320.0,
            "speed": 9.0,
            "depth": 0.0
          },
          {
            "time": "2010-01-12T12:32:30+00:00",
            "course": 320.0,
            "speed": 9.0,
            "depth": 0.0
          },
          {
            "time": "2010-01-12T12:33:20+00:00",
            "course": 320.0,
            "speed": 9.0,
            "depth": 0.0
          },
          {
            "time": "2010-01-12T12:34:10+00:00",
            "course": 320.0,
            "speed": 9.0,
            "depth": 0.0
          },
          {
            "time": "2010-01-12T12:35:00+00:00",
            "course": 320.0,
            "speed": 9.0,
            "depth": 0.0
          },
          {
            "time": "2010-01-12T12:35:50+00:00",
            "course": 320.0,
            "speed": 9.0,
            "depth": 0.0
          },
          {
            "time": "2010-01-12T12:36:40+00:00",
            "course": 320.0,
            "speed": 9.0,
            "depth": 0.0
          },
          {
            "time": "2010-01-12T12:37:30+00:00",
            "course": 350.0,
            "speed": 9.0,
            "depth": 0.0
          },
          {
            "time": "2010-01-12T12:38:20+00:00",
            "course": 350.17,
            "speed": 9.0,
            "depth": 0.0
          },
          {
            "time": "2010-01-12T12:39:10+00:00",
            "course": 350.17,
            "speed": 9.0,
            "depth": 0.0
          },
          {
            "time": "2010-01-12T12:40:00+00:00",
            "course": 350.17,
            "speed": 9.0,
            "depth": 0.0
          },
          {
            "time": "2010-01-12T12:40:50+00:00",
            "course": 350.17,
            "speed": 9.0,
            "depth": 0.0
          },
          {
            "time": "2010-01-12T12:41:40+00:00",
            "course": 350.17,
            "speed": 9.0,
            "depth": 0.0
          },
          {
            "time": "2010-01-12T12:42:30+00:00",
            "course": 350.17,
            "speed": 9.0,
            "depth": 0.0
          },
          {
            "time": "2010-01-12T12:43:20+00:00",
            "course": 350.17,
            "speed": 9.0,
            "depth": 0.0
          },
          {
            "time": "2010-01-12T12:44:10+00:00",
            "course": 350.17,
            "speed": 9.0,
            "depth": 0.0
          },
          {
            "time": "2010-01-12T12:45:00+00:00",
            "course": 350.17,
            "speed": 9.0,
            "depth": 0.0
          },
          {
            "time": "2010-01-12T12:45:50+00:00",
            "course": 350.17,
            "speed": 9.0,
            "depth": 0.0
          },
          {
            "time": "2010-01-12T12:46:40+00:00",
            "course": 350.17,
            "speed": 9.0,
            "depth": 0.0
          },
          {
            "time": "2010-01-12T12:47:30+00:00",
            "course": 350.17,
            "speed": 9.0,
            "depth": 0.0
          },
          {
            "time": "2010-01-12T12:48:20+00:00",
            "course": 350.17,
            "speed": 9.0,
            "depth": 0.0
          },
          {
            "time": "2010-01-12T12:49:10+00:00",
            "course": 350.17,
            "speed": 9.0,
            "depth": 0.0
          },
          {
            "time": "2010-01-12T12:50:00+00:00",
            "course": 350.17,
            "speed": 9.0,
            "depth": 0.0
          },
          {
            "time": "2010-01-12T12:50:50+00:00",
            "course": 350.17,
            "speed": 9.0,
            "depth": 0.0
          },
          {
            "time": "2010-01-12T12:51:40+00:00",
            "course": 350.17,
            "speed": 9.0,
            "depth": 0.0
          },
          {
            "time": "2010-01-12T12:52:30+00:00",
            "course": 350.17,
            "speed": 9.0,
            "depth": 0.0
          },
          {
            "time": "2010-01-12T12:53:20+00:00",
            "course": 350.17,
            "speed": 9.0,
            "depth": 0.0
          },
          {
            "time": "2010-01-12T12:54:10+00:00",
            "course": 350.17,
            "speed": 9.0,
            "depth": 0.0
          },
          {
            "time": "2010-01-12T12:55:00+00:00",
            "course": 350.17,
            "speed": 9.0,
            "depth": 0.0
          },
          {
            "time": "2010-01-12T12:55:50+00:00",
            "course": 350.17,
            "speed": 9.0,
            "depth": 0.0
          },
          {
            "time": "2010-01-12T12:56:40+00:00",
            "course": 350.17,
            "speed": 9.0,
            "depth": 0.0
          },
          {
            "time": "2010-01-12T12:57:30+00:00",
            "course": 350.17,
            "speed": 9.0,
            "depth": 0.0
          },
          {
            "time": "2010-01-12T12:58:20+00:00",
            "course": 350.17,
            "speed": 9.0,
            "depth": 0.0
          },
          {
            "time": "2010-01-12T12:59:10+00:00",
            "course": 350.17,
            "speed": 9.0,
            "depth": 0.0
          },
          {
            "time": "2010-01-12T13:00:00+00:00",
            "course": 350.17,
            "speed": 9.0,
            "depth": 0.0
          },
          {
            "time": "2010-01-12T13:00:50+00:00",
            "course": 350.17,
            "speed": 9.0,
            "depth": 0.0
          },
          {
            "time": "2010-01-12T13:01:40+00:00",
            "course": 350.17,
            "speed": 9.0,
            "depth": 0.0
          },
          {
            "time": "2010-01-12T13:02:30+00:00",
            "course": 350.17,
            "speed": 9.0,
            "depth": 0.0
          },
          {
            "time": "2010-01-12T13:03:20+00:00",
            "course": 350.17,
            "speed": 9.0,
            "depth": 0.0
          },
          {
            "time": "2010-01-12T13:04:10+00:00",
            "course": 350.17,
            "speed": 9.0,
            "depth": 0.0
          },
          {
            "time": "2010-01-12T13:05:00+00:00",
            "course": 350.17,
            "speed": 9.0,
            "depth": 0.0
          },
          {
            "time": "2010-01-12T13:05:50+00:00",
            "course": 350.17,
            "speed": 9.0,
            "depth": 0.0
          },
          {
            "time": "2010-01-12T13:06:40+00:00",
            "course": 350.17,
            "speed": 9.0,
            "depth": 0.0
          },
          {
            "time": "2010-01-12T13:07:30+00:00",
            "course": 350.17,
            "speed": 9.0,
            "depth": 0.0
          },
          {
            "time": "2010-01-12T13:08:20+00:00",
            "course": 350.17,
            "speed": 9.0,
            "depth": 0.0
          },
          {
            "time": "2010-01-12T13:09:10+00:00",
            "course": 350.17,
            "speed": 9.0,
            "depth": 0.0
          },
          {
            "time": "2010-01-12T13:10:00+00:00",
            "course": 350.17,
            "speed": 9.0,
            "depth": 0.0
          },
          {
            "time": "2010-01-12T13:10:50+00:00",
            "course": 350.17,
            "speed": 9.0,
            "depth": 0.0
          },
          {
            "time": "2010-01-12T13:11:40+00:00",
            "course": 350.17,
            "speed": 9.0,
            "depth": 0.0
          },
          {
            "time": "2010-01-12T13:12:30+00:00",
            "course": 350.17,
            "speed": 9.0,
            "depth": 0.0
          },
          {
            "time": "2010-01-12T13:13:20+00:00",
            "course": 350.17,
            "speed": 9.0,
            "depth": 0.0
          },
          {
            "time": "2010-01-12T13:14:10+00:00",
            "course": 350.17,
            "speed": 9.0,
            "depth": 0.0
          },
          {
            "time": "2010-01-12T13:15:00+00:00",
            "course": 350.17,
            "speed": 9.0,
            "depth": 0.0
          },
          {
            "time": "2010-01-12T13:15:50+00:00",
            "course": 350.17,
            "speed": 9.0,
            "depth": 0.0
          },
          {
            "time": "2010-01-12T13:16:40+00:00",
            "course": 350.17,
            "speed": 9.0,
            "depth": 0.0
          },
          {
            "time": "2010-01-12T13:17:30+00:00",
            "course": 350.17,
            "speed": 9.0,
            "depth": 0.0
          },
          {
            "time": "2010-01-12T13:18:20+00:00",
            "course": 350.17,
            "speed": 9.0,
            "depth": 0.0
          },
          {
            "time": "2010-01-12T13:19:10+00:00",
            "course": 350.17,
            "speed": 9.0,
            "depth": 0.0
          },
          {
            "time": "2010-01-12T13:20:00+00:00",
            "course": 350.17,
            "speed": 9.0,
            "depth": 0.0
          },
          {
            "time": "2010-01-12T13:20:50+00:00",
            "course": 350.17,
            "speed": 9.0,
            "depth": 0.0
          },
          {
            "time": "2010-01-12T13:21:40+00:00",
            "course": 350.17,
            "speed": 9.0,
            "depth": 0.0
          },
          {
            "time": "2010-01-12T13:22:30+00:00",
            "course": 350.17,
            "speed": 9.0,
            "depth": 0.0
          },
          {
            "time": "2010-01-12T13:23:20+00:00",
            "course": 350.17,
            "speed": 9.0,
            "depth": 0.0
          },
          {
            "time": "2010-01-12T13:24:10+00:00",
            "course": 350.17,
            "speed": 9.0,
            "depth": 0.0
          },
          {
            "time": "2010-01-12T13:25:00+00:00",
            "course": 350.17,
            "speed": 9.0,
            "depth": 0.0
          },
          {
            "time": "2010-01-12T13:25:50+00:00",
            "course": 350.17,
            "speed": 9.0,
            "depth": 0.0
          },
          {
            "time": "2010-01-12T13:26:40+00:00",
            "course": 350.17,
            "speed": 9.0,
            "depth": 0.0
          },
          {
            "time": "2010-01-12T13:27:30+00:00",
            "course": 350.17,
            "speed": 9.0,
            "depth": 0.0
          },
          {
            "time": "2010-01-12T13:28:20+00:00",
            "course": 350.17,
            "speed": 9.0,
            "depth": 0.0
          },
          {
            "time": "2010-01-12T13:29:10+00:00",
            "course": 350.17,
            "speed": 9.0,
            "depth": 0.0
          },
          {
            "time": "2010-01-12T13:30:00+00:00",
            "course": 350.17,
            "speed": 9.0,
            "depth": 0.0
          },
          {
            "time": "2010-01-12T13:30:50+00:00",
            "course": 350.17,
            "speed": 9.0,
            "depth": 0.0
          },
          {
            "time": "2010-01-12T13:31:40+00:00",
            "course": 350.17,
            "speed": 9.0,
            "depth": 0.0
          },
          {
            "time": "2010-01-12T13:32:30+00:00",
            "course": 350.17,
            "speed": 9.0,
            "depth": 0.0
          },
          {
            "time": "2010-01-12T13:33:20+00:00",
            "course": 350.17,
            "speed": 9.0,
            "depth": 0.0
          },
          {
            "time": "2010-01-12T13:34:10+00:00",
            "course": 350.17,
            "speed": 9.0,
            "depth": 0.0
          },
          {
            "time": "2010-01-12T13:35:00+00:00",
            "course": 350.17,
            "speed": 9.0,
            "depth": 0.0
          },
          {
            "time": "2010-01-12T13:35:50+00:00",
            "course": 350.17,
            "speed": 9.0,
            "depth": 0.0
          },
          {
            "time": "2010-01-12T13:36:40+00:00",
            "course": 350.17,
            "speed": 9.0,
            "depth": 0.0
          },
          {
            "time": "2010-01-12T13:37:30+00:00",
            "course": 350.17,
            "speed": 9.0,
            "depth": 0.0
          },
          {
            "time": "2010-01-12T13:38:20+00:00",
            "course": 350.17,
            "speed": 9.0,
            "depth": 0.0
          },
          {
            "time": "2010-01-12T13:39:10+00:00",
            "course": 350.17,
            "speed": 9.0,
            "depth": 0.0
          },
          {
            "time": "2010-01-12T13:40:00+00:00",
            "course": 350.17,
            "speed": 9.0,
            "depth": 0.0
          },
          {
            "time": "2010-01-12T13:40:50+00:00",
            "course": 350.17,
            "speed": 9.0,
            "depth": 0.0
          },
          {
            "time": "2010-01-12T13:41:40+00:00",
            "course": 317.01,
            "speed": 9.0,
            "depth": 0.0
          },
          {
            "time": "2010-01-12T13:42:30+00:00",
            "course": 309.27,
            "speed": 9.0,
            "depth": 0.0
          },
          {
            "time": "2010-01-12T13:43:20+00:00",
            "course": 309.24,
            "speed": 9.0,
            "depth": 0.0
          },
          {
            "time": "2010-01-12T13:44:10+00:00",
            "course": 309.24,
            "speed": 9.0,
            "depth": 0.0
          },
          {
            "time": "2010-01-12T13:45:00+00:00",
            "course": 309.24,
            "speed": 9.0,
            "depth": 0.0
          },
          {
            "time": "2010-01-12T13:45:50+00:00",
            "course": 309.24,
            "speed": 9.0,
            "depth": 0.0
          },
          {
            "time": "2010-01-12T13:46:40+00:00",
            "course": 309.24,
            "speed": 9.0,
            "depth": 0.0
          },
          {
            "time": "2010-01-12T13:47:30+00:00",
            "course": 309.24,
            "speed": 9.0,
            "depth": 0.0
          },
          {
            "time": "2010-01-12T13:48:20+00:00",
            "course": 309.24,
            "speed": 9.0,
            "depth": 0.0
          },
          {
            "time": "2010-01-12T13:49:10+00:00",
            "course": 309.24,
            "speed": 9.0,
            "depth": 0.0
          },
          {
            "time": "2010-01-12T13:50:00+00:00",
            "course": 309.24,
            "speed": 9.0,
            "depth": 0.0
          },
          {
            "time": "2010-01-12T13:50:50+00:00",
            "course": 309.24,
            "speed": 9.0,
            "depth": 0.0
          },
          {
            "time": "2010-01-12T13:51:40+00:00",
            "course": 309.24,
            "speed": 9.0,
            "depth": 0.0
          },
          {
            "time": "2010-01-12T13:52:30+00:00",
            "course": 309.24,
            "speed": 9.0,
            "depth": 0.0
          },
          {
            "time": "2010-01-12T13:53:20+00:00",
            "course": 309.24,
            "speed": 9.0,
            "depth": 0.0
          },
          {
            "time": "2010-01-12T13:54:10+00:00",
            "course": 309.24,
            "speed": 9.0,
            "depth": 0.0
          },
          {
            "time": "2010-01-12T13:55:00+00:00",
            "course": 309.24,
            "speed": 9.0,
            "depth": 0.0
          },
          {
            "time": "2010-01-12T13:55:50+00:00",
            "course": 309.24,
            "speed": 9.0,
            "depth": 0.0
          },
          {
            "time": "2010-01-12T13:56:40+00:00",
            "course": 309.24,
            "speed": 9.0,
            "depth": 0.0
          },
          {
            "time": "2010-01-12T13:57:30+00:00",
            "course": 309.24,
            "speed": 9.0,
            "depth": 0.0
          },
          {
            "time": "2010-01-12T13:58:20+00:00",
            "course": 309.24,
            "speed": 9.0,
            "depth": 0.0
          },
          {
            "time": "2010-01-12T13:59:10+00:00",
            "course": 309.24,
            "speed": 9.0,
            "depth": 0.0
          },
          {
            "time": "2010-01-12T14:00:00+00:00",
            "course": 309.24,
            "speed": 9.0,
            "depth": 0.0
          }
        ],
        "style": {
          "line": {
            "color": "#FF0000"
          },
          "point": {
            "shape": "circle",
            "radius": 3.0,
            "fill_color": "#FF0000",
            "color": "#FF0000"
          }
        },
        "default_position_style": {
          "show_symbol": false,
          "symbol": "circle",
          "show_label": false
        },
        "symbol_interval": "PT10M",
        "label_interval": "PT30M",
        "provenance": [
          {
            "activity_id": "f4505b21-fa09-44fc-9fbe-40cd1470f98f",
            "timestamp": "2026-04-13T23:12:31.842709Z",
            "was_generated_by": {
              "tool": "rep-parser",
              "tool_version": "1.0.0",
              "parameters": []
            },
            "used": [],
            "generated": [
              "b7391d46-985a-4a64-a5e5-015ad76fb76b"
            ],
            "execution_duration": "PT0.00083S"
          }
        ]
      }
    }
  ]
}