{
  "type": "FeatureCollection",
  "features": [
    {
      "type": "Feature",
      "id": "b141457c-e0f3-4338-a2c2-ac527b32c45e",
      "geometry": {
        "type": "LineString",
        "coordinates": [
          [
            -21.59388333333333,
            21.913313888888887
          ],
          [
            -21.593863888888887,
            21.9145
          ],
          [
            -21.593863888888887,
            21.915691666666664
          ],
          [
            -21.593891666666664,
            21.916861111111114
          ],
          [
            -21.593899999999998,
            21.918025
          ],
          [
            -21.593880555555554,
            21.919216666666667
          ],
          [
            -21.59394722222222,
            21.921591666666668
          ],
          [
            -21.593780555555554,
            21.92276111111111
          ],
          [
            -21.59322222222222,
            21.92383611111111
          ],
          [
            -21.59229722222222,
            21.92475
          ],
          [
            -21.591199999999997,
            21.92561388888889
          ],
          [
            -21.59013333333333,
            21.926505555555558
          ],
          [
            -21.589069444444444,
            21.927400000000002
          ],
          [
            -21.58795,
            21.92828888888889
          ],
          [
            -21.586852777777775,
            21.92915
          ]
        ]
      },
      "properties": {
        "kind": "TRACK",
        "platform_id": "COLLINGWOOD",
        "platform_name": "COLLINGWOOD",
        "track_type": "CONTACT",
        "start_time": "1995-12-12T05:19:00+00:00",
        "end_time": "1995-12-12T05:34:00+00:00",
        "positions": [
          {
            "time": "1995-12-12T05:19:00+00:00",
            "course": 0.7,
            "speed": 3.5,
            "depth": 0.0
          },
          {
            "time": "1995-12-12T05:20:00+00:00",
            "course": 0.0,
            "speed": 3.5,
            "depth": 0.0
          },
          {
            "time": "1995-12-12T05:21:00+00:00",
            "course": 359.1,
            "speed": 3.5,
            "depth": 0.0
          },
          {
            "time": "1995-12-12T05:22:00+00:00",
            "course": 359.7,
            "speed": 3.5,
            "depth": 0.0
          },
          {
            "time": "1995-12-12T05:23:00+00:00",
            "course": 0.7,
            "speed": 3.5,
            "depth": 0.0
          },
          {
            "time": "1995-12-12T05:24:00+00:00",
            "course": 359.2,
            "speed": 3.5,
            "depth": 0.0
          },
          {
            "time": "1995-12-12T05:26:00+00:00",
            "course": 5.6,
            "speed": 3.5,
            "depth": 0.0
          },
          {
            "time": "1995-12-12T05:27:00+00:00",
            "course": 19.7,
            "speed": 3.5,
            "depth": 0.0
          },
          {
            "time": "1995-12-12T05:28:00+00:00",
            "course": 34.7,
            "speed": 3.5,
            "depth": 0.0
          },
          {
            "time": "1995-12-12T05:29:00+00:00",
            "course": 41.1,
            "speed": 3.5,
            "depth": 0.0
          },
          {
            "time": "1995-12-12T05:30:00+00:00",
            "course": 39.3,
            "speed": 3.5,
            "depth": 0.0
          },
          {
            "time": "1995-12-12T05:31:00+00:00",
            "course": 39.2,
            "speed": 3.5,
            "depth": 0.0
          },
          {
            "time": "1995-12-12T05:32:00+00:00",
            "course": 40.8,
            "speed": 3.5,
            "depth": 0.0
          },
          {
            "time": "1995-12-12T05:33:00+00:00",
            "course": 41.1,
            "speed": 3.5,
            "depth": 0.0
          },
          {
            "time": "1995-12-12T05:34:00+00:00",
            "course": 39.4,
            "speed": 3.5,
            "depth": 0.0
          }
        ],
        "style": {
          "line": {
            "color": "#0000FF"
          },
          "point": {
            "shape": "circle",
            "radius": 3.0,
            "fill_color": "#0000FF",
            "color": "#0000FF"
          }
        },
        "default_position_style": {
          "show_symbol": false,
          "symbol": "circle",
          "show_label": false
        },
        "symbol_interval": "PT1M",
        "label_interval": "PT5M",
        "provenance": [
          {
            "activity_id": "344d5335-4807-453c-83d4-3032891a2bd7",
            "timestamp": "2026-04-13T23:12:29.947155Z",
            "was_generated_by": {
              "tool": "rep-parser",
              "tool_version": "1.0.0",
              "parameters": []
            },
            "used": [],
            "generated": [
              "b141457c-e0f3-4338-a2c2-ac527b32c45e"
            ],
            "execution_duration": "PT0.000175S"
          }
        ]
      }
    }
  ]
}