{
  "type": "FeatureCollection",
  "features": [
    {
      "type": "Feature",
      "id": "fc263193-6bd0-432a-a3bd-77975546bae5",
      "geometry": null,
      "properties": {
        "kind": "SENSOR_CONTACT",
        "parent_track": "New_SSK",
        "time": "1970-01-03T03:05:25+00:00",
        "bearing": -85.0,
        "range": 0.0,
        "sensor_name": "New_SSK_BB",
        "label": "some message"
      }
    },
    {
      "type": "Feature",
      "id": "b4438dfb-4937-4cec-b2be-32f8de5651a7",
      "geometry": null,
      "properties": {
        "kind": "SENSOR_CONTACT",
        "parent_track": "New_SSK",
        "time": "1970-01-03T03:06:25+00:00",
        "bearing": -85.0,
        "range": 0.0,
        "sensor_name": "New_SSK_BB",
        "label": "some message"
      }
    },
    {
      "type": "Feature",
      "id": "8e8ee8ec-34b1-4141-aff3-c8d77658ed50",
      "geometry": null,
      "properties": {
        "kind": "SENSOR_CONTACT",
        "parent_track": "New_SSK",
        "time": "1970-01-03T03:07:25+00:00",
        "bearing": -85.0,
        "range": 0.0,
        "sensor_name": "New_SSK_BB",
        "label": "some message"
      }
    },
    {
      "type": "Feature",
      "id": "40257583-e833-4e75-aec1-0be4e5c62bce",
      "geometry": null,
      "properties": {
        "kind": "SENSOR_CONTACT",
        "parent_track": "New_SSK",
        "time": "1970-01-03T03:08:25+00:00",
        "bearing": -85.0,
        "range": 0.0,
        "sensor_name": "New_SSK_BB",
        "label": "some message"
      }
    },
    {
      "type": "Feature",
      "id": "a41de907-d78d-40b5-b358-8418feff5f3f",
      "geometry": null,
      "properties": {
        "kind": "SENSOR_CONTACT",
        "parent_track": "New_SSK",
        "time": "1970-01-03T03:09:25+00:00",
        "bearing": -85.0,
        "range": 0.0,
        "sensor_name": "New_SSK_BB",
        "label": "some message"
      }
    },
    {
      "type": "Feature",
      "id": "4b4fc03d-5edb-4d42-a81c-471ce4811afd",
      "geometry": null,
      "properties": {
        "kind": "SENSOR_CONTACT",
        "parent_track": "New_SSK",
        "time": "1970-01-03T03:10:25+00:00",
        "bearing": -86.0,
        "range": 0.0,
        "sensor_name": "New_SSK_BB",
        "label": "some message"
      }
    },
    {
      "type": "Feature",
      "id": "cbca6520-362c-471d-aa73-a46fde8bf132",
      "geometry": null,
      "properties": {
        "kind": "SENSOR_CONTACT",
        "parent_track": "New_SSK",
        "time": "1970-01-03T03:11:25+00:00",
        "bearing": -86.0,
        "range": 0.0,
        "sensor_name": "New_SSK_BB",
        "label": "some message"
      }
    },
    {
      "type": "Feature",
      "id": "f3b545b7-7fcf-49e7-a90d-e4f31a8c32f8",
      "geometry": null,
      "properties": {
        "kind": "SENSOR_CONTACT",
        "parent_track": "New_SSK",
        "time": "1970-01-03T03:12:25+00:00",
        "bearing": -86.0,
        "range": 0.0,
        "sensor_name": "New_SSK_BB",
        "label": "some message"
      }
    },
    {
      "type": "Feature",
      "id": "0afa253e-a7bd-4a6c-b2dc-f8074c7f48d4",
      "geometry": null,
      "properties": {
        "kind": "SENSOR_CONTACT",
        "parent_track": "New_SSK",
        "time": "1970-01-03T03:13:25+00:00",
        "bearing": -87.0,
        "range": 0.0,
        "sensor_name": "New_SSK_BB",
        "label": "some message"
      }
    },
    {
      "type": "Feature",
      "id": "c2513012-2fcf-48f0-82a1-2e2c6ec244ac",
      "geometry": null,
      "properties": {
        "kind": "SENSOR_CONTACT",
        "parent_track": "New_SSK",
        "time": "1970-01-03T03:14:25+00:00",
        "bearing": -87.0,
        "range": 0.0,
        "sensor_name": "New_SSK_BB",
        "label": "some message"
      }
    },
    {
      "type": "Feature",
      "id": "3f440469-b8de-49f6-8f8f-c47c1293a575",
      "geometry": null,
      "properties": {
        "kind": "SENSOR_CONTACT",
        "parent_track": "New_SSK",
        "time": "1970-01-03T03:15:25+00:00",
        "bearing": -87.0,
        "range": 0.0,
        "sensor_name": "New_SSK_BB",
        "label": "some message"
      }
    },
    {
      "type": "Feature",
      "id": "646cd2e5-c9ed-49d9-bf2c-8d991309a1d1",
      "geometry": null,
      "properties": {
        "kind": "SENSOR_CONTACT",
        "parent_track": "New_SSK",
        "time": "1970-01-03T03:16:25+00:00",
        "bearing": -88.0,
        "range": 0.0,
        "sensor_name": "New_SSK_BB",
        "label": "some message"
      }
    },
    {
      "type": "Feature",
      "id": "ceb3ca71-b926-418a-bbf3-0726f3c0d2a6",
      "geometry": null,
      "properties": {
        "kind": "SENSOR_CONTACT",
        "parent_track": "New_SSK",
        "time": "1970-01-03T03:17:25+00:00",
        "bearing": -88.0,
        "range": 0.0,
        "sensor_name": "New_SSK_BB",
        "label": "some message"
      }
    },
    {
      "type": "Feature",
      "id": "8daf9dce-66fd-4cf9-a675-d2876d13b4d1",
      "geometry": null,
      "properties": {
        "kind": "SENSOR_CONTACT",
        "parent_track": "New_SSK",
        "time": "1970-01-03T03:18:25+00:00",
        "bearing": -89.0,
        "range": 0.0,
        "sensor_name": "New_SSK_BB",
        "label": "some message"
      }
    },
    {
      "type": "Feature",
      "id": "b2e4ac9c-0296-41b3-bfb7-71cee215d2fc",
      "geometry": null,
      "properties": {
        "kind": "SENSOR_CONTACT",
        "parent_track": "New_SSK",
        "time": "1970-01-03T03:19:25+00:00",
        "bearing": -89.0,
        "range": 0.0,
        "sensor_name": "New_SSK_BB",
        "label": "some message"
      }
    }
  ]
}