{
  "type": "FeatureCollection",
  "features": [
    {
      "type": "Feature",
      "id": "43f7312e-0ffc-4f4b-a45b-0f4db3166a96",
      "geometry": {
        "type": "Point",
        "coordinates": []
      },
      "properties": {
        "kind": "NARRATIVE",
        "time": "1995-12-12T05:00:00+00:00",
        "text": "ENDEX END OF SERIAL 12D",
        "track_id": "COLLINGWOOD",
        "style": {
          "shape": "circle",
          "radius": 3.0,
          "fill_color": "#808080",
          "color": "#808080"
        },
        "provenance": [
          {
            "activity_id": "47698581-40f4-4237-b885-2394793fe218",
            "timestamp": "2026-03-21T10:15:00.175428Z",
            "was_generated_by": {
              "tool": "rep-parser",
              "tool_version": "1.0.0",
              "parameters": []
            },
            "used": [],
            "generated": [
              "43f7312e-0ffc-4f4b-a45b-0f4db3166a96"
            ],
            "execution_duration": "PT0S"
          }
        ]
      }
    },
    {
      "type": "Feature",
      "id": "c5a061e9-7d60-4449-b114-c844c8d7db79",
      "geometry": {
        "type": "Point",
        "coordinates": []
      },
      "properties": {
        "kind": "NARRATIVE",
        "time": "1995-12-12T05:01:00+00:00",
        "text": "COMEX START OF SERIAL 12E",
        "track_id": "COLLINGWOOD",
        "style": {
          "shape": "circle",
          "radius": 3.0,
          "fill_color": "#808080",
          "color": "#808080"
        },
        "provenance": [
          {
            "activity_id": "47698581-40f4-4237-b885-2394793fe218",
            "timestamp": "2026-03-21T10:15:00.175428Z",
            "was_generated_by": {
              "tool": "rep-parser",
              "tool_version": "1.0.0",
              "parameters": []
            },
            "used": [],
            "generated": [
              "c5a061e9-7d60-4449-b114-c844c8d7db79"
            ],
            "execution_duration": "PT0S"
          }
        ]
      }
    },
    {
      "type": "Feature",
      "id": "7097fd87-3f07-47d5-8e07-1b7a508f2bf6",
      "geometry": {
        "type": "Point",
        "coordinates": []
      },
      "properties": {
        "kind": "NARRATIVE",
        "time": "1995-12-12T05:01:00+00:00",
        "text": "COMEX COMEX SERIAL 12E",
        "track_id": "NELSON",
        "style": {
          "shape": "circle",
          "radius": 3.0,
          "fill_color": "#808080",
          "color": "#808080"
        },
        "provenance": [
          {
            "activity_id": "47698581-40f4-4237-b885-2394793fe218",
            "timestamp": "2026-03-21T10:15:00.175428Z",
            "was_generated_by": {
              "tool": "rep-parser",
              "tool_version": "1.0.0",
              "parameters": []
            },
            "used": [],
            "generated": [
              "7097fd87-3f07-47d5-8e07-1b7a508f2bf6"
            ],
            "execution_duration": "PT0S"
          }
        ]
      }
    },
    {
      "type": "Feature",
      "id": "bdb38c4c-18d8-476c-a149-3249e693d1cb",
      "geometry": {
        "type": "Point",
        "coordinates": []
      },
      "properties": {
        "kind": "NARRATIVE",
        "time": "1995-12-12T05:10:00+00:00",
        "text": "CMD_COMMENT STARTING ZULU SEARCH. DECISION BASED ON CLIMATOLOGY AND MET FORECAST FOR NEXT 48 HOURS",
        "track_id": "NELSON",
        "style": {
          "shape": "circle",
          "radius": 3.0,
          "fill_color": "#808080",
          "color": "#808080"
        },
        "provenance": [
          {
            "activity_id": "47698581-40f4-4237-b885-2394793fe218",
            "timestamp": "2026-03-21T10:15:00.175428Z",
            "was_generated_by": {
              "tool": "rep-parser",
              "tool_version": "1.0.0",
              "parameters": []
            },
            "used": [],
            "generated": [
              "bdb38c4c-18d8-476c-a149-3249e693d1cb"
            ],
            "execution_duration": "PT0S"
          }
        ]
      }
    },
    {
      "type": "Feature",
      "id": "325a7b99-4978-492c-94a2-5398832d54b4",
      "geometry": {
        "type": "Point",
        "coordinates": []
      },
      "properties": {
        "kind": "NARRATIVE",
        "time": "1995-12-12T06:24:00+00:00",
        "text": "NEW_CONTACT GAINED SUSPICIOUS CONTACT, WILL RANGE",
        "track_id": "NELSON",
        "style": {
          "shape": "circle",
          "radius": 3.0,
          "fill_color": "#808080",
          "color": "#808080"
        },
        "provenance": [
          {
            "activity_id": "47698581-40f4-4237-b885-2394793fe218",
            "timestamp": "2026-03-21T10:15:00.175428Z",
            "was_generated_by": {
              "tool": "rep-parser",
              "tool_version": "1.0.0",
              "parameters": []
            },
            "used": [],
            "generated": [
              "325a7b99-4978-492c-94a2-5398832d54b4"
            ],
            "execution_duration": "PT0S"
          }
        ]
      }
    },
    {
      "type": "Feature",
      "id": "18bede50-bd41-482c-a44a-f976c86dcf63",
      "geometry": {
        "type": "Point",
        "coordinates": []
      },
      "properties": {
        "kind": "NARRATIVE",
        "time": "1995-12-12T06:48:00+00:00",
        "text": "CONTACT_LOST IGNORE CONTACT, BIOLOGIC",
        "track_id": "NELSON",
        "style": {
          "shape": "circle",
          "radius": 3.0,
          "fill_color": "#808080",
          "color": "#808080"
        },
        "provenance": [
          {
            "activity_id": "47698581-40f4-4237-b885-2394793fe218",
            "timestamp": "2026-03-21T10:15:00.175428Z",
            "was_generated_by": {
              "tool": "rep-parser",
              "tool_version": "1.0.0",
              "parameters": []
            },
            "used": [],
            "generated": [
              "18bede50-bd41-482c-a44a-f976c86dcf63"
            ],
            "execution_duration": "PT0S"
          }
        ]
      }
    },
    {
      "type": "Feature",
      "id": "1bf2858f-8e3b-4f51-8a63-061bd545363e",
      "geometry": {
        "type": "Point",
        "coordinates": []
      },
      "properties": {
        "kind": "NARRATIVE",
        "time": "1995-12-12T06:59:00+00:00",
        "text": "CMD_COMMENT NO SIGN OF CONTACT. SAC THEN MOVE TO SECTOR VICTOR",
        "track_id": "NELSON",
        "style": {
          "shape": "circle",
          "radius": 3.0,
          "fill_color": "#808080",
          "color": "#808080"
        },
        "provenance": [
          {
            "activity_id": "47698581-40f4-4237-b885-2394793fe218",
            "timestamp": "2026-03-21T10:15:00.175428Z",
            "was_generated_by": {
              "tool": "rep-parser",
              "tool_version": "1.0.0",
              "parameters": []
            },
            "used": [],
            "generated": [
              "1bf2858f-8e3b-4f51-8a63-061bd545363e"
            ],
            "execution_duration": "PT0S"
          }
        ]
      }
    },
    {
      "type": "Feature",
      "id": "de14fc2a-ee84-4710-95d2-dd921c09205f",
      "geometry": {
        "type": "Point",
        "coordinates": []
      },
      "properties": {
        "kind": "NARRATIVE",
        "time": "1995-12-12T07:15:00+00:00",
        "text": "CMD_COMMENT SAC SUCCESSFUL. CLEAR",
        "track_id": "NELSON",
        "style": {
          "shape": "circle",
          "radius": 3.0,
          "fill_color": "#808080",
          "color": "#808080"
        },
        "provenance": [
          {
            "activity_id": "47698581-40f4-4237-b885-2394793fe218",
            "timestamp": "2026-03-21T10:15:00.175428Z",
            "was_generated_by": {
              "tool": "rep-parser",
              "tool_version": "1.0.0",
              "parameters": []
            },
            "used": [],
            "generated": [
              "de14fc2a-ee84-4710-95d2-dd921c09205f"
            ],
            "execution_duration": "PT0S"
          }
        ]
      }
    },
    {
      "type": "Feature",
      "id": "e1979166-0ce3-4d06-9a61-64695b1ef540",
      "geometry": {
        "type": "Point",
        "coordinates": []
      },
      "properties": {
        "kind": "NARRATIVE",
        "time": "1995-12-12T07:29:00+00:00",
        "text": "NEW_CONTACT NEW CONTACT, LOW BEARING RATE. TO INVESTIGATE",
        "track_id": "NELSON",
        "style": {
          "shape": "circle",
          "radius": 3.0,
          "fill_color": "#808080",
          "color": "#808080"
        },
        "provenance": [
          {
            "activity_id": "47698581-40f4-4237-b885-2394793fe218",
            "timestamp": "2026-03-21T10:15:00.175428Z",
            "was_generated_by": {
              "tool": "rep-parser",
              "tool_version": "1.0.0",
              "parameters": []
            },
            "used": [],
            "generated": [
              "e1979166-0ce3-4d06-9a61-64695b1ef540"
            ],
            "execution_duration": "PT0S"
          }
        ]
      }
    },
    {
      "type": "Feature",
      "id": "4286b7ee-ef6b-4bb8-ba33-7bb6493bff44",
      "geometry": {
        "type": "Point",
        "coordinates": []
      },
      "properties": {
        "kind": "NARRATIVE",
        "time": "1995-12-12T07:55:00+00:00",
        "text": "CMD_COMMENT FEAR CONTACT MAY HAVE RNG ADV, EVADE",
        "track_id": "NELSON",
        "style": {
          "shape": "circle",
          "radius": 3.0,
          "fill_color": "#808080",
          "color": "#808080"
        },
        "provenance": [
          {
            "activity_id": "47698581-40f4-4237-b885-2394793fe218",
            "timestamp": "2026-03-21T10:15:00.175428Z",
            "was_generated_by": {
              "tool": "rep-parser",
              "tool_version": "1.0.0",
              "parameters": []
            },
            "used": [],
            "generated": [
              "4286b7ee-ef6b-4bb8-ba33-7bb6493bff44"
            ],
            "execution_duration": "PT0S"
          }
        ]
      }
    },
    {
      "type": "Feature",
      "id": "3ae9c784-018f-4b8a-940a-8dea21003acc",
      "geometry": {
        "type": "Point",
        "coordinates": []
      },
      "properties": {
        "kind": "NARRATIVE",
        "time": "1995-12-12T10:09:00+00:00",
        "text": "NEW_CONTACT NEW CONTACT, SUSPECT EARLIER C132, WILL RANGE",
        "track_id": "NELSON",
        "style": {
          "shape": "circle",
          "radius": 3.0,
          "fill_color": "#808080",
          "color": "#808080"
        },
        "provenance": [
          {
            "activity_id": "47698581-40f4-4237-b885-2394793fe218",
            "timestamp": "2026-03-21T10:15:00.175428Z",
            "was_generated_by": {
              "tool": "rep-parser",
              "tool_version": "1.0.0",
              "parameters": []
            },
            "used": [],
            "generated": [
              "3ae9c784-018f-4b8a-940a-8dea21003acc"
            ],
            "execution_duration": "PT0S"
          }
        ]
      }
    },
    {
      "type": "Feature",
      "id": "1d7c94fc-d73b-4130-858d-8d2650e48f40",
      "geometry": {
        "type": "Point",
        "coordinates": []
      },
      "properties": {
        "kind": "NARRATIVE",
        "time": "1995-12-12T10:15:00+00:00",
        "text": "CONTACT_LOST CONTACT LOST, SUSPECT BIOLOGIC",
        "track_id": "NELSON",
        "style": {
          "shape": "circle",
          "radius": 3.0,
          "fill_color": "#808080",
          "color": "#808080"
        },
        "provenance": [
          {
            "activity_id": "47698581-40f4-4237-b885-2394793fe218",
            "timestamp": "2026-03-21T10:15:00.175428Z",
            "was_generated_by": {
              "tool": "rep-parser",
              "tool_version": "1.0.0",
              "parameters": []
            },
            "used": [],
            "generated": [
              "1d7c94fc-d73b-4130-858d-8d2650e48f40"
            ],
            "execution_duration": "PT0S"
          }
        ]
      }
    },
    {
      "type": "Feature",
      "id": "d402ad9c-b340-432d-a4b0-d66cdd02e3eb",
      "geometry": {
        "type": "Point",
        "coordinates": []
      },
      "properties": {
        "kind": "NARRATIVE",
        "time": "1995-12-12T10:18:00+00:00",
        "text": "NEW_CONTACT NEW CONTACT, SUSPECT PLAYMATE",
        "track_id": "COLLINGWOOD",
        "style": {
          "shape": "circle",
          "radius": 3.0,
          "fill_color": "#808080",
          "color": "#808080"
        },
        "provenance": [
          {
            "activity_id": "47698581-40f4-4237-b885-2394793fe218",
            "timestamp": "2026-03-21T10:15:00.175428Z",
            "was_generated_by": {
              "tool": "rep-parser",
              "tool_version": "1.0.0",
              "parameters": []
            },
            "used": [],
            "generated": [
              "d402ad9c-b340-432d-a4b0-d66cdd02e3eb"
            ],
            "execution_duration": "PT0S"
          }
        ]
      }
    },
    {
      "type": "Feature",
      "id": "72f800fb-b2d5-4257-a9ae-69126a5ac358",
      "geometry": {
        "type": "Point",
        "coordinates": []
      },
      "properties": {
        "kind": "NARRATIVE",
        "time": "1995-12-12T10:21:00+00:00",
        "text": "WATERSHOT PLAYMATE CONFIRMED, LAUNCH WATERSHOT",
        "track_id": "COLLINGWOOD",
        "style": {
          "shape": "circle",
          "radius": 3.0,
          "fill_color": "#808080",
          "color": "#808080"
        },
        "provenance": [
          {
            "activity_id": "47698581-40f4-4237-b885-2394793fe218",
            "timestamp": "2026-03-21T10:15:00.175428Z",
            "was_generated_by": {
              "tool": "rep-parser",
              "tool_version": "1.0.0",
              "parameters": []
            },
            "used": [],
            "generated": [
              "72f800fb-b2d5-4257-a9ae-69126a5ac358"
            ],
            "execution_duration": "PT0S"
          }
        ]
      }
    },
    {
      "type": "Feature",
      "id": "31864f4f-3a6e-4e25-80c0-3137519e0d69",
      "geometry": {
        "type": "Point",
        "coordinates": []
      },
      "properties": {
        "kind": "NARRATIVE",
        "time": "1995-12-12T10:22:00+00:00",
        "text": "CMD_COMMENT WATERSHOT HEARD, PREPARE FOR EVASIVE",
        "track_id": "NELSON",
        "style": {
          "shape": "circle",
          "radius": 3.0,
          "fill_color": "#808080",
          "color": "#808080"
        },
        "provenance": [
          {
            "activity_id": "47698581-40f4-4237-b885-2394793fe218",
            "timestamp": "2026-03-21T10:15:00.175428Z",
            "was_generated_by": {
              "tool": "rep-parser",
              "tool_version": "1.0.0",
              "parameters": []
            },
            "used": [],
            "generated": [
              "31864f4f-3a6e-4e25-80c0-3137519e0d69"
            ],
            "execution_duration": "PT0S"
          }
        ]
      }
    },
    {
      "type": "Feature",
      "id": "ac833e61-82da-4957-a9e1-595d67783955",
      "geometry": {
        "type": "Point",
        "coordinates": []
      },
      "properties": {
        "kind": "NARRATIVE",
        "time": "1995-12-12T10:22:39+00:00",
        "text": "CMD_COMMENT FAILURE ON CIRCUIT 12, DAMAGE PROCESS 4",
        "track_id": "NELSON",
        "style": {
          "shape": "circle",
          "radius": 3.0,
          "fill_color": "#808080",
          "color": "#808080"
        },
        "provenance": [
          {
            "activity_id": "47698581-40f4-4237-b885-2394793fe218",
            "timestamp": "2026-03-21T10:15:00.175428Z",
            "was_generated_by": {
              "tool": "rep-parser",
              "tool_version": "1.0.0",
              "parameters": []
            },
            "used": [],
            "generated": [
              "ac833e61-82da-4957-a9e1-595d67783955"
            ],
            "execution_duration": "PT0S"
          }
        ]
      }
    },
    {
      "type": "Feature",
      "id": "980daa2d-625c-4a13-97eb-faa9df3f81d8",
      "geometry": {
        "type": "Point",
        "coordinates": []
      },
      "properties": {
        "kind": "NARRATIVE",
        "time": "1995-12-12T10:29:00+00:00",
        "text": "CMD_COMMENT PROCESS 4 COMPLETE, START EVASIVE",
        "track_id": "NELSON",
        "style": {
          "shape": "circle",
          "radius": 3.0,
          "fill_color": "#808080",
          "color": "#808080"
        },
        "provenance": [
          {
            "activity_id": "47698581-40f4-4237-b885-2394793fe218",
            "timestamp": "2026-03-21T10:15:00.175428Z",
            "was_generated_by": {
              "tool": "rep-parser",
              "tool_version": "1.0.0",
              "parameters": []
            },
            "used": [],
            "generated": [
              "980daa2d-625c-4a13-97eb-faa9df3f81d8"
            ],
            "execution_duration": "PT0S"
          }
        ]
      }
    },
    {
      "type": "Feature",
      "id": "f613b1e5-9597-4618-b5ab-122cec5adda7",
      "geometry": {
        "type": "Point",
        "coordinates": []
      },
      "properties": {
        "kind": "NARRATIVE",
        "time": "1995-12-12T10:29:00+00:00",
        "text": "NEW_CONTACT PLAYMATE FOUND, LAUNCH WATERSHOT, ENTER MELEE",
        "track_id": "NELSON",
        "style": {
          "shape": "circle",
          "radius": 3.0,
          "fill_color": "#808080",
          "color": "#808080"
        },
        "provenance": [
          {
            "activity_id": "47698581-40f4-4237-b885-2394793fe218",
            "timestamp": "2026-03-21T10:15:00.175428Z",
            "was_generated_by": {
              "tool": "rep-parser",
              "tool_version": "1.0.0",
              "parameters": []
            },
            "used": [],
            "generated": [
              "f613b1e5-9597-4618-b5ab-122cec5adda7"
            ],
            "execution_duration": "PT0S"
          }
        ]
      }
    },
    {
      "type": "Feature",
      "id": "2c133ed7-8ed2-46ae-9066-fe484b93a4ac",
      "geometry": {
        "type": "Point",
        "coordinates": []
      },
      "properties": {
        "kind": "NARRATIVE",
        "time": "1995-12-12T10:30:00+00:00",
        "text": "CMD_COMMENT WATERSHOT HEARD, EVASIVE MANOEUVRES",
        "track_id": "COLLINGWOOD",
        "style": {
          "shape": "circle",
          "radius": 3.0,
          "fill_color": "#808080",
          "color": "#808080"
        },
        "provenance": [
          {
            "activity_id": "47698581-40f4-4237-b885-2394793fe218",
            "timestamp": "2026-03-21T10:15:00.175428Z",
            "was_generated_by": {
              "tool": "rep-parser",
              "tool_version": "1.0.0",
              "parameters": []
            },
            "used": [],
            "generated": [
              "2c133ed7-8ed2-46ae-9066-fe484b93a4ac"
            ],
            "execution_duration": "PT0S"
          }
        ]
      }
    },
    {
      "type": "Feature",
      "id": "7d3dcc05-6508-45a9-824f-349a56699bc1",
      "geometry": {
        "type": "Point",
        "coordinates": []
      },
      "properties": {
        "kind": "NARRATIVE",
        "time": "1995-12-12T11:25:00+00:00",
        "text": "ENDEX FINEX HEARD, END OF SERIAL 12E",
        "track_id": "COLLINGWOOD",
        "style": {
          "shape": "circle",
          "radius": 3.0,
          "fill_color": "#808080",
          "color": "#808080"
        },
        "provenance": [
          {
            "activity_id": "47698581-40f4-4237-b885-2394793fe218",
            "timestamp": "2026-03-21T10:15:00.175428Z",
            "was_generated_by": {
              "tool": "rep-parser",
              "tool_version": "1.0.0",
              "parameters": []
            },
            "used": [],
            "generated": [
              "7d3dcc05-6508-45a9-824f-349a56699bc1"
            ],
            "execution_duration": "PT0S"
          }
        ]
      }
    },
    {
      "type": "Feature",
      "id": "27065bf7-5048-4a8c-8fd5-faab56192420",
      "geometry": {
        "type": "Point",
        "coordinates": []
      },
      "properties": {
        "kind": "NARRATIVE",
        "time": "1995-12-12T11:25:00+00:00",
        "text": "ENDEX FINEX HEARD, COMMENCE PLOT LOCK",
        "track_id": "NELSON",
        "style": {
          "shape": "circle",
          "radius": 3.0,
          "fill_color": "#808080",
          "color": "#808080"
        },
        "provenance": [
          {
            "activity_id": "47698581-40f4-4237-b885-2394793fe218",
            "timestamp": "2026-03-21T10:15:00.175428Z",
            "was_generated_by": {
              "tool": "rep-parser",
              "tool_version": "1.0.0",
              "parameters": []
            },
            "used": [],
            "generated": [
              "27065bf7-5048-4a8c-8fd5-faab56192420"
            ],
            "execution_duration": "PT0S"
          }
        ]
      }
    }
  ]
}
