{
  "type": "FeatureCollection",
  "features": [
    {
      "type": "Feature",
      "id": "70f063a0-c288-441a-8f11-52c38835fbdc",
      "geometry": null,
      "properties": {
        "kind": "SENSOR2",
        "track_id": "SENSOR",
        "bearing": 12.0,
        "range": 0.0,
        "frequency": null,
        "speed": 0.0,
        "sensor_type": "00",
        "timestamp": "2010-01-12T12:00:00+00:00",
        "label": "00.00 W 000.00 222.00 100.030 NULL \"tail sensor\" SUBJECT held on tail sensor",
        "symbol": "A",
        "style": {
          "stroke": true,
          "color": "#0000FF",
          "weight": 1,
          "opacity": 1.0
        }
      }
    },
    {
      "type": "Feature",
      "id": "aa5ec4d9-ad05-4608-87a5-be45065f9f8a",
      "geometry": null,
      "properties": {
        "kind": "SENSOR2",
        "track_id": "SENSOR",
        "bearing": 11.0,
        "range": 51.97,
        "frequency": null,
        "speed": 0.0,
        "sensor_type": "00",
        "timestamp": "2010-01-12T12:04:00+00:00",
        "label": "42.07 E 348.89 231.10 100.018 NULL \"tail sensor\" SUBJECT held on tail sensor",
        "symbol": "A",
        "style": {
          "stroke": true,
          "color": "#0000FF",
          "weight": 1,
          "opacity": 1.0
        }
      }
    },
    {
      "type": "Feature",
      "id": "1ec9995c-a9be-43e6-862a-219d318149cf",
      "geometry": null,
      "properties": {
        "kind": "SENSOR2",
        "track_id": "SENSOR",
        "bearing": 11.0,
        "range": 55.56,
        "frequency": null,
        "speed": 0.0,
        "sensor_type": "00",
        "timestamp": "2010-01-12T12:08:00+00:00",
        "label": "23.29 E 346.70 233.30 100.015 NULL \"tail sensor\" SUBJECT held on tail sensor",
        "symbol": "A",
        "style": {
          "stroke": true,
          "color": "#0000FF",
          "weight": 1,
          "opacity": 1.0
        }
      }
    },
    {
      "type": "Feature",
      "id": "ca370ba8-bc66-4f16-bd4e-6333bd76422d",
      "geometry": null,
      "properties": {
        "kind": "SENSOR2",
        "track_id": "SENSOR",
        "bearing": 11.0,
        "range": 59.14,
        "frequency": null,
        "speed": 0.0,
        "sensor_type": "00",
        "timestamp": "2010-01-12T12:12:00+00:00",
        "label": "04.50 E 344.47 235.53 100.013 NULL \"tail sensor\" SUBJECT held on tail sensor",
        "symbol": "A",
        "style": {
          "stroke": true,
          "color": "#0000FF",
          "weight": 1,
          "opacity": 1.0
        }
      }
    },
    {
      "type": "Feature",
      "id": "e58d835a-99f3-459f-9dd6-4f08cf727c77",
      "geometry": null,
      "properties": {
        "kind": "SENSOR2",
        "track_id": "SENSOR",
        "bearing": 12.0,
        "range": 2.6,
        "frequency": null,
        "speed": 0.0,
        "sensor_type": "00",
        "timestamp": "2010-01-12T12:16:00+00:00",
        "label": "14.37 W 342.21 237.79 100.010 NULL \"tail sensor\" SUBJECT held on tail sensor",
        "symbol": "A",
        "style": {
          "stroke": true,
          "color": "#0000FF",
          "weight": 1,
          "opacity": 1.0
        }
      }
    },
    {
      "type": "Feature",
      "id": "f8c8d0fd-25a9-4cde-a253-f19b0847d878",
      "geometry": null,
      "properties": {
        "kind": "SENSOR2",
        "track_id": "SENSOR",
        "bearing": 12.0,
        "range": 6.02,
        "frequency": null,
        "speed": 0.0,
        "sensor_type": "00",
        "timestamp": "2010-01-12T12:20:00+00:00",
        "label": "33.28 W 339.94 240.06 100.008 NULL \"tail sensor\" SUBJECT held on tail sensor",
        "symbol": "A",
        "style": {
          "stroke": true,
          "color": "#0000FF",
          "weight": 1,
          "opacity": 1.0
        }
      }
    },
    {
      "type": "Feature",
      "id": "b9cafcb1-667a-46fb-b002-fa9df84cb2fc",
      "geometry": null,
      "properties": {
        "kind": "SENSOR2",
        "track_id": "SENSOR",
        "bearing": 12.0,
        "range": 9.44,
        "frequency": null,
        "speed": 0.0,
        "sensor_type": "00",
        "timestamp": "2010-01-12T12:24:00+00:00",
        "label": "52.19 W 337.64 242.36 100.006 NULL \"tail sensor\" SUBJECT held on tail sensor",
        "symbol": "A",
        "style": {
          "stroke": true,
          "color": "#0000FF",
          "weight": 1,
          "opacity": 1.0
        }
      }
    },
    {
      "type": "Feature",
      "id": "37889570-22d9-41e1-a160-aac7b77c8d6f",
      "geometry": null,
      "properties": {
        "kind": "SENSOR2",
        "track_id": "SENSOR",
        "bearing": 12.0,
        "range": 12.86,
        "frequency": null,
        "speed": 0.0,
        "sensor_type": "01",
        "timestamp": "2010-01-12T12:28:00+00:00",
        "label": "11.10 W 335.33 244.67 100.003 NULL \"tail sensor\" SUBJECT held on tail sensor",
        "symbol": "A",
        "style": {
          "stroke": true,
          "color": "#0000FF",
          "weight": 1,
          "opacity": 1.0
        }
      }
    },
    {
      "type": "Feature",
      "id": "aa11a785-898f-4305-b3a5-e138021a1d17",
      "geometry": null,
      "properties": {
        "kind": "SENSOR2",
        "track_id": "SENSOR",
        "bearing": 12.0,
        "range": 16.28,
        "frequency": null,
        "speed": 0.0,
        "sensor_type": "01",
        "timestamp": "2010-01-12T12:32:00+00:00",
        "label": "30.01 W 333.01 246.99 100.000 NULL \"tail sensor\" SUBJECT held on tail sensor",
        "symbol": "A",
        "style": {
          "stroke": true,
          "color": "#0000FF",
          "weight": 1,
          "opacity": 1.0
        }
      }
    },
    {
      "type": "Feature",
      "id": "f199277e-49d2-4912-8162-c6817d710395",
      "geometry": null,
      "properties": {
        "kind": "SENSOR2",
        "track_id": "SENSOR",
        "bearing": 12.0,
        "range": 19.7,
        "frequency": null,
        "speed": 0.0,
        "sensor_type": "01",
        "timestamp": "2010-01-12T12:36:00+00:00",
        "label": "48.92 W 330.68 249.31 99.998 NULL \"tail sensor\" SUBJECT held on tail sensor",
        "symbol": "A",
        "style": {
          "stroke": true,
          "color": "#0000FF",
          "weight": 1,
          "opacity": 1.0
        }
      }
    },
    {
      "type": "Feature",
      "id": "c3657067-757b-40ca-ab0f-bedc64665672",
      "geometry": null,
      "properties": {
        "kind": "SENSOR2",
        "track_id": "SENSOR",
        "bearing": 12.0,
        "range": 23.12,
        "frequency": null,
        "speed": 0.0,
        "sensor_type": "02",
        "timestamp": "2010-01-12T12:40:00+00:00",
        "label": "07.84 W 328.37 251.63 99.995 NULL \"tail sensor\" SUBJECT held on tail sensor",
        "symbol": "A",
        "style": {
          "stroke": true,
          "color": "#0000FF",
          "weight": 1,
          "opacity": 1.0
        }
      }
    },
    {
      "type": "Feature",
      "id": "06cc2c7f-920f-4eef-8ebb-c9285371b7a8",
      "geometry": null,
      "properties": {
        "kind": "SENSOR2",
        "track_id": "SENSOR",
        "bearing": 12.0,
        "range": 26.54,
        "frequency": null,
        "speed": 0.0,
        "sensor_type": "02",
        "timestamp": "2010-01-12T12:44:00+00:00",
        "label": "26.75 W 326.07 253.93 99.993 NULL \"tail sensor\" SUBJECT held on tail sensor",
        "symbol": "A",
        "style": {
          "stroke": true,
          "color": "#0000FF",
          "weight": 1,
          "opacity": 1.0
        }
      }
    },
    {
      "type": "Feature",
      "id": "784ce108-2802-4650-a89f-cc941d9f76fc",
      "geometry": null,
      "properties": {
        "kind": "SENSOR2",
        "track_id": "SENSOR",
        "bearing": 12.0,
        "range": 29.96,
        "frequency": null,
        "speed": 0.0,
        "sensor_type": "02",
        "timestamp": "2010-01-12T12:48:00+00:00",
        "label": "45.66 W 323.79 256.21 99.990 NULL \"tail sensor\" SUBJECT held on tail sensor",
        "symbol": "A",
        "style": {
          "stroke": true,
          "color": "#0000FF",
          "weight": 1,
          "opacity": 1.0
        }
      }
    },
    {
      "type": "Feature",
      "id": "8f9e182f-e1b0-43df-acdd-3f770905a24d",
      "geometry": null,
      "properties": {
        "kind": "SENSOR2",
        "track_id": "SENSOR",
        "bearing": 12.0,
        "range": 33.38,
        "frequency": null,
        "speed": 0.0,
        "sensor_type": "03",
        "timestamp": "2010-01-12T12:52:00+00:00",
        "label": "04.58 W 321.53 258.46 99.988 NULL \"tail sensor\" SUBJECT held on tail sensor",
        "symbol": "A",
        "style": {
          "stroke": true,
          "color": "#0000FF",
          "weight": 1,
          "opacity": 1.0
        }
      }
    },
    {
      "type": "Feature",
      "id": "19661157-d6ac-412b-b0f0-e556f2f49208",
      "geometry": null,
      "properties": {
        "kind": "SENSOR2",
        "track_id": "SENSOR",
        "bearing": 12.0,
        "range": 36.8,
        "frequency": null,
        "speed": 0.0,
        "sensor_type": "03",
        "timestamp": "2010-01-12T12:56:00+00:00",
        "label": "23.49 W 319.32 260.68 99.986 NULL \"tail sensor\" SUBJECT held on tail sensor",
        "symbol": "A",
        "style": {
          "stroke": true,
          "color": "#0000FF",
          "weight": 1,
          "opacity": 1.0
        }
      }
    },
    {
      "type": "Feature",
      "id": "ba8371b3-f1dc-4cdf-8338-922b653f5917",
      "geometry": null,
      "properties": {
        "kind": "SENSOR2",
        "track_id": "SENSOR",
        "bearing": 12.0,
        "range": 40.22,
        "frequency": null,
        "speed": 0.0,
        "sensor_type": "03",
        "timestamp": "2010-01-12T13:00:00+00:00",
        "label": "42.40 W 317.14 262.86 99.983 NULL \"tail sensor\" SUBJECT held on tail sensor",
        "symbol": "A",
        "style": {
          "stroke": true,
          "color": "#0000FF",
          "weight": 1,
          "opacity": 1.0
        }
      }
    },
    {
      "type": "Feature",
      "id": "a35d116a-1f74-4e6c-ac3e-d4bb6ed3f0bf",
      "geometry": null,
      "properties": {
        "kind": "SENSOR2",
        "track_id": "SENSOR",
        "bearing": 12.0,
        "range": 43.64,
        "frequency": null,
        "speed": 0.0,
        "sensor_type": "04",
        "timestamp": "2010-01-12T13:04:00+00:00",
        "label": "01.32 W 315.01 264.99 99.981 NULL \"tail sensor\" SUBJECT held on tail sensor",
        "symbol": "A",
        "style": {
          "stroke": true,
          "color": "#0000FF",
          "weight": 1,
          "opacity": 1.0
        }
      }
    },
    {
      "type": "Feature",
      "id": "44d64f0a-89d5-41bc-901f-19edf59004f2",
      "geometry": null,
      "properties": {
        "kind": "SENSOR2",
        "track_id": "SENSOR",
        "bearing": 12.0,
        "range": 47.06,
        "frequency": null,
        "speed": 0.0,
        "sensor_type": "04",
        "timestamp": "2010-01-12T13:08:00+00:00",
        "label": "20.23 W 312.92 267.08 99.979 NULL \"tail sensor\" SUBJECT held on tail sensor",
        "symbol": "A",
        "style": {
          "stroke": true,
          "color": "#0000FF",
          "weight": 1,
          "opacity": 1.0
        }
      }
    },
    {
      "type": "Feature",
      "id": "ddb298b0-7768-4ba2-9951-5fd5acae7a18",
      "geometry": null,
      "properties": {
        "kind": "SENSOR2",
        "track_id": "SENSOR",
        "bearing": 12.0,
        "range": 50.4,
        "frequency": null,
        "speed": 0.0,
        "sensor_type": "04",
        "timestamp": "2010-01-12T13:12:00+00:00",
        "label": "38.68 W 310.87 180.71 99.933 NULL \"tail sensor\" SUBJECT held on tail sensor",
        "symbol": "A",
        "style": {
          "stroke": true,
          "color": "#0000FF",
          "weight": 1,
          "opacity": 1.0
        }
      }
    },
    {
      "type": "Feature",
      "id": "eb996b9a-1958-4f69-b682-5bb8d3e68e6e",
      "geometry": null,
      "properties": {
        "kind": "SENSOR2",
        "track_id": "SENSOR",
        "bearing": 12.0,
        "range": 53.74,
        "frequency": null,
        "speed": 0.0,
        "sensor_type": "04",
        "timestamp": "2010-01-12T13:16:00+00:00",
        "label": "57.14 W 308.87 094.27 99.869 NULL \"tail sensor\" SUBJECT held on tail sensor",
        "symbol": "A",
        "style": {
          "stroke": true,
          "color": "#0000FF",
          "weight": 1,
          "opacity": 1.0
        }
      }
    },
    {
      "type": "Feature",
      "id": "87ffdc58-5190-4ad4-bc5e-afbbb2ab47f1",
      "geometry": null,
      "properties": {
        "kind": "SENSOR2",
        "track_id": "SENSOR",
        "bearing": 12.0,
        "range": 57.08,
        "frequency": null,
        "speed": 0.0,
        "sensor_type": "05",
        "timestamp": "2010-01-12T13:20:00+00:00",
        "label": "15.63 W 306.94 020.19 99.824 NULL \"tail sensor\" SUBJECT held on tail sensor",
        "symbol": "A",
        "style": {
          "stroke": true,
          "color": "#0000FF",
          "weight": 1,
          "opacity": 1.0
        }
      }
    },
    {
      "type": "Feature",
      "id": "f5b84dd1-25eb-4979-b97c-64018bb229eb",
      "geometry": null,
      "properties": {
        "kind": "SENSOR2",
        "track_id": "SENSOR",
        "bearing": 12.0,
        "range": 57.89,
        "frequency": null,
        "speed": 0.0,
        "sensor_type": "05",
        "timestamp": "2010-01-12T13:24:00+00:00",
        "label": "35.38 W 305.74 021.05 99.823 NULL \"tail sensor\" SUBJECT held on tail sensor",
        "symbol": "A",
        "style": {
          "stroke": true,
          "color": "#0000FF",
          "weight": 1,
          "opacity": 1.0
        }
      }
    },
    {
      "type": "Feature",
      "id": "b85b763d-856e-44ec-b1bd-191fda1b9154",
      "geometry": null,
      "properties": {
        "kind": "SENSOR2",
        "track_id": "SENSOR",
        "bearing": 12.0,
        "range": 52.63,
        "frequency": null,
        "speed": 0.0,
        "sensor_type": "05",
        "timestamp": "2010-01-12T13:28:00+00:00",
        "label": "51.06 W 305.60 021.19 99.823 NULL \"tail sensor\" SUBJECT held on tail sensor",
        "symbol": "A",
        "style": {
          "stroke": true,
          "color": "#0000FF",
          "weight": 1,
          "opacity": 1.0
        }
      }
    },
    {
      "type": "Feature",
      "id": "f634354f-9ea0-4f5c-9e18-7862d549a5a0",
      "geometry": null,
      "properties": {
        "kind": "SENSOR2",
        "track_id": "SENSOR",
        "bearing": 12.0,
        "range": 43.35,
        "frequency": null,
        "speed": 0.0,
        "sensor_type": "05",
        "timestamp": "2010-01-12T13:32:00+00:00",
        "label": "54.67 W 305.42 021.37 99.823 NULL \"tail sensor\" SUBJECT held on tail sensor",
        "symbol": "A",
        "style": {
          "stroke": true,
          "color": "#0000FF",
          "weight": 1,
          "opacity": 1.0
        }
      }
    },
    {
      "type": "Feature",
      "id": "2cea6ce8-eedc-4419-877a-8b3246b9cde2",
      "geometry": null,
      "properties": {
        "kind": "SENSOR2",
        "track_id": "SENSOR",
        "bearing": 12.0,
        "range": 33.67,
        "frequency": null,
        "speed": 0.0,
        "sensor_type": "05",
        "timestamp": "2010-01-12T13:36:00+00:00",
        "label": "50.29 W 304.83 021.96 99.823 NULL \"tail sensor\" SUBJECT held on tail sensor",
        "symbol": "A",
        "style": {
          "stroke": true,
          "color": "#0000FF",
          "weight": 1,
          "opacity": 1.0
        }
      }
    },
    {
      "type": "Feature",
      "id": "467614e2-a13c-4f77-9693-9babe388aa02",
      "geometry": null,
      "properties": {
        "kind": "SENSOR2",
        "track_id": "SENSOR",
        "bearing": 12.0,
        "range": 24.08,
        "frequency": null,
        "speed": 0.0,
        "sensor_type": "05",
        "timestamp": "2010-01-12T13:40:00+00:00",
        "label": "44.54 W 304.23 022.56 99.822 NULL \"tail sensor\" SUBJECT held on tail sensor",
        "symbol": "A",
        "style": {
          "stroke": true,
          "color": "#0000FF",
          "weight": 1,
          "opacity": 1.0
        }
      }
    },
    {
      "type": "Feature",
      "id": "1f76db3d-5fff-42b2-95b3-b7a33e36d742",
      "geometry": null,
      "properties": {
        "kind": "SENSOR2",
        "track_id": "SENSOR",
        "bearing": 12.0,
        "range": 14.5,
        "frequency": null,
        "speed": 0.0,
        "sensor_type": "05",
        "timestamp": "2010-01-12T13:44:00+00:00",
        "label": "38.79 W 303.71 023.08 99.822 NULL \"tail sensor\" SUBJECT held on tail sensor",
        "symbol": "A",
        "style": {
          "stroke": true,
          "color": "#0000FF",
          "weight": 1,
          "opacity": 1.0
        }
      }
    },
    {
      "type": "Feature",
      "id": "78f3b74d-2e11-49df-abb0-2effa6aebc87",
      "geometry": null,
      "properties": {
        "kind": "SENSOR2",
        "track_id": "SENSOR",
        "bearing": 12.0,
        "range": 4.92,
        "frequency": null,
        "speed": 0.0,
        "sensor_type": "05",
        "timestamp": "2010-01-12T13:48:00+00:00",
        "label": "33.04 W 303.26 023.53 99.822 NULL \"tail sensor\" SUBJECT held on tail sensor",
        "symbol": "A",
        "style": {
          "stroke": true,
          "color": "#0000FF",
          "weight": 1,
          "opacity": 1.0
        }
      }
    },
    {
      "type": "Feature",
      "id": "dc40c789-c7ae-40ae-b6ff-86dd5e96680b",
      "geometry": null,
      "properties": {
        "kind": "SENSOR2",
        "track_id": "SENSOR",
        "bearing": 11.0,
        "range": 55.34,
        "frequency": null,
        "speed": 0.0,
        "sensor_type": "05",
        "timestamp": "2010-01-12T13:52:00+00:00",
        "label": "27.29 W 302.87 023.92 99.822 NULL \"tail sensor\" SUBJECT held on tail sensor",
        "symbol": "A",
        "style": {
          "stroke": true,
          "color": "#0000FF",
          "weight": 1,
          "opacity": 1.0
        }
      }
    },
    {
      "type": "Feature",
      "id": "58c3a8f9-9eb3-4e19-9f1e-f09cf336161e",
      "geometry": null,
      "properties": {
        "kind": "SENSOR2",
        "track_id": "SENSOR",
        "bearing": 11.0,
        "range": 45.75,
        "frequency": null,
        "speed": 0.0,
        "sensor_type": "05",
        "timestamp": "2010-01-12T13:56:00+00:00",
        "label": "21.54 W 302.52 024.27 99.822 NULL \"tail sensor\" SUBJECT held on tail sensor",
        "symbol": "A",
        "style": {
          "stroke": true,
          "color": "#0000FF",
          "weight": 1,
          "opacity": 1.0
        }
      }
    },
    {
      "type": "Feature",
      "id": "80ace07c-0d11-4e36-9ecc-54d0ed826313",
      "geometry": null,
      "properties": {
        "kind": "SENSOR2",
        "track_id": "SENSOR",
        "bearing": 11.0,
        "range": 36.17,
        "frequency": null,
        "speed": 0.0,
        "sensor_type": "05",
        "timestamp": "2010-01-12T14:00:00+00:00",
        "label": "15.79 W 302.21 024.58 99.822 NULL \"tail sensor\" SUBJECT held on tail sensor",
        "symbol": "A",
        "style": {
          "stroke": true,
          "color": "#0000FF",
          "weight": 1,
          "opacity": 1.0
        }
      }
    }
  ]
}