{
  "type": "FeatureCollection",
  "features": [
    {
      "type": "Feature",
      "id": "1a82ec05-fadc-4e72-8fb3-8e9c0182ea34",
      "geometry": {
        "type": "LineString",
        "coordinates": [
          [
            -21.593774999999997,
            21.894219444444445
          ],
          [
            -21.593763888888887,
            21.895469444444444
          ],
          [
            -21.593777777777778,
            21.896694444444442
          ],
          [
            -21.593822222222222,
            21.89791111111111
          ],
          [
            -21.59381111111111,
            21.899116666666668
          ],
          [
            -21.593777777777778,
            21.900319444444442
          ],
          [
            -21.59381388888889,
            21.901519444444443
          ],
          [
            -21.593855555555553,
            21.902716666666667
          ],
          [
            -21.593825,
            21.90390833333333
          ],
          [
            -21.593805555555555,
            21.905083333333334
          ],
          [
            -21.59383611111111,
            21.906269444444444
          ],
          [
            -21.59387222222222,
            21.90744722222222
          ],
          [
            -21.59387222222222,
            21.90863333333333
          ],
          [
            -21.59383611111111,
            21.909813888888888
          ],
          [
            -21.593841666666666,
            21.910988888888888
          ],
          [
            -21.59388333333333,
            21.91214722222222
          ],
          [
            -21.59388333333333,
            21.913313888888887
          ],
          [
            -21.593863888888887,
            21.9145
          ],
          [
            -21.593863888888887,
            21.915691666666664
          ],
          [
            -21.593891666666664,
            21.916861111111114
          ],
          [
            -21.593899999999998,
            21.918025
          ],
          [
            -21.593880555555554,
            21.919216666666667
          ],
          [
            -21.593902777777778,
            21.92041388888889
          ],
          [
            -21.59394722222222,
            21.921591666666668
          ],
          [
            -21.593780555555554,
            21.92276111111111
          ],
          [
            -21.59322222222222,
            21.92383611111111
          ],
          [
            -21.59229722222222,
            21.92475
          ],
          [
            -21.591199999999997,
            21.92561388888889
          ],
          [
            -21.59013333333333,
            21.926505555555558
          ],
          [
            -21.589069444444444,
            21.927400000000002
          ],
          [
            -21.58795,
            21.92828888888889
          ],
          [
            -21.586852777777775,
            21.92915
          ],
          [
            -21.585769444444445,
            21.930052777777778
          ],
          [
            -21.584716666666665,
            21.930961111111113
          ],
          [
            -21.583619444444444,
            21.931830555555557
          ],
          [
            -21.582502777777776,
            21.932725
          ],
          [
            -21.581425,
            21.933644444444443
          ],
          [
            -21.580319444444445,
            21.934558333333335
          ],
          [
            -21.579197222222223,
            21.935447222222223
          ],
          [
            -21.57807222222222,
            21.93633611111111
          ],
          [
            -21.576983333333335,
            21.937236111111112
          ],
          [
            -21.575941666666665,
            21.938116666666666
          ],
          [
            -21.57485833333333,
            21.938972222222223
          ],
          [
            -21.57380277777778,
            21.939908333333335
          ],
          [
            -21.572983333333333,
            21.941075
          ],
          [
            -21.57275,
            21.942433333333334
          ],
          [
            -21.573255555555555,
            21.94376388888889
          ],
          [
            -21.574144444444443,
            21.94495277777778
          ],
          [
            -21.57511388888889,
            21.946066666666667
          ],
          [
            -21.57603888888889,
            21.947155555555558
          ],
          [
            -21.576927777777776,
            21.948238888888888
          ],
          [
            -21.577802777777777,
            21.949291666666667
          ],
          [
            -21.578730555555556,
            21.950352777777777
          ],
          [
            -21.57961111111111,
            21.95138888888889
          ],
          [
            -21.58046111111111,
            21.95242777777778
          ],
          [
            -21.58131388888889,
            21.953455555555554
          ],
          [
            -21.582216666666667,
            21.954491666666666
          ],
          [
            -21.583091666666668,
            21.955516666666664
          ],
          [
            -21.583944444444445,
            21.95655
          ],
          [
            -21.584841666666666,
            21.957569444444445
          ],
          [
            -21.585708333333333,
            21.958583333333333
          ],
          [
            -21.586541666666665,
            21.959616666666665
          ],
          [
            -21.587363888888888,
            21.960663888888888
          ],
          [
            -21.58823888888889,
            21.96168611111111
          ],
          [
            -21.589127777777776,
            21.96269722222222
          ],
          [
            -21.590019444444444,
            21.96375
          ],
          [
            -21.590891666666664,
            21.964802777777777
          ],
          [
            -21.59178611111111,
            21.965825
          ],
          [
            -21.592669444444443,
            21.966827777777777
          ],
          [
            -21.59352222222222,
            21.967847222222222
          ],
          [
            -21.59435,
            21.96888333333333
          ],
          [
            -21.595205555555555,
            21.96989722222222
          ],
          [
            -21.596083333333333,
            21.970919444444444
          ],
          [
            -21.59693888888889,
            21.971958333333333
          ],
          [
            -21.5978,
            21.973013888888886
          ],
          [
            -21.598733333333332,
            21.97407222222222
          ],
          [
            -21.59968333333333,
            21.97513888888889
          ],
          [
            -21.600597222222223,
            21.97624722222222
          ],
          [
            -21.60150555555556,
            21.977361111111108
          ],
          [
            -21.60247777777778,
            21.97846111111111
          ],
          [
            -21.60344166666667,
            21.979588888888888
          ],
          [
            -21.604361111111114,
            21.98073611111111
          ],
          [
            -21.605369444444445,
            21.981883333333332
          ],
          [
            -21.606386111111114,
            21.983036111111108
          ],
          [
            -21.60740277777778,
            21.98426388888889
          ],
          [
            -21.608441666666668,
            21.985519444444446
          ],
          [
            -21.609516666666668,
            21.986758333333334
          ],
          [
            -21.610533333333336,
            21.988011111111113
          ],
          [
            -21.61170277777778,
            21.989186111111113
          ],
          [
            -21.613275,
            21.990044444444447
          ],
          [
            -21.61518888888889,
            21.990472222222223
          ],
          [
            -21.617169444444446,
            21.990355555555556
          ],
          [
            -21.618891666666666,
            21.98972777777778
          ],
          [
            -21.620097222222224,
            21.988697222222225
          ],
          [
            -21.620722222222224,
            21.987458333333333
          ],
          [
            -21.621072222222224,
            21.986102777777777
          ],
          [
            -21.62142777777778,
            21.984733333333335
          ],
          [
            -21.621861111111112,
            21.983355555555555
          ],
          [
            -21.62253888888889,
            21.982024999999997
          ],
          [
            -21.623691666666666,
            21.98089722222222
          ],
          [
            -21.625308333333333,
            21.980124999999997
          ],
          [
            -21.627236111111113,
            21.979799999999997
          ],
          [
            -21.62912777777778,
            21.980013888888887
          ],
          [
            -21.630797222222224,
            21.980702777777775
          ],
          [
            -21.63232777777778,
            21.98159722222222
          ],
          [
            -21.633891666666667,
            21.982474999999997
          ],
          [
            -21.635477777777776,
            21.98336666666667
          ],
          [
            -21.637055555555555,
            21.984302777777778
          ],
          [
            -21.638672222222223,
            21.98520277777778
          ],
          [
            -21.6403,
            21.98611388888889
          ],
          [
            -21.641880555555556,
            21.987061111111114
          ],
          [
            -21.64347777777778,
            21.987969444444445
          ],
          [
            -21.6451,
            21.98888888888889
          ],
          [
            -21.646725,
            21.989825
          ],
          [
            -21.64833611111111,
            21.99076388888889
          ],
          [
            -21.64993888888889,
            21.991694444444445
          ],
          [
            -21.65157222222222,
            21.992633333333334
          ],
          [
            -21.653188888888888,
            21.993580555555557
          ],
          [
            -21.654833333333332,
            21.994533333333333
          ],
          [
            -21.656488888888887,
            21.995491666666666
          ],
          [
            -21.658144444444442,
            21.996433333333336
          ],
          [
            -21.659783333333333,
            21.997380555555555
          ],
          [
            -21.661413888888887,
            21.99833611111111
          ],
          [
            -21.663038888888888,
            21.99928611111111
          ],
          [
            -21.66469722222222,
            22.000222222222224
          ],
          [
            -21.666330555555554,
            22.00116388888889
          ],
          [
            -21.66796111111111,
            22.00211388888889
          ],
          [
            -21.66959166666667,
            22.003055555555555
          ],
          [
            -21.671225,
            22.00401388888889
          ],
          [
            -21.672847222222224,
            22.004952777777778
          ],
          [
            -21.674494444444445,
            22.00588611111111
          ],
          [
            -21.676108333333335,
            22.006833333333333
          ],
          [
            -21.67774166666667,
            22.007786111111113
          ],
          [
            -21.67938611111111,
            22.00871666666667
          ],
          [
            -21.68104166666667,
            22.009647222222224
          ],
          [
            -21.682680555555557,
            22.010577777777776
          ],
          [
            -21.684308333333334,
            22.01151388888889
          ],
          [
            -21.685961111111112,
            22.012463888888888
          ],
          [
            -21.687605555555557,
            22.013425
          ],
          [
            -21.689238888888887,
            22.014366666666668
          ],
          [
            -21.690875000000002,
            22.015319444444444
          ],
          [
            -21.692527777777777,
            22.016266666666667
          ],
          [
            -21.69417222222222,
            22.01718611111111
          ],
          [
            -21.69580277777778,
            22.018130555555555
          ],
          [
            -21.697416666666665,
            22.019091666666665
          ],
          [
            -21.699044444444446,
            22.02005833333333
          ],
          [
            -21.700680555555554,
            22.02102222222222
          ],
          [
            -21.702291666666667,
            22.021980555555555
          ],
          [
            -21.703913888888888,
            22.022930555555554
          ],
          [
            -21.705572222222223,
            22.023863888888886
          ],
          [
            -21.707325,
            22.02464722222222
          ],
          [
            -21.70926111111111,
            22.02481388888889
          ],
          [
            -21.710969444444444,
            22.024291666666667
          ],
          [
            -21.712494444444445,
            22.023480555555555
          ],
          [
            -21.71401111111111,
            22.022594444444444
          ],
          [
            -21.715566666666668,
            22.021694444444442
          ],
          [
            -21.717127777777776,
            22.02079722222222
          ],
          [
            -21.718725,
            22.019905555555553
          ],
          [
            -21.72030833333333,
            22.018969444444444
          ],
          [
            -21.721888888888888,
            22.018013888888888
          ],
          [
            -21.723505555555555,
            22.017083333333332
          ],
          [
            -21.725141666666666,
            22.01616388888889
          ],
          [
            -21.726763888888886,
            22.015227777777778
          ],
          [
            -21.72838611111111,
            22.014283333333335
          ],
          [
            -21.730013888888887,
            22.01333888888889
          ],
          [
            -21.73163333333333,
            22.012425
          ],
          [
            -21.733249999999998,
            22.011488888888888
          ],
          [
            -21.734897222222223,
            22.01053611111111
          ],
          [
            -21.736527777777777,
            22.009608333333333
          ],
          [
            -21.738155555555558,
            22.008683333333334
          ],
          [
            -21.73979166666667,
            22.007733333333334
          ],
          [
            -21.741419444444446,
            22.00679722222222
          ],
          [
            -21.743058333333334,
            22.00586388888889
          ],
          [
            -21.744683333333334,
            22.004933333333334
          ],
          [
            -21.74631666666667,
            22.00399722222222
          ],
          [
            -21.74794166666667,
            22.003066666666665
          ],
          [
            -21.749561111111113,
            22.002122222222223
          ],
          [
            -21.75119722222222,
            22.001177777777777
          ],
          [
            -21.75283888888889,
            22.000263888888888
          ],
          [
            -21.75448611111111,
            21.99933888888889
          ],
          [
            -21.756119444444444,
            21.998408333333334
          ],
          [
            -21.757725,
            21.99748611111111
          ],
          [
            -21.759355555555555,
            21.996555555555556
          ],
          [
            -21.761005555555556,
            21.995605555555557
          ],
          [
            -21.76263888888889,
            21.994675
          ],
          [
            -21.76427222222222,
            21.993747222222222
          ],
          [
            -21.76589166666667,
            21.992816666666666
          ],
          [
            -21.76751111111111,
            21.99188611111111
          ],
          [
            -21.76914722222222,
            21.99095277777778
          ],
          [
            -21.77078611111111,
            21.990019444444446
          ],
          [
            -21.772405555555554,
            21.989086111111114
          ],
          [
            -21.774033333333332,
            21.98813611111111
          ],
          [
            -21.775688888888887,
            21.987202777777778
          ],
          [
            -21.7773,
            21.98626388888889
          ],
          [
            -21.778938888888888,
            21.98531388888889
          ],
          [
            -21.780583333333333,
            21.984375
          ],
          [
            -21.782216666666667,
            21.983425
          ],
          [
            -21.783858333333335,
            21.98248611111111
          ],
          [
            -21.78551388888889,
            21.981552777777775
          ],
          [
            -21.787158333333334,
            21.980602777777776
          ],
          [
            -21.788797222222225,
            21.979666666666667
          ],
          [
            -21.790433333333336,
            21.978716666666664
          ],
          [
            -21.79206388888889,
            21.977774999999998
          ],
          [
            -21.79371111111111,
            21.976824999999998
          ],
          [
            -21.795344444444446,
            21.975883333333332
          ],
          [
            -21.796983333333333,
            21.974930555555552
          ],
          [
            -21.798625,
            21.973988888888886
          ],
          [
            -21.80026666666667,
            21.973055555555554
          ],
          [
            -21.80190277777778,
            21.97212222222222
          ],
          [
            -21.80353611111111,
            21.971188888888886
          ],
          [
            -21.805180555555555,
            21.970255555555553
          ],
          [
            -21.806833333333334,
            21.96932222222222
          ],
          [
            -21.80855,
            21.968513888888886
          ],
          [
            -21.810444444444446,
            21.968338888888887
          ],
          [
            -21.81198611111111,
            21.968925
          ],
          [
            -21.812722222222224,
            21.969977777777775
          ],
          [
            -21.81268888888889,
            21.971188888888886
          ],
          [
            -21.812383333333333,
            21.97245
          ],
          [
            -21.812047222222223,
            21.973775
          ],
          [
            -21.811680555555558,
            21.97511944444444
          ],
          [
            -21.811308333333333,
            21.976502777777775
          ],
          [
            -21.81096388888889,
            21.977888888888888
          ],
          [
            -21.810597222222224,
            21.979302777777775
          ],
          [
            -21.810225,
            21.980733333333333
          ],
          [
            -21.809880555555555,
            21.98216944444444
          ],
          [
            -21.80946666666667,
            21.983605555555556
          ],
          [
            -21.809075,
            21.98505
          ],
          [
            -21.8087,
            21.98648888888889
          ],
          [
            -21.808322222222223,
            21.987919444444444
          ],
          [
            -21.807944444444445,
            21.989361111111112
          ],
          [
            -21.807547222222222,
            21.99078888888889
          ],
          [
            -21.80716111111111,
            21.992205555555557
          ],
          [
            -21.806783333333335,
            21.993655555555556
          ],
          [
            -21.806419444444444,
            21.995105555555558
          ],
          [
            -21.80605277777778,
            21.99655277777778
          ],
          [
            -21.805658333333334,
            21.99798611111111
          ],
          [
            -21.805305555555556,
            21.999419444444445
          ],
          [
            -21.80495,
            22.000847222222223
          ],
          [
            -21.804583333333333,
            22.002288888888888
          ],
          [
            -21.804219444444445,
            22.00373888888889
          ],
          [
            -21.803875,
            22.00518888888889
          ],
          [
            -21.803497222222223,
            22.006619444444443
          ],
          [
            -21.80312222222222,
            22.008069444444445
          ],
          [
            -21.802758333333333,
            22.009516666666666
          ],
          [
            -21.80239166666667,
            22.010944444444444
          ],
          [
            -21.802,
            22.012394444444446
          ],
          [
            -21.801627777777778,
            22.013844444444445
          ],
          [
            -21.801244444444446,
            22.015297222222223
          ],
          [
            -21.800855555555557,
            22.01675277777778
          ],
          [
            -21.800494444444446,
            22.018202777777777
          ],
          [
            -21.800116666666668,
            22.019658333333332
          ],
          [
            -21.799747222222223,
            22.0211
          ],
          [
            -21.799372222222225,
            22.022552777777776
          ],
          [
            -21.79899166666667,
            22.02400833333333
          ],
          [
            -21.798611111111114,
            22.025455555555556
          ],
          [
            -21.798250000000003,
            22.026888888888887
          ],
          [
            -21.797894444444445,
            22.02833611111111
          ],
          [
            -21.79750277777778,
            22.029780555555554
          ],
          [
            -21.797116666666668,
            22.031227777777776
          ],
          [
            -21.796750000000003,
            22.03267222222222
          ],
          [
            -21.796375,
            22.034111111111113
          ],
          [
            -21.79598888888889,
            22.035561111111114
          ],
          [
            -21.795605555555557,
            22.03701666666667
          ],
          [
            -21.795261111111113,
            22.038455555555558
          ],
          [
            -21.794869444444448,
            22.039908333333337
          ],
          [
            -21.79450277777778,
            22.04138888888889
          ],
          [
            -21.794061111111112,
            22.042825
          ],
          [
            -21.793022222222223,
            22.043955555555556
          ],
          [
            -21.791386111111112,
            22.044472222222225
          ],
          [
            -21.78967777777778,
            22.044258333333335
          ],
          [
            -21.788400000000003,
            22.04345277777778
          ],
          [
            -21.78745277777778,
            22.042369444444446
          ],
          [
            -21.786511111111114,
            22.041211111111114
          ],
          [
            -21.785566666666668,
            22.04002777777778
          ],
          [
            -21.7845,
            22.038883333333334
          ],
          [
            -21.78298611111111,
            22.038108333333334
          ],
          [
            -21.78121111111111,
            22.03805277777778
          ],
          [
            -21.779733333333333,
            22.038655555555557
          ],
          [
            -21.778938888888888,
            22.03967777777778
          ],
          [
            -21.778513888888888,
            22.0409
          ],
          [
            -21.778166666666667,
            22.042197222222224
          ],
          [
            -21.77782222222222,
            22.043519444444446
          ],
          [
            -21.77743611111111,
            22.044875
          ],
          [
            -21.777044444444442,
            22.04626388888889
          ],
          [
            -21.776691666666665,
            22.04768055555556
          ],
          [
            -21.776374999999998,
            22.04909166666667
          ],
          [
            -21.776005555555553,
            22.050516666666667
          ],
          [
            -21.77561111111111,
            22.051941666666668
          ],
          [
            -21.77521388888889,
            22.05336388888889
          ],
          [
            -21.774863888888888,
            22.054797222222223
          ],
          [
            -21.774530555555554,
            22.05623611111111
          ],
          [
            -21.77415,
            22.057658333333332
          ],
          [
            -21.773752777777776,
            22.059083333333334
          ],
          [
            -21.773422222222223,
            22.060505555555558
          ],
          [
            -21.773075,
            22.061936111111113
          ],
          [
            -21.77268611111111,
            22.063366666666667
          ],
          [
            -21.772327777777775,
            22.064811111111112
          ],
          [
            -21.772008333333332,
            22.06626111111111
          ],
          [
            -21.771602777777776,
            22.067691666666665
          ],
          [
            -21.7712,
            22.069130555555557
          ],
          [
            -21.770863888888886,
            22.070574999999998
          ],
          [
            -21.770494444444445,
            22.07201388888889
          ],
          [
            -21.770102777777776,
            22.073463888888888
          ],
          [
            -21.76978611111111,
            22.074905555555556
          ],
          [
            -21.769430555555555,
            22.076338888888888
          ],
          [
            -21.769025,
            22.07778888888889
          ],
          [
            -21.7687,
            22.079230555555554
          ],
          [
            -21.76836388888889,
            22.080661111111112
          ],
          [
            -21.767988888888887,
            22.082102777777777
          ],
          [
            -21.767627777777776,
            22.083530555555555
          ],
          [
            -21.767255555555554,
            22.08497222222222
          ],
          [
            -21.766869444444442,
            22.086430555555555
          ],
          [
            -21.766508333333334,
            22.08787222222222
          ],
          [
            -21.766116666666665,
            22.089316666666665
          ],
          [
            -21.765744444444444,
            22.09078611111111
          ],
          [
            -21.765391666666666,
            22.092219444444442
          ],
          [
            -21.765027777777778,
            22.093666666666664
          ],
          [
            -21.764636111111113,
            22.095116666666666
          ],
          [
            -21.764263888888888,
            22.096538888888887
          ],
          [
            -21.76388888888889,
            22.09797222222222
          ],
          [
            -21.76348888888889,
            22.099408333333333
          ],
          [
            -21.7631,
            22.10085
          ],
          [
            -21.762747222222224,
            22.10231388888889
          ],
          [
            -21.76236111111111,
            22.10377777777778
          ],
          [
            -21.761955555555556,
            22.10521388888889
          ],
          [
            -21.761591666666668,
            22.106655555555555
          ],
          [
            -21.7612,
            22.10808888888889
          ],
          [
            -21.760825,
            22.109519444444445
          ],
          [
            -21.760544444444445,
            22.110950000000003
          ],
          [
            -21.760886111111112,
            22.1123
          ],
          [
            -21.76213611111111,
            22.11325
          ],
          [
            -21.763852777777778,
            22.11372777777778
          ],
          [
            -21.765744444444444,
            22.11405277777778
          ],
          [
            -21.767688888888888,
            22.114405555555557
          ],
          [
            -21.76951111111111,
            22.114941666666667
          ],
          [
            -21.77076111111111,
            22.115875000000003
          ],
          [
            -21.771102777777777,
            22.11705277777778
          ],
          [
            -21.770480555555555,
            22.11815
          ],
          [
            -21.769099999999998,
            22.118886111111113
          ],
          [
            -21.76741388888889,
            22.119269444444445
          ],
          [
            -21.76592777777778,
            22.11981666666667
          ],
          [
            -21.765302777777777,
            22.12077777777778
          ],
          [
            -21.765425,
            22.121972222222222
          ],
          [
            -21.766605555555557,
            22.122975
          ],
          [
            -21.768544444444444,
            22.123069444444447
          ],
          [
            -21.770072222222222,
            22.122125
          ],
          [
            -21.770494444444445,
            22.12064722222222
          ],
          [
            -21.76931111111111,
            22.119594444444445
          ],
          [
            -21.767194444444442,
            22.11936111111111
          ],
          [
            -21.764544444444443,
            22.119280555555555
          ],
          [
            -21.763205555555555,
            22.118191666666668
          ],
          [
            -21.764552777777777,
            22.117275
          ],
          [
            -21.767113888888886,
            22.117469444444446
          ],
          [
            -21.76802222222222,
            22.11897777777778
          ],
          [
            -21.767319444444443,
            22.120997222222222
          ],
          [
            -21.76493333333333,
            22.121536111111112
          ],
          [
            -21.763461111111113,
            22.120077777777777
          ],
          [
            -21.763575,
            22.117783333333335
          ],
          [
            -21.76267222222222,
            22.115833333333335
          ],
          [
            -21.760619444444444,
            22.115963888888892
          ],
          [
            -21.759855555555557,
            22.117725
          ],
          [
            -21.759494444444446,
            22.12
          ],
          [
            -21.757697222222223,
            22.120555555555555
          ],
          [
            -21.75715,
            22.11938888888889
          ],
          [
            -21.75756388888889,
            22.117508333333333
          ],
          [
            -21.756005555555557,
            22.11610277777778
          ],
          [
            -21.753594444444445,
            22.116661111111114
          ],
          [
            -21.752608333333335,
            22.11862222222222
          ],
          [
            -21.750547222222224,
            22.119758333333333
          ],
          [
            -21.748894444444446,
            22.118805555555557
          ],
          [
            -21.75006388888889,
            22.117580555555556
          ],
          [
            -21.75261666666667,
            22.117733333333334
          ],
          [
            -21.75486111111111,
            22.117066666666666
          ],
          [
            -21.756888888888888,
            22.115519444444445
          ],
          [
            -21.757383333333333,
            22.113797222222225
          ],
          [
            -21.755875,
            22.113022222222224
          ],
          [
            -21.754155555555556,
            22.11360277777778
          ],
          [
            -21.752608333333335,
            22.114783333333335
          ],
          [
            -21.750883333333334,
            22.116152777777778
          ],
          [
            -21.74911388888889,
            22.117569444444445
          ],
          [
            -21.747522222222223,
            22.118858333333336
          ],
          [
            -21.746077777777778,
            22.120016666666668
          ],
          [
            -21.745002777777778,
            22.121169444444444
          ],
          [
            -21.744305555555556,
            22.12233611111111
          ],
          [
            -21.743702777777777,
            22.12347777777778
          ],
          [
            -21.743105555555555,
            22.124561111111113
          ],
          [
            -21.742533333333334,
            22.125611111111112
          ],
          [
            -21.741975,
            22.126633333333334
          ],
          [
            -21.741436111111113,
            22.127644444444446
          ],
          [
            -21.7409,
            22.128655555555557
          ],
          [
            -21.740330555555555,
            22.12966666666667
          ],
          [
            -21.739786111111112,
            22.130683333333334
          ],
          [
            -21.73923611111111,
            22.131694444444445
          ],
          [
            -21.73871666666667,
            22.132691666666666
          ],
          [
            -21.738197222222222,
            22.133677777777777
          ],
          [
            -21.73765277777778,
            22.134674999999998
          ],
          [
            -21.73711666666667,
            22.135661111111112
          ],
          [
            -21.736586111111112,
            22.13663888888889
          ],
          [
            -21.73604166666667,
            22.137641666666667
          ],
          [
            -21.735469444444444,
            22.138733333333334
          ],
          [
            -21.734883333333336,
            22.139869444444443
          ],
          [
            -21.734255555555556,
            22.141041666666666
          ],
          [
            -21.733580555555555,
            22.142258333333334
          ]
        ]
      },
      "properties": {
        "kind": "TRACK",
        "platform_id": "COLLINGWOOD",
        "platform_name": "COLLINGWOOD",
        "track_type": "CONTACT",
        "start_time": "1995-12-12T05:03:00+00:00",
        "end_time": "1995-12-12T11:45:00+00:00",
        "positions": [
          {
            "time": "1995-12-12T05:03:00+00:00",
            "course": 0.3,
            "speed": 3.5,
            "depth": 0.0
          },
          {
            "time": "1995-12-12T05:04:00+00:00",
            "course": 359.6,
            "speed": 3.5,
            "depth": 0.0
          },
          {
            "time": "1995-12-12T05:05:00+00:00",
            "course": 358.5,
            "speed": 3.5,
            "depth": 0.0
          },
          {
            "time": "1995-12-12T05:06:00+00:00",
            "course": 0.4,
            "speed": 3.5,
            "depth": 0.0
          },
          {
            "time": "1995-12-12T05:07:00+00:00",
            "course": 1.1,
            "speed": 3.5,
            "depth": 0.0
          },
          {
            "time": "1995-12-12T05:08:00+00:00",
            "course": 358.8,
            "speed": 3.5,
            "depth": 0.0
          },
          {
            "time": "1995-12-12T05:09:00+00:00",
            "course": 358.7,
            "speed": 3.5,
            "depth": 0.0
          },
          {
            "time": "1995-12-12T05:10:00+00:00",
            "course": 0.9,
            "speed": 3.5,
            "depth": 0.0
          },
          {
            "time": "1995-12-12T05:11:10+00:00",
            "course": 0.7,
            "speed": 3.5,
            "depth": 0.0
          },
          {
            "time": "1995-12-12T05:12:20+00:00",
            "course": 359.1,
            "speed": 3.5,
            "depth": 0.0
          },
          {
            "time": "1995-12-12T05:13:30+00:00",
            "course": 358.8,
            "speed": 3.5,
            "depth": 0.0
          },
          {
            "time": "1995-12-12T05:14:40+00:00",
            "course": 0.0,
            "speed": 3.5,
            "depth": 0.0
          },
          {
            "time": "1995-12-12T05:15:50+00:00",
            "course": 1.2,
            "speed": 3.5,
            "depth": 0.0
          },
          {
            "time": "1995-12-12T05:16:20+00:00",
            "course": 359.7,
            "speed": 3.5,
            "depth": 0.0
          },
          {
            "time": "1995-12-12T05:17:00+00:00",
            "course": 358.6,
            "speed": 3.5,
            "depth": 0.0
          },
          {
            "time": "1995-12-12T05:18:00+00:00",
            "course": 0.0,
            "speed": 3.5,
            "depth": 0.0
          },
          {
            "time": "1995-12-12T05:19:00+00:00",
            "course": 0.7,
            "speed": 3.5,
            "depth": 0.0
          },
          {
            "time": "1995-12-12T05:20:00+00:00",
            "course": 0.0,
            "speed": 3.5,
            "depth": 0.0
          },
          {
            "time": "1995-12-12T05:21:00+00:00",
            "course": 359.1,
            "speed": 3.5,
            "depth": 0.0
          },
          {
            "time": "1995-12-12T05:22:00+00:00",
            "course": 359.7,
            "speed": 3.5,
            "depth": 0.0
          },
          {
            "time": "1995-12-12T05:23:00+00:00",
            "course": 0.7,
            "speed": 3.5,
            "depth": 0.0
          },
          {
            "time": "1995-12-12T05:24:00+00:00",
            "course": 359.2,
            "speed": 3.5,
            "depth": 0.0
          },
          {
            "time": "1995-12-12T05:25:00+00:00",
            "course": 358.5,
            "speed": 3.5,
            "depth": 0.0
          },
          {
            "time": "1995-12-12T05:26:00+00:00",
            "course": 5.6,
            "speed": 3.5,
            "depth": 0.0
          },
          {
            "time": "1995-12-12T05:27:00+00:00",
            "course": 19.7,
            "speed": 3.5,
            "depth": 0.0
          },
          {
            "time": "1995-12-12T05:28:00+00:00",
            "course": 34.7,
            "speed": 3.5,
            "depth": 0.0
          },
          {
            "time": "1995-12-12T05:29:00+00:00",
            "course": 41.1,
            "speed": 3.5,
            "depth": 0.0
          },
          {
            "time": "1995-12-12T05:30:00+00:00",
            "course": 39.3,
            "speed": 3.5,
            "depth": 0.0
          },
          {
            "time": "1995-12-12T05:31:00+00:00",
            "course": 39.2,
            "speed": 3.5,
            "depth": 0.0
          },
          {
            "time": "1995-12-12T05:32:00+00:00",
            "course": 40.8,
            "speed": 3.5,
            "depth": 0.0
          },
          {
            "time": "1995-12-12T05:33:00+00:00",
            "course": 41.1,
            "speed": 3.5,
            "depth": 0.0
          },
          {
            "time": "1995-12-12T05:34:00+00:00",
            "course": 39.4,
            "speed": 3.5,
            "depth": 0.0
          },
          {
            "time": "1995-12-12T05:35:00+00:00",
            "course": 38.5,
            "speed": 3.5,
            "depth": 0.0
          },
          {
            "time": "1995-12-12T05:36:00+00:00",
            "course": 40.8,
            "speed": 3.5,
            "depth": 0.0
          },
          {
            "time": "1995-12-12T05:37:00+00:00",
            "course": 40.6,
            "speed": 3.5,
            "depth": 0.0
          },
          {
            "time": "1995-12-12T05:38:00+00:00",
            "course": 38.8,
            "speed": 3.5,
            "depth": 0.0
          },
          {
            "time": "1995-12-12T05:39:00+00:00",
            "course": 39.6,
            "speed": 3.5,
            "depth": 0.0
          },
          {
            "time": "1995-12-12T05:40:00+00:00",
            "course": 40.9,
            "speed": 3.5,
            "depth": 0.0
          },
          {
            "time": "1995-12-12T05:41:00+00:00",
            "course": 40.9,
            "speed": 3.5,
            "depth": 0.0
          },
          {
            "time": "1995-12-12T05:42:00+00:00",
            "course": 39.6,
            "speed": 3.5,
            "depth": 0.0
          },
          {
            "time": "1995-12-12T05:43:00+00:00",
            "course": 39.1,
            "speed": 3.5,
            "depth": 0.0
          },
          {
            "time": "1995-12-12T05:44:00+00:00",
            "course": 41.0,
            "speed": 3.5,
            "depth": 0.0
          },
          {
            "time": "1995-12-12T05:45:00+00:00",
            "course": 37.8,
            "speed": 3.5,
            "depth": 0.0
          },
          {
            "time": "1995-12-12T05:46:00+00:00",
            "course": 25.7,
            "speed": 3.5,
            "depth": 0.0
          },
          {
            "time": "1995-12-12T05:47:00+00:00",
            "course": 6.7,
            "speed": 3.5,
            "depth": 0.0
          },
          {
            "time": "1995-12-12T05:48:00+00:00",
            "course": 345.4,
            "speed": 3.5,
            "depth": 0.0
          },
          {
            "time": "1995-12-12T05:49:00+00:00",
            "course": 332.8,
            "speed": 3.5,
            "depth": 0.0
          },
          {
            "time": "1995-12-12T05:50:00+00:00",
            "course": 329.1,
            "speed": 3.5,
            "depth": 0.0
          },
          {
            "time": "1995-12-12T05:51:00+00:00",
            "course": 329.7,
            "speed": 3.5,
            "depth": 0.0
          },
          {
            "time": "1995-12-12T05:52:00+00:00",
            "course": 330.6,
            "speed": 3.5,
            "depth": 0.0
          },
          {
            "time": "1995-12-12T05:53:00+00:00",
            "course": 330.2,
            "speed": 3.5,
            "depth": 0.0
          },
          {
            "time": "1995-12-12T05:54:00+00:00",
            "course": 329.0,
            "speed": 3.5,
            "depth": 0.0
          },
          {
            "time": "1995-12-12T05:55:00+00:00",
            "course": 329.7,
            "speed": 3.5,
            "depth": 0.0
          },
          {
            "time": "1995-12-12T05:56:00+00:00",
            "course": 330.5,
            "speed": 3.5,
            "depth": 0.0
          },
          {
            "time": "1995-12-12T05:57:00+00:00",
            "course": 330.4,
            "speed": 3.5,
            "depth": 0.0
          },
          {
            "time": "1995-12-12T05:58:00+00:00",
            "course": 329.0,
            "speed": 3.5,
            "depth": 0.0
          },
          {
            "time": "1995-12-12T05:59:00+00:00",
            "course": 329.6,
            "speed": 3.5,
            "depth": 0.0
          },
          {
            "time": "1995-12-12T06:00:00+00:00",
            "course": 330.4,
            "speed": 3.5,
            "depth": 0.0
          },
          {
            "time": "1995-12-12T06:01:00+00:00",
            "course": 328.8,
            "speed": 3.5,
            "depth": 0.0
          },
          {
            "time": "1995-12-12T06:02:00+00:00",
            "course": 329.5,
            "speed": 3.5,
            "depth": 0.0
          },
          {
            "time": "1995-12-12T06:03:00+00:00",
            "course": 331.0,
            "speed": 3.5,
            "depth": 0.0
          },
          {
            "time": "1995-12-12T06:04:00+00:00",
            "course": 331.6,
            "speed": 3.5,
            "depth": 0.0
          },
          {
            "time": "1995-12-12T06:05:00+00:00",
            "course": 329.6,
            "speed": 3.5,
            "depth": 0.0
          },
          {
            "time": "1995-12-12T06:06:00+00:00",
            "course": 328.8,
            "speed": 3.5,
            "depth": 0.0
          },
          {
            "time": "1995-12-12T06:07:00+00:00",
            "course": 329.7,
            "speed": 3.5,
            "depth": 0.0
          },
          {
            "time": "1995-12-12T06:08:00+00:00",
            "course": 330.3,
            "speed": 3.5,
            "depth": 0.0
          },
          {
            "time": "1995-12-12T06:09:00+00:00",
            "course": 329.0,
            "speed": 3.5,
            "depth": 0.0
          },
          {
            "time": "1995-12-12T06:10:00+00:00",
            "course": 328.8,
            "speed": 3.5,
            "depth": 0.0
          },
          {
            "time": "1995-12-12T06:11:00+00:00",
            "course": 330.1,
            "speed": 3.5,
            "depth": 0.0
          },
          {
            "time": "1995-12-12T06:12:00+00:00",
            "course": 331.2,
            "speed": 3.5,
            "depth": 0.0
          },
          {
            "time": "1995-12-12T06:13:00+00:00",
            "course": 329.9,
            "speed": 3.5,
            "depth": 0.0
          },
          {
            "time": "1995-12-12T06:14:00+00:00",
            "course": 329.5,
            "speed": 3.5,
            "depth": 0.0
          },
          {
            "time": "1995-12-12T06:15:00+00:00",
            "course": 330.4,
            "speed": 3.5,
            "depth": 0.0
          },
          {
            "time": "1995-12-12T06:16:00+00:00",
            "course": 330.8,
            "speed": 3.5,
            "depth": 0.0
          },
          {
            "time": "1995-12-12T06:17:00+00:00",
            "course": 328.7,
            "speed": 3.5,
            "depth": 0.0
          },
          {
            "time": "1995-12-12T06:18:00+00:00",
            "course": 328.6,
            "speed": 3.5,
            "depth": 0.0
          },
          {
            "time": "1995-12-12T06:19:00+00:00",
            "course": 330.4,
            "speed": 3.5,
            "depth": 0.0
          },
          {
            "time": "1995-12-12T06:20:00+00:00",
            "course": 330.7,
            "speed": 3.5,
            "depth": 0.0
          },
          {
            "time": "1995-12-12T06:21:00+00:00",
            "course": 328.7,
            "speed": 3.5,
            "depth": 0.0
          },
          {
            "time": "1995-12-12T06:22:00+00:00",
            "course": 329.5,
            "speed": 3.5,
            "depth": 0.0
          },
          {
            "time": "1995-12-12T06:23:00+00:00",
            "course": 331.1,
            "speed": 3.5,
            "depth": 0.0
          },
          {
            "time": "1995-12-12T06:24:00+00:00",
            "course": 328.9,
            "speed": 3.5,
            "depth": 0.0
          },
          {
            "time": "1995-12-12T06:25:00+00:00",
            "course": 328.7,
            "speed": 3.5,
            "depth": 0.0
          },
          {
            "time": "1995-12-12T06:26:00+00:00",
            "course": 330.4,
            "speed": 3.5,
            "depth": 0.0
          },
          {
            "time": "1995-12-12T06:27:00+00:00",
            "course": 330.4,
            "speed": 3.5,
            "depth": 0.0
          },
          {
            "time": "1995-12-12T06:28:00+00:00",
            "course": 329.2,
            "speed": 3.5,
            "depth": 0.0
          },
          {
            "time": "1995-12-12T06:29:00+00:00",
            "course": 330.8,
            "speed": 3.5,
            "depth": 0.0
          },
          {
            "time": "1995-12-12T06:30:00+00:00",
            "course": 325.6,
            "speed": 3.5,
            "depth": 0.0
          },
          {
            "time": "1995-12-12T06:31:00+00:00",
            "course": 308.4,
            "speed": 3.5,
            "depth": 0.0
          },
          {
            "time": "1995-12-12T06:32:00+00:00",
            "course": 287.9,
            "speed": 3.5,
            "depth": 0.0
          },
          {
            "time": "1995-12-12T06:33:00+00:00",
            "course": 265.3,
            "speed": 3.5,
            "depth": 0.0
          },
          {
            "time": "1995-12-12T06:34:00+00:00",
            "course": 242.1,
            "speed": 3.5,
            "depth": 0.0
          },
          {
            "time": "1995-12-12T06:35:00+00:00",
            "course": 218.8,
            "speed": 3.5,
            "depth": 0.0
          },
          {
            "time": "1995-12-12T06:36:00+00:00",
            "course": 199.1,
            "speed": 3.5,
            "depth": 0.0
          },
          {
            "time": "1995-12-12T06:37:00+00:00",
            "course": 190.0,
            "speed": 3.5,
            "depth": 0.0
          },
          {
            "time": "1995-12-12T06:38:00+00:00",
            "course": 190.1,
            "speed": 3.5,
            "depth": 0.0
          },
          {
            "time": "1995-12-12T06:39:00+00:00",
            "course": 192.2,
            "speed": 3.5,
            "depth": 0.0
          },
          {
            "time": "1995-12-12T06:40:00+00:00",
            "course": 199.3,
            "speed": 3.5,
            "depth": 0.0
          },
          {
            "time": "1995-12-12T06:41:00+00:00",
            "course": 215.1,
            "speed": 3.5,
            "depth": 0.0
          },
          {
            "time": "1995-12-12T06:42:00+00:00",
            "course": 235.3,
            "speed": 3.5,
            "depth": 0.0
          },
          {
            "time": "1995-12-12T06:43:00+00:00",
            "course": 256.4,
            "speed": 3.5,
            "depth": 0.0
          },
          {
            "time": "1995-12-12T06:44:00+00:00",
            "course": 279.2,
            "speed": 3.5,
            "depth": 0.0
          },
          {
            "time": "1995-12-12T06:45:00+00:00",
            "course": 300.8,
            "speed": 3.5,
            "depth": 0.0
          },
          {
            "time": "1995-12-12T06:46:00+00:00",
            "course": 310.4,
            "speed": 3.5,
            "depth": 0.0
          },
          {
            "time": "1995-12-12T06:47:00+00:00",
            "course": 309.2,
            "speed": 3.5,
            "depth": 0.0
          },
          {
            "time": "1995-12-12T06:48:00+00:00",
            "course": 309.2,
            "speed": 3.5,
            "depth": 0.0
          },
          {
            "time": "1995-12-12T06:49:00+00:00",
            "course": 310.7,
            "speed": 3.5,
            "depth": 0.0
          },
          {
            "time": "1995-12-12T06:50:00+00:00",
            "course": 309.0,
            "speed": 3.5,
            "depth": 0.0
          },
          {
            "time": "1995-12-12T06:51:00+00:00",
            "course": 309.1,
            "speed": 3.5,
            "depth": 0.0
          },
          {
            "time": "1995-12-12T06:52:00+00:00",
            "course": 311.0,
            "speed": 3.5,
            "depth": 0.0
          },
          {
            "time": "1995-12-12T06:53:00+00:00",
            "course": 309.6,
            "speed": 3.5,
            "depth": 0.0
          },
          {
            "time": "1995-12-12T06:54:00+00:00",
            "course": 309.4,
            "speed": 3.5,
            "depth": 0.0
          },
          {
            "time": "1995-12-12T06:55:00+00:00",
            "course": 310.0,
            "speed": 3.5,
            "depth": 0.0
          },
          {
            "time": "1995-12-12T06:56:00+00:00",
            "course": 310.2,
            "speed": 3.5,
            "depth": 0.0
          },
          {
            "time": "1995-12-12T06:57:00+00:00",
            "course": 310.2,
            "speed": 3.5,
            "depth": 0.0
          },
          {
            "time": "1995-12-12T06:58:00+00:00",
            "course": 309.8,
            "speed": 3.5,
            "depth": 0.0
          },
          {
            "time": "1995-12-12T06:59:00+00:00",
            "course": 310.4,
            "speed": 3.5,
            "depth": 0.0
          },
          {
            "time": "1995-12-12T07:00:00+00:00",
            "course": 310.1,
            "speed": 3.5,
            "depth": 0.0
          },
          {
            "time": "1995-12-12T07:01:00+00:00",
            "course": 310.0,
            "speed": 3.5,
            "depth": 0.0
          },
          {
            "time": "1995-12-12T07:02:00+00:00",
            "course": 309.6,
            "speed": 3.5,
            "depth": 0.0
          },
          {
            "time": "1995-12-12T07:03:00+00:00",
            "course": 310.0,
            "speed": 3.5,
            "depth": 0.0
          },
          {
            "time": "1995-12-12T07:04:00+00:00",
            "course": 310.5,
            "speed": 3.5,
            "depth": 0.0
          },
          {
            "time": "1995-12-12T07:05:00+00:00",
            "course": 310.4,
            "speed": 3.5,
            "depth": 0.0
          },
          {
            "time": "1995-12-12T07:06:00+00:00",
            "course": 309.3,
            "speed": 3.5,
            "depth": 0.0
          },
          {
            "time": "1995-12-12T07:07:00+00:00",
            "course": 310.0,
            "speed": 3.5,
            "depth": 0.0
          },
          {
            "time": "1995-12-12T07:08:00+00:00",
            "course": 310.2,
            "speed": 3.5,
            "depth": 0.0
          },
          {
            "time": "1995-12-12T07:09:00+00:00",
            "course": 310.0,
            "speed": 3.5,
            "depth": 0.0
          },
          {
            "time": "1995-12-12T07:10:00+00:00",
            "course": 310.4,
            "speed": 3.5,
            "depth": 0.0
          },
          {
            "time": "1995-12-12T07:11:00+00:00",
            "course": 310.0,
            "speed": 3.5,
            "depth": 0.0
          },
          {
            "time": "1995-12-12T07:12:00+00:00",
            "course": 309.5,
            "speed": 3.5,
            "depth": 0.0
          },
          {
            "time": "1995-12-12T07:13:00+00:00",
            "course": 310.5,
            "speed": 3.5,
            "depth": 0.0
          },
          {
            "time": "1995-12-12T07:14:00+00:00",
            "course": 310.3,
            "speed": 3.5,
            "depth": 0.0
          },
          {
            "time": "1995-12-12T07:15:00+00:00",
            "course": 309.5,
            "speed": 3.5,
            "depth": 0.0
          },
          {
            "time": "1995-12-12T07:16:00+00:00",
            "course": 309.2,
            "speed": 3.5,
            "depth": 0.0
          },
          {
            "time": "1995-12-12T07:17:00+00:00",
            "course": 309.5,
            "speed": 3.5,
            "depth": 0.0
          },
          {
            "time": "1995-12-12T07:18:00+00:00",
            "course": 309.8,
            "speed": 3.5,
            "depth": 0.0
          },
          {
            "time": "1995-12-12T07:19:00+00:00",
            "course": 309.9,
            "speed": 3.5,
            "depth": 0.0
          },
          {
            "time": "1995-12-12T07:20:00+00:00",
            "course": 310.3,
            "speed": 3.5,
            "depth": 0.0
          },
          {
            "time": "1995-12-12T07:21:00+00:00",
            "course": 309.9,
            "speed": 3.5,
            "depth": 0.0
          },
          {
            "time": "1995-12-12T07:22:00+00:00",
            "course": 310.3,
            "speed": 3.5,
            "depth": 0.0
          },
          {
            "time": "1995-12-12T07:23:00+00:00",
            "course": 309.8,
            "speed": 3.5,
            "depth": 0.0
          },
          {
            "time": "1995-12-12T07:24:00+00:00",
            "course": 309.1,
            "speed": 3.5,
            "depth": 0.0
          },
          {
            "time": "1995-12-12T07:25:00+00:00",
            "course": 310.1,
            "speed": 3.5,
            "depth": 0.0
          },
          {
            "time": "1995-12-12T07:26:00+00:00",
            "course": 310.9,
            "speed": 3.5,
            "depth": 0.0
          },
          {
            "time": "1995-12-12T07:27:00+00:00",
            "course": 310.7,
            "speed": 3.5,
            "depth": 0.0
          },
          {
            "time": "1995-12-12T07:28:00+00:00",
            "course": 310.6,
            "speed": 3.5,
            "depth": 0.0
          },
          {
            "time": "1995-12-12T07:29:00+00:00",
            "course": 310.8,
            "speed": 3.5,
            "depth": 0.0
          },
          {
            "time": "1995-12-12T07:30:00+00:00",
            "course": 310.4,
            "speed": 3.5,
            "depth": 0.0
          },
          {
            "time": "1995-12-12T07:31:00+00:00",
            "course": 309.3,
            "speed": 3.5,
            "depth": 0.0
          },
          {
            "time": "1995-12-12T07:32:00+00:00",
            "course": 302.9,
            "speed": 3.5,
            "depth": 0.0
          },
          {
            "time": "1995-12-12T07:33:00+00:00",
            "course": 277.1,
            "speed": 3.5,
            "depth": 0.0
          },
          {
            "time": "1995-12-12T07:34:00+00:00",
            "course": 246.1,
            "speed": 3.5,
            "depth": 0.0
          },
          {
            "time": "1995-12-12T07:35:00+00:00",
            "course": 232.3,
            "speed": 3.5,
            "depth": 0.0
          },
          {
            "time": "1995-12-12T07:36:00+00:00",
            "course": 229.7,
            "speed": 3.5,
            "depth": 0.0
          },
          {
            "time": "1995-12-12T07:37:00+00:00",
            "course": 229.9,
            "speed": 3.5,
            "depth": 0.0
          },
          {
            "time": "1995-12-12T07:38:00+00:00",
            "course": 230.2,
            "speed": 3.5,
            "depth": 0.0
          },
          {
            "time": "1995-12-12T07:39:00+00:00",
            "course": 230.9,
            "speed": 3.5,
            "depth": 0.0
          },
          {
            "time": "1995-12-12T07:40:00+00:00",
            "course": 229.4,
            "speed": 3.5,
            "depth": 0.0
          },
          {
            "time": "1995-12-12T07:41:00+00:00",
            "course": 228.7,
            "speed": 3.5,
            "depth": 0.0
          },
          {
            "time": "1995-12-12T07:42:00+00:00",
            "course": 230.1,
            "speed": 3.5,
            "depth": 0.0
          },
          {
            "time": "1995-12-12T07:43:00+00:00",
            "course": 230.8,
            "speed": 3.5,
            "depth": 0.0
          },
          {
            "time": "1995-12-12T07:44:00+00:00",
            "course": 230.1,
            "speed": 3.5,
            "depth": 0.0
          },
          {
            "time": "1995-12-12T07:45:00+00:00",
            "course": 229.7,
            "speed": 3.5,
            "depth": 0.0
          },
          {
            "time": "1995-12-12T07:46:00+00:00",
            "course": 229.9,
            "speed": 3.5,
            "depth": 0.0
          },
          {
            "time": "1995-12-12T07:47:00+00:00",
            "course": 230.6,
            "speed": 3.5,
            "depth": 0.0
          },
          {
            "time": "1995-12-12T07:48:00+00:00",
            "course": 229.9,
            "speed": 3.5,
            "depth": 0.0
          },
          {
            "time": "1995-12-12T07:49:00+00:00",
            "course": 229.9,
            "speed": 3.5,
            "depth": 0.0
          },
          {
            "time": "1995-12-12T07:50:00+00:00",
            "course": 230.5,
            "speed": 3.5,
            "depth": 0.0
          },
          {
            "time": "1995-12-12T07:51:00+00:00",
            "course": 230.4,
            "speed": 3.5,
            "depth": 0.0
          },
          {
            "time": "1995-12-12T07:52:00+00:00",
            "course": 229.8,
            "speed": 3.5,
            "depth": 0.0
          },
          {
            "time": "1995-12-12T07:53:00+00:00",
            "course": 230.2,
            "speed": 3.5,
            "depth": 0.0
          },
          {
            "time": "1995-12-12T07:54:00+00:00",
            "course": 230.4,
            "speed": 3.5,
            "depth": 0.0
          },
          {
            "time": "1995-12-12T07:55:00+00:00",
            "course": 230.2,
            "speed": 3.5,
            "depth": 0.0
          },
          {
            "time": "1995-12-12T07:56:00+00:00",
            "course": 230.3,
            "speed": 3.5,
            "depth": 0.0
          },
          {
            "time": "1995-12-12T07:57:00+00:00",
            "course": 230.2,
            "speed": 3.5,
            "depth": 0.0
          },
          {
            "time": "1995-12-12T07:58:00+00:00",
            "course": 229.7,
            "speed": 3.5,
            "depth": 0.0
          },
          {
            "time": "1995-12-12T07:59:00+00:00",
            "course": 230.1,
            "speed": 3.5,
            "depth": 0.0
          },
          {
            "time": "1995-12-12T08:00:00+00:00",
            "course": 231.0,
            "speed": 3.5,
            "depth": 0.0
          },
          {
            "time": "1995-12-12T08:01:00+00:00",
            "course": 230.9,
            "speed": 3.5,
            "depth": 0.0
          },
          {
            "time": "1995-12-12T08:02:00+00:00",
            "course": 230.4,
            "speed": 3.5,
            "depth": 0.0
          },
          {
            "time": "1995-12-12T08:03:00+00:00",
            "course": 230.2,
            "speed": 3.5,
            "depth": 0.0
          },
          {
            "time": "1995-12-12T08:04:00+00:00",
            "course": 230.3,
            "speed": 3.5,
            "depth": 0.0
          },
          {
            "time": "1995-12-12T08:05:00+00:00",
            "course": 230.1,
            "speed": 3.5,
            "depth": 0.0
          },
          {
            "time": "1995-12-12T08:06:00+00:00",
            "course": 230.4,
            "speed": 3.5,
            "depth": 0.0
          },
          {
            "time": "1995-12-12T08:07:00+00:00",
            "course": 230.5,
            "speed": 3.5,
            "depth": 0.0
          },
          {
            "time": "1995-12-12T08:08:00+00:00",
            "course": 230.1,
            "speed": 3.5,
            "depth": 0.0
          },
          {
            "time": "1995-12-12T08:09:00+00:00",
            "course": 230.1,
            "speed": 3.5,
            "depth": 0.0
          },
          {
            "time": "1995-12-12T08:10:00+00:00",
            "course": 230.3,
            "speed": 3.5,
            "depth": 0.0
          },
          {
            "time": "1995-12-12T08:11:00+00:00",
            "course": 230.5,
            "speed": 3.5,
            "depth": 0.0
          },
          {
            "time": "1995-12-12T08:12:00+00:00",
            "course": 230.0,
            "speed": 3.5,
            "depth": 0.0
          },
          {
            "time": "1995-12-12T08:13:00+00:00",
            "course": 229.7,
            "speed": 3.5,
            "depth": 0.0
          },
          {
            "time": "1995-12-12T08:14:00+00:00",
            "course": 230.7,
            "speed": 3.5,
            "depth": 0.0
          },
          {
            "time": "1995-12-12T08:15:00+00:00",
            "course": 229.8,
            "speed": 3.5,
            "depth": 0.0
          },
          {
            "time": "1995-12-12T08:16:00+00:00",
            "course": 229.9,
            "speed": 3.5,
            "depth": 0.0
          },
          {
            "time": "1995-12-12T08:17:00+00:00",
            "course": 230.3,
            "speed": 3.5,
            "depth": 0.0
          },
          {
            "time": "1995-12-12T08:18:00+00:00",
            "course": 229.9,
            "speed": 3.5,
            "depth": 0.0
          },
          {
            "time": "1995-12-12T08:19:00+00:00",
            "course": 230.3,
            "speed": 3.5,
            "depth": 0.0
          },
          {
            "time": "1995-12-12T08:20:00+00:00",
            "course": 230.7,
            "speed": 3.5,
            "depth": 0.0
          },
          {
            "time": "1995-12-12T08:21:00+00:00",
            "course": 230.0,
            "speed": 3.5,
            "depth": 0.0
          },
          {
            "time": "1995-12-12T08:22:00+00:00",
            "course": 230.4,
            "speed": 3.5,
            "depth": 0.0
          },
          {
            "time": "1995-12-12T08:23:00+00:00",
            "course": 229.9,
            "speed": 3.5,
            "depth": 0.0
          },
          {
            "time": "1995-12-12T08:24:00+00:00",
            "course": 230.0,
            "speed": 3.5,
            "depth": 0.0
          },
          {
            "time": "1995-12-12T08:25:00+00:00",
            "course": 230.1,
            "speed": 3.5,
            "depth": 0.0
          },
          {
            "time": "1995-12-12T08:26:00+00:00",
            "course": 230.0,
            "speed": 3.5,
            "depth": 0.0
          },
          {
            "time": "1995-12-12T08:27:00+00:00",
            "course": 229.8,
            "speed": 3.5,
            "depth": 0.0
          },
          {
            "time": "1995-12-12T08:28:00+00:00",
            "course": 230.2,
            "speed": 3.5,
            "depth": 0.0
          },
          {
            "time": "1995-12-12T08:29:00+00:00",
            "course": 230.5,
            "speed": 3.5,
            "depth": 0.0
          },
          {
            "time": "1995-12-12T08:30:00+00:00",
            "course": 230.3,
            "speed": 3.5,
            "depth": 0.0
          },
          {
            "time": "1995-12-12T08:31:00+00:00",
            "course": 230.3,
            "speed": 3.5,
            "depth": 0.0
          },
          {
            "time": "1995-12-12T08:32:00+00:00",
            "course": 230.6,
            "speed": 3.5,
            "depth": 0.0
          },
          {
            "time": "1995-12-12T08:33:00+00:00",
            "course": 230.6,
            "speed": 3.5,
            "depth": 0.0
          },
          {
            "time": "1995-12-12T08:34:00+00:00",
            "course": 235.6,
            "speed": 3.5,
            "depth": 0.0
          },
          {
            "time": "1995-12-12T08:35:00+00:00",
            "course": 262.5,
            "speed": 3.5,
            "depth": 0.0
          },
          {
            "time": "1995-12-12T08:36:00+00:00",
            "course": 298.9,
            "speed": 3.5,
            "depth": 0.0
          },
          {
            "time": "1995-12-12T08:37:00+00:00",
            "course": 334.4,
            "speed": 3.5,
            "depth": 0.0
          },
          {
            "time": "1995-12-12T08:38:00+00:00",
            "course": 1.1,
            "speed": 3.5,
            "depth": 0.0
          },
          {
            "time": "1995-12-12T08:39:00+00:00",
            "course": 9.4,
            "speed": 3.5,
            "depth": 0.0
          },
          {
            "time": "1995-12-12T08:40:00+00:00",
            "course": 9.9,
            "speed": 3.5,
            "depth": 0.0
          },
          {
            "time": "1995-12-12T08:41:00+00:00",
            "course": 10.6,
            "speed": 3.5,
            "depth": 0.0
          },
          {
            "time": "1995-12-12T08:42:00+00:00",
            "course": 10.5,
            "speed": 3.5,
            "depth": 0.0
          },
          {
            "time": "1995-12-12T08:43:00+00:00",
            "course": 9.7,
            "speed": 3.5,
            "depth": 0.0
          },
          {
            "time": "1995-12-12T08:44:00+00:00",
            "course": 10.1,
            "speed": 3.5,
            "depth": 0.0
          },
          {
            "time": "1995-12-12T08:45:00+00:00",
            "course": 10.1,
            "speed": 3.5,
            "depth": 0.0
          },
          {
            "time": "1995-12-12T08:46:00+00:00",
            "course": 9.4,
            "speed": 3.5,
            "depth": 0.0
          },
          {
            "time": "1995-12-12T08:47:00+00:00",
            "course": 11.2,
            "speed": 3.5,
            "depth": 0.0
          },
          {
            "time": "1995-12-12T08:48:00+00:00",
            "course": 10.5,
            "speed": 3.5,
            "depth": 0.0
          },
          {
            "time": "1995-12-12T08:49:00+00:00",
            "course": 10.2,
            "speed": 3.5,
            "depth": 0.0
          },
          {
            "time": "1995-12-12T08:50:00+00:00",
            "course": 10.3,
            "speed": 3.5,
            "depth": 0.0
          },
          {
            "time": "1995-12-12T08:51:00+00:00",
            "course": 10.2,
            "speed": 3.5,
            "depth": 0.0
          },
          {
            "time": "1995-12-12T08:52:00+00:00",
            "course": 10.8,
            "speed": 3.5,
            "depth": 0.0
          },
          {
            "time": "1995-12-12T08:53:00+00:00",
            "course": 10.6,
            "speed": 3.5,
            "depth": 0.0
          },
          {
            "time": "1995-12-12T08:54:00+00:00",
            "course": 10.1,
            "speed": 3.5,
            "depth": 0.0
          },
          {
            "time": "1995-12-12T08:55:00+00:00",
            "course": 9.8,
            "speed": 3.5,
            "depth": 0.0
          },
          {
            "time": "1995-12-12T08:56:00+00:00",
            "course": 9.8,
            "speed": 3.5,
            "depth": 0.0
          },
          {
            "time": "1995-12-12T08:57:00+00:00",
            "course": 10.7,
            "speed": 3.5,
            "depth": 0.0
          },
          {
            "time": "1995-12-12T08:58:00+00:00",
            "course": 9.6,
            "speed": 3.5,
            "depth": 0.0
          },
          {
            "time": "1995-12-12T08:59:00+00:00",
            "course": 9.8,
            "speed": 3.5,
            "depth": 0.0
          },
          {
            "time": "1995-12-12T09:00:00+00:00",
            "course": 9.9,
            "speed": 3.5,
            "depth": 0.0
          },
          {
            "time": "1995-12-12T09:01:00+00:00",
            "course": 9.8,
            "speed": 3.5,
            "depth": 0.0
          },
          {
            "time": "1995-12-12T09:02:00+00:00",
            "course": 9.3,
            "speed": 3.5,
            "depth": 0.0
          },
          {
            "time": "1995-12-12T09:03:00+00:00",
            "course": 10.3,
            "speed": 3.5,
            "depth": 0.0
          },
          {
            "time": "1995-12-12T09:04:00+00:00",
            "course": 10.0,
            "speed": 3.5,
            "depth": 0.0
          },
          {
            "time": "1995-12-12T09:05:00+00:00",
            "course": 9.8,
            "speed": 3.5,
            "depth": 0.0
          },
          {
            "time": "1995-12-12T09:06:00+00:00",
            "course": 10.0,
            "speed": 3.5,
            "depth": 0.0
          },
          {
            "time": "1995-12-12T09:07:00+00:00",
            "course": 10.6,
            "speed": 3.5,
            "depth": 0.0
          },
          {
            "time": "1995-12-12T09:08:00+00:00",
            "course": 9.9,
            "speed": 3.5,
            "depth": 0.0
          },
          {
            "time": "1995-12-12T09:09:00+00:00",
            "course": 10.3,
            "speed": 3.5,
            "depth": 0.0
          },
          {
            "time": "1995-12-12T09:10:00+00:00",
            "course": 10.4,
            "speed": 3.5,
            "depth": 0.0
          },
          {
            "time": "1995-12-12T09:11:00+00:00",
            "course": 9.7,
            "speed": 3.5,
            "depth": 0.0
          },
          {
            "time": "1995-12-12T09:12:00+00:00",
            "course": 10.1,
            "speed": 3.5,
            "depth": 0.0
          },
          {
            "time": "1995-12-12T09:13:00+00:00",
            "course": 10.0,
            "speed": 3.5,
            "depth": 0.0
          },
          {
            "time": "1995-12-12T09:14:00+00:00",
            "course": 10.0,
            "speed": 3.5,
            "depth": 0.0
          },
          {
            "time": "1995-12-12T09:15:00+00:00",
            "course": 10.2,
            "speed": 3.5,
            "depth": 0.0
          },
          {
            "time": "1995-12-12T09:16:00+00:00",
            "course": 10.3,
            "speed": 3.5,
            "depth": 0.0
          },
          {
            "time": "1995-12-12T09:17:00+00:00",
            "course": 9.8,
            "speed": 3.5,
            "depth": 0.0
          },
          {
            "time": "1995-12-12T09:18:00+00:00",
            "course": 9.5,
            "speed": 3.5,
            "depth": 0.0
          },
          {
            "time": "1995-12-12T09:19:00+00:00",
            "course": 10.6,
            "speed": 3.5,
            "depth": 0.0
          },
          {
            "time": "1995-12-12T09:20:00+00:00",
            "course": 10.4,
            "speed": 3.5,
            "depth": 0.0
          },
          {
            "time": "1995-12-12T09:21:00+00:00",
            "course": 9.8,
            "speed": 3.5,
            "depth": 0.0
          },
          {
            "time": "1995-12-12T09:22:00+00:00",
            "course": 10.2,
            "speed": 3.5,
            "depth": 0.0
          },
          {
            "time": "1995-12-12T09:23:00+00:00",
            "course": 10.4,
            "speed": 3.5,
            "depth": 0.0
          },
          {
            "time": "1995-12-12T09:24:00+00:00",
            "course": 10.2,
            "speed": 3.5,
            "depth": 0.0
          },
          {
            "time": "1995-12-12T09:25:00+00:00",
            "course": 9.3,
            "speed": 3.5,
            "depth": 0.0
          },
          {
            "time": "1995-12-12T09:26:00+00:00",
            "course": 10.5,
            "speed": 3.5,
            "depth": 0.0
          },
          {
            "time": "1995-12-12T09:27:00+00:00",
            "course": 9.6,
            "speed": 3.5,
            "depth": 0.0
          },
          {
            "time": "1995-12-12T09:28:00+00:00",
            "course": 11.9,
            "speed": 3.5,
            "depth": 0.0
          },
          {
            "time": "1995-12-12T09:29:00+00:00",
            "course": 32.1,
            "speed": 3.5,
            "depth": 0.0
          },
          {
            "time": "1995-12-12T09:30:00+00:00",
            "course": 65.2,
            "speed": 3.5,
            "depth": 0.0
          },
          {
            "time": "1995-12-12T09:31:00+00:00",
            "course": 100.5,
            "speed": 3.5,
            "depth": 0.0
          },
          {
            "time": "1995-12-12T09:32:00+00:00",
            "course": 132.6,
            "speed": 3.5,
            "depth": 0.0
          },
          {
            "time": "1995-12-12T09:33:00+00:00",
            "course": 149.1,
            "speed": 3.5,
            "depth": 0.0
          },
          {
            "time": "1995-12-12T09:34:00+00:00",
            "course": 150.9,
            "speed": 3.5,
            "depth": 0.0
          },
          {
            "time": "1995-12-12T09:35:00+00:00",
            "course": 151.3,
            "speed": 3.5,
            "depth": 0.0
          },
          {
            "time": "1995-12-12T09:36:00+00:00",
            "course": 147.4,
            "speed": 3.5,
            "depth": 0.0
          },
          {
            "time": "1995-12-12T09:37:00+00:00",
            "course": 126.8,
            "speed": 3.5,
            "depth": 0.0
          },
          {
            "time": "1995-12-12T09:38:00+00:00",
            "course": 92.8,
            "speed": 3.5,
            "depth": 0.0
          },
          {
            "time": "1995-12-12T09:39:00+00:00",
            "course": 59.1,
            "speed": 3.5,
            "depth": 0.0
          },
          {
            "time": "1995-12-12T09:40:00+00:00",
            "course": 28.0,
            "speed": 3.5,
            "depth": 0.0
          },
          {
            "time": "1995-12-12T09:41:00+00:00",
            "course": 13.4,
            "speed": 3.5,
            "depth": 0.0
          },
          {
            "time": "1995-12-12T09:42:00+00:00",
            "course": 10.3,
            "speed": 3.5,
            "depth": 0.0
          },
          {
            "time": "1995-12-12T09:43:00+00:00",
            "course": 10.2,
            "speed": 3.5,
            "depth": 0.0
          },
          {
            "time": "1995-12-12T09:44:00+00:00",
            "course": 11.0,
            "speed": 3.5,
            "depth": 0.0
          },
          {
            "time": "1995-12-12T09:45:00+00:00",
            "course": 11.0,
            "speed": 3.5,
            "depth": 0.0
          },
          {
            "time": "1995-12-12T09:46:00+00:00",
            "course": 9.7,
            "speed": 3.5,
            "depth": 0.0
          },
          {
            "time": "1995-12-12T09:47:00+00:00",
            "course": 8.7,
            "speed": 3.5,
            "depth": 0.0
          },
          {
            "time": "1995-12-12T09:48:00+00:00",
            "course": 10.1,
            "speed": 3.5,
            "depth": 0.0
          },
          {
            "time": "1995-12-12T09:49:00+00:00",
            "course": 10.7,
            "speed": 3.5,
            "depth": 0.0
          },
          {
            "time": "1995-12-12T09:50:00+00:00",
            "course": 10.8,
            "speed": 3.5,
            "depth": 0.0
          },
          {
            "time": "1995-12-12T09:51:00+00:00",
            "course": 9.5,
            "speed": 3.5,
            "depth": 0.0
          },
          {
            "time": "1995-12-12T09:52:00+00:00",
            "course": 9.0,
            "speed": 3.5,
            "depth": 0.0
          },
          {
            "time": "1995-12-12T09:53:00+00:00",
            "course": 10.4,
            "speed": 3.5,
            "depth": 0.0
          },
          {
            "time": "1995-12-12T09:54:00+00:00",
            "course": 10.8,
            "speed": 3.5,
            "depth": 0.0
          },
          {
            "time": "1995-12-12T09:55:00+00:00",
            "course": 9.0,
            "speed": 3.5,
            "depth": 0.0
          },
          {
            "time": "1995-12-12T09:56:00+00:00",
            "course": 9.5,
            "speed": 3.5,
            "depth": 0.0
          },
          {
            "time": "1995-12-12T09:57:00+00:00",
            "course": 10.6,
            "speed": 3.5,
            "depth": 0.0
          },
          {
            "time": "1995-12-12T09:58:00+00:00",
            "course": 9.6,
            "speed": 3.5,
            "depth": 0.0
          },
          {
            "time": "1995-12-12T09:59:00+00:00",
            "course": 8.6,
            "speed": 3.5,
            "depth": 0.0
          },
          {
            "time": "1995-12-12T10:00:00+00:00",
            "course": 11.0,
            "speed": 3.5,
            "depth": 0.0
          },
          {
            "time": "1995-12-12T10:01:00+00:00",
            "course": 10.9,
            "speed": 3.5,
            "depth": 0.0
          },
          {
            "time": "1995-12-12T10:02:00+00:00",
            "course": 9.1,
            "speed": 3.5,
            "depth": 0.0
          },
          {
            "time": "1995-12-12T10:03:00+00:00",
            "course": 10.0,
            "speed": 3.5,
            "depth": 0.0
          },
          {
            "time": "1995-12-12T10:04:00+00:00",
            "course": 10.4,
            "speed": 3.5,
            "depth": 0.0
          },
          {
            "time": "1995-12-12T10:05:00+00:00",
            "course": 8.6,
            "speed": 3.5,
            "depth": 0.0
          },
          {
            "time": "1995-12-12T10:06:00+00:00",
            "course": 9.7,
            "speed": 3.5,
            "depth": 0.0
          },
          {
            "time": "1995-12-12T10:07:00+00:00",
            "course": 10.9,
            "speed": 3.5,
            "depth": 0.0
          },
          {
            "time": "1995-12-12T10:08:00+00:00",
            "course": 8.8,
            "speed": 3.5,
            "depth": 0.0
          },
          {
            "time": "1995-12-12T10:09:00+00:00",
            "course": 9.2,
            "speed": 3.5,
            "depth": 0.0
          },
          {
            "time": "1995-12-12T10:10:00+00:00",
            "course": 10.1,
            "speed": 3.5,
            "depth": 0.0
          },
          {
            "time": "1995-12-12T10:11:00+00:00",
            "course": 9.8,
            "speed": 3.5,
            "depth": 0.0
          },
          {
            "time": "1995-12-12T10:12:00+00:00",
            "course": 10.0,
            "speed": 3.5,
            "depth": 0.0
          },
          {
            "time": "1995-12-12T10:13:00+00:00",
            "course": 10.3,
            "speed": 3.5,
            "depth": 0.0
          },
          {
            "time": "1995-12-12T10:14:00+00:00",
            "course": 9.7,
            "speed": 3.5,
            "depth": 0.0
          },
          {
            "time": "1995-12-12T10:15:00+00:00",
            "course": 10.5,
            "speed": 3.5,
            "depth": 0.0
          },
          {
            "time": "1995-12-12T10:16:00+00:00",
            "course": 9.9,
            "speed": 3.5,
            "depth": 0.0
          },
          {
            "time": "1995-12-12T10:17:00+00:00",
            "course": 9.6,
            "speed": 3.5,
            "depth": 0.0
          },
          {
            "time": "1995-12-12T10:18:00+00:00",
            "course": 9.8,
            "speed": 3.5,
            "depth": 0.0
          },
          {
            "time": "1995-12-12T10:19:00+00:00",
            "course": 10.4,
            "speed": 3.5,
            "depth": 0.0
          },
          {
            "time": "1995-12-12T10:20:00+00:00",
            "course": 10.2,
            "speed": 3.5,
            "depth": 0.0
          },
          {
            "time": "1995-12-12T10:21:00+00:00",
            "course": 10.1,
            "speed": 3.5,
            "depth": 0.0
          },
          {
            "time": "1995-12-12T10:22:00+00:00",
            "course": 10.8,
            "speed": 3.5,
            "depth": 0.0
          },
          {
            "time": "1995-12-12T10:23:00+00:00",
            "course": 10.5,
            "speed": 3.5,
            "depth": 0.0
          },
          {
            "time": "1995-12-12T10:24:00+00:00",
            "course": 9.4,
            "speed": 3.5,
            "depth": 0.0
          },
          {
            "time": "1995-12-12T10:25:00+00:00",
            "course": 10.2,
            "speed": 3.5,
            "depth": 0.0
          },
          {
            "time": "1995-12-12T10:26:00+00:00",
            "course": 11.0,
            "speed": 3.5,
            "depth": 0.0
          },
          {
            "time": "1995-12-12T10:27:00+00:00",
            "course": 9.7,
            "speed": 3.5,
            "depth": 0.0
          },
          {
            "time": "1995-12-12T10:28:00+00:00",
            "course": 10.6,
            "speed": 3.5,
            "depth": 0.0
          },
          {
            "time": "1995-12-12T10:29:00+00:00",
            "course": 10.1,
            "speed": 3.5,
            "depth": 0.0
          },
          {
            "time": "1995-12-12T10:30:00+00:00",
            "course": 7.6,
            "speed": 3.5,
            "depth": 0.0
          },
          {
            "time": "1995-12-12T10:31:00+00:00",
            "course": 350.2,
            "speed": 3.5,
            "depth": 0.0
          },
          {
            "time": "1995-12-12T10:32:00+00:00",
            "course": 317.9,
            "speed": 3.5,
            "depth": 0.0
          },
          {
            "time": "1995-12-12T10:33:00+00:00",
            "course": 291.9,
            "speed": 3.5,
            "depth": 0.0
          },
          {
            "time": "1995-12-12T10:34:00+00:00",
            "course": 283.9,
            "speed": 3.5,
            "depth": 0.0
          },
          {
            "time": "1995-12-12T10:35:00+00:00",
            "course": 284.8,
            "speed": 3.5,
            "depth": 0.0
          },
          {
            "time": "1995-12-12T10:36:00+00:00",
            "course": 293.0,
            "speed": 3.5,
            "depth": 0.0
          },
          {
            "time": "1995-12-12T10:37:00+00:00",
            "course": 317.4,
            "speed": 3.5,
            "depth": 0.0
          },
          {
            "time": "1995-12-12T10:38:00+00:00",
            "course": 348.8,
            "speed": 3.5,
            "depth": 0.0
          },
          {
            "time": "1995-12-12T10:39:00+00:00",
            "course": 21.2,
            "speed": 3.5,
            "depth": 0.0
          },
          {
            "time": "1995-12-12T10:40:00+00:00",
            "course": 52.0,
            "speed": 3.5,
            "depth": 0.0
          },
          {
            "time": "1995-12-12T10:41:00+00:00",
            "course": 71.4,
            "speed": 3.5,
            "depth": 0.0
          },
          {
            "time": "1995-12-12T10:42:00+00:00",
            "course": 61.7,
            "speed": 3.5,
            "depth": 0.0
          },
          {
            "time": "1995-12-12T10:43:00+00:00",
            "course": 24.0,
            "speed": 3.5,
            "depth": 0.0
          },
          {
            "time": "1995-12-12T10:44:00+00:00",
            "course": 356.0,
            "speed": 3.5,
            "depth": 0.0
          },
          {
            "time": "1995-12-12T10:45:00+00:00",
            "course": 321.1,
            "speed": 3.5,
            "depth": 0.0
          },
          {
            "time": "1995-12-12T10:46:00+00:00",
            "course": 274.0,
            "speed": 3.5,
            "depth": 0.0
          },
          {
            "time": "1995-12-12T10:47:00+00:00",
            "course": 227.9,
            "speed": 3.5,
            "depth": 0.0
          },
          {
            "time": "1995-12-12T10:48:00+00:00",
            "course": 191.1,
            "speed": 3.5,
            "depth": 0.0
          },
          {
            "time": "1995-12-12T10:49:00+00:00",
            "course": 142.5,
            "speed": 3.5,
            "depth": 0.0
          },
          {
            "time": "1995-12-12T10:50:00+00:00",
            "course": 99.3,
            "speed": 3.5,
            "depth": 0.0
          },
          {
            "time": "1995-12-12T10:51:00+00:00",
            "course": 92.7,
            "speed": 3.5,
            "depth": 0.0
          },
          {
            "time": "1995-12-12T10:52:00+00:00",
            "course": 140.0,
            "speed": 3.5,
            "depth": 0.0
          },
          {
            "time": "1995-12-12T10:53:00+00:00",
            "course": 225.3,
            "speed": 3.5,
            "depth": 0.0
          },
          {
            "time": "1995-12-12T10:54:00+00:00",
            "course": 276.2,
            "speed": 3.5,
            "depth": 0.0
          },
          {
            "time": "1995-12-12T10:55:00+00:00",
            "course": 337.5,
            "speed": 3.5,
            "depth": 0.0
          },
          {
            "time": "1995-12-12T10:56:00+00:00",
            "course": 13.4,
            "speed": 3.5,
            "depth": 0.0
          },
          {
            "time": "1995-12-12T10:57:00+00:00",
            "course": 71.6,
            "speed": 3.5,
            "depth": 0.0
          },
          {
            "time": "1995-12-12T10:58:00+00:00",
            "course": 145.3,
            "speed": 3.5,
            "depth": 0.0
          },
          {
            "time": "1995-12-12T10:59:00+00:00",
            "course": 181.9,
            "speed": 3.5,
            "depth": 0.0
          },
          {
            "time": "1995-12-12T11:00:00+00:00",
            "course": 162.4,
            "speed": 3.5,
            "depth": 0.0
          },
          {
            "time": "1995-12-12T11:01:00+00:00",
            "course": 84.6,
            "speed": 3.5,
            "depth": 0.0
          },
          {
            "time": "1995-12-12T11:02:00+00:00",
            "course": 16.5,
            "speed": 3.5,
            "depth": 0.0
          },
          {
            "time": "1995-12-12T11:03:00+00:00",
            "course": 6.2,
            "speed": 3.5,
            "depth": 0.0
          },
          {
            "time": "1995-12-12T11:04:00+00:00",
            "course": 65.5,
            "speed": 3.5,
            "depth": 0.0
          },
          {
            "time": "1995-12-12T11:05:00+00:00",
            "course": 162.2,
            "speed": 3.5,
            "depth": 0.0
          },
          {
            "time": "1995-12-12T11:06:00+00:00",
            "course": 188.6,
            "speed": 3.5,
            "depth": 0.0
          },
          {
            "time": "1995-12-12T11:07:00+00:00",
            "course": 142.8,
            "speed": 3.5,
            "depth": 0.0
          },
          {
            "time": "1995-12-12T11:08:00+00:00",
            "course": 71.2,
            "speed": 3.5,
            "depth": 0.0
          },
          {
            "time": "1995-12-12T11:09:00+00:00",
            "course": 19.0,
            "speed": 3.5,
            "depth": 0.0
          },
          {
            "time": "1995-12-12T11:10:00+00:00",
            "course": 51.1,
            "speed": 3.5,
            "depth": 0.0
          },
          {
            "time": "1995-12-12T11:11:00+00:00",
            "course": 130.2,
            "speed": 3.5,
            "depth": 0.0
          },
          {
            "time": "1995-12-12T11:12:00+00:00",
            "course": 213.2,
            "speed": 3.5,
            "depth": 0.0
          },
          {
            "time": "1995-12-12T11:13:00+00:00",
            "course": 274.8,
            "speed": 3.5,
            "depth": 0.0
          },
          {
            "time": "1995-12-12T11:14:00+00:00",
            "course": 246.6,
            "speed": 3.5,
            "depth": 0.0
          },
          {
            "time": "1995-12-12T11:15:00+00:00",
            "course": 222.0,
            "speed": 3.5,
            "depth": 0.0
          },
          {
            "time": "1995-12-12T11:16:00+00:00",
            "course": 191.1,
            "speed": 3.5,
            "depth": 0.0
          },
          {
            "time": "1995-12-12T11:17:00+00:00",
            "course": 126.9,
            "speed": 3.5,
            "depth": 0.0
          },
          {
            "time": "1995-12-12T11:18:00+00:00",
            "course": 63.7,
            "speed": 3.5,
            "depth": 0.0
          },
          {
            "time": "1995-12-12T11:19:00+00:00",
            "course": 41.8,
            "speed": 3.5,
            "depth": 0.0
          },
          {
            "time": "1995-12-12T11:20:00+00:00",
            "course": 40.7,
            "speed": 3.5,
            "depth": 0.0
          },
          {
            "time": "1995-12-12T11:21:00+00:00",
            "course": 40.5,
            "speed": 3.5,
            "depth": 0.0
          },
          {
            "time": "1995-12-12T11:22:00+00:00",
            "course": 40.1,
            "speed": 3.5,
            "depth": 0.0
          },
          {
            "time": "1995-12-12T11:23:00+00:00",
            "course": 40.4,
            "speed": 3.5,
            "depth": 0.0
          },
          {
            "time": "1995-12-12T11:24:00+00:00",
            "course": 32.6,
            "speed": 3.5,
            "depth": 0.0
          },
          {
            "time": "1995-12-12T11:25:00+00:00",
            "course": 22.2,
            "speed": 3.5,
            "depth": 0.0
          },
          {
            "time": "1995-12-12T11:26:00+00:00",
            "course": 19.8,
            "speed": 3.5,
            "depth": 0.0
          },
          {
            "time": "1995-12-12T11:27:00+00:00",
            "course": 20.7,
            "speed": 3.5,
            "depth": 0.0
          },
          {
            "time": "1995-12-12T11:28:00+00:00",
            "course": 20.5,
            "speed": 3.5,
            "depth": 0.0
          },
          {
            "time": "1995-12-12T11:29:00+00:00",
            "course": 20.5,
            "speed": 3.5,
            "depth": 0.0
          },
          {
            "time": "1995-12-12T11:30:00+00:00",
            "course": 20.1,
            "speed": 3.5,
            "depth": 0.0
          },
          {
            "time": "1995-12-12T11:31:00+00:00",
            "course": 19.9,
            "speed": 3.5,
            "depth": 0.0
          },
          {
            "time": "1995-12-12T11:32:00+00:00",
            "course": 21.0,
            "speed": 3.5,
            "depth": 0.0
          },
          {
            "time": "1995-12-12T11:33:00+00:00",
            "course": 20.1,
            "speed": 3.5,
            "depth": 0.0
          },
          {
            "time": "1995-12-12T11:34:00+00:00",
            "course": 20.5,
            "speed": 3.5,
            "depth": 0.0
          },
          {
            "time": "1995-12-12T11:35:00+00:00",
            "course": 19.6,
            "speed": 3.5,
            "depth": 0.0
          },
          {
            "time": "1995-12-12T11:36:00+00:00",
            "course": 19.8,
            "speed": 3.5,
            "depth": 0.0
          },
          {
            "time": "1995-12-12T11:37:00+00:00",
            "course": 20.5,
            "speed": 3.5,
            "depth": 0.0
          },
          {
            "time": "1995-12-12T11:38:00+00:00",
            "course": 20.4,
            "speed": 3.5,
            "depth": 0.0
          },
          {
            "time": "1995-12-12T11:39:00+00:00",
            "course": 20.4,
            "speed": 3.5,
            "depth": 0.0
          },
          {
            "time": "1995-12-12T11:40:00+00:00",
            "course": 20.4,
            "speed": 3.5,
            "depth": 0.0
          },
          {
            "time": "1995-12-12T11:41:00+00:00",
            "course": 19.7,
            "speed": 3.5,
            "depth": 0.0
          },
          {
            "time": "1995-12-12T11:42:00+00:00",
            "course": 19.4,
            "speed": 3.5,
            "depth": 0.0
          },
          {
            "time": "1995-12-12T11:43:00+00:00",
            "course": 20.2,
            "speed": 3.5,
            "depth": 0.0
          },
          {
            "time": "1995-12-12T11:44:00+00:00",
            "course": 20.8,
            "speed": 3.5,
            "depth": 0.0
          },
          {
            "time": "1995-12-12T11:45:00+00:00",
            "course": 359.2,
            "speed": 3.5,
            "depth": 0.0
          }
        ],
        "style": {
          "line": {
            "color": "#0000FF"
          },
          "point": {
            "shape": "circle",
            "radius": 3.0,
            "fill_color": "#0000FF",
            "color": "#0000FF"
          }
        },
        "default_position_style": {
          "show_symbol": false,
          "symbol": "circle",
          "show_label": false
        },
        "symbol_interval": "PT15M",
        "label_interval": "PT1H",
        "provenance": [
          {
            "activity_id": "35fb5310-ec82-45ab-89ec-bae81f9caa21",
            "timestamp": "2026-04-13T23:12:33.889111Z",
            "was_generated_by": {
              "tool": "rep-parser",
              "tool_version": "1.0.0",
              "parameters": []
            },
            "used": [],
            "generated": [
              "1a82ec05-fadc-4e72-8fb3-8e9c0182ea34"
            ],
            "execution_duration": "PT0.00266S"
          }
        ]
      }
    }
  ]
}