{
  "type": "FeatureCollection",
  "features": [
    {
      "type": "Feature",
      "id": "43fd99b3-3816-49d4-b8d5-9136bc4a626f",
      "geometry": {
        "type": "LineString",
        "coordinates": [
          [
            -30.0,
            -0.0
          ],
          [
            -30.000625,
            -0.0
          ],
          [
            -30.00125,
            -0.0
          ],
          [
            -30.001875,
            -0.0
          ],
          [
            -30.0025,
            -0.0
          ],
          [
            -30.003125,
            -0.0
          ],
          [
            -30.00375,
            -0.0
          ],
          [
            -30.004375,
            -0.0
          ],
          [
            -30.005,
            -0.0
          ],
          [
            -30.005625,
            -0.0
          ],
          [
            -30.00625,
            -0.0
          ],
          [
            -30.006875,
            -0.0
          ],
          [
            -30.0075,
            -0.0
          ],
          [
            -30.008125,
            -0.0
          ],
          [
            -30.00875,
            -0.0
          ],
          [
            -30.009375,
            -0.0
          ],
          [
            -30.01,
            -0.0
          ],
          [
            -30.010625,
            -0.0
          ],
          [
            -30.01125,
            -0.0
          ],
          [
            -30.011875,
            -0.0
          ],
          [
            -30.0125,
            -0.0
          ],
          [
            -30.013125,
            -0.0
          ],
          [
            -30.01375,
            -0.0
          ],
          [
            -30.014375,
            -0.0
          ],
          [
            -30.015,
            -0.0
          ],
          [
            -30.015625,
            -0.0
          ],
          [
            -30.01625,
            -0.0
          ],
          [
            -30.016875,
            -0.0
          ],
          [
            -30.0175,
            -0.0
          ],
          [
            -30.018124999999998,
            -0.0
          ],
          [
            -30.01875,
            -0.0
          ],
          [
            -30.019375,
            -0.0
          ],
          [
            -30.02,
            -0.0
          ],
          [
            -30.020625,
            -0.0
          ],
          [
            -30.02125,
            -0.0
          ],
          [
            -30.021874999999998,
            -0.0
          ],
          [
            -30.022499999999997,
            -0.0
          ],
          [
            -30.023125,
            -0.0
          ],
          [
            -30.02375,
            -0.0
          ],
          [
            -30.024375,
            -0.0
          ],
          [
            -30.025,
            -0.0
          ],
          [
            -30.025624999999998,
            -0.0
          ],
          [
            -30.026249999999997,
            -0.0
          ],
          [
            -30.026875,
            -0.0
          ],
          [
            -30.0275,
            -0.0
          ],
          [
            -30.028125,
            -0.0
          ],
          [
            -30.02875,
            -0.0
          ],
          [
            -30.029374999999998,
            -0.0
          ],
          [
            -30.029999999999998,
            -0.0
          ],
          [
            -30.030625,
            -0.0
          ],
          [
            -30.03125,
            -0.0
          ],
          [
            -30.031875,
            -0.0
          ],
          [
            -30.0325,
            -0.0
          ],
          [
            -30.033125,
            -0.0
          ],
          [
            -30.03375,
            -0.0
          ],
          [
            -30.034375,
            -0.0
          ],
          [
            -30.035,
            -0.0
          ],
          [
            -30.035625000000003,
            -0.0
          ],
          [
            -30.036250000000003,
            -0.0
          ],
          [
            -30.036875000000002,
            -0.0
          ],
          [
            -30.0375,
            -0.0
          ],
          [
            -30.038125,
            -0.0
          ],
          [
            -30.03875,
            -0.0
          ],
          [
            -30.039375000000003,
            -0.0
          ],
          [
            -30.040000000000003,
            -0.0
          ],
          [
            -30.040625000000002,
            -0.0
          ],
          [
            -30.04125,
            -0.0
          ],
          [
            -30.041875,
            -0.0
          ]
        ]
      },
      "properties": {
        "kind": "TRACK",
        "platform_id": "SUBJECT",
        "platform_name": "SUBJECT",
        "track_type": "CONTACT",
        "start_time": "2010-01-12T12:13:14+00:00",
        "end_time": "2010-01-12T12:29:59+00:00",
        "positions": [
          {
            "time": "2010-01-12T12:13:14+00:00",
            "course": 270.0,
            "speed": 9.0,
            "depth": 0.0
          },
          {
            "time": "2010-01-12T12:13:29+00:00",
            "course": 270.0,
            "speed": 9.0,
            "depth": 0.0
          },
          {
            "time": "2010-01-12T12:13:44+00:00",
            "course": 270.0,
            "speed": 9.0,
            "depth": 0.0
          },
          {
            "time": "2010-01-12T12:13:59+00:00",
            "course": 270.0,
            "speed": 9.0,
            "depth": 0.0
          },
          {
            "time": "2010-01-12T12:14:14+00:00",
            "course": 270.0,
            "speed": 9.0,
            "depth": 0.0
          },
          {
            "time": "2010-01-12T12:14:29+00:00",
            "course": 270.0,
            "speed": 9.0,
            "depth": 0.0
          },
          {
            "time": "2010-01-12T12:14:44+00:00",
            "course": 270.0,
            "speed": 9.0,
            "depth": 0.0
          },
          {
            "time": "2010-01-12T12:14:59+00:00",
            "course": 270.0,
            "speed": 9.0,
            "depth": 0.0
          },
          {
            "time": "2010-01-12T12:15:14+00:00",
            "course": 270.0,
            "speed": 9.0,
            "depth": 0.0
          },
          {
            "time": "2010-01-12T12:15:29+00:00",
            "course": 270.0,
            "speed": 9.0,
            "depth": 0.0
          },
          {
            "time": "2010-01-12T12:15:44+00:00",
            "course": 270.0,
            "speed": 9.0,
            "depth": 0.0
          },
          {
            "time": "2010-01-12T12:15:59+00:00",
            "course": 270.0,
            "speed": 9.0,
            "depth": 0.0
          },
          {
            "time": "2010-01-12T12:16:14+00:00",
            "course": 270.0,
            "speed": 9.0,
            "depth": 0.0
          },
          {
            "time": "2010-01-12T12:16:29+00:00",
            "course": 270.0,
            "speed": 9.0,
            "depth": 0.0
          },
          {
            "time": "2010-01-12T12:16:44+00:00",
            "course": 270.0,
            "speed": 9.0,
            "depth": 0.0
          },
          {
            "time": "2010-01-12T12:16:59+00:00",
            "course": 270.0,
            "speed": 9.0,
            "depth": 0.0
          },
          {
            "time": "2010-01-12T12:17:14+00:00",
            "course": 270.0,
            "speed": 9.0,
            "depth": 0.0
          },
          {
            "time": "2010-01-12T12:17:29+00:00",
            "course": 270.0,
            "speed": 9.0,
            "depth": 0.0
          },
          {
            "time": "2010-01-12T12:17:44+00:00",
            "course": 270.0,
            "speed": 9.0,
            "depth": 0.0
          },
          {
            "time": "2010-01-12T12:17:59+00:00",
            "course": 270.0,
            "speed": 9.0,
            "depth": 0.0
          },
          {
            "time": "2010-01-12T12:18:14+00:00",
            "course": 270.0,
            "speed": 9.0,
            "depth": 0.0
          },
          {
            "time": "2010-01-12T12:18:29+00:00",
            "course": 270.0,
            "speed": 9.0,
            "depth": 0.0
          },
          {
            "time": "2010-01-12T12:18:44+00:00",
            "course": 270.0,
            "speed": 9.0,
            "depth": 0.0
          },
          {
            "time": "2010-01-12T12:18:59+00:00",
            "course": 270.0,
            "speed": 9.0,
            "depth": 0.0
          },
          {
            "time": "2010-01-12T12:19:14+00:00",
            "course": 270.0,
            "speed": 9.0,
            "depth": 0.0
          },
          {
            "time": "2010-01-12T12:19:29+00:00",
            "course": 270.0,
            "speed": 9.0,
            "depth": 0.0
          },
          {
            "time": "2010-01-12T12:19:44+00:00",
            "course": 270.0,
            "speed": 9.0,
            "depth": 0.0
          },
          {
            "time": "2010-01-12T12:19:59+00:00",
            "course": 270.0,
            "speed": 9.0,
            "depth": 0.0
          },
          {
            "time": "2010-01-12T12:20:14+00:00",
            "course": 270.0,
            "speed": 9.0,
            "depth": 0.0
          },
          {
            "time": "2010-01-12T12:20:29+00:00",
            "course": 270.0,
            "speed": 9.0,
            "depth": 0.0
          },
          {
            "time": "2010-01-12T12:20:44+00:00",
            "course": 270.0,
            "speed": 9.0,
            "depth": 0.0
          },
          {
            "time": "2010-01-12T12:20:59+00:00",
            "course": 270.0,
            "speed": 9.0,
            "depth": 0.0
          },
          {
            "time": "2010-01-12T12:21:14+00:00",
            "course": 270.0,
            "speed": 9.0,
            "depth": 0.0
          },
          {
            "time": "2010-01-12T12:21:29+00:00",
            "course": 270.0,
            "speed": 9.0,
            "depth": 0.0
          },
          {
            "time": "2010-01-12T12:21:44+00:00",
            "course": 270.0,
            "speed": 9.0,
            "depth": 0.0
          },
          {
            "time": "2010-01-12T12:21:59+00:00",
            "course": 270.0,
            "speed": 9.0,
            "depth": 0.0
          },
          {
            "time": "2010-01-12T12:22:14+00:00",
            "course": 270.0,
            "speed": 9.0,
            "depth": 0.0
          },
          {
            "time": "2010-01-12T12:22:29+00:00",
            "course": 270.0,
            "speed": 9.0,
            "depth": 0.0
          },
          {
            "time": "2010-01-12T12:22:44+00:00",
            "course": 270.0,
            "speed": 9.0,
            "depth": 0.0
          },
          {
            "time": "2010-01-12T12:22:59+00:00",
            "course": 270.0,
            "speed": 9.0,
            "depth": 0.0
          },
          {
            "time": "2010-01-12T12:23:14+00:00",
            "course": 270.0,
            "speed": 9.0,
            "depth": 0.0
          },
          {
            "time": "2010-01-12T12:23:29+00:00",
            "course": 270.0,
            "speed": 9.0,
            "depth": 0.0
          },
          {
            "time": "2010-01-12T12:23:44+00:00",
            "course": 270.0,
            "speed": 9.0,
            "depth": 0.0
          },
          {
            "time": "2010-01-12T12:23:59+00:00",
            "course": 270.0,
            "speed": 9.0,
            "depth": 0.0
          },
          {
            "time": "2010-01-12T12:24:14+00:00",
            "course": 270.0,
            "speed": 9.0,
            "depth": 0.0
          },
          {
            "time": "2010-01-12T12:24:29+00:00",
            "course": 270.0,
            "speed": 9.0,
            "depth": 0.0
          },
          {
            "time": "2010-01-12T12:24:44+00:00",
            "course": 270.0,
            "speed": 9.0,
            "depth": 0.0
          },
          {
            "time": "2010-01-12T12:24:59+00:00",
            "course": 270.0,
            "speed": 9.0,
            "depth": 0.0
          },
          {
            "time": "2010-01-12T12:25:14+00:00",
            "course": 270.0,
            "speed": 9.0,
            "depth": 0.0
          },
          {
            "time": "2010-01-12T12:25:29+00:00",
            "course": 270.0,
            "speed": 9.0,
            "depth": 0.0
          },
          {
            "time": "2010-01-12T12:25:44+00:00",
            "course": 270.0,
            "speed": 9.0,
            "depth": 0.0
          },
          {
            "time": "2010-01-12T12:25:59+00:00",
            "course": 270.0,
            "speed": 9.0,
            "depth": 0.0
          },
          {
            "time": "2010-01-12T12:26:14+00:00",
            "course": 270.0,
            "speed": 9.0,
            "depth": 0.0
          },
          {
            "time": "2010-01-12T12:26:29+00:00",
            "course": 270.0,
            "speed": 9.0,
            "depth": 0.0
          },
          {
            "time": "2010-01-12T12:26:44+00:00",
            "course": 270.0,
            "speed": 9.0,
            "depth": 0.0
          },
          {
            "time": "2010-01-12T12:26:59+00:00",
            "course": 270.0,
            "speed": 9.0,
            "depth": 0.0
          },
          {
            "time": "2010-01-12T12:27:14+00:00",
            "course": 270.0,
            "speed": 9.0,
            "depth": 0.0
          },
          {
            "time": "2010-01-12T12:27:29+00:00",
            "course": 270.0,
            "speed": 9.0,
            "depth": 0.0
          },
          {
            "time": "2010-01-12T12:27:44+00:00",
            "course": 270.0,
            "speed": 9.0,
            "depth": 0.0
          },
          {
            "time": "2010-01-12T12:27:59+00:00",
            "course": 270.0,
            "speed": 9.0,
            "depth": 0.0
          },
          {
            "time": "2010-01-12T12:28:14+00:00",
            "course": 270.0,
            "speed": 9.0,
            "depth": 0.0
          },
          {
            "time": "2010-01-12T12:28:29+00:00",
            "course": 270.0,
            "speed": 9.0,
            "depth": 0.0
          },
          {
            "time": "2010-01-12T12:28:44+00:00",
            "course": 270.0,
            "speed": 9.0,
            "depth": 0.0
          },
          {
            "time": "2010-01-12T12:28:59+00:00",
            "course": 270.0,
            "speed": 9.0,
            "depth": 0.0
          },
          {
            "time": "2010-01-12T12:29:14+00:00",
            "course": 270.0,
            "speed": 9.0,
            "depth": 0.0
          },
          {
            "time": "2010-01-12T12:29:29+00:00",
            "course": 270.0,
            "speed": 9.0,
            "depth": 0.0
          },
          {
            "time": "2010-01-12T12:29:44+00:00",
            "course": 270.0,
            "speed": 9.0,
            "depth": 0.0
          },
          {
            "time": "2010-01-12T12:29:59+00:00",
            "course": 270.0,
            "speed": 9.0,
            "depth": 0.0
          }
        ],
        "style": {
          "line": {
            "color": "#FF0000"
          },
          "point": {
            "shape": "circle",
            "radius": 3.0,
            "fill_color": "#FF0000",
            "color": "#FF0000"
          }
        },
        "default_position_style": {
          "show_symbol": false,
          "symbol": "circle",
          "show_label": false
        },
        "symbol_interval": "PT1M",
        "label_interval": "PT5M",
        "provenance": [
          {
            "activity_id": "a03f50c8-8cef-4341-9925-5bc6f8f574ce",
            "timestamp": "2026-04-13T23:12:31.869288Z",
            "was_generated_by": {
              "tool": "rep-parser",
              "tool_version": "1.0.0",
              "parameters": []
            },
            "used": [],
            "generated": [
              "43fd99b3-3816-49d4-b8d5-9136bc4a626f"
            ],
            "execution_duration": "PT0.000482S"
          }
        ]
      }
    }
  ]
}