{
  "type": "FeatureCollection",
  "features": [
    {
      "type": "Feature",
      "id": "cb01d8df-25eb-4525-a7bb-e64ad32ebf7a",
      "geometry": null,
      "properties": {
        "kind": "SENSOR_CONTACT",
        "parent_track": "SENSOR",
        "time": "2010-01-12T12:13:14+00:00",
        "bearing": 2.4,
        "range": 12000.0,
        "sensor_name": "Plain",
        "label": "Cookie SUBJECT held on Plain Cookie"
      }
    },
    {
      "type": "Feature",
      "id": "e646c662-67f3-414f-91b7-4f12778396bc",
      "geometry": null,
      "properties": {
        "kind": "SENSOR_CONTACT",
        "parent_track": "SENSOR",
        "time": "2010-01-12T12:13:29+00:00",
        "bearing": 1.5,
        "range": 12000.0,
        "sensor_name": "Plain",
        "label": "Cookie SUBJECT held on Plain Cookie"
      }
    },
    {
      "type": "Feature",
      "id": "b559fbb5-ca45-4317-a546-125e87445cbb",
      "geometry": null,
      "properties": {
        "kind": "SENSOR_CONTACT",
        "parent_track": "SENSOR",
        "time": "2010-01-12T12:13:44+00:00",
        "bearing": 1.1,
        "range": 12000.0,
        "sensor_name": "Plain",
        "label": "Cookie SUBJECT held on Plain Cookie"
      }
    },
    {
      "type": "Feature",
      "id": "a2647f5e-46bd-40c1-91ad-48b22702f879",
      "geometry": null,
      "properties": {
        "kind": "SENSOR_CONTACT",
        "parent_track": "SENSOR",
        "time": "2010-01-12T12:13:59+00:00",
        "bearing": 1.1,
        "range": 12000.0,
        "sensor_name": "Plain",
        "label": "Cookie SUBJECT held on Plain Cookie"
      }
    },
    {
      "type": "Feature",
      "id": "c9da65ac-7aaf-4e10-9e5a-b0e425c696cc",
      "geometry": null,
      "properties": {
        "kind": "SENSOR_CONTACT",
        "parent_track": "SENSOR",
        "time": "2010-01-12T12:14:14+00:00",
        "bearing": 1.2,
        "range": 12000.0,
        "sensor_name": "Plain",
        "label": "Cookie SUBJECT held on Plain Cookie"
      }
    },
    {
      "type": "Feature",
      "id": "ad02e766-7537-4053-b369-45afdb03273b",
      "geometry": null,
      "properties": {
        "kind": "SENSOR_CONTACT",
        "parent_track": "SENSOR",
        "time": "2010-01-12T12:14:29+00:00",
        "bearing": 1.4,
        "range": 12000.0,
        "sensor_name": "Plain",
        "label": "Cookie SUBJECT held on Plain Cookie"
      }
    },
    {
      "type": "Feature",
      "id": "701c73c5-c7ee-461f-bef4-960c3549e6f0",
      "geometry": null,
      "properties": {
        "kind": "SENSOR_CONTACT",
        "parent_track": "SENSOR",
        "time": "2010-01-12T12:14:44+00:00",
        "bearing": 1.6,
        "range": 12000.0,
        "sensor_name": "Plain",
        "label": "Cookie SUBJECT held on Plain Cookie"
      }
    },
    {
      "type": "Feature",
      "id": "243ed794-17f3-48d9-ab3e-d4be9d76dbe2",
      "geometry": null,
      "properties": {
        "kind": "SENSOR_CONTACT",
        "parent_track": "SENSOR",
        "time": "2010-01-12T12:14:59+00:00",
        "bearing": 1.8,
        "range": 12000.0,
        "sensor_name": "Plain",
        "label": "Cookie SUBJECT held on Plain Cookie"
      }
    },
    {
      "type": "Feature",
      "id": "31648961-06e7-469e-b854-8b1d26b219db",
      "geometry": null,
      "properties": {
        "kind": "SENSOR_CONTACT",
        "parent_track": "SENSOR",
        "time": "2010-01-12T12:15:14+00:00",
        "bearing": 2.0,
        "range": 12000.0,
        "sensor_name": "Plain",
        "label": "Cookie SUBJECT held on Plain Cookie"
      }
    },
    {
      "type": "Feature",
      "id": "7b65287b-3220-4e5b-9dbe-2e0575c36681",
      "geometry": null,
      "properties": {
        "kind": "SENSOR_CONTACT",
        "parent_track": "SENSOR",
        "time": "2010-01-12T12:15:29+00:00",
        "bearing": 2.2,
        "range": 12000.0,
        "sensor_name": "Plain",
        "label": "Cookie SUBJECT held on Plain Cookie"
      }
    },
    {
      "type": "Feature",
      "id": "70f97c83-6838-462e-9a64-29d912c645f3",
      "geometry": null,
      "properties": {
        "kind": "SENSOR_CONTACT",
        "parent_track": "SENSOR",
        "time": "2010-01-12T12:15:44+00:00",
        "bearing": 2.3,
        "range": 12000.0,
        "sensor_name": "Plain",
        "label": "Cookie SUBJECT held on Plain Cookie"
      }
    },
    {
      "type": "Feature",
      "id": "1b9e83db-2691-4507-94d8-fa5ad51aa400",
      "geometry": null,
      "properties": {
        "kind": "SENSOR_CONTACT",
        "parent_track": "SENSOR",
        "time": "2010-01-12T12:15:59+00:00",
        "bearing": 2.5,
        "range": 12000.0,
        "sensor_name": "Plain",
        "label": "Cookie SUBJECT held on Plain Cookie"
      }
    },
    {
      "type": "Feature",
      "id": "e63a874e-64ac-4cd5-b854-ef99bb2bf6a8",
      "geometry": null,
      "properties": {
        "kind": "SENSOR_CONTACT",
        "parent_track": "SENSOR",
        "time": "2010-01-12T12:16:14+00:00",
        "bearing": 2.7,
        "range": 12000.0,
        "sensor_name": "Plain",
        "label": "Cookie SUBJECT held on Plain Cookie"
      }
    },
    {
      "type": "Feature",
      "id": "0f855c5a-ef74-41fc-bf57-e47ba236f713",
      "geometry": null,
      "properties": {
        "kind": "SENSOR_CONTACT",
        "parent_track": "SENSOR",
        "time": "2010-01-12T12:16:29+00:00",
        "bearing": 2.9,
        "range": 12000.0,
        "sensor_name": "Plain",
        "label": "Cookie SUBJECT held on Plain Cookie"
      }
    },
    {
      "type": "Feature",
      "id": "6511c967-5b79-4149-9e3d-019eb9f3c8dc",
      "geometry": null,
      "properties": {
        "kind": "SENSOR_CONTACT",
        "parent_track": "SENSOR",
        "time": "2010-01-12T12:16:44+00:00",
        "bearing": 3.1,
        "range": 12000.0,
        "sensor_name": "Plain",
        "label": "Cookie SUBJECT held on Plain Cookie"
      }
    },
    {
      "type": "Feature",
      "id": "48e65e53-da87-4fcc-8785-1a722c76d86d",
      "geometry": null,
      "properties": {
        "kind": "SENSOR_CONTACT",
        "parent_track": "SENSOR",
        "time": "2010-01-12T12:16:59+00:00",
        "bearing": 3.3,
        "range": 12000.0,
        "sensor_name": "Plain",
        "label": "Cookie SUBJECT held on Plain Cookie"
      }
    },
    {
      "type": "Feature",
      "id": "730b7acd-b96a-488e-b286-19e3dc192fde",
      "geometry": null,
      "properties": {
        "kind": "SENSOR_CONTACT",
        "parent_track": "SENSOR",
        "time": "2010-01-12T12:17:14+00:00",
        "bearing": 3.5,
        "range": 12000.0,
        "sensor_name": "Plain",
        "label": "Cookie SUBJECT held on Plain Cookie"
      }
    },
    {
      "type": "Feature",
      "id": "ef41859b-792d-4d55-8ce4-4caefc929b82",
      "geometry": null,
      "properties": {
        "kind": "SENSOR_CONTACT",
        "parent_track": "SENSOR",
        "time": "2010-01-12T12:17:29+00:00",
        "bearing": 3.6,
        "range": 12000.0,
        "sensor_name": "Plain",
        "label": "Cookie SUBJECT held on Plain Cookie"
      }
    },
    {
      "type": "Feature",
      "id": "ef6e76c8-0e91-4010-a5e5-7ad20667595a",
      "geometry": null,
      "properties": {
        "kind": "SENSOR_CONTACT",
        "parent_track": "SENSOR",
        "time": "2010-01-12T12:17:44+00:00",
        "bearing": 3.8,
        "range": 12000.0,
        "sensor_name": "Plain",
        "label": "Cookie SUBJECT held on Plain Cookie"
      }
    },
    {
      "type": "Feature",
      "id": "427d4fbf-316a-413b-8038-8cc3b8f80a10",
      "geometry": null,
      "properties": {
        "kind": "SENSOR_CONTACT",
        "parent_track": "SENSOR",
        "time": "2010-01-12T12:17:59+00:00",
        "bearing": 4.0,
        "range": 12000.0,
        "sensor_name": "Plain",
        "label": "Cookie SUBJECT held on Plain Cookie"
      }
    },
    {
      "type": "Feature",
      "id": "b15c7ead-fdc0-4a4b-89d3-0295cbf8b5db",
      "geometry": null,
      "properties": {
        "kind": "SENSOR_CONTACT",
        "parent_track": "SENSOR",
        "time": "2010-01-12T12:18:14+00:00",
        "bearing": 4.2,
        "range": 12000.0,
        "sensor_name": "Plain",
        "label": "Cookie SUBJECT held on Plain Cookie"
      }
    },
    {
      "type": "Feature",
      "id": "978a1598-a68e-4b5d-a335-c31626677fe2",
      "geometry": null,
      "properties": {
        "kind": "SENSOR_CONTACT",
        "parent_track": "SENSOR",
        "time": "2010-01-12T12:18:29+00:00",
        "bearing": 4.3,
        "range": 12000.0,
        "sensor_name": "Plain",
        "label": "Cookie SUBJECT held on Plain Cookie"
      }
    },
    {
      "type": "Feature",
      "id": "1094785f-b101-49b3-b021-c81dc77d5203",
      "geometry": null,
      "properties": {
        "kind": "SENSOR_CONTACT",
        "parent_track": "SENSOR",
        "time": "2010-01-12T12:18:44+00:00",
        "bearing": 4.3,
        "range": 12000.0,
        "sensor_name": "Plain",
        "label": "Cookie SUBJECT held on Plain Cookie"
      }
    },
    {
      "type": "Feature",
      "id": "ae59f03a-72d0-4ef9-b78d-a58a50b2d6d3",
      "geometry": null,
      "properties": {
        "kind": "SENSOR_CONTACT",
        "parent_track": "SENSOR",
        "time": "2010-01-12T12:18:59+00:00",
        "bearing": 3.9,
        "range": 12000.0,
        "sensor_name": "Plain",
        "label": "Cookie SUBJECT held on Plain Cookie"
      }
    },
    {
      "type": "Feature",
      "id": "dc5e20bd-71b5-4ac8-b4d1-f8866b18e76a",
      "geometry": null,
      "properties": {
        "kind": "SENSOR_CONTACT",
        "parent_track": "SENSOR",
        "time": "2010-01-12T12:19:14+00:00",
        "bearing": 3.4,
        "range": 12000.0,
        "sensor_name": "Plain",
        "label": "Cookie SUBJECT held on Plain Cookie"
      }
    },
    {
      "type": "Feature",
      "id": "3f75fa14-bb69-4bc6-b3f3-7efc303efbb1",
      "geometry": null,
      "properties": {
        "kind": "SENSOR_CONTACT",
        "parent_track": "SENSOR",
        "time": "2010-01-12T12:19:29+00:00",
        "bearing": 2.9,
        "range": 12000.0,
        "sensor_name": "Plain",
        "label": "Cookie SUBJECT held on Plain Cookie"
      }
    },
    {
      "type": "Feature",
      "id": "ac55ba87-a663-4fbe-b2bb-a8f758e68cd8",
      "geometry": null,
      "properties": {
        "kind": "SENSOR_CONTACT",
        "parent_track": "SENSOR",
        "time": "2010-01-12T12:19:44+00:00",
        "bearing": 2.5,
        "range": 12000.0,
        "sensor_name": "Plain",
        "label": "Cookie SUBJECT held on Plain Cookie"
      }
    },
    {
      "type": "Feature",
      "id": "6b5c436a-0b50-4e78-8470-0a46a927a3d3",
      "geometry": null,
      "properties": {
        "kind": "SENSOR_CONTACT",
        "parent_track": "SENSOR",
        "time": "2010-01-12T12:19:59+00:00",
        "bearing": 2.0,
        "range": 12000.0,
        "sensor_name": "Plain",
        "label": "Cookie SUBJECT held on Plain Cookie"
      }
    },
    {
      "type": "Feature",
      "id": "c6534274-2267-461d-8d81-e48b05068687",
      "geometry": null,
      "properties": {
        "kind": "SENSOR_CONTACT",
        "parent_track": "SENSOR",
        "time": "2010-01-12T12:20:14+00:00",
        "bearing": 1.4,
        "range": 12000.0,
        "sensor_name": "Plain",
        "label": "Cookie SUBJECT held on Plain Cookie"
      }
    },
    {
      "type": "Feature",
      "id": "443bd1a7-b36b-4e04-a9c5-a5b7b7f3ad64",
      "geometry": null,
      "properties": {
        "kind": "SENSOR_CONTACT",
        "parent_track": "SENSOR",
        "time": "2010-01-12T12:20:29+00:00",
        "bearing": 0.9,
        "range": 12000.0,
        "sensor_name": "Plain",
        "label": "Cookie SUBJECT held on Plain Cookie"
      }
    },
    {
      "type": "Feature",
      "id": "d436842f-e754-43f5-8679-ea12c5b50c91",
      "geometry": null,
      "properties": {
        "kind": "SENSOR_CONTACT",
        "parent_track": "SENSOR",
        "time": "2010-01-12T12:20:44+00:00",
        "bearing": 0.4,
        "range": 12000.0,
        "sensor_name": "Plain",
        "label": "Cookie SUBJECT held on Plain Cookie"
      }
    },
    {
      "type": "Feature",
      "id": "fe1ac067-0c52-44ae-a77d-39ea7bc91bd2",
      "geometry": null,
      "properties": {
        "kind": "SENSOR_CONTACT",
        "parent_track": "SENSOR",
        "time": "2010-01-12T12:20:59+00:00",
        "bearing": -0.2,
        "range": 12000.0,
        "sensor_name": "Plain",
        "label": "Cookie SUBJECT held on Plain Cookie"
      }
    },
    {
      "type": "Feature",
      "id": "43cb0921-6c9d-4813-b8db-f3b056f605df",
      "geometry": null,
      "properties": {
        "kind": "SENSOR_CONTACT",
        "parent_track": "SENSOR",
        "time": "2010-01-12T12:21:14+00:00",
        "bearing": -0.8,
        "range": 12000.0,
        "sensor_name": "Plain",
        "label": "Cookie SUBJECT held on Plain Cookie"
      }
    },
    {
      "type": "Feature",
      "id": "abc1ced5-c473-419c-a29a-579bb0332b93",
      "geometry": null,
      "properties": {
        "kind": "SENSOR_CONTACT",
        "parent_track": "SENSOR",
        "time": "2010-01-12T12:21:29+00:00",
        "bearing": -1.4,
        "range": 12000.0,
        "sensor_name": "Plain",
        "label": "Cookie SUBJECT held on Plain Cookie"
      }
    },
    {
      "type": "Feature",
      "id": "00b22669-6350-439d-a8d8-492aedda8646",
      "geometry": null,
      "properties": {
        "kind": "SENSOR_CONTACT",
        "parent_track": "SENSOR",
        "time": "2010-01-12T12:21:44+00:00",
        "bearing": -2.0,
        "range": 12000.0,
        "sensor_name": "Plain",
        "label": "Cookie SUBJECT held on Plain Cookie"
      }
    },
    {
      "type": "Feature",
      "id": "5a044e10-266e-4309-adca-29c659ccc6be",
      "geometry": null,
      "properties": {
        "kind": "SENSOR_CONTACT",
        "parent_track": "SENSOR",
        "time": "2010-01-12T12:21:59+00:00",
        "bearing": -2.6,
        "range": 12000.0,
        "sensor_name": "Plain",
        "label": "Cookie SUBJECT held on Plain Cookie"
      }
    },
    {
      "type": "Feature",
      "id": "e2e1ab1e-2da1-47e5-9231-6c64845e231f",
      "geometry": null,
      "properties": {
        "kind": "SENSOR_CONTACT",
        "parent_track": "SENSOR",
        "time": "2010-01-12T12:22:14+00:00",
        "bearing": -3.3,
        "range": 12000.0,
        "sensor_name": "Plain",
        "label": "Cookie SUBJECT held on Plain Cookie"
      }
    },
    {
      "type": "Feature",
      "id": "d9e5be91-c492-4e3b-9d38-3d41e47fe4f6",
      "geometry": null,
      "properties": {
        "kind": "SENSOR_CONTACT",
        "parent_track": "SENSOR",
        "time": "2010-01-12T12:22:29+00:00",
        "bearing": -3.9,
        "range": 12000.0,
        "sensor_name": "Plain",
        "label": "Cookie SUBJECT held on Plain Cookie"
      }
    },
    {
      "type": "Feature",
      "id": "e2813717-30a6-4da2-a2cb-241b90de7c28",
      "geometry": null,
      "properties": {
        "kind": "SENSOR_CONTACT",
        "parent_track": "SENSOR",
        "time": "2010-01-12T12:22:44+00:00",
        "bearing": -4.6,
        "range": 12000.0,
        "sensor_name": "Plain",
        "label": "Cookie SUBJECT held on Plain Cookie"
      }
    },
    {
      "type": "Feature",
      "id": "93f321af-6b47-44cf-b187-d5cad0e632a3",
      "geometry": null,
      "properties": {
        "kind": "SENSOR_CONTACT",
        "parent_track": "SENSOR",
        "time": "2010-01-12T12:22:59+00:00",
        "bearing": -5.3,
        "range": 12000.0,
        "sensor_name": "Plain",
        "label": "Cookie SUBJECT held on Plain Cookie"
      }
    },
    {
      "type": "Feature",
      "id": "df5963db-e218-4069-a098-c3d20a239e62",
      "geometry": null,
      "properties": {
        "kind": "SENSOR_CONTACT",
        "parent_track": "SENSOR",
        "time": "2010-01-12T12:23:14+00:00",
        "bearing": -6.1,
        "range": 12000.0,
        "sensor_name": "Plain",
        "label": "Cookie SUBJECT held on Plain Cookie"
      }
    },
    {
      "type": "Feature",
      "id": "bce909b2-93f3-4478-b22a-47f98043f03e",
      "geometry": null,
      "properties": {
        "kind": "SENSOR_CONTACT",
        "parent_track": "SENSOR",
        "time": "2010-01-12T12:23:29+00:00",
        "bearing": -6.8,
        "range": 12000.0,
        "sensor_name": "Plain",
        "label": "Cookie SUBJECT held on Plain Cookie"
      }
    },
    {
      "type": "Feature",
      "id": "f7a08e2a-05f6-4303-b577-7d67c5fece78",
      "geometry": null,
      "properties": {
        "kind": "SENSOR_CONTACT",
        "parent_track": "SENSOR",
        "time": "2010-01-12T12:23:44+00:00",
        "bearing": -7.6,
        "range": 12000.0,
        "sensor_name": "Plain",
        "label": "Cookie SUBJECT held on Plain Cookie"
      }
    },
    {
      "type": "Feature",
      "id": "27688a41-a581-48aa-8583-b29de9478cf0",
      "geometry": null,
      "properties": {
        "kind": "SENSOR_CONTACT",
        "parent_track": "SENSOR",
        "time": "2010-01-12T12:23:59+00:00",
        "bearing": -8.4,
        "range": 12000.0,
        "sensor_name": "Plain",
        "label": "Cookie SUBJECT held on Plain Cookie"
      }
    },
    {
      "type": "Feature",
      "id": "00478f1a-7572-440f-a991-0b21bc7e2fc2",
      "geometry": null,
      "properties": {
        "kind": "SENSOR_CONTACT",
        "parent_track": "SENSOR",
        "time": "2010-01-12T12:24:14+00:00",
        "bearing": -9.3,
        "range": 12000.0,
        "sensor_name": "Plain",
        "label": "Cookie SUBJECT held on Plain Cookie"
      }
    },
    {
      "type": "Feature",
      "id": "4df5bc90-d61e-4fd8-8803-c0e151d7f1fd",
      "geometry": null,
      "properties": {
        "kind": "SENSOR_CONTACT",
        "parent_track": "SENSOR",
        "time": "2010-01-12T12:24:29+00:00",
        "bearing": -10.1,
        "range": 12000.0,
        "sensor_name": "Plain",
        "label": "Cookie SUBJECT held on Plain Cookie"
      }
    },
    {
      "type": "Feature",
      "id": "55339d6b-106a-4839-8c02-6be40d983273",
      "geometry": null,
      "properties": {
        "kind": "SENSOR_CONTACT",
        "parent_track": "SENSOR",
        "time": "2010-01-12T12:24:44+00:00",
        "bearing": -11.0,
        "range": 12000.0,
        "sensor_name": "Plain",
        "label": "Cookie SUBJECT held on Plain Cookie"
      }
    },
    {
      "type": "Feature",
      "id": "b069c809-ded0-4803-aa5e-39462b2f7738",
      "geometry": null,
      "properties": {
        "kind": "SENSOR_CONTACT",
        "parent_track": "SENSOR",
        "time": "2010-01-12T12:24:59+00:00",
        "bearing": -11.9,
        "range": 12000.0,
        "sensor_name": "Plain",
        "label": "Cookie SUBJECT held on Plain Cookie"
      }
    },
    {
      "type": "Feature",
      "id": "9199550b-f3fe-48d1-9984-7a6e2cf0dcbb",
      "geometry": null,
      "properties": {
        "kind": "SENSOR_CONTACT",
        "parent_track": "SENSOR",
        "time": "2010-01-12T12:25:14+00:00",
        "bearing": -12.9,
        "range": 12000.0,
        "sensor_name": "Plain",
        "label": "Cookie SUBJECT held on Plain Cookie"
      }
    },
    {
      "type": "Feature",
      "id": "70547aed-6584-4bd1-8571-b49c3d368229",
      "geometry": null,
      "properties": {
        "kind": "SENSOR_CONTACT",
        "parent_track": "SENSOR",
        "time": "2010-01-12T12:25:29+00:00",
        "bearing": -13.9,
        "range": 12000.0,
        "sensor_name": "Plain",
        "label": "Cookie SUBJECT held on Plain Cookie"
      }
    },
    {
      "type": "Feature",
      "id": "e637ed5a-0cee-4f4d-9c0b-795dbd1f7b97",
      "geometry": null,
      "properties": {
        "kind": "SENSOR_CONTACT",
        "parent_track": "SENSOR",
        "time": "2010-01-12T12:25:44+00:00",
        "bearing": -14.9,
        "range": 12000.0,
        "sensor_name": "Plain",
        "label": "Cookie SUBJECT held on Plain Cookie"
      }
    },
    {
      "type": "Feature",
      "id": "4c30ec41-4a2d-45f7-aea9-c19f5539e939",
      "geometry": null,
      "properties": {
        "kind": "SENSOR_CONTACT",
        "parent_track": "SENSOR",
        "time": "2010-01-12T12:25:59+00:00",
        "bearing": -15.9,
        "range": 12000.0,
        "sensor_name": "Plain",
        "label": "Cookie SUBJECT held on Plain Cookie"
      }
    },
    {
      "type": "Feature",
      "id": "fd1e4974-c4e9-49e9-a820-e2a35c29e91e",
      "geometry": null,
      "properties": {
        "kind": "SENSOR_CONTACT",
        "parent_track": "SENSOR",
        "time": "2010-01-12T12:26:14+00:00",
        "bearing": -17.0,
        "range": 12000.0,
        "sensor_name": "Plain",
        "label": "Cookie SUBJECT held on Plain Cookie"
      }
    },
    {
      "type": "Feature",
      "id": "c6c967ce-68ad-4d0e-9c09-f9e03e9074d4",
      "geometry": null,
      "properties": {
        "kind": "SENSOR_CONTACT",
        "parent_track": "SENSOR",
        "time": "2010-01-12T12:26:29+00:00",
        "bearing": -18.1,
        "range": 12000.0,
        "sensor_name": "Plain",
        "label": "Cookie SUBJECT held on Plain Cookie"
      }
    },
    {
      "type": "Feature",
      "id": "842735d6-62c6-40f8-8dfb-53914d58c3dd",
      "geometry": null,
      "properties": {
        "kind": "SENSOR_CONTACT",
        "parent_track": "SENSOR",
        "time": "2010-01-12T12:26:44+00:00",
        "bearing": -19.3,
        "range": 12000.0,
        "sensor_name": "Plain",
        "label": "Cookie SUBJECT held on Plain Cookie"
      }
    },
    {
      "type": "Feature",
      "id": "489f6dfb-5ae3-44bf-9e5b-3fffe4ca1229",
      "geometry": null,
      "properties": {
        "kind": "SENSOR_CONTACT",
        "parent_track": "SENSOR",
        "time": "2010-01-12T12:26:59+00:00",
        "bearing": -20.4,
        "range": 12000.0,
        "sensor_name": "Plain",
        "label": "Cookie SUBJECT held on Plain Cookie"
      }
    },
    {
      "type": "Feature",
      "id": "c9c1cedf-c694-4904-8271-032bf7676a6e",
      "geometry": null,
      "properties": {
        "kind": "SENSOR_CONTACT",
        "parent_track": "SENSOR",
        "time": "2010-01-12T12:27:14+00:00",
        "bearing": -21.7,
        "range": 12000.0,
        "sensor_name": "Plain",
        "label": "Cookie SUBJECT held on Plain Cookie"
      }
    },
    {
      "type": "Feature",
      "id": "bfe1e14a-6be7-4f65-bbb1-61d7202120f2",
      "geometry": null,
      "properties": {
        "kind": "SENSOR_CONTACT",
        "parent_track": "SENSOR",
        "time": "2010-01-12T12:27:29+00:00",
        "bearing": -22.9,
        "range": 12000.0,
        "sensor_name": "Plain",
        "label": "Cookie SUBJECT held on Plain Cookie"
      }
    },
    {
      "type": "Feature",
      "id": "a55bd500-d82b-4129-b89f-9d4b6ffb4730",
      "geometry": null,
      "properties": {
        "kind": "SENSOR_CONTACT",
        "parent_track": "SENSOR",
        "time": "2010-01-12T12:27:44+00:00",
        "bearing": -24.2,
        "range": 12000.0,
        "sensor_name": "Plain",
        "label": "Cookie SUBJECT held on Plain Cookie"
      }
    },
    {
      "type": "Feature",
      "id": "bf0eef87-da5a-47be-a9f2-4df5079a63be",
      "geometry": null,
      "properties": {
        "kind": "SENSOR_CONTACT",
        "parent_track": "SENSOR",
        "time": "2010-01-12T12:27:59+00:00",
        "bearing": -25.5,
        "range": 12000.0,
        "sensor_name": "Plain",
        "label": "Cookie SUBJECT held on Plain Cookie"
      }
    },
    {
      "type": "Feature",
      "id": "763d64e8-ea47-4f0e-8094-e2cf525260df",
      "geometry": null,
      "properties": {
        "kind": "SENSOR_CONTACT",
        "parent_track": "SENSOR",
        "time": "2010-01-12T12:28:14+00:00",
        "bearing": -26.9,
        "range": 12000.0,
        "sensor_name": "Plain",
        "label": "Cookie SUBJECT held on Plain Cookie"
      }
    },
    {
      "type": "Feature",
      "id": "b826f6d6-8a95-4523-962d-d39d7b1a79bd",
      "geometry": null,
      "properties": {
        "kind": "SENSOR_CONTACT",
        "parent_track": "SENSOR",
        "time": "2010-01-12T12:28:29+00:00",
        "bearing": -28.3,
        "range": 12000.0,
        "sensor_name": "Plain",
        "label": "Cookie SUBJECT held on Plain Cookie"
      }
    },
    {
      "type": "Feature",
      "id": "12401779-41eb-409e-aba3-25218a9d144e",
      "geometry": null,
      "properties": {
        "kind": "SENSOR_CONTACT",
        "parent_track": "SENSOR",
        "time": "2010-01-12T12:28:44+00:00",
        "bearing": -29.4,
        "range": 12000.0,
        "sensor_name": "Plain",
        "label": "Cookie SUBJECT held on Plain Cookie"
      }
    },
    {
      "type": "Feature",
      "id": "6eea8b1d-e6e5-4355-b501-2b3b92099e10",
      "geometry": null,
      "properties": {
        "kind": "SENSOR_CONTACT",
        "parent_track": "SENSOR",
        "time": "2010-01-12T12:28:59+00:00",
        "bearing": -30.3,
        "range": 12000.0,
        "sensor_name": "Plain",
        "label": "Cookie SUBJECT held on Plain Cookie"
      }
    },
    {
      "type": "Feature",
      "id": "795349dc-db01-423e-944b-59b426cb649b",
      "geometry": null,
      "properties": {
        "kind": "SENSOR_CONTACT",
        "parent_track": "SENSOR",
        "time": "2010-01-12T12:29:14+00:00",
        "bearing": -31.2,
        "range": 12000.0,
        "sensor_name": "Plain",
        "label": "Cookie SUBJECT held on Plain Cookie"
      }
    },
    {
      "type": "Feature",
      "id": "715f16f8-af04-49a0-8690-e3d3e7faa982",
      "geometry": null,
      "properties": {
        "kind": "SENSOR_CONTACT",
        "parent_track": "SENSOR",
        "time": "2010-01-12T12:29:29+00:00",
        "bearing": -32.2,
        "range": 12000.0,
        "sensor_name": "Plain",
        "label": "Cookie SUBJECT held on Plain Cookie"
      }
    },
    {
      "type": "Feature",
      "id": "5c4c3275-8e19-4270-919f-84d9498aabc8",
      "geometry": null,
      "properties": {
        "kind": "SENSOR_CONTACT",
        "parent_track": "SENSOR",
        "time": "2010-01-12T12:29:44+00:00",
        "bearing": -33.2,
        "range": 12000.0,
        "sensor_name": "Plain",
        "label": "Cookie SUBJECT held on Plain Cookie"
      }
    },
    {
      "type": "Feature",
      "id": "3639f93e-dfaa-4dbf-b6ed-3b074051d486",
      "geometry": null,
      "properties": {
        "kind": "SENSOR_CONTACT",
        "parent_track": "SENSOR",
        "time": "2010-01-12T12:29:59+00:00",
        "bearing": -34.2,
        "range": 12000.0,
        "sensor_name": "Plain",
        "label": "Cookie SUBJECT held on Plain Cookie"
      }
    },
    {
      "type": "Feature",
      "id": "a43668f6-27fd-4934-88f2-938b630b0ca3",
      "geometry": null,
      "properties": {
        "kind": "SENSOR_CONTACT",
        "parent_track": "SENSOR",
        "time": "2010-01-12T12:30:14+00:00",
        "bearing": -35.2,
        "range": 12000.0,
        "sensor_name": "Plain",
        "label": "Cookie SUBJECT held on Plain Cookie"
      }
    },
    {
      "type": "Feature",
      "id": "525a2a72-0b83-4828-8f28-6ce9e0e17ad2",
      "geometry": null,
      "properties": {
        "kind": "SENSOR_CONTACT",
        "parent_track": "SENSOR",
        "time": "2010-01-12T12:30:29+00:00",
        "bearing": -36.3,
        "range": 12000.0,
        "sensor_name": "Plain",
        "label": "Cookie SUBJECT held on Plain Cookie"
      }
    },
    {
      "type": "Feature",
      "id": "8677d34f-01a5-40d2-b707-0de5bf3629e5",
      "geometry": null,
      "properties": {
        "kind": "SENSOR_CONTACT",
        "parent_track": "SENSOR",
        "time": "2010-01-12T12:30:44+00:00",
        "bearing": -37.4,
        "range": 12000.0,
        "sensor_name": "Plain",
        "label": "Cookie SUBJECT held on Plain Cookie"
      }
    },
    {
      "type": "Feature",
      "id": "3daace58-83f3-4845-aba2-5e9e7eecdff9",
      "geometry": null,
      "properties": {
        "kind": "SENSOR_CONTACT",
        "parent_track": "SENSOR",
        "time": "2010-01-12T12:30:59+00:00",
        "bearing": -38.5,
        "range": 12000.0,
        "sensor_name": "Plain",
        "label": "Cookie SUBJECT held on Plain Cookie"
      }
    },
    {
      "type": "Feature",
      "id": "ef8abc85-52f4-411b-a9b5-7fecc4aab79d",
      "geometry": null,
      "properties": {
        "kind": "SENSOR_CONTACT",
        "parent_track": "SENSOR",
        "time": "2010-01-12T12:31:14+00:00",
        "bearing": -39.7,
        "range": 12000.0,
        "sensor_name": "Plain",
        "label": "Cookie SUBJECT held on Plain Cookie"
      }
    },
    {
      "type": "Feature",
      "id": "239aa32c-4adf-4fc0-a3c1-3626ef136162",
      "geometry": null,
      "properties": {
        "kind": "SENSOR_CONTACT",
        "parent_track": "SENSOR",
        "time": "2010-01-12T12:31:29+00:00",
        "bearing": -40.9,
        "range": 12000.0,
        "sensor_name": "Plain",
        "label": "Cookie SUBJECT held on Plain Cookie"
      }
    },
    {
      "type": "Feature",
      "id": "91d4066d-6138-48e1-b0f0-b76ea2319fa5",
      "geometry": null,
      "properties": {
        "kind": "SENSOR_CONTACT",
        "parent_track": "SENSOR",
        "time": "2010-01-12T12:31:44+00:00",
        "bearing": -42.1,
        "range": 12000.0,
        "sensor_name": "Plain",
        "label": "Cookie SUBJECT held on Plain Cookie"
      }
    },
    {
      "type": "Feature",
      "id": "0f9847f9-c5ff-43bb-82ae-41d7fbf5654c",
      "geometry": null,
      "properties": {
        "kind": "SENSOR_CONTACT",
        "parent_track": "SENSOR",
        "time": "2010-01-12T12:31:59+00:00",
        "bearing": -43.4,
        "range": 12000.0,
        "sensor_name": "Plain",
        "label": "Cookie SUBJECT held on Plain Cookie"
      }
    },
    {
      "type": "Feature",
      "id": "3558f2bf-9a61-498c-8377-ad4d618e75f5",
      "geometry": null,
      "properties": {
        "kind": "SENSOR_CONTACT",
        "parent_track": "SENSOR",
        "time": "2010-01-12T12:32:14+00:00",
        "bearing": -44.7,
        "range": 12000.0,
        "sensor_name": "Plain",
        "label": "Cookie SUBJECT held on Plain Cookie"
      }
    },
    {
      "type": "Feature",
      "id": "43bb2ebd-0042-4c6f-b7aa-42257a8681e4",
      "geometry": null,
      "properties": {
        "kind": "SENSOR_CONTACT",
        "parent_track": "SENSOR",
        "time": "2010-01-12T12:32:29+00:00",
        "bearing": -46.1,
        "range": 12000.0,
        "sensor_name": "Plain",
        "label": "Cookie SUBJECT held on Plain Cookie"
      }
    },
    {
      "type": "Feature",
      "id": "34e07f72-e6a5-45ac-bca8-c16f92f46b7f",
      "geometry": null,
      "properties": {
        "kind": "SENSOR_CONTACT",
        "parent_track": "SENSOR",
        "time": "2010-01-12T12:32:44+00:00",
        "bearing": -47.7,
        "range": 12000.0,
        "sensor_name": "Plain",
        "label": "Cookie SUBJECT held on Plain Cookie"
      }
    },
    {
      "type": "Feature",
      "id": "4f91bf25-7391-4e31-a833-482558023418",
      "geometry": null,
      "properties": {
        "kind": "SENSOR_CONTACT",
        "parent_track": "SENSOR",
        "time": "2010-01-12T12:32:59+00:00",
        "bearing": -49.5,
        "range": 12000.0,
        "sensor_name": "Plain",
        "label": "Cookie SUBJECT held on Plain Cookie"
      }
    },
    {
      "type": "Feature",
      "id": "a564fd29-ac99-4338-8331-adf4ac5d45e1",
      "geometry": null,
      "properties": {
        "kind": "SENSOR_CONTACT",
        "parent_track": "SENSOR",
        "time": "2010-01-12T12:33:14+00:00",
        "bearing": -51.4,
        "range": 12000.0,
        "sensor_name": "Plain",
        "label": "Cookie SUBJECT held on Plain Cookie"
      }
    },
    {
      "type": "Feature",
      "id": "3292ac45-4874-4115-9236-34a831de1f08",
      "geometry": null,
      "properties": {
        "kind": "SENSOR_CONTACT",
        "parent_track": "SENSOR",
        "time": "2010-01-12T12:33:29+00:00",
        "bearing": -53.4,
        "range": 12000.0,
        "sensor_name": "Plain",
        "label": "Cookie SUBJECT held on Plain Cookie"
      }
    },
    {
      "type": "Feature",
      "id": "ebf37f32-0db4-490d-9b13-1206d12051c5",
      "geometry": null,
      "properties": {
        "kind": "SENSOR_CONTACT",
        "parent_track": "SENSOR",
        "time": "2010-01-12T12:33:44+00:00",
        "bearing": -55.6,
        "range": 12000.0,
        "sensor_name": "Plain",
        "label": "Cookie SUBJECT held on Plain Cookie"
      }
    },
    {
      "type": "Feature",
      "id": "a1aa4b75-61e6-46f1-82a4-57bc03335ce7",
      "geometry": null,
      "properties": {
        "kind": "SENSOR_CONTACT",
        "parent_track": "SENSOR",
        "time": "2010-01-12T12:33:59+00:00",
        "bearing": -57.9,
        "range": 12000.0,
        "sensor_name": "Plain",
        "label": "Cookie SUBJECT held on Plain Cookie"
      }
    },
    {
      "type": "Feature",
      "id": "ec6066b8-4255-4b94-9268-8450788a96f1",
      "geometry": null,
      "properties": {
        "kind": "SENSOR_CONTACT",
        "parent_track": "SENSOR",
        "time": "2010-01-12T12:34:14+00:00",
        "bearing": -60.3,
        "range": 12000.0,
        "sensor_name": "Plain",
        "label": "Cookie SUBJECT held on Plain Cookie"
      }
    },
    {
      "type": "Feature",
      "id": "b2029c2e-4eab-465e-9764-23e1f2a5befd",
      "geometry": null,
      "properties": {
        "kind": "SENSOR_CONTACT",
        "parent_track": "SENSOR",
        "time": "2010-01-12T12:34:29+00:00",
        "bearing": -62.8,
        "range": 12000.0,
        "sensor_name": "Plain",
        "label": "Cookie SUBJECT held on Plain Cookie"
      }
    },
    {
      "type": "Feature",
      "id": "da4d4692-2134-4d5c-9723-f90cff41c3b6",
      "geometry": null,
      "properties": {
        "kind": "SENSOR_CONTACT",
        "parent_track": "SENSOR",
        "time": "2010-01-12T12:34:44+00:00",
        "bearing": -65.4,
        "range": 12000.0,
        "sensor_name": "Plain",
        "label": "Cookie SUBJECT held on Plain Cookie"
      }
    },
    {
      "type": "Feature",
      "id": "951f8ada-8b2b-43d7-b563-56d85bc1e462",
      "geometry": null,
      "properties": {
        "kind": "SENSOR_CONTACT",
        "parent_track": "SENSOR",
        "time": "2010-01-12T12:34:59+00:00",
        "bearing": -68.2,
        "range": 12000.0,
        "sensor_name": "Plain",
        "label": "Cookie SUBJECT held on Plain Cookie"
      }
    },
    {
      "type": "Feature",
      "id": "5f289ca3-ddf1-49dc-ab94-b288e9088a74",
      "geometry": null,
      "properties": {
        "kind": "SENSOR_CONTACT",
        "parent_track": "SENSOR",
        "time": "2010-01-12T12:35:14+00:00",
        "bearing": -71.0,
        "range": 12000.0,
        "sensor_name": "Plain",
        "label": "Cookie SUBJECT held on Plain Cookie"
      }
    },
    {
      "type": "Feature",
      "id": "214b95f4-7674-4883-98b2-2e37530a6988",
      "geometry": null,
      "properties": {
        "kind": "SENSOR_CONTACT",
        "parent_track": "SENSOR",
        "time": "2010-01-12T12:35:29+00:00",
        "bearing": -73.4,
        "range": 12000.0,
        "sensor_name": "Plain",
        "label": "Cookie SUBJECT held on Plain Cookie"
      }
    },
    {
      "type": "Feature",
      "id": "d9351a97-facf-4e48-bc5d-7586e8affe66",
      "geometry": null,
      "properties": {
        "kind": "SENSOR_CONTACT",
        "parent_track": "SENSOR",
        "time": "2010-01-12T12:35:44+00:00",
        "bearing": -74.6,
        "range": 12000.0,
        "sensor_name": "Plain",
        "label": "Cookie SUBJECT held on Plain Cookie"
      }
    },
    {
      "type": "Feature",
      "id": "97961a76-8191-4168-852f-55d30a310d98",
      "geometry": null,
      "properties": {
        "kind": "SENSOR_CONTACT",
        "parent_track": "SENSOR",
        "time": "2010-01-12T12:35:59+00:00",
        "bearing": -75.5,
        "range": 12000.0,
        "sensor_name": "Plain",
        "label": "Cookie SUBJECT held on Plain Cookie"
      }
    },
    {
      "type": "Feature",
      "id": "6f2c5a4c-8ac0-4c5e-a702-5c9a607adcdf",
      "geometry": null,
      "properties": {
        "kind": "SENSOR_CONTACT",
        "parent_track": "SENSOR",
        "time": "2010-01-12T12:36:14+00:00",
        "bearing": -76.4,
        "range": 12000.0,
        "sensor_name": "Plain",
        "label": "Cookie SUBJECT held on Plain Cookie"
      }
    },
    {
      "type": "Feature",
      "id": "0d9c3755-96c8-4629-8893-78e994b1948e",
      "geometry": null,
      "properties": {
        "kind": "SENSOR_CONTACT",
        "parent_track": "SENSOR",
        "time": "2010-01-12T12:36:29+00:00",
        "bearing": -77.4,
        "range": 12000.0,
        "sensor_name": "Plain",
        "label": "Cookie SUBJECT held on Plain Cookie"
      }
    },
    {
      "type": "Feature",
      "id": "65541262-1b2f-4dc2-adf0-9631891b8aee",
      "geometry": null,
      "properties": {
        "kind": "SENSOR_CONTACT",
        "parent_track": "SENSOR",
        "time": "2010-01-12T12:36:44+00:00",
        "bearing": -78.5,
        "range": 12000.0,
        "sensor_name": "Plain",
        "label": "Cookie SUBJECT held on Plain Cookie"
      }
    },
    {
      "type": "Feature",
      "id": "abd5d6ce-360c-417d-8e7f-7b87ca770e18",
      "geometry": null,
      "properties": {
        "kind": "SENSOR_CONTACT",
        "parent_track": "SENSOR",
        "time": "2010-01-12T12:36:59+00:00",
        "bearing": -79.6,
        "range": 12000.0,
        "sensor_name": "Plain",
        "label": "Cookie SUBJECT held on Plain Cookie"
      }
    },
    {
      "type": "Feature",
      "id": "3e005891-07f4-4168-877a-7ac8dbbd04e8",
      "geometry": null,
      "properties": {
        "kind": "SENSOR_CONTACT",
        "parent_track": "SENSOR",
        "time": "2010-01-12T12:37:14+00:00",
        "bearing": -80.8,
        "range": 12000.0,
        "sensor_name": "Plain",
        "label": "Cookie SUBJECT held on Plain Cookie"
      }
    },
    {
      "type": "Feature",
      "id": "be32dfca-1a11-4867-b2a4-f0bd51138ba6",
      "geometry": null,
      "properties": {
        "kind": "SENSOR_CONTACT",
        "parent_track": "SENSOR",
        "time": "2010-01-12T12:37:29+00:00",
        "bearing": -82.0,
        "range": 12000.0,
        "sensor_name": "Plain",
        "label": "Cookie SUBJECT held on Plain Cookie"
      }
    },
    {
      "type": "Feature",
      "id": "29820a28-4be0-4aa3-89b3-cbffb2dc9374",
      "geometry": null,
      "properties": {
        "kind": "SENSOR_CONTACT",
        "parent_track": "SENSOR",
        "time": "2010-01-12T12:37:44+00:00",
        "bearing": -83.3,
        "range": 12000.0,
        "sensor_name": "Plain",
        "label": "Cookie SUBJECT held on Plain Cookie"
      }
    },
    {
      "type": "Feature",
      "id": "d9290846-1e6b-4a90-b58d-d2994cf9886d",
      "geometry": null,
      "properties": {
        "kind": "SENSOR_CONTACT",
        "parent_track": "SENSOR",
        "time": "2010-01-12T12:37:59+00:00",
        "bearing": -84.6,
        "range": 12000.0,
        "sensor_name": "Plain",
        "label": "Cookie SUBJECT held on Plain Cookie"
      }
    },
    {
      "type": "Feature",
      "id": "710f2107-c8ad-4da0-88ee-3c538bc7bc5a",
      "geometry": null,
      "properties": {
        "kind": "SENSOR_CONTACT",
        "parent_track": "SENSOR",
        "time": "2010-01-12T12:38:14+00:00",
        "bearing": -86.0,
        "range": 12000.0,
        "sensor_name": "Plain",
        "label": "Cookie SUBJECT held on Plain Cookie"
      }
    },
    {
      "type": "Feature",
      "id": "cd68e55c-5f1c-4a06-93ff-5fc35166be37",
      "geometry": null,
      "properties": {
        "kind": "SENSOR_CONTACT",
        "parent_track": "SENSOR",
        "time": "2010-01-12T12:38:29+00:00",
        "bearing": -87.6,
        "range": 12000.0,
        "sensor_name": "Plain",
        "label": "Cookie SUBJECT held on Plain Cookie"
      }
    },
    {
      "type": "Feature",
      "id": "b6df159d-7fb9-4c43-bf78-c047c977481b",
      "geometry": null,
      "properties": {
        "kind": "SENSOR_CONTACT",
        "parent_track": "SENSOR",
        "time": "2010-01-12T12:38:44+00:00",
        "bearing": -89.1,
        "range": 12000.0,
        "sensor_name": "Plain",
        "label": "Cookie SUBJECT held on Plain Cookie"
      }
    },
    {
      "type": "Feature",
      "id": "b95a370b-ee7a-4d27-8c6c-4f82272c8d52",
      "geometry": null,
      "properties": {
        "kind": "SENSOR_CONTACT",
        "parent_track": "SENSOR",
        "time": "2010-01-12T12:38:59+00:00",
        "bearing": -90.8,
        "range": 12000.0,
        "sensor_name": "Plain",
        "label": "Cookie SUBJECT held on Plain Cookie"
      }
    },
    {
      "type": "Feature",
      "id": "296c9917-bc0d-4b0b-a319-4f6abb989c9f",
      "geometry": null,
      "properties": {
        "kind": "SENSOR_CONTACT",
        "parent_track": "SENSOR",
        "time": "2010-01-12T12:39:14+00:00",
        "bearing": -92.6,
        "range": 12000.0,
        "sensor_name": "Plain",
        "label": "Cookie SUBJECT held on Plain Cookie"
      }
    },
    {
      "type": "Feature",
      "id": "2cfd892a-9400-4f36-baec-b7efd70a6270",
      "geometry": null,
      "properties": {
        "kind": "SENSOR_CONTACT",
        "parent_track": "SENSOR",
        "time": "2010-01-12T12:39:29+00:00",
        "bearing": -94.4,
        "range": 12000.0,
        "sensor_name": "Plain",
        "label": "Cookie SUBJECT held on Plain Cookie"
      }
    },
    {
      "type": "Feature",
      "id": "c62d86e8-fd58-4f4a-ae5a-b8d507e6928f",
      "geometry": null,
      "properties": {
        "kind": "SENSOR_CONTACT",
        "parent_track": "SENSOR",
        "time": "2010-01-12T12:39:44+00:00",
        "bearing": -96.4,
        "range": 12000.0,
        "sensor_name": "Plain",
        "label": "Cookie SUBJECT held on Plain Cookie"
      }
    },
    {
      "type": "Feature",
      "id": "ccec6894-d0a5-42aa-875e-b622e92c9131",
      "geometry": null,
      "properties": {
        "kind": "SENSOR_CONTACT",
        "parent_track": "SENSOR",
        "time": "2010-01-12T12:39:59+00:00",
        "bearing": -98.4,
        "range": 12000.0,
        "sensor_name": "Plain",
        "label": "Cookie SUBJECT held on Plain Cookie"
      }
    },
    {
      "type": "Feature",
      "id": "cf08c2a6-beca-4003-b19e-0e042b9db6c4",
      "geometry": null,
      "properties": {
        "kind": "SENSOR_CONTACT",
        "parent_track": "SENSOR",
        "time": "2010-01-12T12:40:14+00:00",
        "bearing": -100.6,
        "range": 12000.0,
        "sensor_name": "Plain",
        "label": "Cookie SUBJECT held on Plain Cookie"
      }
    },
    {
      "type": "Feature",
      "id": "896ccddb-19a5-4652-bf48-66d381ed9f6f",
      "geometry": null,
      "properties": {
        "kind": "SENSOR_CONTACT",
        "parent_track": "SENSOR",
        "time": "2010-01-12T12:40:29+00:00",
        "bearing": -102.8,
        "range": 12000.0,
        "sensor_name": "Plain",
        "label": "Cookie SUBJECT held on Plain Cookie"
      }
    },
    {
      "type": "Feature",
      "id": "86ce7c87-cffd-4f36-b96e-1e16f3da3678",
      "geometry": null,
      "properties": {
        "kind": "SENSOR_CONTACT",
        "parent_track": "SENSOR",
        "time": "2010-01-12T12:40:44+00:00",
        "bearing": -105.1,
        "range": 12000.0,
        "sensor_name": "Plain",
        "label": "Cookie SUBJECT held on Plain Cookie"
      }
    },
    {
      "type": "Feature",
      "id": "1b66597c-61a7-4213-9995-236b2cff83c0",
      "geometry": null,
      "properties": {
        "kind": "SENSOR_CONTACT",
        "parent_track": "SENSOR",
        "time": "2010-01-12T12:40:59+00:00",
        "bearing": -107.6,
        "range": 12000.0,
        "sensor_name": "Plain",
        "label": "Cookie SUBJECT held on Plain Cookie"
      }
    },
    {
      "type": "Feature",
      "id": "02946863-e7ca-47dd-8742-698e6b162cde",
      "geometry": null,
      "properties": {
        "kind": "SENSOR_CONTACT",
        "parent_track": "SENSOR",
        "time": "2010-01-12T12:41:14+00:00",
        "bearing": -110.1,
        "range": 12000.0,
        "sensor_name": "Plain",
        "label": "Cookie SUBJECT held on Plain Cookie"
      }
    },
    {
      "type": "Feature",
      "id": "ea8fb3fb-40b1-4d61-8a94-ca18d787fc34",
      "geometry": null,
      "properties": {
        "kind": "SENSOR_CONTACT",
        "parent_track": "SENSOR",
        "time": "2010-01-12T12:41:29+00:00",
        "bearing": -112.8,
        "range": 12000.0,
        "sensor_name": "Plain",
        "label": "Cookie SUBJECT held on Plain Cookie"
      }
    },
    {
      "type": "Feature",
      "id": "e2f30ca0-4775-4cbd-855b-e8d933225c30",
      "geometry": null,
      "properties": {
        "kind": "SENSOR_CONTACT",
        "parent_track": "SENSOR",
        "time": "2010-01-12T12:41:44+00:00",
        "bearing": -115.5,
        "range": 12000.0,
        "sensor_name": "Plain",
        "label": "Cookie SUBJECT held on Plain Cookie"
      }
    },
    {
      "type": "Feature",
      "id": "88dc266a-5129-47f7-aa0c-30d16ab819e4",
      "geometry": null,
      "properties": {
        "kind": "SENSOR_CONTACT",
        "parent_track": "SENSOR",
        "time": "2010-01-12T12:41:59+00:00",
        "bearing": -118.3,
        "range": 12000.0,
        "sensor_name": "Plain",
        "label": "Cookie SUBJECT held on Plain Cookie"
      }
    },
    {
      "type": "Feature",
      "id": "aa78e149-b9c6-46eb-86ad-a3d41b6ea881",
      "geometry": null,
      "properties": {
        "kind": "SENSOR_CONTACT",
        "parent_track": "SENSOR",
        "time": "2010-01-12T12:42:14+00:00",
        "bearing": -121.1,
        "range": 12000.0,
        "sensor_name": "Plain",
        "label": "Cookie SUBJECT held on Plain Cookie"
      }
    },
    {
      "type": "Feature",
      "id": "bf6e119a-6e22-482c-9513-6fdf67db923e",
      "geometry": null,
      "properties": {
        "kind": "SENSOR_CONTACT",
        "parent_track": "SENSOR",
        "time": "2010-01-12T12:42:29+00:00",
        "bearing": -124.0,
        "range": 12000.0,
        "sensor_name": "Plain",
        "label": "Cookie SUBJECT held on Plain Cookie"
      }
    },
    {
      "type": "Feature",
      "id": "4f824a41-f5b0-46eb-b4a0-3e997175dbce",
      "geometry": null,
      "properties": {
        "kind": "SENSOR_CONTACT",
        "parent_track": "SENSOR",
        "time": "2010-01-12T12:42:44+00:00",
        "bearing": -127.0,
        "range": 12000.0,
        "sensor_name": "Plain",
        "label": "Cookie SUBJECT held on Plain Cookie"
      }
    },
    {
      "type": "Feature",
      "id": "96b70467-31b2-468a-841b-32ff68425f87",
      "geometry": null,
      "properties": {
        "kind": "SENSOR_CONTACT",
        "parent_track": "SENSOR",
        "time": "2010-01-12T12:42:59+00:00",
        "bearing": -130.0,
        "range": 12000.0,
        "sensor_name": "Plain",
        "label": "Cookie SUBJECT held on Plain Cookie"
      }
    },
    {
      "type": "Feature",
      "id": "d9d62186-ccc8-412f-8f92-4d618348071f",
      "geometry": null,
      "properties": {
        "kind": "SENSOR_CONTACT",
        "parent_track": "SENSOR",
        "time": "2010-01-12T12:43:14+00:00",
        "bearing": -133.0,
        "range": 12000.0,
        "sensor_name": "Plain",
        "label": "Cookie SUBJECT held on Plain Cookie"
      }
    },
    {
      "type": "Feature",
      "id": "4c7e7958-f283-428b-90fd-2a85014d9bd7",
      "geometry": null,
      "properties": {
        "kind": "SENSOR_CONTACT",
        "parent_track": "SENSOR",
        "time": "2010-01-12T12:43:29+00:00",
        "bearing": -135.9,
        "range": 12000.0,
        "sensor_name": "Plain",
        "label": "Cookie SUBJECT held on Plain Cookie"
      }
    },
    {
      "type": "Feature",
      "id": "ba9a3242-e82f-4ccb-8561-eeb5d8e6ca54",
      "geometry": null,
      "properties": {
        "kind": "SENSOR_CONTACT",
        "parent_track": "SENSOR",
        "time": "2010-01-12T12:43:44+00:00",
        "bearing": -138.9,
        "range": 12000.0,
        "sensor_name": "Plain",
        "label": "Cookie SUBJECT held on Plain Cookie"
      }
    },
    {
      "type": "Feature",
      "id": "a540026f-527c-4f6b-b2ea-02a8de616bf8",
      "geometry": null,
      "properties": {
        "kind": "SENSOR_CONTACT",
        "parent_track": "SENSOR",
        "time": "2010-01-12T12:43:59+00:00",
        "bearing": -141.8,
        "range": 12000.0,
        "sensor_name": "Plain",
        "label": "Cookie SUBJECT held on Plain Cookie"
      }
    },
    {
      "type": "Feature",
      "id": "528d1e9c-03cd-49fa-b78b-9c14895ad51c",
      "geometry": null,
      "properties": {
        "kind": "SENSOR_CONTACT",
        "parent_track": "SENSOR",
        "time": "2010-01-12T12:44:14+00:00",
        "bearing": -144.7,
        "range": 12000.0,
        "sensor_name": "Plain",
        "label": "Cookie SUBJECT held on Plain Cookie"
      }
    },
    {
      "type": "Feature",
      "id": "dc6657c6-a6f7-4357-935d-2075e94c314d",
      "geometry": null,
      "properties": {
        "kind": "SENSOR_CONTACT",
        "parent_track": "SENSOR",
        "time": "2010-01-12T12:44:29+00:00",
        "bearing": -147.5,
        "range": 12000.0,
        "sensor_name": "Plain",
        "label": "Cookie SUBJECT held on Plain Cookie"
      }
    },
    {
      "type": "Feature",
      "id": "301d333f-1d98-4e44-97f7-9c3cd5e6f7c8",
      "geometry": null,
      "properties": {
        "kind": "SENSOR_CONTACT",
        "parent_track": "SENSOR",
        "time": "2010-01-12T12:44:44+00:00",
        "bearing": -150.2,
        "range": 12000.0,
        "sensor_name": "Plain",
        "label": "Cookie SUBJECT held on Plain Cookie"
      }
    },
    {
      "type": "Feature",
      "id": "5912adbd-76f7-40bf-b6b3-301d6febf839",
      "geometry": null,
      "properties": {
        "kind": "SENSOR_CONTACT",
        "parent_track": "SENSOR",
        "time": "2010-01-12T12:44:59+00:00",
        "bearing": -152.8,
        "range": 12000.0,
        "sensor_name": "Plain",
        "label": "Cookie SUBJECT held on Plain Cookie"
      }
    },
    {
      "type": "Feature",
      "id": "2cae954f-bb61-4a21-ab7a-346a46b81e82",
      "geometry": null,
      "properties": {
        "kind": "SENSOR_CONTACT",
        "parent_track": "SENSOR",
        "time": "2010-01-12T12:45:14+00:00",
        "bearing": -155.4,
        "range": 12000.0,
        "sensor_name": "Plain",
        "label": "Cookie SUBJECT held on Plain Cookie"
      }
    },
    {
      "type": "Feature",
      "id": "f6692657-c502-4f46-ad85-2aa9e3bb3ca4",
      "geometry": null,
      "properties": {
        "kind": "SENSOR_CONTACT",
        "parent_track": "SENSOR",
        "time": "2010-01-12T12:45:29+00:00",
        "bearing": -157.8,
        "range": 12000.0,
        "sensor_name": "Plain",
        "label": "Cookie SUBJECT held on Plain Cookie"
      }
    },
    {
      "type": "Feature",
      "id": "cf8e365b-c817-4f4a-9179-72dc7ebb2931",
      "geometry": null,
      "properties": {
        "kind": "SENSOR_CONTACT",
        "parent_track": "SENSOR",
        "time": "2010-01-12T12:45:44+00:00",
        "bearing": -160.2,
        "range": 12000.0,
        "sensor_name": "Plain",
        "label": "Cookie SUBJECT held on Plain Cookie"
      }
    },
    {
      "type": "Feature",
      "id": "d100daa3-6588-428d-82bf-d19daaa96ab4",
      "geometry": null,
      "properties": {
        "kind": "SENSOR_CONTACT",
        "parent_track": "SENSOR",
        "time": "2010-01-12T12:45:59+00:00",
        "bearing": -162.4,
        "range": 12000.0,
        "sensor_name": "Plain",
        "label": "Cookie SUBJECT held on Plain Cookie"
      }
    },
    {
      "type": "Feature",
      "id": "e6afa8d1-091a-4795-93aa-525ee621a2f4",
      "geometry": null,
      "properties": {
        "kind": "SENSOR_CONTACT",
        "parent_track": "SENSOR",
        "time": "2010-01-12T12:46:14+00:00",
        "bearing": -164.6,
        "range": 12000.0,
        "sensor_name": "Plain",
        "label": "Cookie SUBJECT held on Plain Cookie"
      }
    },
    {
      "type": "Feature",
      "id": "7d9f4d6d-ea7a-408b-896b-03d27b5beee1",
      "geometry": null,
      "properties": {
        "kind": "SENSOR_CONTACT",
        "parent_track": "SENSOR",
        "time": "2010-01-12T12:46:29+00:00",
        "bearing": -166.6,
        "range": 12000.0,
        "sensor_name": "Plain",
        "label": "Cookie SUBJECT held on Plain Cookie"
      }
    },
    {
      "type": "Feature",
      "id": "5a0cd31b-496c-4076-b6fc-29d4dd5cf1c3",
      "geometry": null,
      "properties": {
        "kind": "SENSOR_CONTACT",
        "parent_track": "SENSOR",
        "time": "2010-01-12T12:46:44+00:00",
        "bearing": -168.6,
        "range": 12000.0,
        "sensor_name": "Plain",
        "label": "Cookie SUBJECT held on Plain Cookie"
      }
    },
    {
      "type": "Feature",
      "id": "123f47f5-cd38-4d61-a9cf-4b175f80bb25",
      "geometry": null,
      "properties": {
        "kind": "SENSOR_CONTACT",
        "parent_track": "SENSOR",
        "time": "2010-01-12T12:46:59+00:00",
        "bearing": -170.5,
        "range": 12000.0,
        "sensor_name": "Plain",
        "label": "Cookie SUBJECT held on Plain Cookie"
      }
    },
    {
      "type": "Feature",
      "id": "3d1182e8-5341-4bae-9f7d-ed22844f575f",
      "geometry": null,
      "properties": {
        "kind": "SENSOR_CONTACT",
        "parent_track": "SENSOR",
        "time": "2010-01-12T12:47:14+00:00",
        "bearing": -172.2,
        "range": 12000.0,
        "sensor_name": "Plain",
        "label": "Cookie SUBJECT held on Plain Cookie"
      }
    },
    {
      "type": "Feature",
      "id": "894e988c-6e68-446b-9eea-2b70ea87ae5a",
      "geometry": null,
      "properties": {
        "kind": "SENSOR_CONTACT",
        "parent_track": "SENSOR",
        "time": "2010-01-12T12:47:29+00:00",
        "bearing": -173.9,
        "range": 12000.0,
        "sensor_name": "Plain",
        "label": "Cookie SUBJECT held on Plain Cookie"
      }
    },
    {
      "type": "Feature",
      "id": "54aa79b4-9f00-4ded-918c-6f871eebd2dc",
      "geometry": null,
      "properties": {
        "kind": "SENSOR_CONTACT",
        "parent_track": "SENSOR",
        "time": "2010-01-12T12:47:44+00:00",
        "bearing": -175.5,
        "range": 12000.0,
        "sensor_name": "Plain",
        "label": "Cookie SUBJECT held on Plain Cookie"
      }
    },
    {
      "type": "Feature",
      "id": "0cc48056-263d-40c4-86d0-a19d4a2e145a",
      "geometry": null,
      "properties": {
        "kind": "SENSOR_CONTACT",
        "parent_track": "SENSOR",
        "time": "2010-01-12T12:47:59+00:00",
        "bearing": -176.8,
        "range": 12000.0,
        "sensor_name": "Plain",
        "label": "Cookie SUBJECT held on Plain Cookie"
      }
    },
    {
      "type": "Feature",
      "id": "16fb2e9f-96c0-4e9a-bbd3-626ad41d87ed",
      "geometry": null,
      "properties": {
        "kind": "SENSOR_CONTACT",
        "parent_track": "SENSOR",
        "time": "2010-01-12T12:48:14+00:00",
        "bearing": -176.9,
        "range": 12000.0,
        "sensor_name": "Plain",
        "label": "Cookie SUBJECT held on Plain Cookie"
      }
    },
    {
      "type": "Feature",
      "id": "ee01b0ed-d82f-48aa-b53e-defdbbbeb37f",
      "geometry": null,
      "properties": {
        "kind": "SENSOR_CONTACT",
        "parent_track": "SENSOR",
        "time": "2010-01-12T12:48:29+00:00",
        "bearing": -175.5,
        "range": 12000.0,
        "sensor_name": "Plain",
        "label": "Cookie SUBJECT held on Plain Cookie"
      }
    },
    {
      "type": "Feature",
      "id": "ac0202b0-878a-453f-b489-9ee06b9e5ecc",
      "geometry": null,
      "properties": {
        "kind": "SENSOR_CONTACT",
        "parent_track": "SENSOR",
        "time": "2010-01-12T12:48:44+00:00",
        "bearing": -173.8,
        "range": 12000.0,
        "sensor_name": "Plain",
        "label": "Cookie SUBJECT held on Plain Cookie"
      }
    },
    {
      "type": "Feature",
      "id": "ad7a11e5-9763-4192-aed5-1f20939dffd4",
      "geometry": null,
      "properties": {
        "kind": "SENSOR_CONTACT",
        "parent_track": "SENSOR",
        "time": "2010-01-12T12:48:59+00:00",
        "bearing": -171.9,
        "range": 12000.0,
        "sensor_name": "Plain",
        "label": "Cookie SUBJECT held on Plain Cookie"
      }
    },
    {
      "type": "Feature",
      "id": "449c41c2-9a68-412c-8389-fb9625157b68",
      "geometry": null,
      "properties": {
        "kind": "SENSOR_CONTACT",
        "parent_track": "SENSOR",
        "time": "2010-01-12T12:49:14+00:00",
        "bearing": -170.0,
        "range": 12000.0,
        "sensor_name": "Plain",
        "label": "Cookie SUBJECT held on Plain Cookie"
      }
    },
    {
      "type": "Feature",
      "id": "122c4a4a-a7f4-4339-8eb0-4e486bf998cd",
      "geometry": null,
      "properties": {
        "kind": "SENSOR_CONTACT",
        "parent_track": "SENSOR",
        "time": "2010-01-12T12:49:29+00:00",
        "bearing": -168.0,
        "range": 12000.0,
        "sensor_name": "Plain",
        "label": "Cookie SUBJECT held on Plain Cookie"
      }
    },
    {
      "type": "Feature",
      "id": "6d9fb95b-ce5b-4592-b8a2-2f3afd9f912e",
      "geometry": null,
      "properties": {
        "kind": "SENSOR_CONTACT",
        "parent_track": "SENSOR",
        "time": "2010-01-12T12:49:44+00:00",
        "bearing": -165.9,
        "range": 12000.0,
        "sensor_name": "Plain",
        "label": "Cookie SUBJECT held on Plain Cookie"
      }
    },
    {
      "type": "Feature",
      "id": "8d7f9cd2-5023-4c1a-9914-afd3ab2b5370",
      "geometry": null,
      "properties": {
        "kind": "SENSOR_CONTACT",
        "parent_track": "SENSOR",
        "time": "2010-01-12T12:49:59+00:00",
        "bearing": -163.7,
        "range": 12000.0,
        "sensor_name": "Plain",
        "label": "Cookie SUBJECT held on Plain Cookie"
      }
    },
    {
      "type": "Feature",
      "id": "5996a0c5-fff4-4c53-8ac3-cbc173266909",
      "geometry": null,
      "properties": {
        "kind": "SENSOR_CONTACT",
        "parent_track": "SENSOR",
        "time": "2010-01-12T12:50:14+00:00",
        "bearing": -161.5,
        "range": 12000.0,
        "sensor_name": "Plain",
        "label": "Cookie SUBJECT held on Plain Cookie"
      }
    },
    {
      "type": "Feature",
      "id": "103985ee-641b-4a6e-81f7-4438c081ad87",
      "geometry": null,
      "properties": {
        "kind": "SENSOR_CONTACT",
        "parent_track": "SENSOR",
        "time": "2010-01-12T12:50:29+00:00",
        "bearing": -159.2,
        "range": 12000.0,
        "sensor_name": "Plain",
        "label": "Cookie SUBJECT held on Plain Cookie"
      }
    },
    {
      "type": "Feature",
      "id": "77606a5c-aa74-43fd-87e4-9b345b3ee721",
      "geometry": null,
      "properties": {
        "kind": "SENSOR_CONTACT",
        "parent_track": "SENSOR",
        "time": "2010-01-12T12:50:44+00:00",
        "bearing": -156.8,
        "range": 12000.0,
        "sensor_name": "Plain",
        "label": "Cookie SUBJECT held on Plain Cookie"
      }
    },
    {
      "type": "Feature",
      "id": "3010dc8a-2308-4635-8b01-2c437590c71c",
      "geometry": null,
      "properties": {
        "kind": "SENSOR_CONTACT",
        "parent_track": "SENSOR",
        "time": "2010-01-12T12:50:59+00:00",
        "bearing": -154.3,
        "range": 12000.0,
        "sensor_name": "Plain",
        "label": "Cookie SUBJECT held on Plain Cookie"
      }
    },
    {
      "type": "Feature",
      "id": "e67e8e6f-b76e-4c8b-a4c7-d0b308e628e4",
      "geometry": null,
      "properties": {
        "kind": "SENSOR_CONTACT",
        "parent_track": "SENSOR",
        "time": "2010-01-12T12:51:14+00:00",
        "bearing": -151.8,
        "range": 12000.0,
        "sensor_name": "Plain",
        "label": "Cookie SUBJECT held on Plain Cookie"
      }
    },
    {
      "type": "Feature",
      "id": "49356596-51c8-42bc-80cc-fad40106b6d3",
      "geometry": null,
      "properties": {
        "kind": "SENSOR_CONTACT",
        "parent_track": "SENSOR",
        "time": "2010-01-12T12:51:29+00:00",
        "bearing": -149.2,
        "range": 12000.0,
        "sensor_name": "Plain",
        "label": "Cookie SUBJECT held on Plain Cookie"
      }
    },
    {
      "type": "Feature",
      "id": "9664041e-8be2-4ea4-81da-331bc8302add",
      "geometry": null,
      "properties": {
        "kind": "SENSOR_CONTACT",
        "parent_track": "SENSOR",
        "time": "2010-01-12T12:51:44+00:00",
        "bearing": -146.5,
        "range": 12000.0,
        "sensor_name": "Plain",
        "label": "Cookie SUBJECT held on Plain Cookie"
      }
    },
    {
      "type": "Feature",
      "id": "0542d4bd-a279-48fc-aecd-b0da8300373d",
      "geometry": null,
      "properties": {
        "kind": "SENSOR_CONTACT",
        "parent_track": "SENSOR",
        "time": "2010-01-12T12:51:59+00:00",
        "bearing": -143.9,
        "range": 12000.0,
        "sensor_name": "Plain",
        "label": "Cookie SUBJECT held on Plain Cookie"
      }
    },
    {
      "type": "Feature",
      "id": "42c41539-4c8a-4907-afe7-5356224c8ac6",
      "geometry": null,
      "properties": {
        "kind": "SENSOR_CONTACT",
        "parent_track": "SENSOR",
        "time": "2010-01-12T12:52:14+00:00",
        "bearing": -141.2,
        "range": 12000.0,
        "sensor_name": "Plain",
        "label": "Cookie SUBJECT held on Plain Cookie"
      }
    },
    {
      "type": "Feature",
      "id": "bef10313-0d63-4132-8e60-7a0d665449d9",
      "geometry": null,
      "properties": {
        "kind": "SENSOR_CONTACT",
        "parent_track": "SENSOR",
        "time": "2010-01-12T12:52:29+00:00",
        "bearing": -138.5,
        "range": 12000.0,
        "sensor_name": "Plain",
        "label": "Cookie SUBJECT held on Plain Cookie"
      }
    },
    {
      "type": "Feature",
      "id": "fe7f2954-e007-4373-a697-33f70264f254",
      "geometry": null,
      "properties": {
        "kind": "SENSOR_CONTACT",
        "parent_track": "SENSOR",
        "time": "2010-01-12T12:52:44+00:00",
        "bearing": -135.8,
        "range": 12000.0,
        "sensor_name": "Plain",
        "label": "Cookie SUBJECT held on Plain Cookie"
      }
    },
    {
      "type": "Feature",
      "id": "093d6627-e6b3-477c-8b32-808e630b37b3",
      "geometry": null,
      "properties": {
        "kind": "SENSOR_CONTACT",
        "parent_track": "SENSOR",
        "time": "2010-01-12T12:52:59+00:00",
        "bearing": -133.1,
        "range": 12000.0,
        "sensor_name": "Plain",
        "label": "Cookie SUBJECT held on Plain Cookie"
      }
    },
    {
      "type": "Feature",
      "id": "9ff75a9b-d9c4-4a1f-b7c5-eb6d7d2d8a4c",
      "geometry": null,
      "properties": {
        "kind": "SENSOR_CONTACT",
        "parent_track": "SENSOR",
        "time": "2010-01-12T12:53:14+00:00",
        "bearing": -130.4,
        "range": 12000.0,
        "sensor_name": "Plain",
        "label": "Cookie SUBJECT held on Plain Cookie"
      }
    },
    {
      "type": "Feature",
      "id": "b8b1ab54-ff3e-4d04-82db-85e4eb53245b",
      "geometry": null,
      "properties": {
        "kind": "SENSOR_CONTACT",
        "parent_track": "SENSOR",
        "time": "2010-01-12T12:53:29+00:00",
        "bearing": -127.8,
        "range": 12000.0,
        "sensor_name": "Plain",
        "label": "Cookie SUBJECT held on Plain Cookie"
      }
    },
    {
      "type": "Feature",
      "id": "4cf36986-e31e-40b5-b4f3-c4fe4c8c7142",
      "geometry": null,
      "properties": {
        "kind": "SENSOR_CONTACT",
        "parent_track": "SENSOR",
        "time": "2010-01-12T12:53:44+00:00",
        "bearing": -125.2,
        "range": 12000.0,
        "sensor_name": "Plain",
        "label": "Cookie SUBJECT held on Plain Cookie"
      }
    },
    {
      "type": "Feature",
      "id": "ac297fda-50ac-40a8-97be-58a35fa454e1",
      "geometry": null,
      "properties": {
        "kind": "SENSOR_CONTACT",
        "parent_track": "SENSOR",
        "time": "2010-01-12T12:53:59+00:00",
        "bearing": -122.7,
        "range": 12000.0,
        "sensor_name": "Plain",
        "label": "Cookie SUBJECT held on Plain Cookie"
      }
    },
    {
      "type": "Feature",
      "id": "723d4a28-db61-4b34-9a03-e7e517bff35d",
      "geometry": null,
      "properties": {
        "kind": "SENSOR_CONTACT",
        "parent_track": "SENSOR",
        "time": "2010-01-12T12:54:14+00:00",
        "bearing": -120.2,
        "range": 12000.0,
        "sensor_name": "Plain",
        "label": "Cookie SUBJECT held on Plain Cookie"
      }
    },
    {
      "type": "Feature",
      "id": "4e3be77c-aa5a-4238-b072-63414f9d5cd3",
      "geometry": null,
      "properties": {
        "kind": "SENSOR_CONTACT",
        "parent_track": "SENSOR",
        "time": "2010-01-12T12:54:29+00:00",
        "bearing": -117.8,
        "range": 12000.0,
        "sensor_name": "Plain",
        "label": "Cookie SUBJECT held on Plain Cookie"
      }
    },
    {
      "type": "Feature",
      "id": "fa2fd394-9003-4266-8871-6c04d2e2412e",
      "geometry": null,
      "properties": {
        "kind": "SENSOR_CONTACT",
        "parent_track": "SENSOR",
        "time": "2010-01-12T12:54:44+00:00",
        "bearing": -115.5,
        "range": 12000.0,
        "sensor_name": "Plain",
        "label": "Cookie SUBJECT held on Plain Cookie"
      }
    },
    {
      "type": "Feature",
      "id": "b3105650-c582-4b6a-9bde-c6e196d13de7",
      "geometry": null,
      "properties": {
        "kind": "SENSOR_CONTACT",
        "parent_track": "SENSOR",
        "time": "2010-01-12T12:54:59+00:00",
        "bearing": -113.3,
        "range": 12000.0,
        "sensor_name": "Plain",
        "label": "Cookie SUBJECT held on Plain Cookie"
      }
    },
    {
      "type": "Feature",
      "id": "f725ca08-1d1a-4e78-93a2-7eef8c0db440",
      "geometry": null,
      "properties": {
        "kind": "SENSOR_CONTACT",
        "parent_track": "SENSOR",
        "time": "2010-01-12T12:55:14+00:00",
        "bearing": -111.1,
        "range": 12000.0,
        "sensor_name": "Plain",
        "label": "Cookie SUBJECT held on Plain Cookie"
      }
    },
    {
      "type": "Feature",
      "id": "02a57b2d-6323-4660-8d48-34aed95513ef",
      "geometry": null,
      "properties": {
        "kind": "SENSOR_CONTACT",
        "parent_track": "SENSOR",
        "time": "2010-01-12T12:55:29+00:00",
        "bearing": -109.0,
        "range": 12000.0,
        "sensor_name": "Plain",
        "label": "Cookie SUBJECT held on Plain Cookie"
      }
    },
    {
      "type": "Feature",
      "id": "1cdcb3e8-6359-4d75-be14-022b0dc11402",
      "geometry": null,
      "properties": {
        "kind": "SENSOR_CONTACT",
        "parent_track": "SENSOR",
        "time": "2010-01-12T12:55:44+00:00",
        "bearing": -107.0,
        "range": 12000.0,
        "sensor_name": "Plain",
        "label": "Cookie SUBJECT held on Plain Cookie"
      }
    },
    {
      "type": "Feature",
      "id": "ecc333a7-0920-4653-8957-ce1ae7b2843e",
      "geometry": null,
      "properties": {
        "kind": "SENSOR_CONTACT",
        "parent_track": "SENSOR",
        "time": "2010-01-12T12:55:59+00:00",
        "bearing": -105.1,
        "range": 12000.0,
        "sensor_name": "Plain",
        "label": "Cookie SUBJECT held on Plain Cookie"
      }
    },
    {
      "type": "Feature",
      "id": "f1d88dfa-a8cf-4783-9054-74e020496bec",
      "geometry": null,
      "properties": {
        "kind": "SENSOR_CONTACT",
        "parent_track": "SENSOR",
        "time": "2010-01-12T12:56:14+00:00",
        "bearing": -103.2,
        "range": 12000.0,
        "sensor_name": "Plain",
        "label": "Cookie SUBJECT held on Plain Cookie"
      }
    },
    {
      "type": "Feature",
      "id": "3052ec38-fdef-4bbb-a59d-701a3795c919",
      "geometry": null,
      "properties": {
        "kind": "SENSOR_CONTACT",
        "parent_track": "SENSOR",
        "time": "2010-01-12T12:56:29+00:00",
        "bearing": -101.5,
        "range": 12000.0,
        "sensor_name": "Plain",
        "label": "Cookie SUBJECT held on Plain Cookie"
      }
    },
    {
      "type": "Feature",
      "id": "c9cfc7fb-db6b-4e29-bce3-cb299404fe33",
      "geometry": null,
      "properties": {
        "kind": "SENSOR_CONTACT",
        "parent_track": "SENSOR",
        "time": "2010-01-12T12:56:44+00:00",
        "bearing": -99.8,
        "range": 12000.0,
        "sensor_name": "Plain",
        "label": "Cookie SUBJECT held on Plain Cookie"
      }
    },
    {
      "type": "Feature",
      "id": "95601266-c7b5-4882-8f50-7a5fb382c4a6",
      "geometry": null,
      "properties": {
        "kind": "SENSOR_CONTACT",
        "parent_track": "SENSOR",
        "time": "2010-01-12T12:56:59+00:00",
        "bearing": -98.2,
        "range": 12000.0,
        "sensor_name": "Plain",
        "label": "Cookie SUBJECT held on Plain Cookie"
      }
    },
    {
      "type": "Feature",
      "id": "a6187b71-35c3-4411-ae78-1aeb06ccf157",
      "geometry": null,
      "properties": {
        "kind": "SENSOR_CONTACT",
        "parent_track": "SENSOR",
        "time": "2010-01-12T12:57:14+00:00",
        "bearing": -96.7,
        "range": 12000.0,
        "sensor_name": "Plain",
        "label": "Cookie SUBJECT held on Plain Cookie"
      }
    },
    {
      "type": "Feature",
      "id": "0811349f-8596-4aac-ad67-02edbe300733",
      "geometry": null,
      "properties": {
        "kind": "SENSOR_CONTACT",
        "parent_track": "SENSOR",
        "time": "2010-01-12T12:57:29+00:00",
        "bearing": -95.2,
        "range": 12000.0,
        "sensor_name": "Plain",
        "label": "Cookie SUBJECT held on Plain Cookie"
      }
    },
    {
      "type": "Feature",
      "id": "3a3b11c1-41a7-4161-a23a-cfbcf581fcdf",
      "geometry": null,
      "properties": {
        "kind": "SENSOR_CONTACT",
        "parent_track": "SENSOR",
        "time": "2010-01-12T12:57:44+00:00",
        "bearing": -93.8,
        "range": 12000.0,
        "sensor_name": "Plain",
        "label": "Cookie SUBJECT held on Plain Cookie"
      }
    },
    {
      "type": "Feature",
      "id": "9f0a9ce4-024f-40e5-9e4f-32ff4b431a95",
      "geometry": null,
      "properties": {
        "kind": "SENSOR_CONTACT",
        "parent_track": "SENSOR",
        "time": "2010-01-12T12:57:59+00:00",
        "bearing": -92.5,
        "range": 12000.0,
        "sensor_name": "Plain",
        "label": "Cookie SUBJECT held on Plain Cookie"
      }
    },
    {
      "type": "Feature",
      "id": "145c218e-940f-43e7-92d2-0269c4c870d7",
      "geometry": null,
      "properties": {
        "kind": "SENSOR_CONTACT",
        "parent_track": "SENSOR",
        "time": "2010-01-12T12:58:14+00:00",
        "bearing": -91.2,
        "range": 12000.0,
        "sensor_name": "Plain",
        "label": "Cookie SUBJECT held on Plain Cookie"
      }
    },
    {
      "type": "Feature",
      "id": "24280e6f-bed6-4e11-aee1-4bbc8effc5f1",
      "geometry": null,
      "properties": {
        "kind": "SENSOR_CONTACT",
        "parent_track": "SENSOR",
        "time": "2010-01-12T12:58:29+00:00",
        "bearing": -90.0,
        "range": 12000.0,
        "sensor_name": "Plain",
        "label": "Cookie SUBJECT held on Plain Cookie"
      }
    },
    {
      "type": "Feature",
      "id": "b1b4dc3a-bd72-4199-bcba-8c65584c7b42",
      "geometry": null,
      "properties": {
        "kind": "SENSOR_CONTACT",
        "parent_track": "SENSOR",
        "time": "2010-01-12T12:58:44+00:00",
        "bearing": -88.8,
        "range": 12000.0,
        "sensor_name": "Plain",
        "label": "Cookie SUBJECT held on Plain Cookie"
      }
    },
    {
      "type": "Feature",
      "id": "20fa93d0-7eb1-4623-9698-e1ef1b3d354e",
      "geometry": null,
      "properties": {
        "kind": "SENSOR_CONTACT",
        "parent_track": "SENSOR",
        "time": "2010-01-12T12:58:59+00:00",
        "bearing": -87.7,
        "range": 12000.0,
        "sensor_name": "Plain",
        "label": "Cookie SUBJECT held on Plain Cookie"
      }
    },
    {
      "type": "Feature",
      "id": "dd2a68fb-a208-4cf9-801c-f0e3f5c6c351",
      "geometry": null,
      "properties": {
        "kind": "SENSOR_CONTACT",
        "parent_track": "SENSOR",
        "time": "2010-01-12T12:59:14+00:00",
        "bearing": -86.7,
        "range": 12000.0,
        "sensor_name": "Plain",
        "label": "Cookie SUBJECT held on Plain Cookie"
      }
    },
    {
      "type": "Feature",
      "id": "5248a89e-3f46-4155-8425-616cc29f6827",
      "geometry": null,
      "properties": {
        "kind": "SENSOR_CONTACT",
        "parent_track": "SENSOR",
        "time": "2010-01-12T12:59:29+00:00",
        "bearing": -85.7,
        "range": 12000.0,
        "sensor_name": "Plain",
        "label": "Cookie SUBJECT held on Plain Cookie"
      }
    },
    {
      "type": "Feature",
      "id": "86ebde48-a8bf-430d-8681-531f32f30dce",
      "geometry": null,
      "properties": {
        "kind": "SENSOR_CONTACT",
        "parent_track": "SENSOR",
        "time": "2010-01-12T12:59:44+00:00",
        "bearing": -84.7,
        "range": 12000.0,
        "sensor_name": "Plain",
        "label": "Cookie SUBJECT held on Plain Cookie"
      }
    },
    {
      "type": "Feature",
      "id": "cfdd50b6-f51a-47b8-8e13-95203c4c7d3c",
      "geometry": null,
      "properties": {
        "kind": "SENSOR_CONTACT",
        "parent_track": "SENSOR",
        "time": "2010-01-12T12:59:59+00:00",
        "bearing": -83.8,
        "range": 12000.0,
        "sensor_name": "Plain",
        "label": "Cookie SUBJECT held on Plain Cookie"
      }
    },
    {
      "type": "Feature",
      "id": "af0eb310-1e94-46b7-ac43-067793ea66ef",
      "geometry": null,
      "properties": {
        "kind": "SENSOR_CONTACT",
        "parent_track": "SENSOR",
        "time": "2010-01-12T13:00:14+00:00",
        "bearing": -82.9,
        "range": 12000.0,
        "sensor_name": "Plain",
        "label": "Cookie SUBJECT held on Plain Cookie"
      }
    },
    {
      "type": "Feature",
      "id": "bcc831ce-9252-4666-9f0e-76ae897cbba7",
      "geometry": null,
      "properties": {
        "kind": "SENSOR_CONTACT",
        "parent_track": "SENSOR",
        "time": "2010-01-12T13:00:29+00:00",
        "bearing": -82.0,
        "range": 12000.0,
        "sensor_name": "Plain",
        "label": "Cookie SUBJECT held on Plain Cookie"
      }
    },
    {
      "type": "Feature",
      "id": "794a0190-bec1-4480-a9fe-5c2d012da552",
      "geometry": null,
      "properties": {
        "kind": "SENSOR_CONTACT",
        "parent_track": "SENSOR",
        "time": "2010-01-12T13:00:44+00:00",
        "bearing": -81.2,
        "range": 12000.0,
        "sensor_name": "Plain",
        "label": "Cookie SUBJECT held on Plain Cookie"
      }
    },
    {
      "type": "Feature",
      "id": "fd0197b3-2af5-42b5-8d91-9b00341bccf5",
      "geometry": null,
      "properties": {
        "kind": "SENSOR_CONTACT",
        "parent_track": "SENSOR",
        "time": "2010-01-12T13:00:59+00:00",
        "bearing": -80.5,
        "range": 12000.0,
        "sensor_name": "Plain",
        "label": "Cookie SUBJECT held on Plain Cookie"
      }
    },
    {
      "type": "Feature",
      "id": "35e0d971-4293-484a-be2b-f619f46e7f60",
      "geometry": null,
      "properties": {
        "kind": "SENSOR_CONTACT",
        "parent_track": "SENSOR",
        "time": "2010-01-12T13:01:14+00:00",
        "bearing": -79.7,
        "range": 12000.0,
        "sensor_name": "Plain",
        "label": "Cookie SUBJECT held on Plain Cookie"
      }
    },
    {
      "type": "Feature",
      "id": "4f59db35-f8c6-4993-ab0b-3e1e70f19e80",
      "geometry": null,
      "properties": {
        "kind": "SENSOR_CONTACT",
        "parent_track": "SENSOR",
        "time": "2010-01-12T13:01:29+00:00",
        "bearing": -79.0,
        "range": 12000.0,
        "sensor_name": "Plain",
        "label": "Cookie SUBJECT held on Plain Cookie"
      }
    },
    {
      "type": "Feature",
      "id": "8a89d1c4-2d80-4c28-8913-0b3a8183deed",
      "geometry": null,
      "properties": {
        "kind": "SENSOR_CONTACT",
        "parent_track": "SENSOR",
        "time": "2010-01-12T13:01:44+00:00",
        "bearing": -78.3,
        "range": 12000.0,
        "sensor_name": "Plain",
        "label": "Cookie SUBJECT held on Plain Cookie"
      }
    },
    {
      "type": "Feature",
      "id": "6f2e17d5-d36f-4b44-b00d-7fe3703bf13d",
      "geometry": null,
      "properties": {
        "kind": "SENSOR_CONTACT",
        "parent_track": "SENSOR",
        "time": "2010-01-12T13:01:59+00:00",
        "bearing": -77.7,
        "range": 12000.0,
        "sensor_name": "Plain",
        "label": "Cookie SUBJECT held on Plain Cookie"
      }
    },
    {
      "type": "Feature",
      "id": "31f646b8-3edb-4f27-becd-4edfd09dea10",
      "geometry": null,
      "properties": {
        "kind": "SENSOR_CONTACT",
        "parent_track": "SENSOR",
        "time": "2010-01-12T13:02:14+00:00",
        "bearing": -77.1,
        "range": 12000.0,
        "sensor_name": "Plain",
        "label": "Cookie SUBJECT held on Plain Cookie"
      }
    },
    {
      "type": "Feature",
      "id": "7295d659-e50c-42c4-9e09-706f1e4af542",
      "geometry": null,
      "properties": {
        "kind": "SENSOR_CONTACT",
        "parent_track": "SENSOR",
        "time": "2010-01-12T13:02:29+00:00",
        "bearing": -76.4,
        "range": 12000.0,
        "sensor_name": "Plain",
        "label": "Cookie SUBJECT held on Plain Cookie"
      }
    },
    {
      "type": "Feature",
      "id": "589c596e-e654-4430-919b-24f30be7a05d",
      "geometry": null,
      "properties": {
        "kind": "SENSOR_CONTACT",
        "parent_track": "SENSOR",
        "time": "2010-01-12T13:02:44+00:00",
        "bearing": -75.9,
        "range": 12000.0,
        "sensor_name": "Plain",
        "label": "Cookie SUBJECT held on Plain Cookie"
      }
    },
    {
      "type": "Feature",
      "id": "e13baa4a-5041-4aff-bb7e-75f95c807f9a",
      "geometry": null,
      "properties": {
        "kind": "SENSOR_CONTACT",
        "parent_track": "SENSOR",
        "time": "2010-01-12T13:02:59+00:00",
        "bearing": -75.3,
        "range": 12000.0,
        "sensor_name": "Plain",
        "label": "Cookie SUBJECT held on Plain Cookie"
      }
    },
    {
      "type": "Feature",
      "id": "e1a38c80-88d2-4375-aa6a-2e6d278af6af",
      "geometry": null,
      "properties": {
        "kind": "SENSOR_CONTACT",
        "parent_track": "SENSOR",
        "time": "2010-01-12T13:03:14+00:00",
        "bearing": -74.8,
        "range": 12000.0,
        "sensor_name": "Plain",
        "label": "Cookie SUBJECT held on Plain Cookie"
      }
    },
    {
      "type": "Feature",
      "id": "1550fc57-216d-4c5b-90ad-e290c608644a",
      "geometry": null,
      "properties": {
        "kind": "SENSOR_CONTACT",
        "parent_track": "SENSOR",
        "time": "2010-01-12T13:03:29+00:00",
        "bearing": -74.2,
        "range": 12000.0,
        "sensor_name": "Plain",
        "label": "Cookie SUBJECT held on Plain Cookie"
      }
    },
    {
      "type": "Feature",
      "id": "f18a3950-d4e0-43cf-9c81-c9b22bacc4ee",
      "geometry": null,
      "properties": {
        "kind": "SENSOR_CONTACT",
        "parent_track": "SENSOR",
        "time": "2010-01-12T13:03:44+00:00",
        "bearing": -73.7,
        "range": 12000.0,
        "sensor_name": "Plain",
        "label": "Cookie SUBJECT held on Plain Cookie"
      }
    },
    {
      "type": "Feature",
      "id": "69a8d09d-114c-4f3a-a496-a8cad1df0fdb",
      "geometry": null,
      "properties": {
        "kind": "SENSOR_CONTACT",
        "parent_track": "SENSOR",
        "time": "2010-01-12T13:03:59+00:00",
        "bearing": -73.3,
        "range": 12000.0,
        "sensor_name": "Plain",
        "label": "Cookie SUBJECT held on Plain Cookie"
      }
    },
    {
      "type": "Feature",
      "id": "eb8124bb-45f7-4ea1-9219-4aa5ef7ed6ce",
      "geometry": null,
      "properties": {
        "kind": "SENSOR_CONTACT",
        "parent_track": "SENSOR",
        "time": "2010-01-12T13:04:14+00:00",
        "bearing": -72.8,
        "range": 12000.0,
        "sensor_name": "Plain",
        "label": "Cookie SUBJECT held on Plain Cookie"
      }
    },
    {
      "type": "Feature",
      "id": "1a907819-a961-4008-b44c-e36063962b8e",
      "geometry": null,
      "properties": {
        "kind": "SENSOR_CONTACT",
        "parent_track": "SENSOR",
        "time": "2010-01-12T13:04:29+00:00",
        "bearing": -72.4,
        "range": 12000.0,
        "sensor_name": "Plain",
        "label": "Cookie SUBJECT held on Plain Cookie"
      }
    },
    {
      "type": "Feature",
      "id": "a532f733-5ba9-46b8-ac3f-b1ef1c79df90",
      "geometry": null,
      "properties": {
        "kind": "SENSOR_CONTACT",
        "parent_track": "SENSOR",
        "time": "2010-01-12T13:04:44+00:00",
        "bearing": -71.9,
        "range": 12000.0,
        "sensor_name": "Plain",
        "label": "Cookie SUBJECT held on Plain Cookie"
      }
    },
    {
      "type": "Feature",
      "id": "72d30b51-3742-45db-a6be-e47a1004948d",
      "geometry": null,
      "properties": {
        "kind": "SENSOR_CONTACT",
        "parent_track": "SENSOR",
        "time": "2010-01-12T13:04:59+00:00",
        "bearing": -71.5,
        "range": 12000.0,
        "sensor_name": "Plain",
        "label": "Cookie SUBJECT held on Plain Cookie"
      }
    },
    {
      "type": "Feature",
      "id": "127e647b-4560-4c58-848b-4b90379bdd75",
      "geometry": null,
      "properties": {
        "kind": "SENSOR_CONTACT",
        "parent_track": "SENSOR",
        "time": "2010-01-12T13:05:14+00:00",
        "bearing": -71.1,
        "range": 12000.0,
        "sensor_name": "Plain",
        "label": "Cookie SUBJECT held on Plain Cookie"
      }
    },
    {
      "type": "Feature",
      "id": "38d57425-4d70-49bb-bb09-fcd5ed72e03b",
      "geometry": null,
      "properties": {
        "kind": "SENSOR_CONTACT",
        "parent_track": "SENSOR",
        "time": "2010-01-12T13:05:29+00:00",
        "bearing": -70.7,
        "range": 12000.0,
        "sensor_name": "Plain",
        "label": "Cookie SUBJECT held on Plain Cookie"
      }
    },
    {
      "type": "Feature",
      "id": "6a588601-7426-4c7f-90d6-717d7c5ffc16",
      "geometry": null,
      "properties": {
        "kind": "SENSOR_CONTACT",
        "parent_track": "SENSOR",
        "time": "2010-01-12T13:05:44+00:00",
        "bearing": -70.3,
        "range": 12000.0,
        "sensor_name": "Plain",
        "label": "Cookie SUBJECT held on Plain Cookie"
      }
    },
    {
      "type": "Feature",
      "id": "ddb4a97e-3d40-49ea-b453-a0ce4f7694fb",
      "geometry": null,
      "properties": {
        "kind": "SENSOR_CONTACT",
        "parent_track": "SENSOR",
        "time": "2010-01-12T13:05:59+00:00",
        "bearing": -70.0,
        "range": 12000.0,
        "sensor_name": "Plain",
        "label": "Cookie SUBJECT held on Plain Cookie"
      }
    },
    {
      "type": "Feature",
      "id": "1aa91670-e99c-4c02-804b-ffa3f2b870b6",
      "geometry": null,
      "properties": {
        "kind": "SENSOR_CONTACT",
        "parent_track": "SENSOR",
        "time": "2010-01-12T13:06:14+00:00",
        "bearing": -69.6,
        "range": 12000.0,
        "sensor_name": "Plain",
        "label": "Cookie SUBJECT held on Plain Cookie"
      }
    },
    {
      "type": "Feature",
      "id": "2011f28f-80a0-44c0-b324-0333b0d60d1b",
      "geometry": null,
      "properties": {
        "kind": "SENSOR_CONTACT",
        "parent_track": "SENSOR",
        "time": "2010-01-12T13:06:29+00:00",
        "bearing": -69.3,
        "range": 12000.0,
        "sensor_name": "Plain",
        "label": "Cookie SUBJECT held on Plain Cookie"
      }
    },
    {
      "type": "Feature",
      "id": "4e46b1ca-889f-4454-8fe4-26d1c1a099d1",
      "geometry": null,
      "properties": {
        "kind": "SENSOR_CONTACT",
        "parent_track": "SENSOR",
        "time": "2010-01-12T13:06:44+00:00",
        "bearing": -68.9,
        "range": 12000.0,
        "sensor_name": "Plain",
        "label": "Cookie SUBJECT held on Plain Cookie"
      }
    },
    {
      "type": "Feature",
      "id": "d4229dae-e893-4913-b872-9b400c9f10bd",
      "geometry": null,
      "properties": {
        "kind": "SENSOR_CONTACT",
        "parent_track": "SENSOR",
        "time": "2010-01-12T13:06:59+00:00",
        "bearing": -68.6,
        "range": 12000.0,
        "sensor_name": "Plain",
        "label": "Cookie SUBJECT held on Plain Cookie"
      }
    },
    {
      "type": "Feature",
      "id": "2228448a-7467-4020-a6a2-8ce0b97739d2",
      "geometry": null,
      "properties": {
        "kind": "SENSOR_CONTACT",
        "parent_track": "SENSOR",
        "time": "2010-01-12T13:07:14+00:00",
        "bearing": -68.3,
        "range": 12000.0,
        "sensor_name": "Plain",
        "label": "Cookie SUBJECT held on Plain Cookie"
      }
    },
    {
      "type": "Feature",
      "id": "7d992aa4-a2e0-4aaf-a88e-2b5f3e68888d",
      "geometry": null,
      "properties": {
        "kind": "SENSOR_CONTACT",
        "parent_track": "SENSOR",
        "time": "2010-01-12T13:07:29+00:00",
        "bearing": -68.0,
        "range": 12000.0,
        "sensor_name": "Plain",
        "label": "Cookie SUBJECT held on Plain Cookie"
      }
    },
    {
      "type": "Feature",
      "id": "d9f1b97d-4979-4e7f-b6aa-18530f34176f",
      "geometry": null,
      "properties": {
        "kind": "SENSOR_CONTACT",
        "parent_track": "SENSOR",
        "time": "2010-01-12T13:07:44+00:00",
        "bearing": -67.7,
        "range": 12000.0,
        "sensor_name": "Plain",
        "label": "Cookie SUBJECT held on Plain Cookie"
      }
    },
    {
      "type": "Feature",
      "id": "d0375112-6723-46a9-8d1d-1e97531cf084",
      "geometry": null,
      "properties": {
        "kind": "SENSOR_CONTACT",
        "parent_track": "SENSOR",
        "time": "2010-01-12T13:07:59+00:00",
        "bearing": -67.4,
        "range": 12000.0,
        "sensor_name": "Plain",
        "label": "Cookie SUBJECT held on Plain Cookie"
      }
    },
    {
      "type": "Feature",
      "id": "f59f1223-77ca-4ef4-9086-0c1e1b15fe25",
      "geometry": null,
      "properties": {
        "kind": "SENSOR_CONTACT",
        "parent_track": "SENSOR",
        "time": "2010-01-12T13:08:14+00:00",
        "bearing": -67.1,
        "range": 12000.0,
        "sensor_name": "Plain",
        "label": "Cookie SUBJECT held on Plain Cookie"
      }
    },
    {
      "type": "Feature",
      "id": "9b425219-f029-4bfa-a650-ac19e0828544",
      "geometry": null,
      "properties": {
        "kind": "SENSOR_CONTACT",
        "parent_track": "SENSOR",
        "time": "2010-01-12T13:08:29+00:00",
        "bearing": -66.8,
        "range": 12000.0,
        "sensor_name": "Plain",
        "label": "Cookie SUBJECT held on Plain Cookie"
      }
    },
    {
      "type": "Feature",
      "id": "94f6eb52-ab37-4142-ac76-5ef4171838dd",
      "geometry": null,
      "properties": {
        "kind": "SENSOR_CONTACT",
        "parent_track": "SENSOR",
        "time": "2010-01-12T13:08:44+00:00",
        "bearing": -66.6,
        "range": 12000.0,
        "sensor_name": "Plain",
        "label": "Cookie SUBJECT held on Plain Cookie"
      }
    },
    {
      "type": "Feature",
      "id": "bf9bcd5f-5e6a-42ef-b7bf-0822d0011e37",
      "geometry": null,
      "properties": {
        "kind": "SENSOR_CONTACT",
        "parent_track": "SENSOR",
        "time": "2010-01-12T13:08:59+00:00",
        "bearing": -66.3,
        "range": 12000.0,
        "sensor_name": "Plain",
        "label": "Cookie SUBJECT held on Plain Cookie"
      }
    },
    {
      "type": "Feature",
      "id": "a243d03e-aa30-40d9-8cd1-bfc7554ed2e9",
      "geometry": null,
      "properties": {
        "kind": "SENSOR_CONTACT",
        "parent_track": "SENSOR",
        "time": "2010-01-12T13:09:14+00:00",
        "bearing": -66.1,
        "range": 12000.0,
        "sensor_name": "Plain",
        "label": "Cookie SUBJECT held on Plain Cookie"
      }
    },
    {
      "type": "Feature",
      "id": "2a69d319-9345-4703-9406-dcdbd441999c",
      "geometry": null,
      "properties": {
        "kind": "SENSOR_CONTACT",
        "parent_track": "SENSOR",
        "time": "2010-01-12T13:09:29+00:00",
        "bearing": -65.8,
        "range": 12000.0,
        "sensor_name": "Plain",
        "label": "Cookie SUBJECT held on Plain Cookie"
      }
    },
    {
      "type": "Feature",
      "id": "c20fcd1d-865b-4f76-b8fb-d6ebcb5a15c8",
      "geometry": null,
      "properties": {
        "kind": "SENSOR_CONTACT",
        "parent_track": "SENSOR",
        "time": "2010-01-12T13:09:44+00:00",
        "bearing": -65.6,
        "range": 12000.0,
        "sensor_name": "Plain",
        "label": "Cookie SUBJECT held on Plain Cookie"
      }
    },
    {
      "type": "Feature",
      "id": "22b85eec-a0e9-4485-90cc-3b21674b8f47",
      "geometry": null,
      "properties": {
        "kind": "SENSOR_CONTACT",
        "parent_track": "SENSOR",
        "time": "2010-01-12T13:09:59+00:00",
        "bearing": -65.4,
        "range": 12000.0,
        "sensor_name": "Plain",
        "label": "Cookie SUBJECT held on Plain Cookie"
      }
    },
    {
      "type": "Feature",
      "id": "d14caedf-64e1-493a-93ec-9dc721d849b6",
      "geometry": null,
      "properties": {
        "kind": "SENSOR_CONTACT",
        "parent_track": "SENSOR",
        "time": "2010-01-12T13:10:14+00:00",
        "bearing": -65.1,
        "range": 12000.0,
        "sensor_name": "Plain",
        "label": "Cookie SUBJECT held on Plain Cookie"
      }
    },
    {
      "type": "Feature",
      "id": "14fc01cf-f81e-471b-8cf9-e75cae94d52d",
      "geometry": null,
      "properties": {
        "kind": "SENSOR_CONTACT",
        "parent_track": "SENSOR",
        "time": "2010-01-12T13:10:29+00:00",
        "bearing": -64.9,
        "range": 12000.0,
        "sensor_name": "Plain",
        "label": "Cookie SUBJECT held on Plain Cookie"
      }
    },
    {
      "type": "Feature",
      "id": "35cc8ed6-5e62-4a69-8921-bb612a404e8f",
      "geometry": null,
      "properties": {
        "kind": "SENSOR_CONTACT",
        "parent_track": "SENSOR",
        "time": "2010-01-12T13:10:44+00:00",
        "bearing": -64.7,
        "range": 12000.0,
        "sensor_name": "Plain",
        "label": "Cookie SUBJECT held on Plain Cookie"
      }
    },
    {
      "type": "Feature",
      "id": "1f8cfa64-3e38-441f-bf48-7987216a404d",
      "geometry": null,
      "properties": {
        "kind": "SENSOR_CONTACT",
        "parent_track": "SENSOR",
        "time": "2010-01-12T13:10:59+00:00",
        "bearing": -64.5,
        "range": 12000.0,
        "sensor_name": "Plain",
        "label": "Cookie SUBJECT held on Plain Cookie"
      }
    },
    {
      "type": "Feature",
      "id": "555efbbc-41e1-4f8d-9280-e3acff727ae0",
      "geometry": null,
      "properties": {
        "kind": "SENSOR_CONTACT",
        "parent_track": "SENSOR",
        "time": "2010-01-12T13:11:14+00:00",
        "bearing": -64.3,
        "range": 12000.0,
        "sensor_name": "Plain",
        "label": "Cookie SUBJECT held on Plain Cookie"
      }
    },
    {
      "type": "Feature",
      "id": "a10e888b-cd2d-4a9d-a9bd-19ed3ea0cd97",
      "geometry": null,
      "properties": {
        "kind": "SENSOR_CONTACT",
        "parent_track": "SENSOR",
        "time": "2010-01-12T13:11:29+00:00",
        "bearing": -64.1,
        "range": 12000.0,
        "sensor_name": "Plain",
        "label": "Cookie SUBJECT held on Plain Cookie"
      }
    },
    {
      "type": "Feature",
      "id": "5148400c-7139-4447-9e64-345dc01c8265",
      "geometry": null,
      "properties": {
        "kind": "SENSOR_CONTACT",
        "parent_track": "SENSOR",
        "time": "2010-01-12T13:11:44+00:00",
        "bearing": -63.9,
        "range": 12000.0,
        "sensor_name": "Plain",
        "label": "Cookie SUBJECT held on Plain Cookie"
      }
    },
    {
      "type": "Feature",
      "id": "4d558d28-1d79-4eac-973d-15a30c826425",
      "geometry": null,
      "properties": {
        "kind": "SENSOR_CONTACT",
        "parent_track": "SENSOR",
        "time": "2010-01-12T13:11:59+00:00",
        "bearing": -63.7,
        "range": 12000.0,
        "sensor_name": "Plain",
        "label": "Cookie SUBJECT held on Plain Cookie"
      }
    },
    {
      "type": "Feature",
      "id": "170d8138-bde7-4526-aacb-13abc6b777ab",
      "geometry": null,
      "properties": {
        "kind": "SENSOR_CONTACT",
        "parent_track": "SENSOR",
        "time": "2010-01-12T13:12:14+00:00",
        "bearing": -63.5,
        "range": 12000.0,
        "sensor_name": "Plain",
        "label": "Cookie SUBJECT held on Plain Cookie"
      }
    },
    {
      "type": "Feature",
      "id": "69c36910-a293-48c0-a8c2-b527deb33d0c",
      "geometry": null,
      "properties": {
        "kind": "SENSOR_CONTACT",
        "parent_track": "SENSOR",
        "time": "2010-01-12T13:12:29+00:00",
        "bearing": -63.4,
        "range": 12000.0,
        "sensor_name": "Plain",
        "label": "Cookie SUBJECT held on Plain Cookie"
      }
    },
    {
      "type": "Feature",
      "id": "e44a69d2-4679-4cc3-a402-f18411232422",
      "geometry": null,
      "properties": {
        "kind": "SENSOR_CONTACT",
        "parent_track": "SENSOR",
        "time": "2010-01-12T13:12:44+00:00",
        "bearing": -63.2,
        "range": 12000.0,
        "sensor_name": "Plain",
        "label": "Cookie SUBJECT held on Plain Cookie"
      }
    },
    {
      "type": "Feature",
      "id": "30cb320d-4f23-443c-9145-7c2e17e802f0",
      "geometry": null,
      "properties": {
        "kind": "SENSOR_CONTACT",
        "parent_track": "SENSOR",
        "time": "2010-01-12T13:12:59+00:00",
        "bearing": -63.0,
        "range": 12000.0,
        "sensor_name": "Plain",
        "label": "Cookie SUBJECT held on Plain Cookie"
      }
    },
    {
      "type": "Feature",
      "id": "12ec2af6-02f9-42b7-acbb-726de56475a9",
      "geometry": null,
      "properties": {
        "kind": "SENSOR_CONTACT",
        "parent_track": "SENSOR",
        "time": "2010-01-12T13:13:14+00:00",
        "bearing": -62.8,
        "range": 12000.0,
        "sensor_name": "Plain",
        "label": "Cookie SUBJECT held on Plain Cookie"
      }
    }
  ]
}