{
  "type": "FeatureCollection",
  "features": [
    {
      "type": "Feature",
      "id": "c54b37db-03e3-4d29-9945-4630e2609f92",
      "geometry": {
        "type": "LineString",
        "coordinates": [
          [
            0.2,
            60.18
          ],
          [
            0.1992358,
            60.1789559
          ],
          [
            0.1984716,
            60.1779118
          ],
          [
            0.1977075,
            60.1768677
          ],
          [
            0.1969434,
            60.1758236
          ],
          [
            0.1961793,
            60.1747795
          ],
          [
            0.1954152,
            60.1737354
          ],
          [
            0.1946511,
            60.1726913
          ],
          [
            0.1938871,
            60.1716472
          ],
          [
            0.1931231,
            60.1706031
          ],
          [
            0.1923591,
            60.169559
          ],
          [
            0.1915952,
            60.1685149
          ],
          [
            0.1908313,
            60.1674708
          ],
          [
            0.1900674,
            60.1664267
          ],
          [
            0.1893035,
            60.1653826
          ],
          [
            0.1885396,
            60.1643385
          ],
          [
            0.1877758,
            60.1632944
          ],
          [
            0.187012,
            60.1622503
          ],
          [
            0.1862482,
            60.1612061
          ],
          [
            0.1854845,
            60.160162
          ],
          [
            0.1847207,
            60.1591179
          ],
          [
            0.183957,
            60.1580738
          ],
          [
            0.1831933,
            60.1570297
          ],
          [
            0.1824297,
            60.1559856
          ],
          [
            0.181666,
            60.1549415
          ],
          [
            0.1809024,
            60.1538974
          ],
          [
            0.1801388,
            60.1528533
          ],
          [
            0.1793753,
            60.1518092
          ],
          [
            0.1786117,
            60.1507651
          ],
          [
            0.1778482,
            60.149721
          ],
          [
            0.1770847,
            60.1486769
          ],
          [
            0.1763213,
            60.1476328
          ],
          [
            0.1755578,
            60.1465887
          ],
          [
            0.1747944,
            60.1455446
          ],
          [
            0.174031,
            60.1445005
          ],
          [
            0.1732676,
            60.1434564
          ],
          [
            0.1725043,
            60.1424123
          ],
          [
            0.171741,
            60.1413682
          ],
          [
            0.1709777,
            60.1403241
          ],
          [
            0.1702144,
            60.13928
          ],
          [
            0.1694511,
            60.1382359
          ],
          [
            0.1686879,
            60.1371918
          ],
          [
            0.1679247,
            60.1361477
          ],
          [
            0.1671615,
            60.1351036
          ],
          [
            0.1663984,
            60.1340595
          ],
          [
            0.1656353,
            60.1330154
          ],
          [
            0.1648722,
            60.1319713
          ],
          [
            0.1641091,
            60.1309272
          ],
          [
            0.163346,
            60.1298831
          ],
          [
            0.162583,
            60.128839
          ],
          [
            0.16182,
            60.1277949
          ],
          [
            0.161057,
            60.1267508
          ],
          [
            0.160294,
            60.1257066
          ],
          [
            0.1595311,
            60.1246625
          ],
          [
            0.1587682,
            60.1236184
          ],
          [
            0.1580053,
            60.1225743
          ],
          [
            0.1572425,
            60.1215302
          ]
        ]
      },
      "properties": {
        "kind": "TRACK",
        "platform_id": "SENSOR",
        "platform_name": "SENSOR",
        "track_type": "CONTACT",
        "start_time": "2010-01-12T12:00:00+00:00",
        "end_time": "2010-01-12T12:18:40+00:00",
        "positions": [
          {
            "time": "2010-01-12T12:00:00+00:00",
            "course": 200.0,
            "speed": 12.0,
            "depth": 0.0
          },
          {
            "time": "2010-01-12T12:00:20+00:00",
            "course": 200.0,
            "speed": 12.0,
            "depth": 0.0
          },
          {
            "time": "2010-01-12T12:00:40+00:00",
            "course": 200.0,
            "speed": 12.0,
            "depth": 0.0
          },
          {
            "time": "2010-01-12T12:01:00+00:00",
            "course": 200.0,
            "speed": 12.0,
            "depth": 0.0
          },
          {
            "time": "2010-01-12T12:01:20+00:00",
            "course": 200.0,
            "speed": 12.0,
            "depth": 0.0
          },
          {
            "time": "2010-01-12T12:01:40+00:00",
            "course": 200.0,
            "speed": 12.0,
            "depth": 0.0
          },
          {
            "time": "2010-01-12T12:02:00+00:00",
            "course": 200.0,
            "speed": 12.0,
            "depth": 0.0
          },
          {
            "time": "2010-01-12T12:02:20+00:00",
            "course": 200.0,
            "speed": 12.0,
            "depth": 0.0
          },
          {
            "time": "2010-01-12T12:02:40+00:00",
            "course": 200.0,
            "speed": 12.0,
            "depth": 0.0
          },
          {
            "time": "2010-01-12T12:03:00+00:00",
            "course": 200.0,
            "speed": 12.0,
            "depth": 0.0
          },
          {
            "time": "2010-01-12T12:03:20+00:00",
            "course": 200.0,
            "speed": 12.0,
            "depth": 0.0
          },
          {
            "time": "2010-01-12T12:03:40+00:00",
            "course": 200.0,
            "speed": 12.0,
            "depth": 0.0
          },
          {
            "time": "2010-01-12T12:04:00+00:00",
            "course": 200.0,
            "speed": 12.0,
            "depth": 0.0
          },
          {
            "time": "2010-01-12T12:04:20+00:00",
            "course": 200.0,
            "speed": 12.0,
            "depth": 0.0
          },
          {
            "time": "2010-01-12T12:04:40+00:00",
            "course": 200.0,
            "speed": 12.0,
            "depth": 0.0
          },
          {
            "time": "2010-01-12T12:05:00+00:00",
            "course": 200.0,
            "speed": 12.0,
            "depth": 0.0
          },
          {
            "time": "2010-01-12T12:05:20+00:00",
            "course": 200.0,
            "speed": 12.0,
            "depth": 0.0
          },
          {
            "time": "2010-01-12T12:05:40+00:00",
            "course": 200.0,
            "speed": 12.0,
            "depth": 0.0
          },
          {
            "time": "2010-01-12T12:06:00+00:00",
            "course": 200.0,
            "speed": 12.0,
            "depth": 0.0
          },
          {
            "time": "2010-01-12T12:06:20+00:00",
            "course": 200.0,
            "speed": 12.0,
            "depth": 0.0
          },
          {
            "time": "2010-01-12T12:06:40+00:00",
            "course": 200.0,
            "speed": 12.0,
            "depth": 0.0
          },
          {
            "time": "2010-01-12T12:07:00+00:00",
            "course": 200.0,
            "speed": 12.0,
            "depth": 0.0
          },
          {
            "time": "2010-01-12T12:07:20+00:00",
            "course": 200.0,
            "speed": 12.0,
            "depth": 0.0
          },
          {
            "time": "2010-01-12T12:07:40+00:00",
            "course": 200.0,
            "speed": 12.0,
            "depth": 0.0
          },
          {
            "time": "2010-01-12T12:08:00+00:00",
            "course": 200.0,
            "speed": 12.0,
            "depth": 0.0
          },
          {
            "time": "2010-01-12T12:08:20+00:00",
            "course": 200.0,
            "speed": 12.0,
            "depth": 0.0
          },
          {
            "time": "2010-01-12T12:08:40+00:00",
            "course": 200.0,
            "speed": 12.0,
            "depth": 0.0
          },
          {
            "time": "2010-01-12T12:09:00+00:00",
            "course": 200.0,
            "speed": 12.0,
            "depth": 0.0
          },
          {
            "time": "2010-01-12T12:09:20+00:00",
            "course": 200.0,
            "speed": 12.0,
            "depth": 0.0
          },
          {
            "time": "2010-01-12T12:09:40+00:00",
            "course": 200.0,
            "speed": 12.0,
            "depth": 0.0
          },
          {
            "time": "2010-01-12T12:10:00+00:00",
            "course": 200.0,
            "speed": 12.0,
            "depth": 0.0
          },
          {
            "time": "2010-01-12T12:10:20+00:00",
            "course": 200.0,
            "speed": 12.0,
            "depth": 0.0
          },
          {
            "time": "2010-01-12T12:10:40+00:00",
            "course": 200.0,
            "speed": 12.0,
            "depth": 0.0
          },
          {
            "time": "2010-01-12T12:11:00+00:00",
            "course": 200.0,
            "speed": 12.0,
            "depth": 0.0
          },
          {
            "time": "2010-01-12T12:11:20+00:00",
            "course": 200.0,
            "speed": 12.0,
            "depth": 0.0
          },
          {
            "time": "2010-01-12T12:11:40+00:00",
            "course": 200.0,
            "speed": 12.0,
            "depth": 0.0
          },
          {
            "time": "2010-01-12T12:12:00+00:00",
            "course": 200.0,
            "speed": 12.0,
            "depth": 0.0
          },
          {
            "time": "2010-01-12T12:12:20+00:00",
            "course": 200.0,
            "speed": 12.0,
            "depth": 0.0
          },
          {
            "time": "2010-01-12T12:12:40+00:00",
            "course": 200.0,
            "speed": 12.0,
            "depth": 0.0
          },
          {
            "time": "2010-01-12T12:13:00+00:00",
            "course": 200.0,
            "speed": 12.0,
            "depth": 0.0
          },
          {
            "time": "2010-01-12T12:13:20+00:00",
            "course": 200.0,
            "speed": 12.0,
            "depth": 0.0
          },
          {
            "time": "2010-01-12T12:13:40+00:00",
            "course": 200.0,
            "speed": 12.0,
            "depth": 0.0
          },
          {
            "time": "2010-01-12T12:14:00+00:00",
            "course": 200.0,
            "speed": 12.0,
            "depth": 0.0
          },
          {
            "time": "2010-01-12T12:14:20+00:00",
            "course": 200.0,
            "speed": 12.0,
            "depth": 0.0
          },
          {
            "time": "2010-01-12T12:14:40+00:00",
            "course": 200.0,
            "speed": 12.0,
            "depth": 0.0
          },
          {
            "time": "2010-01-12T12:15:00+00:00",
            "course": 200.0,
            "speed": 12.0,
            "depth": 0.0
          },
          {
            "time": "2010-01-12T12:15:20+00:00",
            "course": 200.0,
            "speed": 12.0,
            "depth": 0.0
          },
          {
            "time": "2010-01-12T12:15:40+00:00",
            "course": 200.0,
            "speed": 12.0,
            "depth": 0.0
          },
          {
            "time": "2010-01-12T12:16:00+00:00",
            "course": 200.0,
            "speed": 12.0,
            "depth": 0.0
          },
          {
            "time": "2010-01-12T12:16:20+00:00",
            "course": 200.0,
            "speed": 12.0,
            "depth": 0.0
          },
          {
            "time": "2010-01-12T12:16:40+00:00",
            "course": 200.0,
            "speed": 12.0,
            "depth": 0.0
          },
          {
            "time": "2010-01-12T12:17:00+00:00",
            "course": 200.0,
            "speed": 12.0,
            "depth": 0.0
          },
          {
            "time": "2010-01-12T12:17:20+00:00",
            "course": 200.0,
            "speed": 12.0,
            "depth": 0.0
          },
          {
            "time": "2010-01-12T12:17:40+00:00",
            "course": 200.0,
            "speed": 12.0,
            "depth": 0.0
          },
          {
            "time": "2010-01-12T12:18:00+00:00",
            "course": 200.0,
            "speed": 12.0,
            "depth": 0.0
          },
          {
            "time": "2010-01-12T12:18:20+00:00",
            "course": 200.0,
            "speed": 12.0,
            "depth": 0.0
          },
          {
            "time": "2010-01-12T12:18:40+00:00",
            "course": 200.0,
            "speed": 12.0,
            "depth": 0.0
          }
        ],
        "style": {
          "line": {
            "color": "#808080"
          },
          "point": {
            "shape": "circle",
            "radius": 3.0,
            "fill_color": "#808080",
            "color": "#808080"
          }
        },
        "default_position_style": {
          "show_symbol": false,
          "symbol": "circle",
          "show_label": false
        },
        "symbol_interval": "PT1M",
        "label_interval": "PT5M",
        "sensors": [
          {
            "name": "BOW_BRG",
            "contacts": [
              {
                "time": "2010-01-12T12:00:00+00:00",
                "bearing": 162.6,
                "label": "SUBJECT held on BOW_BRG"
              },
              {
                "time": "2010-01-12T12:00:20+00:00",
                "bearing": 162.3,
                "label": "SUBJECT held on BOW_BRG"
              },
              {
                "time": "2010-01-12T12:00:40+00:00",
                "bearing": 162.1,
                "label": "SUBJECT held on BOW_BRG"
              },
              {
                "time": "2010-01-12T12:01:00+00:00",
                "bearing": 161.8,
                "label": "SUBJECT held on BOW_BRG"
              },
              {
                "time": "2010-01-12T12:01:20+00:00",
                "bearing": 161.5,
                "label": "SUBJECT held on BOW_BRG"
              },
              {
                "time": "2010-01-12T12:01:40+00:00",
                "bearing": 161.2,
                "label": "SUBJECT held on BOW_BRG"
              },
              {
                "time": "2010-01-12T12:02:00+00:00",
                "bearing": 160.9,
                "label": "SUBJECT held on BOW_BRG"
              },
              {
                "time": "2010-01-12T12:02:20+00:00",
                "bearing": 160.6,
                "label": "SUBJECT held on BOW_BRG"
              },
              {
                "time": "2010-01-12T12:02:40+00:00",
                "bearing": 160.2,
                "label": "SUBJECT held on BOW_BRG"
              },
              {
                "time": "2010-01-12T12:03:00+00:00",
                "bearing": 159.9,
                "label": "SUBJECT held on BOW_BRG"
              },
              {
                "time": "2010-01-12T12:03:20+00:00",
                "bearing": 159.5,
                "label": "SUBJECT held on BOW_BRG"
              },
              {
                "time": "2010-01-12T12:03:40+00:00",
                "bearing": 159.1,
                "label": "SUBJECT held on BOW_BRG"
              },
              {
                "time": "2010-01-12T12:04:00+00:00",
                "bearing": 158.7,
                "label": "SUBJECT held on BOW_BRG"
              },
              {
                "time": "2010-01-12T12:04:20+00:00",
                "bearing": 158.3,
                "label": "SUBJECT held on BOW_BRG"
              },
              {
                "time": "2010-01-12T12:04:40+00:00",
                "bearing": 157.8,
                "label": "SUBJECT held on BOW_BRG"
              },
              {
                "time": "2010-01-12T12:05:00+00:00",
                "bearing": 157.4,
                "label": "SUBJECT held on BOW_BRG"
              },
              {
                "time": "2010-01-12T12:05:20+00:00",
                "bearing": 156.9,
                "label": "SUBJECT held on BOW_BRG"
              },
              {
                "time": "2010-01-12T12:05:40+00:00",
                "bearing": 156.3,
                "label": "SUBJECT held on BOW_BRG"
              },
              {
                "time": "2010-01-12T12:06:00+00:00",
                "bearing": 155.8,
                "label": "SUBJECT held on BOW_BRG"
              },
              {
                "time": "2010-01-12T12:06:20+00:00",
                "bearing": 155.2,
                "label": "SUBJECT held on BOW_BRG"
              },
              {
                "time": "2010-01-12T12:06:40+00:00",
                "bearing": 154.5,
                "label": "SUBJECT held on BOW_BRG"
              },
              {
                "time": "2010-01-12T12:07:00+00:00",
                "bearing": 153.8,
                "label": "SUBJECT held on BOW_BRG"
              },
              {
                "time": "2010-01-12T12:07:20+00:00",
                "bearing": 153.1,
                "label": "SUBJECT held on BOW_BRG"
              },
              {
                "time": "2010-01-12T12:07:40+00:00",
                "bearing": 152.4,
                "label": "SUBJECT held on BOW_BRG"
              },
              {
                "time": "2010-01-12T12:08:00+00:00",
                "bearing": 151.5,
                "label": "SUBJECT held on BOW_BRG"
              },
              {
                "time": "2010-01-12T12:08:20+00:00",
                "bearing": 150.6,
                "label": "SUBJECT held on BOW_BRG"
              },
              {
                "time": "2010-01-12T12:08:40+00:00",
                "bearing": 149.7,
                "label": "SUBJECT held on BOW_BRG"
              },
              {
                "time": "2010-01-12T12:09:00+00:00",
                "bearing": 148.7,
                "label": "SUBJECT held on BOW_BRG"
              },
              {
                "time": "2010-01-12T12:09:20+00:00",
                "bearing": 147.6,
                "label": "SUBJECT held on BOW_BRG"
              },
              {
                "time": "2010-01-12T12:09:40+00:00",
                "bearing": 146.4,
                "label": "SUBJECT held on BOW_BRG"
              },
              {
                "time": "2010-01-12T12:10:00+00:00",
                "bearing": 145.1,
                "label": "SUBJECT held on BOW_BRG"
              },
              {
                "time": "2010-01-12T12:10:20+00:00",
                "bearing": 143.7,
                "label": "SUBJECT held on BOW_BRG"
              },
              {
                "time": "2010-01-12T12:10:40+00:00",
                "bearing": 142.2,
                "label": "SUBJECT held on BOW_BRG"
              },
              {
                "time": "2010-01-12T12:11:00+00:00",
                "bearing": 140.5,
                "label": "SUBJECT held on BOW_BRG"
              },
              {
                "time": "2010-01-12T12:11:20+00:00",
                "bearing": 138.7,
                "label": "SUBJECT held on BOW_BRG"
              },
              {
                "time": "2010-01-12T12:11:40+00:00",
                "bearing": 136.7,
                "label": "SUBJECT held on BOW_BRG"
              },
              {
                "time": "2010-01-12T12:12:00+00:00",
                "bearing": 134.5,
                "label": "SUBJECT held on BOW_BRG"
              },
              {
                "time": "2010-01-12T12:12:20+00:00",
                "bearing": 132.1,
                "label": "SUBJECT held on BOW_BRG"
              },
              {
                "time": "2010-01-12T12:12:40+00:00",
                "bearing": 129.4,
                "label": "SUBJECT held on BOW_BRG"
              },
              {
                "time": "2010-01-12T12:13:00+00:00",
                "bearing": 126.5,
                "label": "SUBJECT held on BOW_BRG"
              },
              {
                "time": "2010-01-12T12:13:20+00:00",
                "bearing": 123.3,
                "label": "SUBJECT held on BOW_BRG"
              },
              {
                "time": "2010-01-12T12:13:40+00:00",
                "bearing": 119.8,
                "label": "SUBJECT held on BOW_BRG"
              },
              {
                "time": "2010-01-12T12:14:00+00:00",
                "bearing": 115.9,
                "label": "SUBJECT held on BOW_BRG"
              },
              {
                "time": "2010-01-12T12:14:20+00:00",
                "bearing": 111.7,
                "label": "SUBJECT held on BOW_BRG"
              },
              {
                "time": "2010-01-12T12:14:40+00:00",
                "bearing": 107.2,
                "label": "SUBJECT held on BOW_BRG"
              },
              {
                "time": "2010-01-12T12:15:00+00:00",
                "bearing": 102.3,
                "label": "SUBJECT held on BOW_BRG"
              },
              {
                "time": "2010-01-12T12:15:20+00:00",
                "bearing": 97.2,
                "label": "SUBJECT held on BOW_BRG"
              },
              {
                "time": "2010-01-12T12:15:40+00:00",
                "bearing": 91.9,
                "label": "SUBJECT held on BOW_BRG"
              },
              {
                "time": "2010-01-12T12:16:00+00:00",
                "bearing": 86.4,
                "label": "SUBJECT held on BOW_BRG"
              },
              {
                "time": "2010-01-12T12:16:20+00:00",
                "bearing": 80.9,
                "label": "SUBJECT held on BOW_BRG"
              },
              {
                "time": "2010-01-12T12:16:40+00:00",
                "bearing": 75.5,
                "label": "SUBJECT held on BOW_BRG"
              },
              {
                "time": "2010-01-12T12:17:00+00:00",
                "bearing": 70.2,
                "label": "SUBJECT held on BOW_BRG"
              },
              {
                "time": "2010-01-12T12:17:20+00:00",
                "bearing": 65.2,
                "label": "SUBJECT held on BOW_BRG"
              },
              {
                "time": "2010-01-12T12:17:40+00:00",
                "bearing": 60.5,
                "label": "SUBJECT held on BOW_BRG"
              },
              {
                "time": "2010-01-12T12:18:00+00:00",
                "bearing": 56.1,
                "label": "SUBJECT held on BOW_BRG"
              },
              {
                "time": "2010-01-12T12:18:20+00:00",
                "bearing": 52.0,
                "label": "SUBJECT held on BOW_BRG"
              }
            ]
          },
          {
            "name": "TAIL_BRG",
            "contacts": [
              {
                "time": "2010-01-12T12:00:05+00:00",
                "bearing": 166.1,
                "label": "SUBJECT held on TAIL_BRG"
              },
              {
                "time": "2010-01-12T12:00:25+00:00",
                "bearing": 166.0,
                "label": "SUBJECT held on TAIL_BRG"
              },
              {
                "time": "2010-01-12T12:00:45+00:00",
                "bearing": 165.8,
                "label": "SUBJECT held on TAIL_BRG"
              },
              {
                "time": "2010-01-12T12:01:05+00:00",
                "bearing": 165.6,
                "label": "SUBJECT held on TAIL_BRG"
              },
              {
                "time": "2010-01-12T12:01:25+00:00",
                "bearing": 165.5,
                "label": "SUBJECT held on TAIL_BRG"
              },
              {
                "time": "2010-01-12T12:01:45+00:00",
                "bearing": 165.3,
                "label": "SUBJECT held on TAIL_BRG"
              },
              {
                "time": "2010-01-12T12:02:05+00:00",
                "bearing": 165.1,
                "label": "SUBJECT held on TAIL_BRG"
              },
              {
                "time": "2010-01-12T12:02:25+00:00",
                "bearing": 164.9,
                "label": "SUBJECT held on TAIL_BRG"
              },
              {
                "time": "2010-01-12T12:02:40+00:00",
                "bearing": 164.7,
                "label": "SUBJECT held on TAIL_BRG"
              },
              {
                "time": "2010-01-12T12:03:00+00:00",
                "bearing": 164.4,
                "label": "SUBJECT held on TAIL_BRG"
              },
              {
                "time": "2010-01-12T12:03:20+00:00",
                "bearing": 164.2,
                "label": "SUBJECT held on TAIL_BRG"
              },
              {
                "time": "2010-01-12T12:03:40+00:00",
                "bearing": 164.0,
                "label": "SUBJECT held on TAIL_BRG"
              },
              {
                "time": "2010-01-12T12:04:00+00:00",
                "bearing": 163.7,
                "label": "SUBJECT held on TAIL_BRG"
              },
              {
                "time": "2010-01-12T12:04:20+00:00",
                "bearing": 163.4,
                "label": "SUBJECT held on TAIL_BRG"
              },
              {
                "time": "2010-01-12T12:04:40+00:00",
                "bearing": 163.2,
                "label": "SUBJECT held on TAIL_BRG"
              },
              {
                "time": "2010-01-12T12:05:00+00:00",
                "bearing": 162.9,
                "label": "SUBJECT held on TAIL_BRG"
              },
              {
                "time": "2010-01-12T12:05:20+00:00",
                "bearing": 162.6,
                "label": "SUBJECT held on TAIL_BRG"
              },
              {
                "time": "2010-01-12T12:05:40+00:00",
                "bearing": 162.2,
                "label": "SUBJECT held on TAIL_BRG"
              },
              {
                "time": "2010-01-12T12:06:00+00:00",
                "bearing": 161.9,
                "label": "SUBJECT held on TAIL_BRG"
              },
              {
                "time": "2010-01-12T12:06:20+00:00",
                "bearing": 161.5,
                "label": "SUBJECT held on TAIL_BRG"
              },
              {
                "time": "2010-01-12T12:06:40+00:00",
                "bearing": 161.1,
                "label": "SUBJECT held on TAIL_BRG"
              },
              {
                "time": "2010-01-12T12:07:00+00:00",
                "bearing": 160.7,
                "label": "SUBJECT held on TAIL_BRG"
              },
              {
                "time": "2010-01-12T12:07:20+00:00",
                "bearing": 160.3,
                "label": "SUBJECT held on TAIL_BRG"
              },
              {
                "time": "2010-01-12T12:07:40+00:00",
                "bearing": 159.9,
                "label": "SUBJECT held on TAIL_BRG"
              },
              {
                "time": "2010-01-12T12:08:00+00:00",
                "bearing": 159.4,
                "label": "SUBJECT held on TAIL_BRG"
              },
              {
                "time": "2010-01-12T12:08:20+00:00",
                "bearing": 158.9,
                "label": "SUBJECT held on TAIL_BRG"
              },
              {
                "time": "2010-01-12T12:08:40+00:00",
                "bearing": 158.3,
                "label": "SUBJECT held on TAIL_BRG"
              },
              {
                "time": "2010-01-12T12:09:00+00:00",
                "bearing": 157.7,
                "label": "SUBJECT held on TAIL_BRG"
              },
              {
                "time": "2010-01-12T12:09:20+00:00",
                "bearing": 157.1,
                "label": "SUBJECT held on TAIL_BRG"
              },
              {
                "time": "2010-01-12T12:09:40+00:00",
                "bearing": 156.4,
                "label": "SUBJECT held on TAIL_BRG"
              },
              {
                "time": "2010-01-12T12:10:00+00:00",
                "bearing": 155.7,
                "label": "SUBJECT held on TAIL_BRG"
              },
              {
                "time": "2010-01-12T12:10:20+00:00",
                "bearing": 154.9,
                "label": "SUBJECT held on TAIL_BRG"
              },
              {
                "time": "2010-01-12T12:10:40+00:00",
                "bearing": 154.0,
                "label": "SUBJECT held on TAIL_BRG"
              },
              {
                "time": "2010-01-12T12:11:00+00:00",
                "bearing": 153.1,
                "label": "SUBJECT held on TAIL_BRG"
              },
              {
                "time": "2010-01-12T12:11:20+00:00",
                "bearing": 152.1,
                "label": "SUBJECT held on TAIL_BRG"
              },
              {
                "time": "2010-01-12T12:11:40+00:00",
                "bearing": 151.0,
                "label": "SUBJECT held on TAIL_BRG"
              },
              {
                "time": "2010-01-12T12:12:00+00:00",
                "bearing": 149.8,
                "label": "SUBJECT held on TAIL_BRG"
              },
              {
                "time": "2010-01-12T12:12:20+00:00",
                "bearing": 148.5,
                "label": "SUBJECT held on TAIL_BRG"
              },
              {
                "time": "2010-01-12T12:12:40+00:00",
                "bearing": 147.0,
                "label": "SUBJECT held on TAIL_BRG"
              },
              {
                "time": "2010-01-12T12:13:00+00:00",
                "bearing": 145.4,
                "label": "SUBJECT held on TAIL_BRG"
              },
              {
                "time": "2010-01-12T12:13:20+00:00",
                "bearing": 143.6,
                "label": "SUBJECT held on TAIL_BRG"
              },
              {
                "time": "2010-01-12T12:13:40+00:00",
                "bearing": 141.5,
                "label": "SUBJECT held on TAIL_BRG"
              },
              {
                "time": "2010-01-12T12:14:00+00:00",
                "bearing": 139.3,
                "label": "SUBJECT held on TAIL_BRG"
              },
              {
                "time": "2010-01-12T12:14:20+00:00",
                "bearing": 136.8,
                "label": "SUBJECT held on TAIL_BRG"
              },
              {
                "time": "2010-01-12T12:14:40+00:00",
                "bearing": 133.9,
                "label": "SUBJECT held on TAIL_BRG"
              },
              {
                "time": "2010-01-12T12:15:00+00:00",
                "bearing": 130.7,
                "label": "SUBJECT held on TAIL_BRG"
              },
              {
                "time": "2010-01-12T12:15:20+00:00",
                "bearing": 127.0,
                "label": "SUBJECT held on TAIL_BRG"
              },
              {
                "time": "2010-01-12T12:15:40+00:00",
                "bearing": 122.8,
                "label": "SUBJECT held on TAIL_BRG"
              },
              {
                "time": "2010-01-12T12:16:00+00:00",
                "bearing": 118.2,
                "label": "SUBJECT held on TAIL_BRG"
              },
              {
                "time": "2010-01-12T12:16:20+00:00",
                "bearing": 112.9,
                "label": "SUBJECT held on TAIL_BRG"
              },
              {
                "time": "2010-01-12T12:16:40+00:00",
                "bearing": 107.1,
                "label": "SUBJECT held on TAIL_BRG"
              },
              {
                "time": "2010-01-12T12:17:00+00:00",
                "bearing": 100.8,
                "label": "SUBJECT held on TAIL_BRG"
              },
              {
                "time": "2010-01-12T12:17:20+00:00",
                "bearing": 94.0,
                "label": "SUBJECT held on TAIL_BRG"
              },
              {
                "time": "2010-01-12T12:17:40+00:00",
                "bearing": 87.0,
                "label": "SUBJECT held on TAIL_BRG"
              },
              {
                "time": "2010-01-12T12:18:00+00:00",
                "bearing": 79.9,
                "label": "SUBJECT held on TAIL_BRG"
              },
              {
                "time": "2010-01-12T12:18:20+00:00",
                "bearing": 72.9,
                "label": "SUBJECT held on TAIL_BRG"
              }
            ]
          }
        ],
        "provenance": [
          {
            "activity_id": "e51904ab-d1c1-45f6-9ffe-47215dfaf922",
            "timestamp": "2026-04-13T23:12:32.507959Z",
            "was_generated_by": {
              "tool": "dpf-parser",
              "tool_version": "1.0.0",
              "parameters": []
            },
            "used": [],
            "generated": [
              "c54b37db-03e3-4d29-9945-4630e2609f92"
            ],
            "execution_duration": "PT0.00211S"
          }
        ]
      }
    },
    {
      "type": "Feature",
      "id": "45b0e153-600b-4457-8cae-23e51afbd8d7",
      "geometry": {
        "type": "LineString",
        "coordinates": [
          [
            0.25,
            60.1
          ],
          [
            0.2489254,
            60.1006384
          ],
          [
            0.2478508,
            60.1012767
          ],
          [
            0.2467762,
            60.1019151
          ],
          [
            0.2457016,
            60.1025535
          ],
          [
            0.2446269,
            60.1031919
          ],
          [
            0.2435522,
            60.1038302
          ],
          [
            0.2424776,
            60.1044686
          ],
          [
            0.2414028,
            60.105107
          ],
          [
            0.2403281,
            60.1057453
          ],
          [
            0.2392533,
            60.1063837
          ],
          [
            0.2381786,
            60.1070221
          ],
          [
            0.2371037,
            60.1076604
          ],
          [
            0.2360289,
            60.1082988
          ],
          [
            0.2349541,
            60.1089372
          ],
          [
            0.2338792,
            60.1095756
          ],
          [
            0.2328043,
            60.1102139
          ],
          [
            0.2317294,
            60.1108523
          ],
          [
            0.2306545,
            60.1114907
          ],
          [
            0.2295795,
            60.112129
          ],
          [
            0.2285046,
            60.1127674
          ],
          [
            0.2274296,
            60.1134058
          ],
          [
            0.2263546,
            60.1140441
          ],
          [
            0.2252795,
            60.1146825
          ],
          [
            0.2242045,
            60.1153209
          ],
          [
            0.2231294,
            60.1159593
          ],
          [
            0.2220543,
            60.1165976
          ],
          [
            0.2209792,
            60.117236
          ],
          [
            0.2199041,
            60.1178744
          ],
          [
            0.2188289,
            60.1185127
          ],
          [
            0.2177537,
            60.1191511
          ],
          [
            0.2166785,
            60.1197895
          ],
          [
            0.2156033,
            60.1204279
          ],
          [
            0.2145281,
            60.1210662
          ],
          [
            0.2134528,
            60.1217046
          ],
          [
            0.2123775,
            60.122343
          ],
          [
            0.2113022,
            60.1229813
          ],
          [
            0.2102269,
            60.1236197
          ],
          [
            0.2091516,
            60.1242581
          ],
          [
            0.2080762,
            60.1248964
          ],
          [
            0.2070008,
            60.1255348
          ],
          [
            0.2059254,
            60.1261732
          ],
          [
            0.20485,
            60.1268116
          ],
          [
            0.2037745,
            60.1274499
          ],
          [
            0.2026991,
            60.1280883
          ],
          [
            0.2016236,
            60.1287267
          ],
          [
            0.2005481,
            60.129365
          ],
          [
            0.1994725,
            60.1300034
          ],
          [
            0.198397,
            60.1306418
          ],
          [
            0.1973214,
            60.1312801
          ],
          [
            0.1962458,
            60.1319185
          ],
          [
            0.1951702,
            60.1325569
          ],
          [
            0.1940946,
            60.1331953
          ],
          [
            0.1930189,
            60.1338336
          ],
          [
            0.1919432,
            60.134472
          ],
          [
            0.1908675,
            60.1351104
          ]
        ]
      },
      "properties": {
        "kind": "TRACK",
        "platform_id": "SUBJECT",
        "platform_name": "SUBJECT",
        "track_type": "CONTACT",
        "start_time": "2010-01-12T12:00:00+00:00",
        "end_time": "2010-01-12T12:18:20+00:00",
        "positions": [
          {
            "time": "2010-01-12T12:00:00+00:00",
            "course": 320.0,
            "speed": 9.0,
            "depth": 0.0
          },
          {
            "time": "2010-01-12T12:00:20+00:00",
            "course": 320.0,
            "speed": 9.0,
            "depth": 0.0
          },
          {
            "time": "2010-01-12T12:00:40+00:00",
            "course": 320.0,
            "speed": 9.0,
            "depth": 0.0
          },
          {
            "time": "2010-01-12T12:01:00+00:00",
            "course": 320.0,
            "speed": 9.0,
            "depth": 0.0
          },
          {
            "time": "2010-01-12T12:01:20+00:00",
            "course": 320.0,
            "speed": 9.0,
            "depth": 0.0
          },
          {
            "time": "2010-01-12T12:01:40+00:00",
            "course": 320.0,
            "speed": 9.0,
            "depth": 0.0
          },
          {
            "time": "2010-01-12T12:02:00+00:00",
            "course": 320.0,
            "speed": 9.0,
            "depth": 0.0
          },
          {
            "time": "2010-01-12T12:02:20+00:00",
            "course": 320.0,
            "speed": 9.0,
            "depth": 0.0
          },
          {
            "time": "2010-01-12T12:02:40+00:00",
            "course": 320.0,
            "speed": 9.0,
            "depth": 0.0
          },
          {
            "time": "2010-01-12T12:03:00+00:00",
            "course": 320.0,
            "speed": 9.0,
            "depth": 0.0
          },
          {
            "time": "2010-01-12T12:03:20+00:00",
            "course": 320.0,
            "speed": 9.0,
            "depth": 0.0
          },
          {
            "time": "2010-01-12T12:03:40+00:00",
            "course": 320.0,
            "speed": 9.0,
            "depth": 0.0
          },
          {
            "time": "2010-01-12T12:04:00+00:00",
            "course": 320.0,
            "speed": 9.0,
            "depth": 0.0
          },
          {
            "time": "2010-01-12T12:04:20+00:00",
            "course": 320.0,
            "speed": 9.0,
            "depth": 0.0
          },
          {
            "time": "2010-01-12T12:04:40+00:00",
            "course": 320.0,
            "speed": 9.0,
            "depth": 0.0
          },
          {
            "time": "2010-01-12T12:05:00+00:00",
            "course": 320.0,
            "speed": 9.0,
            "depth": 0.0
          },
          {
            "time": "2010-01-12T12:05:20+00:00",
            "course": 320.0,
            "speed": 9.0,
            "depth": 0.0
          },
          {
            "time": "2010-01-12T12:05:40+00:00",
            "course": 320.0,
            "speed": 9.0,
            "depth": 0.0
          },
          {
            "time": "2010-01-12T12:06:00+00:00",
            "course": 320.0,
            "speed": 9.0,
            "depth": 0.0
          },
          {
            "time": "2010-01-12T12:06:20+00:00",
            "course": 320.0,
            "speed": 9.0,
            "depth": 0.0
          },
          {
            "time": "2010-01-12T12:06:40+00:00",
            "course": 320.0,
            "speed": 9.0,
            "depth": 0.0
          },
          {
            "time": "2010-01-12T12:07:00+00:00",
            "course": 320.0,
            "speed": 9.0,
            "depth": 0.0
          },
          {
            "time": "2010-01-12T12:07:20+00:00",
            "course": 320.0,
            "speed": 9.0,
            "depth": 0.0
          },
          {
            "time": "2010-01-12T12:07:40+00:00",
            "course": 320.0,
            "speed": 9.0,
            "depth": 0.0
          },
          {
            "time": "2010-01-12T12:08:00+00:00",
            "course": 320.0,
            "speed": 9.0,
            "depth": 0.0
          },
          {
            "time": "2010-01-12T12:08:20+00:00",
            "course": 320.0,
            "speed": 9.0,
            "depth": 0.0
          },
          {
            "time": "2010-01-12T12:08:40+00:00",
            "course": 320.0,
            "speed": 9.0,
            "depth": 0.0
          },
          {
            "time": "2010-01-12T12:09:00+00:00",
            "course": 320.0,
            "speed": 9.0,
            "depth": 0.0
          },
          {
            "time": "2010-01-12T12:09:20+00:00",
            "course": 320.0,
            "speed": 9.0,
            "depth": 0.0
          },
          {
            "time": "2010-01-12T12:09:40+00:00",
            "course": 320.0,
            "speed": 9.0,
            "depth": 0.0
          },
          {
            "time": "2010-01-12T12:10:00+00:00",
            "course": 320.0,
            "speed": 9.0,
            "depth": 0.0
          },
          {
            "time": "2010-01-12T12:10:20+00:00",
            "course": 320.0,
            "speed": 9.0,
            "depth": 0.0
          },
          {
            "time": "2010-01-12T12:10:40+00:00",
            "course": 320.0,
            "speed": 9.0,
            "depth": 0.0
          },
          {
            "time": "2010-01-12T12:11:00+00:00",
            "course": 320.0,
            "speed": 9.0,
            "depth": 0.0
          },
          {
            "time": "2010-01-12T12:11:20+00:00",
            "course": 320.0,
            "speed": 9.0,
            "depth": 0.0
          },
          {
            "time": "2010-01-12T12:11:40+00:00",
            "course": 320.0,
            "speed": 9.0,
            "depth": 0.0
          },
          {
            "time": "2010-01-12T12:12:00+00:00",
            "course": 320.0,
            "speed": 9.0,
            "depth": 0.0
          },
          {
            "time": "2010-01-12T12:12:20+00:00",
            "course": 320.0,
            "speed": 9.0,
            "depth": 0.0
          },
          {
            "time": "2010-01-12T12:12:40+00:00",
            "course": 320.0,
            "speed": 9.0,
            "depth": 0.0
          },
          {
            "time": "2010-01-12T12:13:00+00:00",
            "course": 320.0,
            "speed": 9.0,
            "depth": 0.0
          },
          {
            "time": "2010-01-12T12:13:20+00:00",
            "course": 320.0,
            "speed": 9.0,
            "depth": 0.0
          },
          {
            "time": "2010-01-12T12:13:40+00:00",
            "course": 320.0,
            "speed": 9.0,
            "depth": 0.0
          },
          {
            "time": "2010-01-12T12:14:00+00:00",
            "course": 320.0,
            "speed": 9.0,
            "depth": 0.0
          },
          {
            "time": "2010-01-12T12:14:20+00:00",
            "course": 320.0,
            "speed": 9.0,
            "depth": 0.0
          },
          {
            "time": "2010-01-12T12:14:40+00:00",
            "course": 320.0,
            "speed": 9.0,
            "depth": 0.0
          },
          {
            "time": "2010-01-12T12:15:00+00:00",
            "course": 320.0,
            "speed": 9.0,
            "depth": 0.0
          },
          {
            "time": "2010-01-12T12:15:20+00:00",
            "course": 320.0,
            "speed": 9.0,
            "depth": 0.0
          },
          {
            "time": "2010-01-12T12:15:40+00:00",
            "course": 320.0,
            "speed": 9.0,
            "depth": 0.0
          },
          {
            "time": "2010-01-12T12:16:00+00:00",
            "course": 320.0,
            "speed": 9.0,
            "depth": 0.0
          },
          {
            "time": "2010-01-12T12:16:20+00:00",
            "course": 320.0,
            "speed": 9.0,
            "depth": 0.0
          },
          {
            "time": "2010-01-12T12:16:40+00:00",
            "course": 320.0,
            "speed": 9.0,
            "depth": 0.0
          },
          {
            "time": "2010-01-12T12:17:00+00:00",
            "course": 320.0,
            "speed": 9.0,
            "depth": 0.0
          },
          {
            "time": "2010-01-12T12:17:20+00:00",
            "course": 320.0,
            "speed": 9.0,
            "depth": 0.0
          },
          {
            "time": "2010-01-12T12:17:40+00:00",
            "course": 320.0,
            "speed": 9.0,
            "depth": 0.0
          },
          {
            "time": "2010-01-12T12:18:00+00:00",
            "course": 320.0,
            "speed": 9.0,
            "depth": 0.0
          },
          {
            "time": "2010-01-12T12:18:20+00:00",
            "course": 320.0,
            "speed": 9.0,
            "depth": 0.0
          }
        ],
        "style": {
          "line": {
            "color": "#808080"
          },
          "point": {
            "shape": "circle",
            "radius": 3.0,
            "fill_color": "#808080",
            "color": "#808080"
          }
        },
        "default_position_style": {
          "show_symbol": false,
          "symbol": "circle",
          "show_label": false
        },
        "symbol_interval": "PT1M",
        "label_interval": "PT5M",
        "provenance": [
          {
            "activity_id": "e51904ab-d1c1-45f6-9ffe-47215dfaf922",
            "timestamp": "2026-04-13T23:12:32.507959Z",
            "was_generated_by": {
              "tool": "dpf-parser",
              "tool_version": "1.0.0",
              "parameters": []
            },
            "used": [],
            "generated": [
              "45b0e153-600b-4457-8cae-23e51afbd8d7"
            ],
            "execution_duration": "PT0.00211S"
          }
        ]
      }
    }
  ]
}