{
  "type": "FeatureCollection",
  "features": [
    {
      "type": "Feature",
      "id": "da9b3d34-572c-4fc8-818e-bb44cbd3cf6d",
      "geometry": {
        "type": "Polygon",
        "coordinates": [
          [
            [
              -21.721597222222222,
              22.054258333333333
            ],
            [
              -21.560805555555557,
              22.054258333333333
            ],
            [
              -21.560805555555557,
              21.927283333333335
            ],
            [
              -21.721597222222222,
              21.927283333333335
            ],
            [
              -21.721597222222222,
              22.054258333333333
            ]
          ]
        ]
      },
      "properties": {
        "kind": "RECTANGLE",
        "label": "RED SEARCH ALPHA",
        "symbol": "C",
        "style": {
          "fill": false,
          "fill_color": "#FF0000",
          "fill_opacity": 0.0,
          "stroke": true,
          "color": "#FF0000",
          "weight": 1,
          "opacity": 1.0
        },
        "provenance": [
          {
            "activity_id": "18295ac6-5180-4ed1-ad14-bfd9f823bf0f",
            "timestamp": "2026-04-13T23:12:29.920865Z",
            "was_generated_by": {
              "tool": "rep-parser",
              "tool_version": "1.0.0",
              "parameters": []
            },
            "used": [],
            "generated": [
              "da9b3d34-572c-4fc8-818e-bb44cbd3cf6d"
            ],
            "execution_duration": "PT0.002948S"
          }
        ]
      }
    },
    {
      "type": "Feature",
      "id": "8e20dad9-8c78-4953-88ea-8dbc1c6e2938",
      "geometry": {
        "type": "Polygon",
        "coordinates": [
          [
            [
              -21.894402777777778,
              22.054258333333333
            ],
            [
              -21.743358333333333,
              22.054258333333333
            ],
            [
              -21.743358333333333,
              21.927283333333335
            ],
            [
              -21.894402777777778,
              21.927283333333335
            ],
            [
              -21.894402777777778,
              22.054258333333333
            ]
          ]
        ]
      },
      "properties": {
        "kind": "RECTANGLE",
        "label": "RED SEARCH BRAVO",
        "symbol": "C",
        "style": {
          "fill": false,
          "fill_color": "#FF0000",
          "fill_opacity": 0.0,
          "stroke": true,
          "color": "#FF0000",
          "weight": 1,
          "opacity": 1.0
        },
        "provenance": [
          {
            "activity_id": "18295ac6-5180-4ed1-ad14-bfd9f823bf0f",
            "timestamp": "2026-04-13T23:12:29.920865Z",
            "was_generated_by": {
              "tool": "rep-parser",
              "tool_version": "1.0.0",
              "parameters": []
            },
            "used": [],
            "generated": [
              "8e20dad9-8c78-4953-88ea-8dbc1c6e2938"
            ],
            "execution_duration": "PT0.002948S"
          }
        ]
      }
    },
    {
      "type": "Feature",
      "id": "e2e962d6-a0ea-4d08-8ec8-18e731d65b73",
      "geometry": {
        "type": "Polygon",
        "coordinates": [
          [
            [
              -21.93165,
              22.20677222222222
            ],
            [
              -21.471280555555555,
              22.20677222222222
            ],
            [
              -21.471280555555555,
              21.864075
            ],
            [
              -21.93165,
              21.864075
            ],
            [
              -21.93165,
              22.20677222222222
            ]
          ]
        ]
      },
      "properties": {
        "kind": "RECTANGLE",
        "label": "SERIAL 12E",
        "symbol": "C",
        "style": {
          "fill": false,
          "fill_color": "#FF0000",
          "fill_opacity": 0.0,
          "stroke": true,
          "color": "#FF0000",
          "weight": 1,
          "opacity": 1.0
        },
        "provenance": [
          {
            "activity_id": "18295ac6-5180-4ed1-ad14-bfd9f823bf0f",
            "timestamp": "2026-04-13T23:12:29.920865Z",
            "was_generated_by": {
              "tool": "rep-parser",
              "tool_version": "1.0.0",
              "parameters": []
            },
            "used": [],
            "generated": [
              "e2e962d6-a0ea-4d08-8ec8-18e731d65b73"
            ],
            "execution_duration": "PT0.002948S"
          }
        ]
      }
    }
  ]
}