{
  "type": "FeatureCollection",
  "features": [
    {
      "type": "Feature",
      "id": "5d937955-ee44-4649-bfea-51153df924fe",
      "geometry": {
        "type": "Point",
        "coordinates": []
      },
      "properties": {
        "kind": "NARRATIVE",
        "time": "1995-12-12T05:00:00+00:00",
        "text": "COMEX COMEX SERIAL 16D",
        "track_id": "NELSON",
        "line_number": 1
      }
    },
    {
      "type": "Feature",
      "id": "77b5525d-6a5b-4eb9-ab54-0f4203f035dd",
      "geometry": {
        "type": "Point",
        "coordinates": []
      },
      "properties": {
        "kind": "NARRATIVE",
        "time": "1995-12-12T05:01:00.100000+00:00",
        "text": "CMD_COMMENT INTEND WIDE AREA SEARCH AS PREVIOUS SERIAL",
        "track_id": "NELSON",
        "line_number": 2
      }
    },
    {
      "type": "Feature",
      "id": "433287bd-a343-47b0-965d-282b51c112e7",
      "geometry": {
        "type": "Point",
        "coordinates": []
      },
      "properties": {
        "kind": "NARRATIVE",
        "time": "1995-12-12T05:02:00+00:00",
        "text": "CMD_COMMENT BRIEFING HINTED THAT TARGET TO SE",
        "track_id": "NELSON",
        "line_number": 3
      }
    },
    {
      "type": "Feature",
      "id": "4c146f3b-44be-4532-ad67-4a437d0e5044",
      "geometry": {
        "type": "Point",
        "coordinates": []
      },
      "properties": {
        "kind": "NARRATIVE",
        "time": "1995-12-12T05:22:00+00:00",
        "text": "SONAR_COMMENT NO CONTACTS YET, SWITCHING TO SCALE 7",
        "track_id": "NELSON",
        "line_number": 4
      }
    },
    {
      "type": "Feature",
      "id": "56dab6b6-d6d4-47ff-b395-9b58a7a329e2",
      "geometry": {
        "type": "Point",
        "coordinates": []
      },
      "properties": {
        "kind": "NARRATIVE",
        "time": "1995-12-12T06:12:00+00:00",
        "text": "CMD_COMMENT NEW_CONTACT INVESTIGATING TRACK 14",
        "track_id": "NELSON",
        "line_number": 5
      }
    },
    {
      "type": "Feature",
      "id": "780a8db7-ac81-4dd7-b426-790362f95a2c",
      "geometry": {
        "type": "Point",
        "coordinates": []
      },
      "properties": {
        "kind": "NARRATIVE",
        "time": "1995-12-12T06:22:00+00:00",
        "text": "NEW_CONTACT POSSUB TRACK 14",
        "track_id": "NELSON",
        "line_number": 6
      }
    },
    {
      "type": "Feature",
      "id": "4f81261d-955d-414a-9c8e-bd411b15357d",
      "geometry": {
        "type": "Point",
        "coordinates": []
      },
      "properties": {
        "kind": "NARRATIVE",
        "time": "1995-12-12T06:42:00+00:00",
        "text": "CONTACT_LOST DROP TRACK 14 BIOLOGIC",
        "track_id": "NELSON",
        "line_number": 7
      }
    },
    {
      "type": "Feature",
      "id": "a832a7ea-3c2e-460b-9b8f-e0c96740c0d3",
      "geometry": {
        "type": "Point",
        "coordinates": []
      },
      "properties": {
        "kind": "NARRATIVE",
        "time": "1995-12-12T09:53:00+00:00",
        "text": "CMD_COMMENT HEADING TO RV",
        "track_id": "NELSON",
        "line_number": 8
      }
    },
    {
      "type": "Feature",
      "id": "d083052c-07ce-4285-bcba-e1b9d1cdfabe",
      "geometry": {
        "type": "Point",
        "coordinates": []
      },
      "properties": {
        "kind": "NARRATIVE",
        "time": "1995-12-12T09:54:00+00:00",
        "text": "CMD_COMMENT SUSPECT PLAYMATE NOT PRESENT",
        "track_id": "NELSON",
        "line_number": 9
      }
    },
    {
      "type": "Feature",
      "id": "a1797e6a-f11f-4bdf-8b50-f929be62bf2a",
      "geometry": {
        "type": "Point",
        "coordinates": []
      },
      "properties": {
        "kind": "NARRATIVE",
        "time": "1995-12-12T09:57:00+00:00",
        "text": "NEW_CONTACT SUSPECTED DETECTION OF RED",
        "track_id": "COLLINGWOOD",
        "line_number": 10
      }
    },
    {
      "type": "Feature",
      "id": "26ba8d8b-8b27-4820-b886-96d741837698",
      "geometry": {
        "type": "Point",
        "coordinates": []
      },
      "properties": {
        "kind": "NARRATIVE",
        "time": "1995-12-12T10:03:00+00:00",
        "text": "CMD_COMMENT CONFIRMED. OBTAIN SOLUTION CONFIRMED. OBTAIN SOLUTIONCONFIRMED. OBTAIN SOLUTIONCONFIRMED. OBTAIN SOLUTIONCONFIRMED. OBTAIN SOLUTIONCONFIRMED. OBTAIN SOLUTION",
        "track_id": "COLLINGWOOD",
        "line_number": 11
      }
    },
    {
      "type": "Feature",
      "id": "86e32941-2616-49f5-a401-7884e54a8785",
      "geometry": {
        "type": "Point",
        "coordinates": []
      },
      "properties": {
        "kind": "NARRATIVE",
        "time": "1995-12-12T10:13:00+00:00",
        "text": "CMD_COMMENT SUSPECT TARGET ZIG",
        "track_id": "COLLINGWOOD",
        "line_number": 12
      }
    },
    {
      "type": "Feature",
      "id": "862cbc84-5830-4288-8e20-03a3d08cce95",
      "geometry": {
        "type": "Point",
        "coordinates": []
      },
      "properties": {
        "kind": "NARRATIVE",
        "time": "1995-12-12T10:14:00+00:00",
        "text": "NEW_CONTACT PORT DETECTION, 16 HZ",
        "track_id": "NELSON",
        "line_number": 13
      }
    },
    {
      "type": "Feature",
      "id": "8728ee2d-5299-4505-b60e-358ffcbbcc13",
      "geometry": {
        "type": "Point",
        "coordinates": []
      },
      "properties": {
        "kind": "NARRATIVE",
        "time": "1995-12-12T10:29:00+00:00",
        "text": "CMD_COMMENT FOR DUPLICATE",
        "track_id": "NELSON",
        "line_number": 14
      }
    },
    {
      "type": "Feature",
      "id": "15f3a5da-ffea-4095-bb9b-cadf8df9f254",
      "geometry": {
        "type": "Point",
        "coordinates": []
      },
      "properties": {
        "kind": "NARRATIVE",
        "time": "1995-12-12T10:29:00+00:00",
        "text": "CMD_COMMENT FOR DUPLICATE",
        "track_id": "NELSON",
        "line_number": 15
      }
    },
    {
      "type": "Feature",
      "id": "87905222-4125-4293-8006-580402e1a89c",
      "geometry": {
        "type": "Point",
        "coordinates": []
      },
      "properties": {
        "kind": "NARRATIVE",
        "time": "1995-12-12T10:37:00+00:00",
        "text": "CMD_COMMENT TARGET ZIG DETECTED TARGET ZIG DETECTEDTARGET ZIG DETECTEDTARGET ZIG DETECTEDTARGET ZIG DETECTED",
        "track_id": "NELSON",
        "line_number": 16
      }
    },
    {
      "type": "Feature",
      "id": "654b7654-e285-47d7-9bc5-70a79caa9b2b",
      "geometry": {
        "type": "Point",
        "coordinates": []
      },
      "properties": {
        "kind": "NARRATIVE",
        "time": "1995-12-12T11:19:00+00:00",
        "text": "SONAR_COMMENT FINEX CALLED, ENTER TRANSITION",
        "track_id": "COLLINGWOOD",
        "line_number": 17
      }
    },
    {
      "type": "Feature",
      "id": "ba81e40b-ca4c-4854-8a92-6a2a43cd1599",
      "geometry": {
        "type": "Point",
        "coordinates": []
      },
      "properties": {
        "kind": "NARRATIVE",
        "time": "1995-12-12T11:20:00+00:00",
        "text": "NEW_CONTACT ENTERING PLOT-LOCK TRANSITION",
        "track_id": "NELSON",
        "line_number": 18
      }
    },
    {
      "type": "Feature",
      "id": "56c79347-6f09-41e8-ad21-1b8ea856f4b7",
      "geometry": {
        "type": "Point",
        "coordinates": []
      },
      "properties": {
        "kind": "NARRATIVE",
        "time": "1995-12-12T11:37:00+00:00",
        "text": "CMD_COMMENT ACTIVE PLOT-LOCK SUCCESSFUL",
        "track_id": "NELSON",
        "line_number": 19
      }
    },
    {
      "type": "Feature",
      "id": "103fd48e-55ed-448b-b47d-de990c344c3a",
      "geometry": {
        "type": "Point",
        "coordinates": []
      },
      "properties": {
        "kind": "NARRATIVE",
        "time": "1995-12-12T11:41:00+00:00",
        "text": "SONAR_COMMENT RX CONGRATS ON UWT",
        "track_id": "NELSON",
        "line_number": 20
      }
    }
  ]
}