{
  "type": "FeatureCollection",
  "features": [
    {
      "type": "Feature",
      "id": "36d0fd41-064b-4264-a025-015afa2f44f5",
      "geometry": {
        "type": "LineString",
        "coordinates": [
          [
            -5.923663888888889,
            51.814049999999995
          ],
          [
            -5.926613888888889,
            51.81403611111111
          ],
          [
            -5.929902777777778,
            51.81401666666667
          ],
          [
            -5.9333638888888895,
            51.81401666666667
          ],
          [
            -5.937008333333334,
            51.81395277777777
          ],
          [
            -5.940650000000001,
            51.81398333333333
          ],
          [
            -5.944358333333334,
            51.81394722222222
          ],
          [
            -5.948133333333334,
            51.81389722222222
          ],
          [
            -5.951833333333333,
            51.813925
          ],
          [
            -5.955605555555556,
            51.81392777777778
          ],
          [
            -5.9594000000000005,
            51.81386111111111
          ],
          [
            -5.963094444444445,
            51.81395833333333
          ],
          [
            -5.966819444444445,
            51.813913888888884
          ],
          [
            -5.970283333333334,
            51.812913888888886
          ],
          [
            -5.973725,
            51.811730555555556
          ],
          [
            -5.977238888888889,
            51.810561111111106
          ],
          [
            -5.980822222222223,
            51.80930277777777
          ],
          [
            -5.984363888888889,
            51.80800833333333
          ],
          [
            -5.987922222222222,
            51.80671944444444
          ],
          [
            -5.991519444444444,
            51.80546111111111
          ],
          [
            -5.995069444444445,
            51.80416388888889
          ],
          [
            -5.998694444444444,
            51.802899999999994
          ],
          [
            -6.002263888888889,
            51.80161944444444
          ],
          [
            -6.0058694444444445,
            51.80031388888889
          ],
          [
            -6.009441666666667,
            51.799033333333334
          ],
          [
            -6.0130083333333335,
            51.797725
          ],
          [
            -6.016597222222222,
            51.79641111111111
          ],
          [
            -6.020155555555555,
            51.79514444444444
          ],
          [
            -6.023752777777777,
            51.79385833333333
          ],
          [
            -6.0273055555555555,
            51.79259444444444
          ],
          [
            -6.030863888888889,
            51.79128333333333
          ],
          [
            -6.034458333333333,
            51.790011111111106
          ],
          [
            -6.038027777777778,
            51.78873333333333
          ],
          [
            -6.041591666666666,
            51.78745
          ],
          [
            -6.045186111111111,
            51.78616944444444
          ],
          [
            -6.048761111111111,
            51.78486944444444
          ],
          [
            -6.052336111111111,
            51.78357222222222
          ],
          [
            -6.055886111111111,
            51.7823
          ],
          [
            -6.059452777777778,
            51.781016666666666
          ],
          [
            -6.06305,
            51.77970833333333
          ],
          [
            -6.066619444444444,
            51.778391666666664
          ],
          [
            -6.0702694444444445,
            51.777094444444444
          ],
          [
            -6.073833333333333,
            51.775797222222224
          ],
          [
            -6.077391666666666,
            51.77449166666666
          ],
          [
            -6.080994444444444,
            51.77322222222222
          ],
          [
            -6.084577777777778,
            51.771927777777776
          ],
          [
            -6.088158333333333,
            51.77064722222222
          ],
          [
            -6.091716666666667,
            51.76937222222222
          ],
          [
            -6.095263888888889,
            51.76811388888889
          ],
          [
            -6.098855555555556,
            51.766816666666664
          ],
          [
            -6.102180555555555,
            51.765341666666664
          ],
          [
            -6.1031861111111105,
            51.763105555555555
          ],
          [
            -6.103816666666666,
            51.76071388888889
          ],
          [
            -6.104444444444444,
            51.75824166666666
          ],
          [
            -6.105036111111111,
            51.755744444444446
          ],
          [
            -6.1056888888888885,
            51.75318055555555
          ],
          [
            -6.1062666666666665,
            51.75060555555556
          ],
          [
            -6.106902777777777,
            51.748019444444445
          ],
          [
            -6.107491666666666,
            51.74545555555556
          ],
          [
            -6.108127777777778,
            51.742850000000004
          ],
          [
            -6.108755555555555,
            51.74026944444444
          ],
          [
            -6.109333333333333,
            51.73768333333334
          ],
          [
            -6.109955555555556,
            51.73509444444444
          ],
          [
            -6.110536111111111,
            51.73252777777778
          ],
          [
            -6.111180555555555,
            51.729933333333335
          ],
          [
            -6.1118,
            51.72736666666667
          ],
          [
            -6.112427777777778,
            51.72477222222222
          ],
          [
            -6.111786111111111,
            51.72246666666667
          ],
          [
            -6.1105222222222215,
            51.72029444444445
          ],
          [
            -6.109163888888888,
            51.7181
          ],
          [
            -6.107841666666666,
            51.71588611111111
          ],
          [
            -6.106461111111111,
            51.71365555555556
          ],
          [
            -6.105119444444444,
            51.711400000000005
          ],
          [
            -6.103744444444444,
            51.70917777777778
          ],
          [
            -6.102405555555555,
            51.706950000000006
          ],
          [
            -6.101025,
            51.70471666666667
          ],
          [
            -6.099669444444444,
            51.702508333333334
          ],
          [
            -6.0982611111111105,
            51.70027777777778
          ],
          [
            -6.096872222222222,
            51.69806388888889
          ],
          [
            -6.095544444444444,
            51.69583333333333
          ],
          [
            -6.094191666666666,
            51.69360555555555
          ],
          [
            -6.092838888888888,
            51.69135555555555
          ],
          [
            -6.091488888888889,
            51.689119444444444
          ],
          [
            -6.090113888888888,
            51.68686111111111
          ],
          [
            -6.088733333333333,
            51.684625
          ],
          [
            -6.087361111111111,
            51.68236666666667
          ],
          [
            -6.085977777777777,
            51.68015
          ],
          [
            -6.085613888888888,
            51.67780833333333
          ],
          [
            -6.087219444444444,
            51.67557222222222
          ],
          [
            -6.088963888888888,
            51.67325833333333
          ],
          [
            -6.090786111111111,
            51.67092222222222
          ],
          [
            -6.0925972222222216,
            51.66854166666666
          ],
          [
            -6.094447222222222,
            51.66615
          ],
          [
            -6.096299999999999,
            51.66375277777777
          ],
          [
            -6.098147222222222,
            51.66134722222222
          ],
          [
            -6.100016666666666,
            51.65895
          ],
          [
            -6.101897222222222,
            51.65654444444444
          ],
          [
            -6.103777777777777,
            51.654111111111106
          ],
          [
            -6.105594444444444,
            51.651694444444445
          ],
          [
            -6.107494444444444,
            51.64928611111111
          ],
          [
            -6.109344444444444,
            51.64688611111111
          ],
          [
            -6.111191666666667,
            51.64448333333333
          ],
          [
            -6.113074999999999,
            51.64208055555555
          ],
          [
            -6.114905555555556,
            51.63966666666666
          ],
          [
            -6.116797222222222,
            51.63724722222222
          ],
          [
            -6.118630555555555,
            51.63484722222222
          ],
          [
            -6.120472222222221,
            51.632441666666665
          ],
          [
            -6.122344444444444,
            51.630025
          ],
          [
            -6.124197222222222,
            51.62762222222222
          ],
          [
            -6.126049999999999,
            51.62521666666667
          ],
          [
            -6.127902777777777,
            51.62280833333333
          ],
          [
            -6.129722222222222,
            51.620383333333336
          ],
          [
            -6.1294861111111105,
            51.618138888888886
          ],
          [
            -6.128022222222222,
            51.61611111111111
          ],
          [
            -6.126449999999999,
            51.61408055555556
          ],
          [
            -6.124847222222222,
            51.61200277777778
          ],
          [
            -6.123194444444444,
            51.60993055555556
          ],
          [
            -6.121566666666666,
            51.607775000000004
          ],
          [
            -6.119924999999999,
            51.605647222222224
          ],
          [
            -6.118230555555555,
            51.603541666666665
          ],
          [
            -6.116563888888889,
            51.60143611111111
          ],
          [
            -6.114913888888888,
            51.59930277777778
          ],
          [
            -6.113233333333333,
            51.597175
          ],
          [
            -6.1115916666666665,
            51.59505555555556
          ],
          [
            -6.109944444444444,
            51.59296666666667
          ],
          [
            -6.108275,
            51.590825
          ],
          [
            -6.106613888888888,
            51.58871388888889
          ],
          [
            -6.1049444444444445,
            51.586600000000004
          ],
          [
            -6.10326111111111,
            51.58446388888889
          ],
          [
            -6.103933333333333,
            51.582300000000004
          ],
          [
            -6.106733333333333,
            51.581836111111116
          ],
          [
            -6.109388888888889,
            51.582544444444444
          ],
          [
            -6.112302777777778,
            51.58331944444445
          ],
          [
            -6.115377777777778,
            51.58414166666667
          ],
          [
            -6.118586111111111,
            51.58497777777778
          ],
          [
            -6.120308333333333,
            51.586619444444445
          ],
          [
            -6.118480555555555,
            51.58815555555556
          ],
          [
            -6.115819444444444,
            51.58946944444445
          ],
          [
            -6.112911111111111,
            51.590922222222225
          ],
          [
            -6.109869444444444,
            51.59248055555556
          ],
          [
            -6.106708333333333,
            51.59407222222222
          ],
          [
            -6.103536111111111,
            51.59569444444445
          ],
          [
            -6.100316666666666,
            51.59733888888889
          ],
          [
            -6.097074999999999,
            51.59896388888889
          ],
          [
            -6.093833333333333,
            51.60060277777778
          ],
          [
            -6.0905249999999995,
            51.602269444444445
          ],
          [
            -6.087269444444444,
            51.60393611111111
          ],
          [
            -6.0839888888888884,
            51.605580555555555
          ],
          [
            -6.080680555555555,
            51.60722222222223
          ],
          [
            -6.077422222222222,
            51.60888888888889
          ],
          [
            -6.074136111111111,
            51.610527777777776
          ],
          [
            -6.070911111111111,
            51.61217222222222
          ],
          [
            -6.067638888888888,
            51.613816666666665
          ],
          [
            -6.064294444444444,
            51.61468055555556
          ],
          [
            -6.061999999999999,
            51.61343333333333
          ],
          [
            -6.059755555555555,
            51.61196388888889
          ],
          [
            -6.057424999999999,
            51.61038055555556
          ],
          [
            -6.054986111111111,
            51.60881666666667
          ],
          [
            -6.052544444444444,
            51.60718055555556
          ],
          [
            -6.050102777777777,
            51.60551944444445
          ],
          [
            -6.047619444444444,
            51.603858333333335
          ],
          [
            -6.045188888888889,
            51.60219722222222
          ],
          [
            -6.042669444444444,
            51.600569444444446
          ],
          [
            -6.040202777777778,
            51.598925
          ],
          [
            -6.037708333333333,
            51.59726666666667
          ],
          [
            -6.035197222222222,
            51.595625000000005
          ],
          [
            -6.03275,
            51.593919444444445
          ],
          [
            -6.030261111111111,
            51.592261111111114
          ],
          [
            -6.0277416666666666,
            51.5906
          ],
          [
            -6.025241666666667,
            51.588944444444444
          ],
          [
            -6.022752777777778,
            51.58726388888889
          ],
          [
            -6.0203138888888885,
            51.58561111111111
          ],
          [
            -6.017822222222222,
            51.58395277777778
          ],
          [
            -6.0153694444444445,
            51.58226944444445
          ],
          [
            -6.0128055555555555,
            51.580625000000005
          ],
          [
            -6.010313888888889,
            51.578944444444446
          ],
          [
            -6.007816666666667,
            51.5773
          ],
          [
            -6.0053,
            51.57561666666667
          ],
          [
            -6.002291666666666,
            51.57485833333334
          ],
          [
            -5.998972222222222,
            51.575575
          ],
          [
            -5.995480555555556,
            51.57639166666667
          ],
          [
            -5.991883333333333,
            51.57721111111111
          ],
          [
            -5.988186111111111,
            51.57807777777778
          ],
          [
            -5.984447222222222,
            51.578944444444446
          ],
          [
            -5.980697222222222,
            51.579797222222226
          ],
          [
            -5.976930555555556,
            51.580713888888894
          ],
          [
            -5.9731861111111115,
            51.581583333333334
          ],
          [
            -5.969413888888889,
            51.58245277777778
          ],
          [
            -5.965636111111111,
            51.58334444444445
          ],
          [
            -5.961891666666667,
            51.58421666666667
          ],
          [
            -5.958125,
            51.58508888888889
          ],
          [
            -5.954397222222222,
            51.58596111111111
          ],
          [
            -5.950669444444444,
            51.58686388888889
          ],
          [
            -5.9469,
            51.587722222222226
          ],
          [
            -5.94315,
            51.58860555555556
          ],
          [
            -5.9393722222222225,
            51.589486111111114
          ],
          [
            -5.935636111111111,
            51.59035277777778
          ],
          [
            -5.931880555555556,
            51.59120277777778
          ],
          [
            -5.928144444444444,
            51.5921
          ],
          [
            -5.924397222222223,
            51.59300833333334
          ],
          [
            -5.920625,
            51.593925000000006
          ],
          [
            -5.9169,
            51.594775000000006
          ],
          [
            -5.913327777777778,
            51.59497777777778
          ],
          [
            -5.910630555555556,
            51.593808333333335
          ],
          [
            -5.907883333333333,
            51.592555555555556
          ],
          [
            -5.904980555555556,
            51.591319444444444
          ],
          [
            -5.902086111111111,
            51.59003333333334
          ],
          [
            -5.899119444444444,
            51.58871944444445
          ],
          [
            -5.8961749999999995,
            51.58746111111111
          ],
          [
            -5.8930333333333325,
            51.586419444444445
          ],
          [
            -5.889413888888888,
            51.58654166666667
          ],
          [
            -5.8856972222222215,
            51.58675277777778
          ],
          [
            -5.881972222222223,
            51.58697777777778
          ],
          [
            -5.878188888888889,
            51.58720277777778
          ],
          [
            -5.874430555555556,
            51.58742222222222
          ],
          [
            -5.870658333333334,
            51.58765277777778
          ],
          [
            -5.866869444444445,
            51.58785555555556
          ],
          [
            -5.863108333333333,
            51.58806388888889
          ],
          [
            -5.859297222222222,
            51.588300000000004
          ],
          [
            -5.85703611111111,
            51.589797222222224
          ],
          [
            -5.858044444444444,
            51.59138333333333
          ],
          [
            -5.860386111111111,
            51.59238333333334
          ],
          [
            -5.862958333333333,
            51.593516666666666
          ],
          [
            -5.865686111111111,
            51.59470833333334
          ],
          [
            -5.868477777777779,
            51.59596944444445
          ],
          [
            -5.871305555555556,
            51.59721944444445
          ],
          [
            -5.874233333333334,
            51.598488888888895
          ],
          [
            -5.877152777777778,
            51.599761111111114
          ],
          [
            -5.880083333333334,
            51.60104444444445
          ],
          [
            -5.8830638888888895,
            51.60235
          ],
          [
            -5.88601111111111,
            51.60366388888889
          ],
          [
            -5.888933333333333,
            51.604936111111115
          ],
          [
            -5.891922222222222,
            51.606255555555556
          ],
          [
            -5.894883333333333,
            51.60755
          ],
          [
            -5.897844444444444,
            51.608847222222224
          ],
          [
            -5.900772222222223,
            51.61013611111111
          ],
          [
            -5.903700000000001,
            51.61141666666667
          ],
          [
            -5.906694444444445,
            51.612725000000005
          ],
          [
            -5.909727777777778,
            51.61400555555556
          ],
          [
            -5.9127027777777785,
            51.61526666666667
          ],
          [
            -5.915675,
            51.61656666666667
          ],
          [
            -5.918155555555556,
            51.61813055555555
          ],
          [
            -5.918763888888889,
            51.62038611111111
          ],
          [
            -5.919386111111112,
            51.622708333333335
          ],
          [
            -5.920041666666667,
            51.62506666666667
          ],
          [
            -5.920705555555556,
            51.62745
          ],
          [
            -5.921411111111111,
            51.629866666666665
          ],
          [
            -5.922122222222223,
            51.6323
          ],
          [
            -5.92285,
            51.63472222222222
          ],
          [
            -5.923611111111112,
            51.637125
          ],
          [
            -5.924322222222223,
            51.63955555555555
          ],
          [
            -5.925030555555556,
            51.64196944444444
          ],
          [
            -5.925527777777778,
            51.644441666666665
          ],
          [
            -5.923816666666667,
            51.64668611111111
          ],
          [
            -5.920708333333334,
            51.64806111111111
          ],
          [
            -5.917477777777778,
            51.64945
          ],
          [
            -5.914047222222223,
            51.65073888888889
          ],
          [
            -5.910580555555556,
            51.65202222222222
          ],
          [
            -5.907041666666667,
            51.653280555555554
          ],
          [
            -5.903508333333334,
            51.65458611111111
          ],
          [
            -5.899941666666666,
            51.655875
          ],
          [
            -5.896405555555555,
            51.657152777777775
          ],
          [
            -5.892838888888888,
            51.658455555555555
          ],
          [
            -5.889255555555555,
            51.65974166666666
          ],
          [
            -5.88568611111111,
            51.66101388888889
          ],
          [
            -5.882108333333334,
            51.662324999999996
          ],
          [
            -5.8800138888888895,
            51.664274999999996
          ],
          [
            -5.881552777777778,
            51.665749999999996
          ],
          [
            -5.884052777777777,
            51.66683333333333
          ],
          [
            -5.886749999999999,
            51.66799722222222
          ],
          [
            -5.889572222222221,
            51.66921388888888
          ],
          [
            -5.892441666666667,
            51.67048333333333
          ],
          [
            -5.895336111111111,
            51.671755555555556
          ],
          [
            -5.8982777777777775,
            51.67301111111111
          ],
          [
            -5.901205555555556,
            51.674299999999995
          ],
          [
            -5.904147222222223,
            51.67558611111111
          ],
          [
            -5.907152777777778,
            51.676874999999995
          ],
          [
            -5.910116666666667,
            51.67816666666666
          ],
          [
            -5.913083333333334,
            51.67946388888889
          ],
          [
            -5.916052777777778,
            51.68073888888889
          ],
          [
            -5.919027777777778,
            51.682027777777776
          ],
          [
            -5.9220194444444445,
            51.683324999999996
          ],
          [
            -5.9249583333333335,
            51.68460555555555
          ],
          [
            -5.927925,
            51.68588333333333
          ],
          [
            -5.930858333333334,
            51.68717777777778
          ],
          [
            -5.933833333333333,
            51.68845833333333
          ],
          [
            -5.936775,
            51.68975
          ],
          [
            -5.9397472222222225,
            51.69103888888888
          ],
          [
            -5.942933333333333,
            51.69200277777777
          ],
          [
            -5.946575,
            51.692052777777775
          ],
          [
            -5.949866666666667,
            51.69248333333333
          ],
          [
            -5.950875,
            51.694405555555555
          ],
          [
            -5.951511111111111,
            51.69660833333333
          ],
          [
            -5.952197222222223,
            51.69889722222222
          ],
          [
            -5.952916666666667,
            51.70123055555556
          ],
          [
            -5.953619444444445,
            51.703630555555556
          ],
          [
            -5.954386111111111,
            51.706025000000004
          ],
          [
            -5.955116666666667,
            51.708447222222226
          ],
          [
            -5.955847222222222,
            51.710875
          ],
          [
            -5.956527777777778,
            51.71329444444445
          ],
          [
            -5.957291666666666,
            51.71570277777778
          ],
          [
            -5.958008333333334,
            51.718113888888894
          ],
          [
            -5.958719444444444,
            51.72054444444445
          ],
          [
            -5.959452777777778,
            51.72295555555556
          ],
          [
            -5.9601444444444445,
            51.725388888888894
          ],
          [
            -5.96085,
            51.72779722222222
          ],
          [
            -5.9615888888888895,
            51.73023333333334
          ],
          [
            -5.962316666666667,
            51.73267222222223
          ],
          [
            -5.9630222222222224,
            51.73508611111111
          ],
          [
            -5.963722222222223,
            51.737525
          ],
          [
            -5.964433333333334,
            51.739961111111114
          ],
          [
            -5.966661111111112,
            51.741369444444445
          ],
          [
            -5.969855555555555,
            51.74175555555556
          ],
          [
            -5.973241666666667,
            51.742200000000004
          ],
          [
            -5.976677777777778,
            51.74263611111111
          ],
          [
            -5.980197222222222,
            51.743069444444444
          ],
          [
            -5.983775,
            51.74355555555556
          ],
          [
            -5.987375,
            51.74399722222223
          ],
          [
            -5.990986111111111,
            51.74446944444445
          ],
          [
            -5.994638888888889,
            51.74489166666667
          ],
          [
            -5.998252777777778,
            51.745333333333335
          ],
          [
            -6.001861111111111,
            51.745802777777776
          ],
          [
            -6.005483333333333,
            51.74622222222222
          ],
          [
            -6.009133333333334,
            51.74669166666667
          ],
          [
            -6.012775,
            51.747166666666665
          ],
          [
            -6.016422222222222,
            51.747625
          ],
          [
            -6.020044444444444,
            51.74806111111111
          ],
          [
            -6.023661111111111,
            51.748533333333334
          ],
          [
            -6.027277777777778,
            51.74899166666667
          ],
          [
            -6.030891666666666,
            51.749455555555556
          ],
          [
            -6.034302777777778,
            51.750147222222225
          ],
          [
            -6.034527777777778,
            51.75207777777778
          ],
          [
            -6.032097222222222,
            51.753252777777774
          ],
          [
            -6.029122222222222,
            51.75431944444444
          ],
          [
            -6.025880555555555,
            51.75548055555556
          ],
          [
            -6.022536111111111,
            51.75666666666667
          ],
          [
            -6.019036111111111,
            51.757044444444446
          ],
          [
            -6.016563888888889,
            51.75575833333333
          ],
          [
            -6.015505555555555,
            51.75402777777778
          ],
          [
            -6.014594444444445,
            51.75254722222222
          ],
          [
            -6.013816666666667,
            51.75128333333333
          ],
          [
            -6.0125416666666665,
            51.75045277777778
          ],
          [
            -6.011047222222222,
            51.74981944444445
          ],
          [
            -6.009711111111111,
            51.749072222222225
          ],
          [
            -6.008252777777778,
            51.74849444444445
          ],
          [
            -6.006563888888889,
            51.748761111111115
          ],
          [
            -6.005780555555556,
            51.74968888888889
          ],
          [
            -6.006277777777778,
            51.750502777777776
          ],
          [
            -6.007561111111111,
            51.750708333333336
          ],
          [
            -6.009083333333334,
            51.750375
          ],
          [
            -6.010430555555556,
            51.74970555555556
          ],
          [
            -6.010777777777778,
            51.74865555555556
          ],
          [
            -6.009808333333333,
            51.747908333333335
          ],
          [
            -6.008275,
            51.747616666666666
          ],
          [
            -6.006722222222222,
            51.74738611111111
          ],
          [
            -6.005872222222222,
            51.74649166666667
          ],
          [
            -6.006794444444444,
            51.74538611111111
          ],
          [
            -6.008841666666667,
            51.74528055555556
          ],
          [
            -6.009594444444445,
            51.74646666666667
          ],
          [
            -6.007905555555555,
            51.74794166666667
          ],
          [
            -6.005661111111111,
            51.747705555555555
          ],
          [
            -6.005313888888889,
            51.74665
          ],
          [
            -6.004930555555555,
            51.745644444444444
          ],
          [
            -6.00365,
            51.74539722222222
          ],
          [
            -6.002213888888889,
            51.74636388888889
          ],
          [
            -6.001594444444445,
            51.74769166666667
          ],
          [
            -5.999986111111111,
            51.74851388888889
          ],
          [
            -5.998894444444445,
            51.74800833333333
          ],
          [
            -5.998519444444445,
            51.74713611111111
          ],
          [
            -5.998108333333334,
            51.74621666666667
          ],
          [
            -5.996775,
            51.74578611111111
          ],
          [
            -5.995463888888889,
            51.74628611111111
          ],
          [
            -5.994222222222223,
            51.74702777777778
          ],
          [
            -5.992811111111111,
            51.747325000000004
          ],
          [
            -5.991872222222223,
            51.74648055555556
          ],
          [
            -5.99325,
            51.74540833333334
          ],
          [
            -5.994522222222222,
            51.74582222222222
          ],
          [
            -5.9952,
            51.746541666666666
          ],
          [
            -5.995486111111111,
            51.74753055555556
          ],
          [
            -5.994827777777778,
            51.748891666666665
          ],
          [
            -5.992675,
            51.749919444444444
          ],
          [
            -5.990391666666667,
            51.74961388888889
          ],
          [
            -5.989763888888889,
            51.74850555555555
          ],
          [
            -5.9900166666666665,
            51.74744166666667
          ],
          [
            -5.990319444444444,
            51.74638888888889
          ],
          [
            -5.991213888888889,
            51.745016666666665
          ],
          [
            -5.993536111111111,
            51.74404722222222
          ],
          [
            -5.995927777777778,
            51.74460555555556
          ],
          [
            -5.996730555555556,
            51.746375
          ],
          [
            -5.997302777777778,
            51.74841111111111
          ],
          [
            -5.997558333333333,
            51.75036111111111
          ],
          [
            -5.996427777777778,
            51.75176944444444
          ],
          [
            -5.995433333333334,
            51.75302222222222
          ],
          [
            -5.994552777777778,
            51.75420833333333
          ],
          [
            -5.993588888888889,
            51.75545833333333
          ],
          [
            -5.9924,
            51.75698333333333
          ],
          [
            -5.991038888888889,
            51.75876111111111
          ],
          [
            -5.989472222222222,
            51.76079444444444
          ],
          [
            -5.987783333333334,
            51.76294166666667
          ],
          [
            -5.986061111111111,
            51.76518055555555
          ],
          [
            -5.984308333333334,
            51.767472222222224
          ],
          [
            -5.98275,
            51.769502777777774
          ]
        ]
      },
      "properties": {
        "kind": "TRACK",
        "platform_id": "SPLENDID",
        "platform_name": "SPLENDID",
        "track_type": "CONTACT",
        "start_time": "1995-12-12T05:00:00+00:00",
        "end_time": "1995-12-12T11:41:00+00:00",
        "positions": [
          {
            "time": "1995-12-12T05:00:00+00:00",
            "course": 269.7,
            "speed": 2.0,
            "depth": 0.0
          },
          {
            "time": "1995-12-12T05:01:00+00:00",
            "course": 269.7,
            "speed": 2.0,
            "depth": 0.0
          },
          {
            "time": "1995-12-12T05:02:00+00:00",
            "course": 269.9,
            "speed": 2.0,
            "depth": 0.0
          },
          {
            "time": "1995-12-12T05:03:00+00:00",
            "course": 268.7,
            "speed": 2.0,
            "depth": 0.0
          },
          {
            "time": "1995-12-12T05:04:00+00:00",
            "course": 270.6,
            "speed": 2.0,
            "depth": 0.0
          },
          {
            "time": "1995-12-12T05:05:00+00:00",
            "course": 269.4,
            "speed": 2.0,
            "depth": 0.0
          },
          {
            "time": "1995-12-12T05:06:00+00:00",
            "course": 269.0,
            "speed": 2.0,
            "depth": 0.0
          },
          {
            "time": "1995-12-12T05:07:00+00:00",
            "course": 270.5,
            "speed": 2.0,
            "depth": 0.0
          },
          {
            "time": "1995-12-12T05:08:00+00:00",
            "course": 269.9,
            "speed": 2.0,
            "depth": 0.0
          },
          {
            "time": "1995-12-12T05:09:00+00:00",
            "course": 268.6,
            "speed": 2.0,
            "depth": 0.0
          },
          {
            "time": "1995-12-12T05:10:00+00:00",
            "course": 272.1,
            "speed": 2.0,
            "depth": 0.0
          },
          {
            "time": "1995-12-12T05:11:00+00:00",
            "course": 269.1,
            "speed": 2.0,
            "depth": 0.0
          },
          {
            "time": "1995-12-12T05:12:00+00:00",
            "course": 245.8,
            "speed": 2.0,
            "depth": 0.0
          },
          {
            "time": "1995-12-12T05:13:00+00:00",
            "course": 241.5,
            "speed": 2.0,
            "depth": 0.0
          },
          {
            "time": "1995-12-12T05:14:00+00:00",
            "course": 242.3,
            "speed": 2.0,
            "depth": 0.0
          },
          {
            "time": "1995-12-12T05:15:00+00:00",
            "course": 240.9,
            "speed": 2.0,
            "depth": 0.0
          },
          {
            "time": "1995-12-12T05:16:00+00:00",
            "course": 239.9,
            "speed": 2.0,
            "depth": 0.0
          },
          {
            "time": "1995-12-12T05:17:00+00:00",
            "course": 240.1,
            "speed": 2.0,
            "depth": 0.0
          },
          {
            "time": "1995-12-12T05:18:00+00:00",
            "course": 241.0,
            "speed": 2.0,
            "depth": 0.0
          },
          {
            "time": "1995-12-12T05:19:00+00:00",
            "course": 239.9,
            "speed": 2.0,
            "depth": 0.0
          },
          {
            "time": "1995-12-12T05:20:00+00:00",
            "course": 241.1,
            "speed": 2.0,
            "depth": 0.0
          },
          {
            "time": "1995-12-12T05:21:00+00:00",
            "course": 240.3,
            "speed": 2.0,
            "depth": 0.0
          },
          {
            "time": "1995-12-12T05:22:00+00:00",
            "course": 240.1,
            "speed": 2.0,
            "depth": 0.0
          },
          {
            "time": "1995-12-12T05:23:00+00:00",
            "course": 240.3,
            "speed": 2.0,
            "depth": 0.0
          },
          {
            "time": "1995-12-12T05:24:00+00:00",
            "course": 239.8,
            "speed": 2.0,
            "depth": 0.0
          },
          {
            "time": "1995-12-12T05:25:00+00:00",
            "course": 239.8,
            "speed": 2.0,
            "depth": 0.0
          },
          {
            "time": "1995-12-12T05:26:00+00:00",
            "course": 240.6,
            "speed": 2.0,
            "depth": 0.0
          },
          {
            "time": "1995-12-12T05:27:00+00:00",
            "course": 240.5,
            "speed": 2.0,
            "depth": 0.0
          },
          {
            "time": "1995-12-12T05:28:00+00:00",
            "course": 240.5,
            "speed": 2.0,
            "depth": 0.0
          },
          {
            "time": "1995-12-12T05:29:00+00:00",
            "course": 239.7,
            "speed": 2.0,
            "depth": 0.0
          },
          {
            "time": "1995-12-12T05:30:00+00:00",
            "course": 240.7,
            "speed": 2.0,
            "depth": 0.0
          },
          {
            "time": "1995-12-12T05:31:00+00:00",
            "course": 240.4,
            "speed": 2.0,
            "depth": 0.0
          },
          {
            "time": "1995-12-12T05:32:00+00:00",
            "course": 240.3,
            "speed": 2.0,
            "depth": 0.0
          },
          {
            "time": "1995-12-12T05:33:00+00:00",
            "course": 240.5,
            "speed": 2.0,
            "depth": 0.0
          },
          {
            "time": "1995-12-12T05:34:00+00:00",
            "course": 240.0,
            "speed": 2.0,
            "depth": 0.0
          },
          {
            "time": "1995-12-12T05:35:00+00:00",
            "course": 240.1,
            "speed": 2.0,
            "depth": 0.0
          },
          {
            "time": "1995-12-12T05:36:00+00:00",
            "course": 240.4,
            "speed": 2.0,
            "depth": 0.0
          },
          {
            "time": "1995-12-12T05:37:00+00:00",
            "course": 240.2,
            "speed": 2.0,
            "depth": 0.0
          },
          {
            "time": "1995-12-12T05:38:00+00:00",
            "course": 240.0,
            "speed": 2.0,
            "depth": 0.0
          },
          {
            "time": "1995-12-12T05:39:00+00:00",
            "course": 239.6,
            "speed": 2.0,
            "depth": 0.0
          },
          {
            "time": "1995-12-12T05:40:00+00:00",
            "course": 240.6,
            "speed": 2.0,
            "depth": 0.0
          },
          {
            "time": "1995-12-12T05:41:00+00:00",
            "course": 240.0,
            "speed": 2.0,
            "depth": 0.0
          },
          {
            "time": "1995-12-12T05:42:00+00:00",
            "course": 239.8,
            "speed": 2.0,
            "depth": 0.0
          },
          {
            "time": "1995-12-12T05:43:00+00:00",
            "course": 240.9,
            "speed": 2.0,
            "depth": 0.0
          },
          {
            "time": "1995-12-12T05:44:00+00:00",
            "course": 240.2,
            "speed": 2.0,
            "depth": 0.0
          },
          {
            "time": "1995-12-12T05:45:00+00:00",
            "course": 240.4,
            "speed": 2.0,
            "depth": 0.0
          },
          {
            "time": "1995-12-12T05:46:00+00:00",
            "course": 240.4,
            "speed": 2.0,
            "depth": 0.0
          },
          {
            "time": "1995-12-12T05:47:00+00:00",
            "course": 240.7,
            "speed": 2.0,
            "depth": 0.0
          },
          {
            "time": "1995-12-12T05:48:00+00:00",
            "course": 240.2,
            "speed": 2.0,
            "depth": 0.0
          },
          {
            "time": "1995-12-12T05:49:00+00:00",
            "course": 234.3,
            "speed": 2.0,
            "depth": 0.0
          },
          {
            "time": "1995-12-12T05:50:00+00:00",
            "course": 188.6,
            "speed": 2.0,
            "depth": 0.0
          },
          {
            "time": "1995-12-12T05:51:00+00:00",
            "course": 181.3,
            "speed": 2.0,
            "depth": 0.0
          },
          {
            "time": "1995-12-12T05:52:00+00:00",
            "course": 180.9,
            "speed": 2.0,
            "depth": 0.0
          },
          {
            "time": "1995-12-12T05:53:00+00:00",
            "course": 180.3,
            "speed": 2.0,
            "depth": 0.0
          },
          {
            "time": "1995-12-12T05:54:00+00:00",
            "course": 180.9,
            "speed": 2.0,
            "depth": 0.0
          },
          {
            "time": "1995-12-12T05:55:00+00:00",
            "course": 179.8,
            "speed": 2.0,
            "depth": 0.0
          },
          {
            "time": "1995-12-12T05:56:00+00:00",
            "course": 180.6,
            "speed": 2.0,
            "depth": 0.0
          },
          {
            "time": "1995-12-12T05:57:00+00:00",
            "course": 179.9,
            "speed": 2.0,
            "depth": 0.0
          },
          {
            "time": "1995-12-12T05:58:00+00:00",
            "course": 180.6,
            "speed": 2.0,
            "depth": 0.0
          },
          {
            "time": "1995-12-12T05:59:00+00:00",
            "course": 180.5,
            "speed": 2.0,
            "depth": 0.0
          },
          {
            "time": "1995-12-12T06:00:00+00:00",
            "course": 179.8,
            "speed": 2.0,
            "depth": 0.0
          },
          {
            "time": "1995-12-12T06:01:00+00:00",
            "course": 180.4,
            "speed": 2.0,
            "depth": 0.0
          },
          {
            "time": "1995-12-12T06:02:00+00:00",
            "course": 179.8,
            "speed": 2.0,
            "depth": 0.0
          },
          {
            "time": "1995-12-12T06:03:00+00:00",
            "course": 180.7,
            "speed": 2.0,
            "depth": 0.0
          },
          {
            "time": "1995-12-12T06:04:00+00:00",
            "course": 180.4,
            "speed": 2.0,
            "depth": 0.0
          },
          {
            "time": "1995-12-12T06:05:00+00:00",
            "course": 180.5,
            "speed": 2.0,
            "depth": 0.0
          },
          {
            "time": "1995-12-12T06:06:00+00:00",
            "course": 160.8,
            "speed": 2.0,
            "depth": 0.0
          },
          {
            "time": "1995-12-12T06:07:00+00:00",
            "course": 151.0,
            "speed": 2.0,
            "depth": 0.0
          },
          {
            "time": "1995-12-12T06:08:00+00:00",
            "course": 149.8,
            "speed": 2.0,
            "depth": 0.0
          },
          {
            "time": "1995-12-12T06:09:00+00:00",
            "course": 150.5,
            "speed": 2.0,
            "depth": 0.0
          },
          {
            "time": "1995-12-12T06:10:00+00:00",
            "course": 149.9,
            "speed": 2.0,
            "depth": 0.0
          },
          {
            "time": "1995-12-12T06:11:00+00:00",
            "course": 150.5,
            "speed": 2.0,
            "depth": 0.0
          },
          {
            "time": "1995-12-12T06:12:00+00:00",
            "course": 149.9,
            "speed": 2.0,
            "depth": 0.0
          },
          {
            "time": "1995-12-12T06:13:00+00:00",
            "course": 150.4,
            "speed": 2.0,
            "depth": 0.0
          },
          {
            "time": "1995-12-12T06:14:00+00:00",
            "course": 149.8,
            "speed": 2.0,
            "depth": 0.0
          },
          {
            "time": "1995-12-12T06:15:00+00:00",
            "course": 150.1,
            "speed": 2.0,
            "depth": 0.0
          },
          {
            "time": "1995-12-12T06:16:00+00:00",
            "course": 149.5,
            "speed": 2.0,
            "depth": 0.0
          },
          {
            "time": "1995-12-12T06:17:00+00:00",
            "course": 149.6,
            "speed": 2.0,
            "depth": 0.0
          },
          {
            "time": "1995-12-12T06:18:00+00:00",
            "course": 150.6,
            "speed": 2.0,
            "depth": 0.0
          },
          {
            "time": "1995-12-12T06:19:00+00:00",
            "course": 150.2,
            "speed": 2.0,
            "depth": 0.0
          },
          {
            "time": "1995-12-12T06:20:00+00:00",
            "course": 150.4,
            "speed": 2.0,
            "depth": 0.0
          },
          {
            "time": "1995-12-12T06:21:00+00:00",
            "course": 150.3,
            "speed": 2.0,
            "depth": 0.0
          },
          {
            "time": "1995-12-12T06:22:00+00:00",
            "course": 150.1,
            "speed": 2.0,
            "depth": 0.0
          },
          {
            "time": "1995-12-12T06:23:00+00:00",
            "course": 149.9,
            "speed": 2.0,
            "depth": 0.0
          },
          {
            "time": "1995-12-12T06:24:00+00:00",
            "course": 150.2,
            "speed": 2.0,
            "depth": 0.0
          },
          {
            "time": "1995-12-12T06:25:00+00:00",
            "course": 149.7,
            "speed": 2.0,
            "depth": 0.0
          },
          {
            "time": "1995-12-12T06:26:00+00:00",
            "course": 165.2,
            "speed": 2.0,
            "depth": 0.0
          },
          {
            "time": "1995-12-12T06:27:00+00:00",
            "course": 198.5,
            "speed": 2.0,
            "depth": 0.0
          },
          {
            "time": "1995-12-12T06:28:00+00:00",
            "course": 199.8,
            "speed": 2.0,
            "depth": 0.0
          },
          {
            "time": "1995-12-12T06:29:00+00:00",
            "course": 200.7,
            "speed": 2.0,
            "depth": 0.0
          },
          {
            "time": "1995-12-12T06:30:00+00:00",
            "course": 200.0,
            "speed": 2.0,
            "depth": 0.0
          },
          {
            "time": "1995-12-12T06:31:00+00:00",
            "course": 200.5,
            "speed": 2.0,
            "depth": 0.0
          },
          {
            "time": "1995-12-12T06:32:00+00:00",
            "course": 200.4,
            "speed": 2.0,
            "depth": 0.0
          },
          {
            "time": "1995-12-12T06:33:00+00:00",
            "course": 200.4,
            "speed": 2.0,
            "depth": 0.0
          },
          {
            "time": "1995-12-12T06:34:00+00:00",
            "course": 200.7,
            "speed": 2.0,
            "depth": 0.0
          },
          {
            "time": "1995-12-12T06:35:00+00:00",
            "course": 200.8,
            "speed": 2.0,
            "depth": 0.0
          },
          {
            "time": "1995-12-12T06:36:00+00:00",
            "course": 200.5,
            "speed": 2.0,
            "depth": 0.0
          },
          {
            "time": "1995-12-12T06:37:00+00:00",
            "course": 199.7,
            "speed": 2.0,
            "depth": 0.0
          },
          {
            "time": "1995-12-12T06:38:00+00:00",
            "course": 201.1,
            "speed": 2.0,
            "depth": 0.0
          },
          {
            "time": "1995-12-12T06:39:00+00:00",
            "course": 200.4,
            "speed": 2.0,
            "depth": 0.0
          },
          {
            "time": "1995-12-12T06:40:00+00:00",
            "course": 200.4,
            "speed": 2.0,
            "depth": 0.0
          },
          {
            "time": "1995-12-12T06:41:00+00:00",
            "course": 200.8,
            "speed": 2.0,
            "depth": 0.0
          },
          {
            "time": "1995-12-12T06:42:00+00:00",
            "course": 200.0,
            "speed": 2.0,
            "depth": 0.0
          },
          {
            "time": "1995-12-12T06:43:00+00:00",
            "course": 200.8,
            "speed": 2.0,
            "depth": 0.0
          },
          {
            "time": "1995-12-12T06:44:00+00:00",
            "course": 200.2,
            "speed": 2.0,
            "depth": 0.0
          },
          {
            "time": "1995-12-12T06:45:00+00:00",
            "course": 200.2,
            "speed": 2.0,
            "depth": 0.0
          },
          {
            "time": "1995-12-12T06:46:00+00:00",
            "course": 200.6,
            "speed": 2.0,
            "depth": 0.0
          },
          {
            "time": "1995-12-12T06:47:00+00:00",
            "course": 200.4,
            "speed": 2.0,
            "depth": 0.0
          },
          {
            "time": "1995-12-12T06:48:00+00:00",
            "course": 200.4,
            "speed": 2.0,
            "depth": 0.0
          },
          {
            "time": "1995-12-12T06:49:00+00:00",
            "course": 200.4,
            "speed": 2.0,
            "depth": 0.0
          },
          {
            "time": "1995-12-12T06:50:00+00:00",
            "course": 199.7,
            "speed": 2.0,
            "depth": 0.0
          },
          {
            "time": "1995-12-12T06:51:00+00:00",
            "course": 167.1,
            "speed": 2.0,
            "depth": 0.0
          },
          {
            "time": "1995-12-12T06:52:00+00:00",
            "course": 146.9,
            "speed": 2.0,
            "depth": 0.0
          },
          {
            "time": "1995-12-12T06:53:00+00:00",
            "course": 145.5,
            "speed": 2.0,
            "depth": 0.0
          },
          {
            "time": "1995-12-12T06:54:00+00:00",
            "course": 145.6,
            "speed": 2.0,
            "depth": 0.0
          },
          {
            "time": "1995-12-12T06:55:00+00:00",
            "course": 144.9,
            "speed": 2.0,
            "depth": 0.0
          },
          {
            "time": "1995-12-12T06:56:00+00:00",
            "course": 146.0,
            "speed": 2.0,
            "depth": 0.0
          },
          {
            "time": "1995-12-12T06:57:00+00:00",
            "course": 145.6,
            "speed": 2.0,
            "depth": 0.0
          },
          {
            "time": "1995-12-12T06:58:00+00:00",
            "course": 144.7,
            "speed": 2.0,
            "depth": 0.0
          },
          {
            "time": "1995-12-12T06:59:00+00:00",
            "course": 145.0,
            "speed": 2.0,
            "depth": 0.0
          },
          {
            "time": "1995-12-12T07:00:00+00:00",
            "course": 145.5,
            "speed": 2.0,
            "depth": 0.0
          },
          {
            "time": "1995-12-12T07:01:00+00:00",
            "course": 145.1,
            "speed": 2.0,
            "depth": 0.0
          },
          {
            "time": "1995-12-12T07:02:00+00:00",
            "course": 145.4,
            "speed": 2.0,
            "depth": 0.0
          },
          {
            "time": "1995-12-12T07:03:00+00:00",
            "course": 145.2,
            "speed": 2.0,
            "depth": 0.0
          },
          {
            "time": "1995-12-12T07:04:00+00:00",
            "course": 145.3,
            "speed": 2.0,
            "depth": 0.0
          },
          {
            "time": "1995-12-12T07:05:00+00:00",
            "course": 145.2,
            "speed": 2.0,
            "depth": 0.0
          },
          {
            "time": "1995-12-12T07:06:00+00:00",
            "course": 145.1,
            "speed": 2.0,
            "depth": 0.0
          },
          {
            "time": "1995-12-12T07:07:00+00:00",
            "course": 145.1,
            "speed": 2.0,
            "depth": 0.0
          },
          {
            "time": "1995-12-12T07:08:00+00:00",
            "course": 183.2,
            "speed": 2.0,
            "depth": 0.0
          },
          {
            "time": "1995-12-12T07:09:00+00:00",
            "course": 256.0,
            "speed": 2.0,
            "depth": 0.0
          },
          {
            "time": "1995-12-12T07:10:00+00:00",
            "course": 290.0,
            "speed": 2.0,
            "depth": 0.0
          },
          {
            "time": "1995-12-12T07:11:00+00:00",
            "course": 289.9,
            "speed": 2.0,
            "depth": 0.0
          },
          {
            "time": "1995-12-12T07:12:00+00:00",
            "course": 290.1,
            "speed": 2.0,
            "depth": 0.0
          },
          {
            "time": "1995-12-12T07:13:00+00:00",
            "course": 289.5,
            "speed": 2.0,
            "depth": 0.0
          },
          {
            "time": "1995-12-12T07:14:00+00:00",
            "course": 318.6,
            "speed": 2.0,
            "depth": 0.0
          },
          {
            "time": "1995-12-12T07:15:00+00:00",
            "course": 33.4,
            "speed": 2.0,
            "depth": 0.0
          },
          {
            "time": "1995-12-12T07:16:00+00:00",
            "course": 50.9,
            "speed": 2.0,
            "depth": 0.0
          },
          {
            "time": "1995-12-12T07:17:00+00:00",
            "course": 50.5,
            "speed": 2.0,
            "depth": 0.0
          },
          {
            "time": "1995-12-12T07:18:00+00:00",
            "course": 49.7,
            "speed": 2.0,
            "depth": 0.0
          },
          {
            "time": "1995-12-12T07:19:00+00:00",
            "course": 50.3,
            "speed": 2.0,
            "depth": 0.0
          },
          {
            "time": "1995-12-12T07:20:00+00:00",
            "course": 49.8,
            "speed": 2.0,
            "depth": 0.0
          },
          {
            "time": "1995-12-12T07:21:00+00:00",
            "course": 49.8,
            "speed": 2.0,
            "depth": 0.0
          },
          {
            "time": "1995-12-12T07:22:00+00:00",
            "course": 50.4,
            "speed": 2.0,
            "depth": 0.0
          },
          {
            "time": "1995-12-12T07:23:00+00:00",
            "course": 50.1,
            "speed": 2.0,
            "depth": 0.0
          },
          {
            "time": "1995-12-12T07:24:00+00:00",
            "course": 50.3,
            "speed": 2.0,
            "depth": 0.0
          },
          {
            "time": "1995-12-12T07:25:00+00:00",
            "course": 49.7,
            "speed": 2.0,
            "depth": 0.0
          },
          {
            "time": "1995-12-12T07:26:00+00:00",
            "course": 50.4,
            "speed": 2.0,
            "depth": 0.0
          },
          {
            "time": "1995-12-12T07:27:00+00:00",
            "course": 50.8,
            "speed": 2.0,
            "depth": 0.0
          },
          {
            "time": "1995-12-12T07:28:00+00:00",
            "course": 49.8,
            "speed": 2.0,
            "depth": 0.0
          },
          {
            "time": "1995-12-12T07:29:00+00:00",
            "course": 50.5,
            "speed": 2.0,
            "depth": 0.0
          },
          {
            "time": "1995-12-12T07:30:00+00:00",
            "course": 49.9,
            "speed": 2.0,
            "depth": 0.0
          },
          {
            "time": "1995-12-12T07:31:00+00:00",
            "course": 50.3,
            "speed": 2.0,
            "depth": 0.0
          },
          {
            "time": "1995-12-12T07:32:00+00:00",
            "course": 68.1,
            "speed": 2.0,
            "depth": 0.0
          },
          {
            "time": "1995-12-12T07:33:00+00:00",
            "course": 125.3,
            "speed": 2.0,
            "depth": 0.0
          },
          {
            "time": "1995-12-12T07:34:00+00:00",
            "course": 129.7,
            "speed": 2.0,
            "depth": 0.0
          },
          {
            "time": "1995-12-12T07:35:00+00:00",
            "course": 130.6,
            "speed": 2.0,
            "depth": 0.0
          },
          {
            "time": "1995-12-12T07:36:00+00:00",
            "course": 129.3,
            "speed": 2.0,
            "depth": 0.0
          },
          {
            "time": "1995-12-12T07:37:00+00:00",
            "course": 130.3,
            "speed": 2.0,
            "depth": 0.0
          },
          {
            "time": "1995-12-12T07:38:00+00:00",
            "course": 130.7,
            "speed": 2.0,
            "depth": 0.0
          },
          {
            "time": "1995-12-12T07:39:00+00:00",
            "course": 130.3,
            "speed": 2.0,
            "depth": 0.0
          },
          {
            "time": "1995-12-12T07:40:00+00:00",
            "course": 130.8,
            "speed": 2.0,
            "depth": 0.0
          },
          {
            "time": "1995-12-12T07:41:00+00:00",
            "course": 129.5,
            "speed": 2.0,
            "depth": 0.0
          },
          {
            "time": "1995-12-12T07:42:00+00:00",
            "course": 130.2,
            "speed": 2.0,
            "depth": 0.0
          },
          {
            "time": "1995-12-12T07:43:00+00:00",
            "course": 130.1,
            "speed": 2.0,
            "depth": 0.0
          },
          {
            "time": "1995-12-12T07:44:00+00:00",
            "course": 129.7,
            "speed": 2.0,
            "depth": 0.0
          },
          {
            "time": "1995-12-12T07:45:00+00:00",
            "course": 131.2,
            "speed": 2.0,
            "depth": 0.0
          },
          {
            "time": "1995-12-12T07:46:00+00:00",
            "course": 130.2,
            "speed": 2.0,
            "depth": 0.0
          },
          {
            "time": "1995-12-12T07:47:00+00:00",
            "course": 129.9,
            "speed": 2.0,
            "depth": 0.0
          },
          {
            "time": "1995-12-12T07:48:00+00:00",
            "course": 130.0,
            "speed": 2.0,
            "depth": 0.0
          },
          {
            "time": "1995-12-12T07:49:00+00:00",
            "course": 130.5,
            "speed": 2.0,
            "depth": 0.0
          },
          {
            "time": "1995-12-12T07:50:00+00:00",
            "course": 130.6,
            "speed": 2.0,
            "depth": 0.0
          },
          {
            "time": "1995-12-12T07:51:00+00:00",
            "course": 130.2,
            "speed": 2.0,
            "depth": 0.0
          },
          {
            "time": "1995-12-12T07:52:00+00:00",
            "course": 130.9,
            "speed": 2.0,
            "depth": 0.0
          },
          {
            "time": "1995-12-12T07:53:00+00:00",
            "course": 129.3,
            "speed": 2.0,
            "depth": 0.0
          },
          {
            "time": "1995-12-12T07:54:00+00:00",
            "course": 130.5,
            "speed": 2.0,
            "depth": 0.0
          },
          {
            "time": "1995-12-12T07:55:00+00:00",
            "course": 129.9,
            "speed": 2.0,
            "depth": 0.0
          },
          {
            "time": "1995-12-12T07:56:00+00:00",
            "course": 130.2,
            "speed": 2.0,
            "depth": 0.0
          },
          {
            "time": "1995-12-12T07:57:00+00:00",
            "course": 109.3,
            "speed": 2.0,
            "depth": 0.0
          },
          {
            "time": "1995-12-12T07:58:00+00:00",
            "course": 71.5,
            "speed": 2.0,
            "depth": 0.0
          },
          {
            "time": "1995-12-12T07:59:00+00:00",
            "course": 70.1,
            "speed": 2.0,
            "depth": 0.0
          },
          {
            "time": "1995-12-12T08:00:00+00:00",
            "course": 70.6,
            "speed": 2.0,
            "depth": 0.0
          },
          {
            "time": "1995-12-12T08:01:00+00:00",
            "course": 70.1,
            "speed": 2.0,
            "depth": 0.0
          },
          {
            "time": "1995-12-12T08:02:00+00:00",
            "course": 70.3,
            "speed": 2.0,
            "depth": 0.0
          },
          {
            "time": "1995-12-12T08:03:00+00:00",
            "course": 70.6,
            "speed": 2.0,
            "depth": 0.0
          },
          {
            "time": "1995-12-12T08:04:00+00:00",
            "course": 69.3,
            "speed": 2.0,
            "depth": 0.0
          },
          {
            "time": "1995-12-12T08:05:00+00:00",
            "course": 70.2,
            "speed": 2.0,
            "depth": 0.0
          },
          {
            "time": "1995-12-12T08:06:00+00:00",
            "course": 70.3,
            "speed": 2.0,
            "depth": 0.0
          },
          {
            "time": "1995-12-12T08:07:00+00:00",
            "course": 69.9,
            "speed": 2.0,
            "depth": 0.0
          },
          {
            "time": "1995-12-12T08:08:00+00:00",
            "course": 70.2,
            "speed": 2.0,
            "depth": 0.0
          },
          {
            "time": "1995-12-12T08:09:00+00:00",
            "course": 70.2,
            "speed": 2.0,
            "depth": 0.0
          },
          {
            "time": "1995-12-12T08:10:00+00:00",
            "course": 70.0,
            "speed": 2.0,
            "depth": 0.0
          },
          {
            "time": "1995-12-12T08:11:00+00:00",
            "course": 69.5,
            "speed": 2.0,
            "depth": 0.0
          },
          {
            "time": "1995-12-12T08:12:00+00:00",
            "course": 70.6,
            "speed": 2.0,
            "depth": 0.0
          },
          {
            "time": "1995-12-12T08:13:00+00:00",
            "course": 69.9,
            "speed": 2.0,
            "depth": 0.0
          },
          {
            "time": "1995-12-12T08:14:00+00:00",
            "course": 70.1,
            "speed": 2.0,
            "depth": 0.0
          },
          {
            "time": "1995-12-12T08:15:00+00:00",
            "course": 70.3,
            "speed": 2.0,
            "depth": 0.0
          },
          {
            "time": "1995-12-12T08:16:00+00:00",
            "course": 70.7,
            "speed": 2.0,
            "depth": 0.0
          },
          {
            "time": "1995-12-12T08:17:00+00:00",
            "course": 69.6,
            "speed": 2.0,
            "depth": 0.0
          },
          {
            "time": "1995-12-12T08:18:00+00:00",
            "course": 69.4,
            "speed": 2.0,
            "depth": 0.0
          },
          {
            "time": "1995-12-12T08:19:00+00:00",
            "course": 69.4,
            "speed": 2.0,
            "depth": 0.0
          },
          {
            "time": "1995-12-12T08:20:00+00:00",
            "course": 70.5,
            "speed": 2.0,
            "depth": 0.0
          },
          {
            "time": "1995-12-12T08:21:00+00:00",
            "course": 85.1,
            "speed": 2.0,
            "depth": 0.0
          },
          {
            "time": "1995-12-12T08:22:00+00:00",
            "course": 120.0,
            "speed": 2.0,
            "depth": 0.0
          },
          {
            "time": "1995-12-12T08:23:00+00:00",
            "course": 121.2,
            "speed": 2.0,
            "depth": 0.0
          },
          {
            "time": "1995-12-12T08:24:00+00:00",
            "course": 119.6,
            "speed": 2.0,
            "depth": 0.0
          },
          {
            "time": "1995-12-12T08:25:00+00:00",
            "course": 120.5,
            "speed": 2.0,
            "depth": 0.0
          },
          {
            "time": "1995-12-12T08:26:00+00:00",
            "course": 120.4,
            "speed": 2.0,
            "depth": 0.0
          },
          {
            "time": "1995-12-12T08:27:00+00:00",
            "course": 119.7,
            "speed": 2.0,
            "depth": 0.0
          },
          {
            "time": "1995-12-12T08:28:00+00:00",
            "course": 114.3,
            "speed": 2.0,
            "depth": 0.0
          },
          {
            "time": "1995-12-12T08:29:00+00:00",
            "course": 87.0,
            "speed": 2.0,
            "depth": 0.0
          },
          {
            "time": "1995-12-12T08:30:00+00:00",
            "course": 85.1,
            "speed": 2.0,
            "depth": 0.0
          },
          {
            "time": "1995-12-12T08:31:00+00:00",
            "course": 84.8,
            "speed": 2.0,
            "depth": 0.0
          },
          {
            "time": "1995-12-12T08:32:00+00:00",
            "course": 84.8,
            "speed": 2.0,
            "depth": 0.0
          },
          {
            "time": "1995-12-12T08:33:00+00:00",
            "course": 84.9,
            "speed": 2.0,
            "depth": 0.0
          },
          {
            "time": "1995-12-12T08:34:00+00:00",
            "course": 84.7,
            "speed": 2.0,
            "depth": 0.0
          },
          {
            "time": "1995-12-12T08:35:00+00:00",
            "course": 85.4,
            "speed": 2.0,
            "depth": 0.0
          },
          {
            "time": "1995-12-12T08:36:00+00:00",
            "course": 85.1,
            "speed": 2.0,
            "depth": 0.0
          },
          {
            "time": "1995-12-12T08:37:00+00:00",
            "course": 84.6,
            "speed": 2.0,
            "depth": 0.0
          },
          {
            "time": "1995-12-12T08:38:00+00:00",
            "course": 41.3,
            "speed": 2.0,
            "depth": 0.0
          },
          {
            "time": "1995-12-12T08:39:00+00:00",
            "course": 329.3,
            "speed": 2.0,
            "depth": 0.0
          },
          {
            "time": "1995-12-12T08:40:00+00:00",
            "course": 299.4,
            "speed": 2.0,
            "depth": 0.0
          },
          {
            "time": "1995-12-12T08:41:00+00:00",
            "course": 300.1,
            "speed": 2.0,
            "depth": 0.0
          },
          {
            "time": "1995-12-12T08:42:00+00:00",
            "course": 300.0,
            "speed": 2.0,
            "depth": 0.0
          },
          {
            "time": "1995-12-12T08:43:00+00:00",
            "course": 300.6,
            "speed": 2.0,
            "depth": 0.0
          },
          {
            "time": "1995-12-12T08:44:00+00:00",
            "course": 300.2,
            "speed": 2.0,
            "depth": 0.0
          },
          {
            "time": "1995-12-12T08:45:00+00:00",
            "course": 299.8,
            "speed": 2.0,
            "depth": 0.0
          },
          {
            "time": "1995-12-12T08:46:00+00:00",
            "course": 299.9,
            "speed": 2.0,
            "depth": 0.0
          },
          {
            "time": "1995-12-12T08:47:00+00:00",
            "course": 300.0,
            "speed": 2.0,
            "depth": 0.0
          },
          {
            "time": "1995-12-12T08:48:00+00:00",
            "course": 300.0,
            "speed": 2.0,
            "depth": 0.0
          },
          {
            "time": "1995-12-12T08:49:00+00:00",
            "course": 300.4,
            "speed": 2.0,
            "depth": 0.0
          },
          {
            "time": "1995-12-12T08:50:00+00:00",
            "course": 299.9,
            "speed": 2.0,
            "depth": 0.0
          },
          {
            "time": "1995-12-12T08:51:00+00:00",
            "course": 300.2,
            "speed": 2.0,
            "depth": 0.0
          },
          {
            "time": "1995-12-12T08:52:00+00:00",
            "course": 299.9,
            "speed": 2.0,
            "depth": 0.0
          },
          {
            "time": "1995-12-12T08:53:00+00:00",
            "course": 300.0,
            "speed": 2.0,
            "depth": 0.0
          },
          {
            "time": "1995-12-12T08:54:00+00:00",
            "course": 300.1,
            "speed": 2.0,
            "depth": 0.0
          },
          {
            "time": "1995-12-12T08:55:00+00:00",
            "course": 300.0,
            "speed": 2.0,
            "depth": 0.0
          },
          {
            "time": "1995-12-12T08:56:00+00:00",
            "course": 300.0,
            "speed": 2.0,
            "depth": 0.0
          },
          {
            "time": "1995-12-12T08:57:00+00:00",
            "course": 299.1,
            "speed": 2.0,
            "depth": 0.0
          },
          {
            "time": "1995-12-12T08:58:00+00:00",
            "course": 299.3,
            "speed": 2.0,
            "depth": 0.0
          },
          {
            "time": "1995-12-12T08:59:00+00:00",
            "course": 300.0,
            "speed": 2.0,
            "depth": 0.0
          },
          {
            "time": "1995-12-12T09:00:00+00:00",
            "course": 308.6,
            "speed": 2.0,
            "depth": 0.0
          },
          {
            "time": "1995-12-12T09:01:00+00:00",
            "course": 341.1,
            "speed": 2.0,
            "depth": 0.0
          },
          {
            "time": "1995-12-12T09:02:00+00:00",
            "course": 341.1,
            "speed": 2.0,
            "depth": 0.0
          },
          {
            "time": "1995-12-12T09:03:00+00:00",
            "course": 340.8,
            "speed": 2.0,
            "depth": 0.0
          },
          {
            "time": "1995-12-12T09:04:00+00:00",
            "course": 340.8,
            "speed": 2.0,
            "depth": 0.0
          },
          {
            "time": "1995-12-12T09:05:00+00:00",
            "course": 340.3,
            "speed": 2.0,
            "depth": 0.0
          },
          {
            "time": "1995-12-12T09:06:00+00:00",
            "course": 340.3,
            "speed": 2.0,
            "depth": 0.0
          },
          {
            "time": "1995-12-12T09:07:00+00:00",
            "course": 340.0,
            "speed": 2.0,
            "depth": 0.0
          },
          {
            "time": "1995-12-12T09:08:00+00:00",
            "course": 339.5,
            "speed": 2.0,
            "depth": 0.0
          },
          {
            "time": "1995-12-12T09:09:00+00:00",
            "course": 340.3,
            "speed": 2.0,
            "depth": 0.0
          },
          {
            "time": "1995-12-12T09:10:00+00:00",
            "course": 340.3,
            "speed": 2.0,
            "depth": 0.0
          },
          {
            "time": "1995-12-12T09:11:00+00:00",
            "course": 343.5,
            "speed": 2.0,
            "depth": 0.0
          },
          {
            "time": "1995-12-12T09:12:00+00:00",
            "course": 20.1,
            "speed": 2.0,
            "depth": 0.0
          },
          {
            "time": "1995-12-12T09:13:00+00:00",
            "course": 54.2,
            "speed": 2.0,
            "depth": 0.0
          },
          {
            "time": "1995-12-12T09:14:00+00:00",
            "course": 55.1,
            "speed": 2.0,
            "depth": 0.0
          },
          {
            "time": "1995-12-12T09:15:00+00:00",
            "course": 58.9,
            "speed": 2.0,
            "depth": 0.0
          },
          {
            "time": "1995-12-12T09:16:00+00:00",
            "course": 59.4,
            "speed": 2.0,
            "depth": 0.0
          },
          {
            "time": "1995-12-12T09:17:00+00:00",
            "course": 60.4,
            "speed": 2.0,
            "depth": 0.0
          },
          {
            "time": "1995-12-12T09:18:00+00:00",
            "course": 59.4,
            "speed": 2.0,
            "depth": 0.0
          },
          {
            "time": "1995-12-12T09:19:00+00:00",
            "course": 60.0,
            "speed": 2.0,
            "depth": 0.0
          },
          {
            "time": "1995-12-12T09:20:00+00:00",
            "course": 60.0,
            "speed": 2.0,
            "depth": 0.0
          },
          {
            "time": "1995-12-12T09:21:00+00:00",
            "course": 59.7,
            "speed": 2.0,
            "depth": 0.0
          },
          {
            "time": "1995-12-12T09:22:00+00:00",
            "course": 60.2,
            "speed": 2.0,
            "depth": 0.0
          },
          {
            "time": "1995-12-12T09:23:00+00:00",
            "course": 60.4,
            "speed": 2.0,
            "depth": 0.0
          },
          {
            "time": "1995-12-12T09:24:00+00:00",
            "course": 59.6,
            "speed": 2.0,
            "depth": 0.0
          },
          {
            "time": "1995-12-12T09:25:00+00:00",
            "course": 30.1,
            "speed": 2.0,
            "depth": 0.0
          },
          {
            "time": "1995-12-12T09:26:00+00:00",
            "course": 318.9,
            "speed": 2.0,
            "depth": 0.0
          },
          {
            "time": "1995-12-12T09:27:00+00:00",
            "course": 299.8,
            "speed": 2.0,
            "depth": 0.0
          },
          {
            "time": "1995-12-12T09:28:00+00:00",
            "course": 299.7,
            "speed": 2.0,
            "depth": 0.0
          },
          {
            "time": "1995-12-12T09:29:00+00:00",
            "course": 299.7,
            "speed": 2.0,
            "depth": 0.0
          },
          {
            "time": "1995-12-12T09:30:00+00:00",
            "course": 300.3,
            "speed": 2.0,
            "depth": 0.0
          },
          {
            "time": "1995-12-12T09:31:00+00:00",
            "course": 300.1,
            "speed": 2.0,
            "depth": 0.0
          },
          {
            "time": "1995-12-12T09:32:00+00:00",
            "course": 299.5,
            "speed": 2.0,
            "depth": 0.0
          },
          {
            "time": "1995-12-12T09:33:00+00:00",
            "course": 300.2,
            "speed": 2.0,
            "depth": 0.0
          },
          {
            "time": "1995-12-12T09:34:00+00:00",
            "course": 300.0,
            "speed": 2.0,
            "depth": 0.0
          },
          {
            "time": "1995-12-12T09:35:00+00:00",
            "course": 299.6,
            "speed": 2.0,
            "depth": 0.0
          },
          {
            "time": "1995-12-12T09:36:00+00:00",
            "course": 299.9,
            "speed": 2.0,
            "depth": 0.0
          },
          {
            "time": "1995-12-12T09:37:00+00:00",
            "course": 300.0,
            "speed": 2.0,
            "depth": 0.0
          },
          {
            "time": "1995-12-12T09:38:00+00:00",
            "course": 299.6,
            "speed": 2.0,
            "depth": 0.0
          },
          {
            "time": "1995-12-12T09:39:00+00:00",
            "course": 299.8,
            "speed": 2.0,
            "depth": 0.0
          },
          {
            "time": "1995-12-12T09:40:00+00:00",
            "course": 299.8,
            "speed": 2.0,
            "depth": 0.0
          },
          {
            "time": "1995-12-12T09:41:00+00:00",
            "course": 299.9,
            "speed": 2.0,
            "depth": 0.0
          },
          {
            "time": "1995-12-12T09:42:00+00:00",
            "course": 299.7,
            "speed": 2.0,
            "depth": 0.0
          },
          {
            "time": "1995-12-12T09:43:00+00:00",
            "course": 300.2,
            "speed": 2.0,
            "depth": 0.0
          },
          {
            "time": "1995-12-12T09:44:00+00:00",
            "course": 299.6,
            "speed": 2.0,
            "depth": 0.0
          },
          {
            "time": "1995-12-12T09:45:00+00:00",
            "course": 300.0,
            "speed": 2.0,
            "depth": 0.0
          },
          {
            "time": "1995-12-12T09:46:00+00:00",
            "course": 299.8,
            "speed": 2.0,
            "depth": 0.0
          },
          {
            "time": "1995-12-12T09:47:00+00:00",
            "course": 292.3,
            "speed": 2.0,
            "depth": 0.0
          },
          {
            "time": "1995-12-12T09:48:00+00:00",
            "course": 271.0,
            "speed": 2.0,
            "depth": 0.0
          },
          {
            "time": "1995-12-12T09:49:00+00:00",
            "course": 280.4,
            "speed": 2.0,
            "depth": 0.0
          },
          {
            "time": "1995-12-12T09:50:00+00:00",
            "course": 332.7,
            "speed": 2.0,
            "depth": 0.0
          },
          {
            "time": "1995-12-12T09:51:00+00:00",
            "course": 340.4,
            "speed": 2.0,
            "depth": 0.0
          },
          {
            "time": "1995-12-12T09:52:00+00:00",
            "course": 340.0,
            "speed": 2.0,
            "depth": 0.0
          },
          {
            "time": "1995-12-12T09:53:00+00:00",
            "course": 339.8,
            "speed": 2.0,
            "depth": 0.0
          },
          {
            "time": "1995-12-12T09:54:00+00:00",
            "course": 340.3,
            "speed": 2.0,
            "depth": 0.0
          },
          {
            "time": "1995-12-12T09:55:00+00:00",
            "course": 339.4,
            "speed": 2.0,
            "depth": 0.0
          },
          {
            "time": "1995-12-12T09:56:00+00:00",
            "course": 340.0,
            "speed": 2.0,
            "depth": 0.0
          },
          {
            "time": "1995-12-12T09:57:00+00:00",
            "course": 340.0,
            "speed": 2.0,
            "depth": 0.0
          },
          {
            "time": "1995-12-12T09:58:00+00:00",
            "course": 340.7,
            "speed": 2.0,
            "depth": 0.0
          },
          {
            "time": "1995-12-12T09:59:00+00:00",
            "course": 339.4,
            "speed": 2.0,
            "depth": 0.0
          },
          {
            "time": "1995-12-12T10:00:00+00:00",
            "course": 340.1,
            "speed": 2.0,
            "depth": 0.0
          },
          {
            "time": "1995-12-12T10:01:00+00:00",
            "course": 340.3,
            "speed": 2.0,
            "depth": 0.0
          },
          {
            "time": "1995-12-12T10:02:00+00:00",
            "course": 339.9,
            "speed": 2.0,
            "depth": 0.0
          },
          {
            "time": "1995-12-12T10:03:00+00:00",
            "course": 340.6,
            "speed": 2.0,
            "depth": 0.0
          },
          {
            "time": "1995-12-12T10:04:00+00:00",
            "course": 340.2,
            "speed": 2.0,
            "depth": 0.0
          },
          {
            "time": "1995-12-12T10:05:00+00:00",
            "course": 340.0,
            "speed": 2.0,
            "depth": 0.0
          },
          {
            "time": "1995-12-12T10:06:00+00:00",
            "course": 340.1,
            "speed": 2.0,
            "depth": 0.0
          },
          {
            "time": "1995-12-12T10:07:00+00:00",
            "course": 340.3,
            "speed": 2.0,
            "depth": 0.0
          },
          {
            "time": "1995-12-12T10:08:00+00:00",
            "course": 340.5,
            "speed": 2.0,
            "depth": 0.0
          },
          {
            "time": "1995-12-12T10:09:00+00:00",
            "course": 340.3,
            "speed": 2.0,
            "depth": 0.0
          },
          {
            "time": "1995-12-12T10:10:00+00:00",
            "course": 308.8,
            "speed": 2.0,
            "depth": 0.0
          },
          {
            "time": "1995-12-12T10:11:00+00:00",
            "course": 279.6,
            "speed": 2.0,
            "depth": 0.0
          },
          {
            "time": "1995-12-12T10:12:00+00:00",
            "course": 280.4,
            "speed": 2.0,
            "depth": 0.0
          },
          {
            "time": "1995-12-12T10:13:00+00:00",
            "course": 280.0,
            "speed": 2.0,
            "depth": 0.0
          },
          {
            "time": "1995-12-12T10:14:00+00:00",
            "course": 279.8,
            "speed": 2.0,
            "depth": 0.0
          },
          {
            "time": "1995-12-12T10:15:00+00:00",
            "course": 280.7,
            "speed": 2.0,
            "depth": 0.0
          },
          {
            "time": "1995-12-12T10:16:00+00:00",
            "course": 279.8,
            "speed": 2.0,
            "depth": 0.0
          },
          {
            "time": "1995-12-12T10:17:00+00:00",
            "course": 280.4,
            "speed": 2.0,
            "depth": 0.0
          },
          {
            "time": "1995-12-12T10:18:00+00:00",
            "course": 279.1,
            "speed": 2.0,
            "depth": 0.0
          },
          {
            "time": "1995-12-12T10:19:00+00:00",
            "course": 279.7,
            "speed": 2.0,
            "depth": 0.0
          },
          {
            "time": "1995-12-12T10:20:00+00:00",
            "course": 280.3,
            "speed": 2.0,
            "depth": 0.0
          },
          {
            "time": "1995-12-12T10:21:00+00:00",
            "course": 279.2,
            "speed": 2.0,
            "depth": 0.0
          },
          {
            "time": "1995-12-12T10:22:00+00:00",
            "course": 280.2,
            "speed": 2.0,
            "depth": 0.0
          },
          {
            "time": "1995-12-12T10:23:00+00:00",
            "course": 280.4,
            "speed": 2.0,
            "depth": 0.0
          },
          {
            "time": "1995-12-12T10:24:00+00:00",
            "course": 280.0,
            "speed": 2.0,
            "depth": 0.0
          },
          {
            "time": "1995-12-12T10:25:00+00:00",
            "course": 279.5,
            "speed": 2.0,
            "depth": 0.0
          },
          {
            "time": "1995-12-12T10:26:00+00:00",
            "course": 280.4,
            "speed": 2.0,
            "depth": 0.0
          },
          {
            "time": "1995-12-12T10:27:00+00:00",
            "course": 280.0,
            "speed": 2.0,
            "depth": 0.0
          },
          {
            "time": "1995-12-12T10:28:00+00:00",
            "course": 280.2,
            "speed": 2.0,
            "depth": 0.0
          },
          {
            "time": "1995-12-12T10:29:00+00:00",
            "course": 285.6,
            "speed": 2.0,
            "depth": 0.0
          },
          {
            "time": "1995-12-12T10:30:00+00:00",
            "course": 346.6,
            "speed": 2.0,
            "depth": 0.0
          },
          {
            "time": "1995-12-12T10:31:00+00:00",
            "course": 51.5,
            "speed": 2.0,
            "depth": 0.0
          },
          {
            "time": "1995-12-12T10:32:00+00:00",
            "course": 60.1,
            "speed": 2.0,
            "depth": 0.0
          },
          {
            "time": "1995-12-12T10:33:00+00:00",
            "course": 60.2,
            "speed": 2.0,
            "depth": 0.0
          },
          {
            "time": "1995-12-12T10:34:00+00:00",
            "course": 60.5,
            "speed": 2.0,
            "depth": 0.0
          },
          {
            "time": "1995-12-12T10:35:00+00:00",
            "course": 80.7,
            "speed": 2.0,
            "depth": 0.0
          },
          {
            "time": "1995-12-12T10:36:00+00:00",
            "course": 124.3,
            "speed": 2.0,
            "depth": 0.0
          },
          {
            "time": "1995-12-12T10:37:00+00:00",
            "course": 150.1,
            "speed": 2.0,
            "depth": 0.0
          },
          {
            "time": "1995-12-12T10:38:00+00:00",
            "course": 150.0,
            "speed": 2.0,
            "depth": 0.0
          },
          {
            "time": "1995-12-12T10:39:00+00:00",
            "course": 149.9,
            "speed": 2.0,
            "depth": 0.0
          },
          {
            "time": "1995-12-12T10:40:00+00:00",
            "course": 129.7,
            "speed": 2.0,
            "depth": 0.0
          },
          {
            "time": "1995-12-12T10:41:00+00:00",
            "course": 119.5,
            "speed": 2.0,
            "depth": 0.0
          },
          {
            "time": "1995-12-12T10:42:00+00:00",
            "course": 126.0,
            "speed": 2.0,
            "depth": 0.0
          },
          {
            "time": "1995-12-12T10:43:00+00:00",
            "course": 118.0,
            "speed": 2.0,
            "depth": 0.0
          },
          {
            "time": "1995-12-12T10:44:00+00:00",
            "course": 76.4,
            "speed": 2.0,
            "depth": 0.0
          },
          {
            "time": "1995-12-12T10:45:00+00:00",
            "course": 22.8,
            "speed": 2.0,
            "depth": 0.0
          },
          {
            "time": "1995-12-12T10:46:00+00:00",
            "course": 330.1,
            "speed": 2.0,
            "depth": 0.0
          },
          {
            "time": "1995-12-12T10:47:00+00:00",
            "course": 282.6,
            "speed": 2.0,
            "depth": 0.0
          },
          {
            "time": "1995-12-12T10:48:00+00:00",
            "course": 251.6,
            "speed": 2.0,
            "depth": 0.0
          },
          {
            "time": "1995-12-12T10:49:00+00:00",
            "course": 230.6,
            "speed": 2.0,
            "depth": 0.0
          },
          {
            "time": "1995-12-12T10:50:00+00:00",
            "course": 184.0,
            "speed": 2.0,
            "depth": 0.0
          },
          {
            "time": "1995-12-12T10:51:00+00:00",
            "course": 133.8,
            "speed": 2.0,
            "depth": 0.0
          },
          {
            "time": "1995-12-12T10:52:00+00:00",
            "course": 105.0,
            "speed": 2.0,
            "depth": 0.0
          },
          {
            "time": "1995-12-12T10:53:00+00:00",
            "course": 102.1,
            "speed": 2.0,
            "depth": 0.0
          },
          {
            "time": "1995-12-12T10:54:00+00:00",
            "course": 141.1,
            "speed": 2.0,
            "depth": 0.0
          },
          {
            "time": "1995-12-12T10:55:00+00:00",
            "course": 202.5,
            "speed": 2.0,
            "depth": 0.0
          },
          {
            "time": "1995-12-12T10:56:00+00:00",
            "course": 265.7,
            "speed": 2.0,
            "depth": 0.0
          },
          {
            "time": "1995-12-12T10:57:00+00:00",
            "course": 329.3,
            "speed": 2.0,
            "depth": 0.0
          },
          {
            "time": "1995-12-12T10:58:00+00:00",
            "course": 32.1,
            "speed": 2.0,
            "depth": 0.0
          },
          {
            "time": "1995-12-12T10:59:00+00:00",
            "course": 98.7,
            "speed": 2.0,
            "depth": 0.0
          },
          {
            "time": "1995-12-12T11:00:00+00:00",
            "course": 159.0,
            "speed": 2.0,
            "depth": 0.0
          },
          {
            "time": "1995-12-12T11:01:00+00:00",
            "course": 157.3,
            "speed": 2.0,
            "depth": 0.0
          },
          {
            "time": "1995-12-12T11:02:00+00:00",
            "course": 105.3,
            "speed": 2.0,
            "depth": 0.0
          },
          {
            "time": "1995-12-12T11:03:00+00:00",
            "course": 40.7,
            "speed": 2.0,
            "depth": 0.0
          },
          {
            "time": "1995-12-12T11:04:00+00:00",
            "course": 9.3,
            "speed": 2.0,
            "depth": 0.0
          },
          {
            "time": "1995-12-12T11:05:00+00:00",
            "course": 49.6,
            "speed": 2.0,
            "depth": 0.0
          },
          {
            "time": "1995-12-12T11:06:00+00:00",
            "course": 121.6,
            "speed": 2.0,
            "depth": 0.0
          },
          {
            "time": "1995-12-12T11:07:00+00:00",
            "course": 155.6,
            "speed": 2.0,
            "depth": 0.0
          },
          {
            "time": "1995-12-12T11:08:00+00:00",
            "course": 155.1,
            "speed": 2.0,
            "depth": 0.0
          },
          {
            "time": "1995-12-12T11:09:00+00:00",
            "course": 113.9,
            "speed": 2.0,
            "depth": 0.0
          },
          {
            "time": "1995-12-12T11:10:00+00:00",
            "course": 58.5,
            "speed": 2.0,
            "depth": 0.0
          },
          {
            "time": "1995-12-12T11:11:00+00:00",
            "course": 44.7,
            "speed": 2.0,
            "depth": 0.0
          },
          {
            "time": "1995-12-12T11:12:00+00:00",
            "course": 71.9,
            "speed": 2.0,
            "depth": 0.0
          },
          {
            "time": "1995-12-12T11:13:00+00:00",
            "course": 137.5,
            "speed": 2.0,
            "depth": 0.0
          },
          {
            "time": "1995-12-12T11:14:00+00:00",
            "course": 215.8,
            "speed": 2.0,
            "depth": 0.0
          },
          {
            "time": "1995-12-12T11:15:00+00:00",
            "course": 293.6,
            "speed": 2.0,
            "depth": 0.0
          },
          {
            "time": "1995-12-12T11:16:00+00:00",
            "course": 321.4,
            "speed": 2.0,
            "depth": 0.0
          },
          {
            "time": "1995-12-12T11:17:00+00:00",
            "course": 340.3,
            "speed": 2.0,
            "depth": 0.0
          },
          {
            "time": "1995-12-12T11:18:00+00:00",
            "course": 9.8,
            "speed": 2.0,
            "depth": 0.0
          },
          {
            "time": "1995-12-12T11:19:00+00:00",
            "course": 51.9,
            "speed": 2.0,
            "depth": 0.0
          },
          {
            "time": "1995-12-12T11:20:00+00:00",
            "course": 100.9,
            "speed": 2.0,
            "depth": 0.0
          },
          {
            "time": "1995-12-12T11:21:00+00:00",
            "course": 151.3,
            "speed": 2.0,
            "depth": 0.0
          },
          {
            "time": "1995-12-12T11:22:00+00:00",
            "course": 180.3,
            "speed": 2.0,
            "depth": 0.0
          },
          {
            "time": "1995-12-12T11:23:00+00:00",
            "course": 182.3,
            "speed": 2.0,
            "depth": 0.0
          },
          {
            "time": "1995-12-12T11:24:00+00:00",
            "course": 196.1,
            "speed": 2.0,
            "depth": 0.0
          },
          {
            "time": "1995-12-12T11:25:00+00:00",
            "course": 236.1,
            "speed": 2.0,
            "depth": 0.0
          },
          {
            "time": "1995-12-12T11:26:00+00:00",
            "course": 287.7,
            "speed": 2.0,
            "depth": 0.0
          },
          {
            "time": "1995-12-12T11:27:00+00:00",
            "course": 334.9,
            "speed": 2.0,
            "depth": 0.0
          },
          {
            "time": "1995-12-12T11:28:00+00:00",
            "course": 340.7,
            "speed": 2.0,
            "depth": 0.0
          },
          {
            "time": "1995-12-12T11:29:00+00:00",
            "course": 346.1,
            "speed": 2.0,
            "depth": 0.0
          },
          {
            "time": "1995-12-12T11:30:00+00:00",
            "course": 21.4,
            "speed": 2.0,
            "depth": 0.0
          },
          {
            "time": "1995-12-12T11:31:00+00:00",
            "course": 21.0,
            "speed": 2.0,
            "depth": 0.0
          },
          {
            "time": "1995-12-12T11:32:00+00:00",
            "course": 19.3,
            "speed": 2.0,
            "depth": 0.0
          },
          {
            "time": "1995-12-12T11:33:00+00:00",
            "course": 20.3,
            "speed": 2.0,
            "depth": 0.0
          },
          {
            "time": "1995-12-12T11:34:00+00:00",
            "course": 20.6,
            "speed": 2.0,
            "depth": 0.0
          },
          {
            "time": "1995-12-12T11:35:00+00:00",
            "course": 20.1,
            "speed": 2.0,
            "depth": 0.0
          },
          {
            "time": "1995-12-12T11:36:00+00:00",
            "course": 20.3,
            "speed": 2.0,
            "depth": 0.0
          },
          {
            "time": "1995-12-12T11:37:00+00:00",
            "course": 20.8,
            "speed": 2.0,
            "depth": 0.0
          },
          {
            "time": "1995-12-12T11:38:00+00:00",
            "course": 20.2,
            "speed": 2.0,
            "depth": 0.0
          },
          {
            "time": "1995-12-12T11:39:00+00:00",
            "course": 20.1,
            "speed": 2.0,
            "depth": 0.0
          },
          {
            "time": "1995-12-12T11:40:00+00:00",
            "course": 20.2,
            "speed": 2.0,
            "depth": 0.0
          },
          {
            "time": "1995-12-12T11:41:00+00:00",
            "course": 20.2,
            "speed": 2.0,
            "depth": 0.0
          }
        ],
        "style": {
          "line": {
            "color": "#FF0000"
          },
          "point": {
            "shape": "circle",
            "radius": 3.0,
            "fill_color": "#FF0000",
            "color": "#FF0000"
          }
        },
        "default_position_style": {
          "show_symbol": false,
          "symbol": "circle",
          "show_label": false
        },
        "symbol_interval": "PT15M",
        "label_interval": "PT1H",
        "provenance": [
          {
            "activity_id": "14436a6e-9305-424f-b418-43ce7a81b973",
            "timestamp": "2026-04-13T23:12:33.863036Z",
            "was_generated_by": {
              "tool": "rep-parser",
              "tool_version": "1.0.0",
              "parameters": []
            },
            "used": [],
            "generated": [
              "36d0fd41-064b-4264-a025-015afa2f44f5"
            ],
            "execution_duration": "PT0.002289S"
          }
        ]
      }
    }
  ]
}