{
  "type": "FeatureCollection",
  "features": [
    {
      "type": "Feature",
      "id": "a6566fc4-9ebd-4be6-b901-70d8aeb7e011",
      "geometry": {
        "type": "LineString",
        "coordinates": [
          [
            -0.0,
            60.2
          ],
          [
            -0.0,
            60.2016194
          ],
          [
            -0.0,
            60.2032417
          ],
          [
            -0.0,
            60.2048611
          ],
          [
            -0.0,
            60.2064806
          ],
          [
            -0.0,
            60.2081028
          ],
          [
            -0.0,
            60.2097222
          ],
          [
            -0.0,
            60.2113417
          ],
          [
            -0.0,
            60.2129639
          ],
          [
            -0.0,
            60.2145833
          ],
          [
            -0.0,
            60.2162028
          ],
          [
            -0.0,
            60.217825
          ],
          [
            -0.0,
            60.2194444
          ],
          [
            -0.0,
            60.2210639
          ],
          [
            -0.0,
            60.2226861
          ],
          [
            -0.0,
            60.2243056
          ],
          [
            -0.0,
            60.225925
          ],
          [
            -0.0,
            60.2275472
          ],
          [
            -0.0,
            60.2291667
          ],
          [
            -0.0,
            60.2307861
          ],
          [
            -0.0,
            60.2324083
          ],
          [
            -0.0,
            60.2340278
          ],
          [
            -0.0,
            60.2356472
          ],
          [
            -0.0,
            60.2372694
          ],
          [
            -0.0,
            60.2388889
          ],
          [
            -0.0,
            60.2405083
          ],
          [
            -0.0,
            60.2421306
          ],
          [
            -0.0,
            60.24375
          ],
          [
            -0.0,
            60.2453694
          ],
          [
            -0.0,
            60.2469917
          ],
          [
            -0.0,
            60.2486111
          ],
          [
            -0.0,
            60.2502306
          ],
          [
            -0.0,
            60.2518528
          ],
          [
            -0.0,
            60.2534722
          ],
          [
            -0.0,
            60.2550917
          ],
          [
            -0.0,
            60.2567139
          ],
          [
            -0.0,
            60.2583333
          ],
          [
            -0.0,
            60.2599528
          ],
          [
            -0.0,
            60.261575
          ],
          [
            -0.0,
            60.2631944
          ],
          [
            -0.0,
            60.2648139
          ],
          [
            -0.0,
            60.2664361
          ],
          [
            -0.0,
            60.2680556
          ],
          [
            -0.0,
            60.269675
          ],
          [
            -0.0,
            60.2712972
          ],
          [
            -0.0,
            60.2729167
          ],
          [
            -0.0,
            60.2745361
          ],
          [
            -0.0,
            60.2761583
          ],
          [
            -0.0,
            60.2777778
          ],
          [
            -0.0,
            60.2793972
          ],
          [
            -0.0,
            60.2810194
          ],
          [
            -0.0,
            60.2826389
          ],
          [
            -0.0,
            60.2842583
          ],
          [
            -0.0,
            60.2858806
          ],
          [
            -0.0,
            60.2875
          ],
          [
            -0.0,
            60.2891194
          ],
          [
            -0.0,
            60.2907417
          ],
          [
            -0.0,
            60.2923611
          ],
          [
            -0.0,
            60.2939806
          ],
          [
            -0.0,
            60.2956028
          ],
          [
            -0.0,
            60.2972222
          ],
          [
            -0.0,
            60.2988417
          ],
          [
            -0.0,
            60.3004639
          ],
          [
            -0.0,
            60.3020833
          ],
          [
            -0.0,
            60.3037028
          ],
          [
            -0.0,
            60.305325
          ],
          [
            -0.0,
            60.3069444
          ],
          [
            -0.0,
            60.3085639
          ],
          [
            -0.0,
            60.3101861
          ],
          [
            -0.0,
            60.3118056
          ],
          [
            -0.0,
            60.313425
          ],
          [
            -0.0,
            60.3150472
          ],
          [
            -0.0,
            60.3166667
          ]
        ]
      },
      "properties": {
        "kind": "TRACK",
        "platform_id": "SENSOR_1",
        "platform_name": "SENSOR_1",
        "track_type": "CONTACT",
        "start_time": "2010-01-12T12:00:00+00:00",
        "end_time": "2010-01-12T13:00:00+00:00",
        "positions": [
          {
            "time": "2010-01-12T12:00:00+00:00",
            "course": 0.0,
            "speed": 7.0,
            "depth": 0.0
          },
          {
            "time": "2010-01-12T12:00:50+00:00",
            "course": 0.0,
            "speed": 7.0,
            "depth": 0.0
          },
          {
            "time": "2010-01-12T12:01:40+00:00",
            "course": 0.0,
            "speed": 7.0,
            "depth": 0.0
          },
          {
            "time": "2010-01-12T12:02:30+00:00",
            "course": 0.0,
            "speed": 7.0,
            "depth": 0.0
          },
          {
            "time": "2010-01-12T12:03:20+00:00",
            "course": 0.0,
            "speed": 7.0,
            "depth": 0.0
          },
          {
            "time": "2010-01-12T12:04:10+00:00",
            "course": 0.0,
            "speed": 7.0,
            "depth": 0.0
          },
          {
            "time": "2010-01-12T12:05:00+00:00",
            "course": 0.0,
            "speed": 7.0,
            "depth": 0.0
          },
          {
            "time": "2010-01-12T12:05:50+00:00",
            "course": 0.0,
            "speed": 7.0,
            "depth": 0.0
          },
          {
            "time": "2010-01-12T12:06:40+00:00",
            "course": 0.0,
            "speed": 7.0,
            "depth": 0.0
          },
          {
            "time": "2010-01-12T12:07:30+00:00",
            "course": 0.0,
            "speed": 7.0,
            "depth": 0.0
          },
          {
            "time": "2010-01-12T12:08:20+00:00",
            "course": 0.0,
            "speed": 7.0,
            "depth": 0.0
          },
          {
            "time": "2010-01-12T12:09:10+00:00",
            "course": 0.0,
            "speed": 7.0,
            "depth": 0.0
          },
          {
            "time": "2010-01-12T12:10:00+00:00",
            "course": 0.0,
            "speed": 7.0,
            "depth": 0.0
          },
          {
            "time": "2010-01-12T12:10:50+00:00",
            "course": 0.0,
            "speed": 7.0,
            "depth": 0.0
          },
          {
            "time": "2010-01-12T12:11:40+00:00",
            "course": 0.0,
            "speed": 7.0,
            "depth": 0.0
          },
          {
            "time": "2010-01-12T12:12:30+00:00",
            "course": 0.0,
            "speed": 7.0,
            "depth": 0.0
          },
          {
            "time": "2010-01-12T12:13:20+00:00",
            "course": 0.0,
            "speed": 7.0,
            "depth": 0.0
          },
          {
            "time": "2010-01-12T12:14:10+00:00",
            "course": 0.0,
            "speed": 7.0,
            "depth": 0.0
          },
          {
            "time": "2010-01-12T12:15:00+00:00",
            "course": 0.0,
            "speed": 7.0,
            "depth": 0.0
          },
          {
            "time": "2010-01-12T12:15:50+00:00",
            "course": 0.0,
            "speed": 7.0,
            "depth": 0.0
          },
          {
            "time": "2010-01-12T12:16:40+00:00",
            "course": 0.0,
            "speed": 7.0,
            "depth": 0.0
          },
          {
            "time": "2010-01-12T12:17:30+00:00",
            "course": 0.0,
            "speed": 7.0,
            "depth": 0.0
          },
          {
            "time": "2010-01-12T12:18:20+00:00",
            "course": 0.0,
            "speed": 7.0,
            "depth": 0.0
          },
          {
            "time": "2010-01-12T12:19:10+00:00",
            "course": 0.0,
            "speed": 7.0,
            "depth": 0.0
          },
          {
            "time": "2010-01-12T12:20:00+00:00",
            "course": 0.0,
            "speed": 7.0,
            "depth": 0.0
          },
          {
            "time": "2010-01-12T12:20:50+00:00",
            "course": 0.0,
            "speed": 7.0,
            "depth": 0.0
          },
          {
            "time": "2010-01-12T12:21:40+00:00",
            "course": 0.0,
            "speed": 7.0,
            "depth": 0.0
          },
          {
            "time": "2010-01-12T12:22:30+00:00",
            "course": 0.0,
            "speed": 7.0,
            "depth": 0.0
          },
          {
            "time": "2010-01-12T12:23:20+00:00",
            "course": 0.0,
            "speed": 7.0,
            "depth": 0.0
          },
          {
            "time": "2010-01-12T12:24:10+00:00",
            "course": 0.0,
            "speed": 7.0,
            "depth": 0.0
          },
          {
            "time": "2010-01-12T12:25:00+00:00",
            "course": 0.0,
            "speed": 7.0,
            "depth": 0.0
          },
          {
            "time": "2010-01-12T12:25:50+00:00",
            "course": 0.0,
            "speed": 7.0,
            "depth": 0.0
          },
          {
            "time": "2010-01-12T12:26:40+00:00",
            "course": 0.0,
            "speed": 7.0,
            "depth": 0.0
          },
          {
            "time": "2010-01-12T12:27:30+00:00",
            "course": 0.0,
            "speed": 7.0,
            "depth": 0.0
          },
          {
            "time": "2010-01-12T12:28:20+00:00",
            "course": 0.0,
            "speed": 7.0,
            "depth": 0.0
          },
          {
            "time": "2010-01-12T12:29:10+00:00",
            "course": 0.0,
            "speed": 7.0,
            "depth": 0.0
          },
          {
            "time": "2010-01-12T12:30:00+00:00",
            "course": 0.0,
            "speed": 7.0,
            "depth": 0.0
          },
          {
            "time": "2010-01-12T12:30:50+00:00",
            "course": 0.0,
            "speed": 7.0,
            "depth": 0.0
          },
          {
            "time": "2010-01-12T12:31:40+00:00",
            "course": 0.0,
            "speed": 7.0,
            "depth": 0.0
          },
          {
            "time": "2010-01-12T12:32:30+00:00",
            "course": 0.0,
            "speed": 7.0,
            "depth": 0.0
          },
          {
            "time": "2010-01-12T12:33:20+00:00",
            "course": 0.0,
            "speed": 7.0,
            "depth": 0.0
          },
          {
            "time": "2010-01-12T12:34:10+00:00",
            "course": 0.0,
            "speed": 7.0,
            "depth": 0.0
          },
          {
            "time": "2010-01-12T12:35:00+00:00",
            "course": 0.0,
            "speed": 7.0,
            "depth": 0.0
          },
          {
            "time": "2010-01-12T12:35:50+00:00",
            "course": 0.0,
            "speed": 7.0,
            "depth": 0.0
          },
          {
            "time": "2010-01-12T12:36:40+00:00",
            "course": 0.0,
            "speed": 7.0,
            "depth": 0.0
          },
          {
            "time": "2010-01-12T12:37:30+00:00",
            "course": 0.0,
            "speed": 7.0,
            "depth": 0.0
          },
          {
            "time": "2010-01-12T12:38:20+00:00",
            "course": 0.0,
            "speed": 7.0,
            "depth": 0.0
          },
          {
            "time": "2010-01-12T12:39:10+00:00",
            "course": 0.0,
            "speed": 7.0,
            "depth": 0.0
          },
          {
            "time": "2010-01-12T12:40:00+00:00",
            "course": 0.0,
            "speed": 7.0,
            "depth": 0.0
          },
          {
            "time": "2010-01-12T12:40:50+00:00",
            "course": 0.0,
            "speed": 7.0,
            "depth": 0.0
          },
          {
            "time": "2010-01-12T12:41:40+00:00",
            "course": 0.0,
            "speed": 7.0,
            "depth": 0.0
          },
          {
            "time": "2010-01-12T12:42:30+00:00",
            "course": 0.0,
            "speed": 7.0,
            "depth": 0.0
          },
          {
            "time": "2010-01-12T12:43:20+00:00",
            "course": 0.0,
            "speed": 7.0,
            "depth": 0.0
          },
          {
            "time": "2010-01-12T12:44:10+00:00",
            "course": 0.0,
            "speed": 7.0,
            "depth": 0.0
          },
          {
            "time": "2010-01-12T12:45:00+00:00",
            "course": 0.0,
            "speed": 7.0,
            "depth": 0.0
          },
          {
            "time": "2010-01-12T12:45:50+00:00",
            "course": 0.0,
            "speed": 7.0,
            "depth": 0.0
          },
          {
            "time": "2010-01-12T12:46:40+00:00",
            "course": 0.0,
            "speed": 7.0,
            "depth": 0.0
          },
          {
            "time": "2010-01-12T12:47:30+00:00",
            "course": 0.0,
            "speed": 7.0,
            "depth": 0.0
          },
          {
            "time": "2010-01-12T12:48:20+00:00",
            "course": 0.0,
            "speed": 7.0,
            "depth": 0.0
          },
          {
            "time": "2010-01-12T12:49:10+00:00",
            "course": 0.0,
            "speed": 7.0,
            "depth": 0.0
          },
          {
            "time": "2010-01-12T12:50:00+00:00",
            "course": 0.0,
            "speed": 7.0,
            "depth": 0.0
          },
          {
            "time": "2010-01-12T12:50:50+00:00",
            "course": 0.0,
            "speed": 7.0,
            "depth": 0.0
          },
          {
            "time": "2010-01-12T12:51:40+00:00",
            "course": 0.0,
            "speed": 7.0,
            "depth": 0.0
          },
          {
            "time": "2010-01-12T12:52:30+00:00",
            "course": 0.0,
            "speed": 7.0,
            "depth": 0.0
          },
          {
            "time": "2010-01-12T12:53:20+00:00",
            "course": 0.0,
            "speed": 7.0,
            "depth": 0.0
          },
          {
            "time": "2010-01-12T12:54:10+00:00",
            "course": 0.0,
            "speed": 7.0,
            "depth": 0.0
          },
          {
            "time": "2010-01-12T12:55:00+00:00",
            "course": 0.0,
            "speed": 7.0,
            "depth": 0.0
          },
          {
            "time": "2010-01-12T12:55:50+00:00",
            "course": 0.0,
            "speed": 7.0,
            "depth": 0.0
          },
          {
            "time": "2010-01-12T12:56:40+00:00",
            "course": 0.0,
            "speed": 7.0,
            "depth": 0.0
          },
          {
            "time": "2010-01-12T12:57:30+00:00",
            "course": 0.0,
            "speed": 7.0,
            "depth": 0.0
          },
          {
            "time": "2010-01-12T12:58:20+00:00",
            "course": 0.0,
            "speed": 7.0,
            "depth": 0.0
          },
          {
            "time": "2010-01-12T12:59:10+00:00",
            "course": 0.0,
            "speed": 7.0,
            "depth": 0.0
          },
          {
            "time": "2010-01-12T13:00:00+00:00",
            "course": 0.0,
            "speed": 7.0,
            "depth": 0.0
          }
        ],
        "style": {
          "line": {
            "color": "#808080"
          },
          "point": {
            "shape": "circle",
            "radius": 3.0,
            "fill_color": "#808080",
            "color": "#808080"
          }
        },
        "default_position_style": {
          "show_symbol": false,
          "symbol": "circle",
          "show_label": false
        },
        "symbol_interval": "PT5M",
        "label_interval": "PT15M",
        "provenance": [
          {
            "activity_id": "1ae45a19-9c63-4d61-bf66-3d41a4019f87",
            "timestamp": "2026-03-21T10:15:00.251853Z",
            "was_generated_by": {
              "tool": "dpf-parser",
              "tool_version": "1.0.0",
              "parameters": []
            },
            "used": [],
            "generated": [
              "a6566fc4-9ebd-4be6-b901-70d8aeb7e011"
            ],
            "execution_duration": "PT0S"
          }
        ]
      }
    },
    {
      "type": "Feature",
      "id": "ca1b1f76-d3f2-40b8-9bbe-b96a2008878b",
      "geometry": null,
      "properties": {
        "kind": "SENSOR_CONTACT",
        "parent_track": "SENSOR_1",
        "sensor_name": "Plain",
        "bearing": 44.8,
        "time": "2010-01-12T12:00:00+00:00",
        "label": "Cookie SUBJECT held on Plain Cookie",
        "provenance": [
          {
            "activity_id": "1ae45a19-9c63-4d61-bf66-3d41a4019f87",
            "timestamp": "2026-03-21T10:15:00.251853Z",
            "was_generated_by": {
              "tool": "dpf-parser",
              "tool_version": "1.0.0",
              "parameters": []
            },
            "used": [],
            "generated": [
              "ca1b1f76-d3f2-40b8-9bbe-b96a2008878b"
            ],
            "execution_duration": "PT0S"
          }
        ]
      }
    },
    {
      "type": "Feature",
      "id": "876e01dd-73e3-458d-b037-1761ad1b56ea",
      "geometry": null,
      "properties": {
        "kind": "SENSOR_CONTACT",
        "parent_track": "SENSOR_1",
        "sensor_name": "Plain",
        "bearing": 44.8,
        "time": "2010-01-12T12:05:50+00:00",
        "label": "Cookie SUBJECT held on Plain Cookie",
        "provenance": [
          {
            "activity_id": "1ae45a19-9c63-4d61-bf66-3d41a4019f87",
            "timestamp": "2026-03-21T10:15:00.251853Z",
            "was_generated_by": {
              "tool": "dpf-parser",
              "tool_version": "1.0.0",
              "parameters": []
            },
            "used": [],
            "generated": [
              "876e01dd-73e3-458d-b037-1761ad1b56ea"
            ],
            "execution_duration": "PT0S"
          }
        ]
      }
    },
    {
      "type": "Feature",
      "id": "815e40c6-f1bf-4252-876d-9389109ff57b",
      "geometry": null,
      "properties": {
        "kind": "SENSOR_CONTACT",
        "parent_track": "SENSOR_1",
        "sensor_name": "Plain",
        "bearing": 44.8,
        "time": "2010-01-12T12:11:40+00:00",
        "label": "Cookie SUBJECT held on Plain Cookie",
        "provenance": [
          {
            "activity_id": "1ae45a19-9c63-4d61-bf66-3d41a4019f87",
            "timestamp": "2026-03-21T10:15:00.251853Z",
            "was_generated_by": {
              "tool": "dpf-parser",
              "tool_version": "1.0.0",
              "parameters": []
            },
            "used": [],
            "generated": [
              "815e40c6-f1bf-4252-876d-9389109ff57b"
            ],
            "execution_duration": "PT0S"
          }
        ]
      }
    },
    {
      "type": "Feature",
      "id": "77bfc15b-1241-486a-ad56-729776624437",
      "geometry": null,
      "properties": {
        "kind": "SENSOR_CONTACT",
        "parent_track": "SENSOR_1",
        "sensor_name": "Plain",
        "bearing": 44.8,
        "time": "2010-01-12T12:17:30+00:00",
        "label": "Cookie SUBJECT held on Plain Cookie",
        "provenance": [
          {
            "activity_id": "1ae45a19-9c63-4d61-bf66-3d41a4019f87",
            "timestamp": "2026-03-21T10:15:00.251853Z",
            "was_generated_by": {
              "tool": "dpf-parser",
              "tool_version": "1.0.0",
              "parameters": []
            },
            "used": [],
            "generated": [
              "77bfc15b-1241-486a-ad56-729776624437"
            ],
            "execution_duration": "PT0S"
          }
        ]
      }
    },
    {
      "type": "Feature",
      "id": "9c422ad9-3611-4f86-a458-878f8193c1d1",
      "geometry": null,
      "properties": {
        "kind": "SENSOR_CONTACT",
        "parent_track": "SENSOR_1",
        "sensor_name": "Plain",
        "bearing": 44.7,
        "time": "2010-01-12T12:23:20+00:00",
        "label": "Cookie SUBJECT held on Plain Cookie",
        "provenance": [
          {
            "activity_id": "1ae45a19-9c63-4d61-bf66-3d41a4019f87",
            "timestamp": "2026-03-21T10:15:00.251853Z",
            "was_generated_by": {
              "tool": "dpf-parser",
              "tool_version": "1.0.0",
              "parameters": []
            },
            "used": [],
            "generated": [
              "9c422ad9-3611-4f86-a458-878f8193c1d1"
            ],
            "execution_duration": "PT0S"
          }
        ]
      }
    },
    {
      "type": "Feature",
      "id": "44bf05da-4880-4a2c-92e6-012b2f74890f",
      "geometry": null,
      "properties": {
        "kind": "SENSOR_CONTACT",
        "parent_track": "SENSOR_1",
        "sensor_name": "Plain",
        "bearing": 44.7,
        "time": "2010-01-12T12:29:10+00:00",
        "label": "Cookie SUBJECT held on Plain Cookie",
        "provenance": [
          {
            "activity_id": "1ae45a19-9c63-4d61-bf66-3d41a4019f87",
            "timestamp": "2026-03-21T10:15:00.251853Z",
            "was_generated_by": {
              "tool": "dpf-parser",
              "tool_version": "1.0.0",
              "parameters": []
            },
            "used": [],
            "generated": [
              "44bf05da-4880-4a2c-92e6-012b2f74890f"
            ],
            "execution_duration": "PT0S"
          }
        ]
      }
    },
    {
      "type": "Feature",
      "id": "4c67dcaf-d108-43c2-87bc-f69b11169277",
      "geometry": null,
      "properties": {
        "kind": "SENSOR_CONTACT",
        "parent_track": "SENSOR_1",
        "sensor_name": "Plain",
        "bearing": 44.7,
        "time": "2010-01-12T12:35:00+00:00",
        "label": "Cookie SUBJECT held on Plain Cookie",
        "provenance": [
          {
            "activity_id": "1ae45a19-9c63-4d61-bf66-3d41a4019f87",
            "timestamp": "2026-03-21T10:15:00.251853Z",
            "was_generated_by": {
              "tool": "dpf-parser",
              "tool_version": "1.0.0",
              "parameters": []
            },
            "used": [],
            "generated": [
              "4c67dcaf-d108-43c2-87bc-f69b11169277"
            ],
            "execution_duration": "PT0S"
          }
        ]
      }
    },
    {
      "type": "Feature",
      "id": "f6f62c0a-f5c8-4e94-974c-cb2342cb38e4",
      "geometry": null,
      "properties": {
        "kind": "SENSOR_CONTACT",
        "parent_track": "SENSOR_1",
        "sensor_name": "Plain",
        "bearing": 44.7,
        "time": "2010-01-12T12:40:50+00:00",
        "label": "Cookie SUBJECT held on Plain Cookie",
        "provenance": [
          {
            "activity_id": "1ae45a19-9c63-4d61-bf66-3d41a4019f87",
            "timestamp": "2026-03-21T10:15:00.251853Z",
            "was_generated_by": {
              "tool": "dpf-parser",
              "tool_version": "1.0.0",
              "parameters": []
            },
            "used": [],
            "generated": [
              "f6f62c0a-f5c8-4e94-974c-cb2342cb38e4"
            ],
            "execution_duration": "PT0S"
          }
        ]
      }
    },
    {
      "type": "Feature",
      "id": "aea3d4c8-21a0-41bd-b4d4-f8d6a2c798f6",
      "geometry": null,
      "properties": {
        "kind": "SENSOR_CONTACT",
        "parent_track": "SENSOR_1",
        "sensor_name": "Plain",
        "bearing": 44.7,
        "time": "2010-01-12T12:46:40+00:00",
        "label": "Cookie SUBJECT held on Plain Cookie",
        "provenance": [
          {
            "activity_id": "1ae45a19-9c63-4d61-bf66-3d41a4019f87",
            "timestamp": "2026-03-21T10:15:00.251853Z",
            "was_generated_by": {
              "tool": "dpf-parser",
              "tool_version": "1.0.0",
              "parameters": []
            },
            "used": [],
            "generated": [
              "aea3d4c8-21a0-41bd-b4d4-f8d6a2c798f6"
            ],
            "execution_duration": "PT0S"
          }
        ]
      }
    },
    {
      "type": "Feature",
      "id": "0b41f5fa-2536-4e5c-8533-0c017720c3d6",
      "geometry": null,
      "properties": {
        "kind": "SENSOR_CONTACT",
        "parent_track": "SENSOR_1",
        "sensor_name": "Plain",
        "bearing": 44.7,
        "time": "2010-01-12T12:52:30+00:00",
        "label": "Cookie SUBJECT held on Plain Cookie",
        "provenance": [
          {
            "activity_id": "1ae45a19-9c63-4d61-bf66-3d41a4019f87",
            "timestamp": "2026-03-21T10:15:00.251853Z",
            "was_generated_by": {
              "tool": "dpf-parser",
              "tool_version": "1.0.0",
              "parameters": []
            },
            "used": [],
            "generated": [
              "0b41f5fa-2536-4e5c-8533-0c017720c3d6"
            ],
            "execution_duration": "PT0S"
          }
        ]
      }
    },
    {
      "type": "Feature",
      "id": "1e7dce25-9d1d-4490-8fe6-78f2a4bceee0",
      "geometry": null,
      "properties": {
        "kind": "SENSOR_CONTACT",
        "parent_track": "SENSOR_1",
        "sensor_name": "Plain",
        "bearing": 44.7,
        "time": "2010-01-12T12:58:20+00:00",
        "label": "Cookie SUBJECT held on Plain Cookie",
        "provenance": [
          {
            "activity_id": "1ae45a19-9c63-4d61-bf66-3d41a4019f87",
            "timestamp": "2026-03-21T10:15:00.251853Z",
            "was_generated_by": {
              "tool": "dpf-parser",
              "tool_version": "1.0.0",
              "parameters": []
            },
            "used": [],
            "generated": [
              "1e7dce25-9d1d-4490-8fe6-78f2a4bceee0"
            ],
            "execution_duration": "PT0S"
          }
        ]
      }
    },
    {
      "type": "Feature",
      "id": "70a6bb5a-fcf6-4997-b9b0-16159e1712aa",
      "geometry": {
        "type": "LineString",
        "coordinates": [
          [
            0.4,
            60.2
          ],
          [
            0.4,
            60.2016194
          ],
          [
            0.4,
            60.2032417
          ],
          [
            0.4,
            60.2048611
          ],
          [
            0.4,
            60.2064806
          ],
          [
            0.4,
            60.2081028
          ],
          [
            0.4,
            60.2097222
          ],
          [
            0.4,
            60.2113417
          ],
          [
            0.4,
            60.2129639
          ],
          [
            0.4,
            60.2145833
          ],
          [
            0.4,
            60.2162028
          ],
          [
            0.4,
            60.217825
          ],
          [
            0.4,
            60.2194444
          ],
          [
            0.4,
            60.2210639
          ],
          [
            0.4,
            60.2226861
          ],
          [
            0.4,
            60.2243056
          ],
          [
            0.4,
            60.225925
          ],
          [
            0.4,
            60.2275472
          ],
          [
            0.4,
            60.2291667
          ],
          [
            0.4,
            60.2307861
          ],
          [
            0.4,
            60.2324083
          ],
          [
            0.4,
            60.2340278
          ],
          [
            0.4,
            60.2356472
          ],
          [
            0.4,
            60.2372694
          ],
          [
            0.4,
            60.2388889
          ],
          [
            0.4,
            60.2405083
          ],
          [
            0.4,
            60.2421306
          ],
          [
            0.4,
            60.24375
          ],
          [
            0.4,
            60.2453694
          ],
          [
            0.4,
            60.2469917
          ],
          [
            0.4,
            60.2486111
          ],
          [
            0.4,
            60.2502306
          ],
          [
            0.4,
            60.2518528
          ],
          [
            0.4,
            60.2534722
          ],
          [
            0.4,
            60.2550917
          ],
          [
            0.4,
            60.2567139
          ],
          [
            0.4,
            60.2583333
          ],
          [
            0.4,
            60.2599528
          ],
          [
            0.4,
            60.261575
          ],
          [
            0.4,
            60.2631944
          ],
          [
            0.4,
            60.2648139
          ],
          [
            0.4,
            60.2664361
          ],
          [
            0.4,
            60.2680556
          ],
          [
            0.4,
            60.269675
          ],
          [
            0.4,
            60.2712972
          ],
          [
            0.4,
            60.2729167
          ],
          [
            0.4,
            60.2745361
          ],
          [
            0.4,
            60.2761583
          ],
          [
            0.4,
            60.2777778
          ],
          [
            0.4,
            60.2793972
          ],
          [
            0.4,
            60.2810194
          ],
          [
            0.4,
            60.2826389
          ],
          [
            0.4,
            60.2842583
          ],
          [
            0.4,
            60.2858806
          ],
          [
            0.4,
            60.2875
          ],
          [
            0.4,
            60.2891194
          ],
          [
            0.4,
            60.2907417
          ],
          [
            0.4,
            60.2923611
          ],
          [
            0.4,
            60.2939806
          ],
          [
            0.4,
            60.2956028
          ],
          [
            0.4,
            60.2972222
          ],
          [
            0.4,
            60.2988417
          ],
          [
            0.4,
            60.3004639
          ],
          [
            0.4,
            60.3020833
          ],
          [
            0.4,
            60.3037028
          ],
          [
            0.4,
            60.305325
          ],
          [
            0.4,
            60.3069444
          ],
          [
            0.4,
            60.3085639
          ],
          [
            0.4,
            60.3101861
          ],
          [
            0.4,
            60.3118056
          ],
          [
            0.4,
            60.313425
          ],
          [
            0.4,
            60.3150472
          ],
          [
            0.4,
            60.3166667
          ]
        ]
      },
      "properties": {
        "kind": "TRACK",
        "platform_id": "SENSOR_2",
        "platform_name": "SENSOR_2",
        "track_type": "CONTACT",
        "start_time": "2010-01-12T12:00:00+00:00",
        "end_time": "2010-01-12T13:00:00+00:00",
        "positions": [
          {
            "time": "2010-01-12T12:00:00+00:00",
            "course": 0.0,
            "speed": 7.0,
            "depth": 0.0
          },
          {
            "time": "2010-01-12T12:00:50+00:00",
            "course": 0.0,
            "speed": 7.0,
            "depth": 0.0
          },
          {
            "time": "2010-01-12T12:01:40+00:00",
            "course": 0.0,
            "speed": 7.0,
            "depth": 0.0
          },
          {
            "time": "2010-01-12T12:02:30+00:00",
            "course": 0.0,
            "speed": 7.0,
            "depth": 0.0
          },
          {
            "time": "2010-01-12T12:03:20+00:00",
            "course": 0.0,
            "speed": 7.0,
            "depth": 0.0
          },
          {
            "time": "2010-01-12T12:04:10+00:00",
            "course": 0.0,
            "speed": 7.0,
            "depth": 0.0
          },
          {
            "time": "2010-01-12T12:05:00+00:00",
            "course": 0.0,
            "speed": 7.0,
            "depth": 0.0
          },
          {
            "time": "2010-01-12T12:05:50+00:00",
            "course": 0.0,
            "speed": 7.0,
            "depth": 0.0
          },
          {
            "time": "2010-01-12T12:06:40+00:00",
            "course": 0.0,
            "speed": 7.0,
            "depth": 0.0
          },
          {
            "time": "2010-01-12T12:07:30+00:00",
            "course": 0.0,
            "speed": 7.0,
            "depth": 0.0
          },
          {
            "time": "2010-01-12T12:08:20+00:00",
            "course": 0.0,
            "speed": 7.0,
            "depth": 0.0
          },
          {
            "time": "2010-01-12T12:09:10+00:00",
            "course": 0.0,
            "speed": 7.0,
            "depth": 0.0
          },
          {
            "time": "2010-01-12T12:10:00+00:00",
            "course": 0.0,
            "speed": 7.0,
            "depth": 0.0
          },
          {
            "time": "2010-01-12T12:10:50+00:00",
            "course": 0.0,
            "speed": 7.0,
            "depth": 0.0
          },
          {
            "time": "2010-01-12T12:11:40+00:00",
            "course": 0.0,
            "speed": 7.0,
            "depth": 0.0
          },
          {
            "time": "2010-01-12T12:12:30+00:00",
            "course": 0.0,
            "speed": 7.0,
            "depth": 0.0
          },
          {
            "time": "2010-01-12T12:13:20+00:00",
            "course": 0.0,
            "speed": 7.0,
            "depth": 0.0
          },
          {
            "time": "2010-01-12T12:14:10+00:00",
            "course": 0.0,
            "speed": 7.0,
            "depth": 0.0
          },
          {
            "time": "2010-01-12T12:15:00+00:00",
            "course": 0.0,
            "speed": 7.0,
            "depth": 0.0
          },
          {
            "time": "2010-01-12T12:15:50+00:00",
            "course": 0.0,
            "speed": 7.0,
            "depth": 0.0
          },
          {
            "time": "2010-01-12T12:16:40+00:00",
            "course": 0.0,
            "speed": 7.0,
            "depth": 0.0
          },
          {
            "time": "2010-01-12T12:17:30+00:00",
            "course": 0.0,
            "speed": 7.0,
            "depth": 0.0
          },
          {
            "time": "2010-01-12T12:18:20+00:00",
            "course": 0.0,
            "speed": 7.0,
            "depth": 0.0
          },
          {
            "time": "2010-01-12T12:19:10+00:00",
            "course": 0.0,
            "speed": 7.0,
            "depth": 0.0
          },
          {
            "time": "2010-01-12T12:20:00+00:00",
            "course": 0.0,
            "speed": 7.0,
            "depth": 0.0
          },
          {
            "time": "2010-01-12T12:20:50+00:00",
            "course": 0.0,
            "speed": 7.0,
            "depth": 0.0
          },
          {
            "time": "2010-01-12T12:21:40+00:00",
            "course": 0.0,
            "speed": 7.0,
            "depth": 0.0
          },
          {
            "time": "2010-01-12T12:22:30+00:00",
            "course": 0.0,
            "speed": 7.0,
            "depth": 0.0
          },
          {
            "time": "2010-01-12T12:23:20+00:00",
            "course": 0.0,
            "speed": 7.0,
            "depth": 0.0
          },
          {
            "time": "2010-01-12T12:24:10+00:00",
            "course": 0.0,
            "speed": 7.0,
            "depth": 0.0
          },
          {
            "time": "2010-01-12T12:25:00+00:00",
            "course": 0.0,
            "speed": 7.0,
            "depth": 0.0
          },
          {
            "time": "2010-01-12T12:25:50+00:00",
            "course": 0.0,
            "speed": 7.0,
            "depth": 0.0
          },
          {
            "time": "2010-01-12T12:26:40+00:00",
            "course": 0.0,
            "speed": 7.0,
            "depth": 0.0
          },
          {
            "time": "2010-01-12T12:27:30+00:00",
            "course": 0.0,
            "speed": 7.0,
            "depth": 0.0
          },
          {
            "time": "2010-01-12T12:28:20+00:00",
            "course": 0.0,
            "speed": 7.0,
            "depth": 0.0
          },
          {
            "time": "2010-01-12T12:29:10+00:00",
            "course": 0.0,
            "speed": 7.0,
            "depth": 0.0
          },
          {
            "time": "2010-01-12T12:30:00+00:00",
            "course": 0.0,
            "speed": 7.0,
            "depth": 0.0
          },
          {
            "time": "2010-01-12T12:30:50+00:00",
            "course": 0.0,
            "speed": 7.0,
            "depth": 0.0
          },
          {
            "time": "2010-01-12T12:31:40+00:00",
            "course": 0.0,
            "speed": 7.0,
            "depth": 0.0
          },
          {
            "time": "2010-01-12T12:32:30+00:00",
            "course": 0.0,
            "speed": 7.0,
            "depth": 0.0
          },
          {
            "time": "2010-01-12T12:33:20+00:00",
            "course": 0.0,
            "speed": 7.0,
            "depth": 0.0
          },
          {
            "time": "2010-01-12T12:34:10+00:00",
            "course": 0.0,
            "speed": 7.0,
            "depth": 0.0
          },
          {
            "time": "2010-01-12T12:35:00+00:00",
            "course": 0.0,
            "speed": 7.0,
            "depth": 0.0
          },
          {
            "time": "2010-01-12T12:35:50+00:00",
            "course": 0.0,
            "speed": 7.0,
            "depth": 0.0
          },
          {
            "time": "2010-01-12T12:36:40+00:00",
            "course": 0.0,
            "speed": 7.0,
            "depth": 0.0
          },
          {
            "time": "2010-01-12T12:37:30+00:00",
            "course": 0.0,
            "speed": 7.0,
            "depth": 0.0
          },
          {
            "time": "2010-01-12T12:38:20+00:00",
            "course": 0.0,
            "speed": 7.0,
            "depth": 0.0
          },
          {
            "time": "2010-01-12T12:39:10+00:00",
            "course": 0.0,
            "speed": 7.0,
            "depth": 0.0
          },
          {
            "time": "2010-01-12T12:40:00+00:00",
            "course": 0.0,
            "speed": 7.0,
            "depth": 0.0
          },
          {
            "time": "2010-01-12T12:40:50+00:00",
            "course": 0.0,
            "speed": 7.0,
            "depth": 0.0
          },
          {
            "time": "2010-01-12T12:41:40+00:00",
            "course": 0.0,
            "speed": 7.0,
            "depth": 0.0
          },
          {
            "time": "2010-01-12T12:42:30+00:00",
            "course": 0.0,
            "speed": 7.0,
            "depth": 0.0
          },
          {
            "time": "2010-01-12T12:43:20+00:00",
            "course": 0.0,
            "speed": 7.0,
            "depth": 0.0
          },
          {
            "time": "2010-01-12T12:44:10+00:00",
            "course": 0.0,
            "speed": 7.0,
            "depth": 0.0
          },
          {
            "time": "2010-01-12T12:45:00+00:00",
            "course": 0.0,
            "speed": 7.0,
            "depth": 0.0
          },
          {
            "time": "2010-01-12T12:45:50+00:00",
            "course": 0.0,
            "speed": 7.0,
            "depth": 0.0
          },
          {
            "time": "2010-01-12T12:46:40+00:00",
            "course": 0.0,
            "speed": 7.0,
            "depth": 0.0
          },
          {
            "time": "2010-01-12T12:47:30+00:00",
            "course": 0.0,
            "speed": 7.0,
            "depth": 0.0
          },
          {
            "time": "2010-01-12T12:48:20+00:00",
            "course": 0.0,
            "speed": 7.0,
            "depth": 0.0
          },
          {
            "time": "2010-01-12T12:49:10+00:00",
            "course": 0.0,
            "speed": 7.0,
            "depth": 0.0
          },
          {
            "time": "2010-01-12T12:50:00+00:00",
            "course": 0.0,
            "speed": 7.0,
            "depth": 0.0
          },
          {
            "time": "2010-01-12T12:50:50+00:00",
            "course": 0.0,
            "speed": 7.0,
            "depth": 0.0
          },
          {
            "time": "2010-01-12T12:51:40+00:00",
            "course": 0.0,
            "speed": 7.0,
            "depth": 0.0
          },
          {
            "time": "2010-01-12T12:52:30+00:00",
            "course": 0.0,
            "speed": 7.0,
            "depth": 0.0
          },
          {
            "time": "2010-01-12T12:53:20+00:00",
            "course": 0.0,
            "speed": 7.0,
            "depth": 0.0
          },
          {
            "time": "2010-01-12T12:54:10+00:00",
            "course": 0.0,
            "speed": 7.0,
            "depth": 0.0
          },
          {
            "time": "2010-01-12T12:55:00+00:00",
            "course": 0.0,
            "speed": 7.0,
            "depth": 0.0
          },
          {
            "time": "2010-01-12T12:55:50+00:00",
            "course": 0.0,
            "speed": 7.0,
            "depth": 0.0
          },
          {
            "time": "2010-01-12T12:56:40+00:00",
            "course": 0.0,
            "speed": 7.0,
            "depth": 0.0
          },
          {
            "time": "2010-01-12T12:57:30+00:00",
            "course": 0.0,
            "speed": 7.0,
            "depth": 0.0
          },
          {
            "time": "2010-01-12T12:58:20+00:00",
            "course": 0.0,
            "speed": 7.0,
            "depth": 0.0
          },
          {
            "time": "2010-01-12T12:59:10+00:00",
            "course": 0.0,
            "speed": 7.0,
            "depth": 0.0
          },
          {
            "time": "2010-01-12T13:00:00+00:00",
            "course": 0.0,
            "speed": 7.0,
            "depth": 0.0
          }
        ],
        "style": {
          "line": {
            "color": "#808080"
          },
          "point": {
            "shape": "circle",
            "radius": 3.0,
            "fill_color": "#808080",
            "color": "#808080"
          }
        },
        "default_position_style": {
          "show_symbol": false,
          "symbol": "circle",
          "show_label": false
        },
        "symbol_interval": "PT5M",
        "label_interval": "PT15M",
        "provenance": [
          {
            "activity_id": "1ae45a19-9c63-4d61-bf66-3d41a4019f87",
            "timestamp": "2026-03-21T10:15:00.251853Z",
            "was_generated_by": {
              "tool": "dpf-parser",
              "tool_version": "1.0.0",
              "parameters": []
            },
            "used": [],
            "generated": [
              "70a6bb5a-fcf6-4997-b9b0-16159e1712aa"
            ],
            "execution_duration": "PT0S"
          }
        ]
      }
    },
    {
      "type": "Feature",
      "id": "3de7415b-1866-43c8-a0c6-74a183297277",
      "geometry": null,
      "properties": {
        "kind": "SENSOR_CONTACT",
        "parent_track": "SENSOR_2",
        "sensor_name": "Plain",
        "bearing": -44.8,
        "time": "2010-01-12T12:00:00+00:00",
        "label": "Cookie SUBJECT held on Plain Cookie",
        "provenance": [
          {
            "activity_id": "1ae45a19-9c63-4d61-bf66-3d41a4019f87",
            "timestamp": "2026-03-21T10:15:00.251853Z",
            "was_generated_by": {
              "tool": "dpf-parser",
              "tool_version": "1.0.0",
              "parameters": []
            },
            "used": [],
            "generated": [
              "3de7415b-1866-43c8-a0c6-74a183297277"
            ],
            "execution_duration": "PT0S"
          }
        ]
      }
    },
    {
      "type": "Feature",
      "id": "07107c8a-4134-44da-b935-7e53933dc6f4",
      "geometry": null,
      "properties": {
        "kind": "SENSOR_CONTACT",
        "parent_track": "SENSOR_2",
        "sensor_name": "Plain",
        "bearing": -44.8,
        "time": "2010-01-12T12:10:00+00:00",
        "label": "Cookie SUBJECT held on Plain Cookie",
        "provenance": [
          {
            "activity_id": "1ae45a19-9c63-4d61-bf66-3d41a4019f87",
            "timestamp": "2026-03-21T10:15:00.251853Z",
            "was_generated_by": {
              "tool": "dpf-parser",
              "tool_version": "1.0.0",
              "parameters": []
            },
            "used": [],
            "generated": [
              "07107c8a-4134-44da-b935-7e53933dc6f4"
            ],
            "execution_duration": "PT0S"
          }
        ]
      }
    },
    {
      "type": "Feature",
      "id": "45a3168b-62c0-4401-be6a-dd7f096cbb69",
      "geometry": null,
      "properties": {
        "kind": "SENSOR_CONTACT",
        "parent_track": "SENSOR_2",
        "sensor_name": "Plain",
        "bearing": -44.7,
        "time": "2010-01-12T12:20:00+00:00",
        "label": "Cookie SUBJECT held on Plain Cookie",
        "provenance": [
          {
            "activity_id": "1ae45a19-9c63-4d61-bf66-3d41a4019f87",
            "timestamp": "2026-03-21T10:15:00.251853Z",
            "was_generated_by": {
              "tool": "dpf-parser",
              "tool_version": "1.0.0",
              "parameters": []
            },
            "used": [],
            "generated": [
              "45a3168b-62c0-4401-be6a-dd7f096cbb69"
            ],
            "execution_duration": "PT0S"
          }
        ]
      }
    },
    {
      "type": "Feature",
      "id": "05fc2ae5-d778-45df-a714-2a2255ad74e0",
      "geometry": null,
      "properties": {
        "kind": "SENSOR_CONTACT",
        "parent_track": "SENSOR_2",
        "sensor_name": "Plain",
        "bearing": -44.7,
        "time": "2010-01-12T12:30:00+00:00",
        "label": "Cookie SUBJECT held on Plain Cookie",
        "provenance": [
          {
            "activity_id": "1ae45a19-9c63-4d61-bf66-3d41a4019f87",
            "timestamp": "2026-03-21T10:15:00.251853Z",
            "was_generated_by": {
              "tool": "dpf-parser",
              "tool_version": "1.0.0",
              "parameters": []
            },
            "used": [],
            "generated": [
              "05fc2ae5-d778-45df-a714-2a2255ad74e0"
            ],
            "execution_duration": "PT0S"
          }
        ]
      }
    },
    {
      "type": "Feature",
      "id": "38a751e3-e76d-443b-ba02-a57402ee1952",
      "geometry": null,
      "properties": {
        "kind": "SENSOR_CONTACT",
        "parent_track": "SENSOR_2",
        "sensor_name": "Plain",
        "bearing": -44.7,
        "time": "2010-01-12T12:40:00+00:00",
        "label": "Cookie SUBJECT held on Plain Cookie",
        "provenance": [
          {
            "activity_id": "1ae45a19-9c63-4d61-bf66-3d41a4019f87",
            "timestamp": "2026-03-21T10:15:00.251853Z",
            "was_generated_by": {
              "tool": "dpf-parser",
              "tool_version": "1.0.0",
              "parameters": []
            },
            "used": [],
            "generated": [
              "38a751e3-e76d-443b-ba02-a57402ee1952"
            ],
            "execution_duration": "PT0S"
          }
        ]
      }
    },
    {
      "type": "Feature",
      "id": "e7ca4e2a-9ef9-41b8-a42f-180dea5950b5",
      "geometry": null,
      "properties": {
        "kind": "SENSOR_CONTACT",
        "parent_track": "SENSOR_2",
        "sensor_name": "Plain",
        "bearing": -44.7,
        "time": "2010-01-12T12:50:00+00:00",
        "label": "Cookie SUBJECT held on Plain Cookie",
        "provenance": [
          {
            "activity_id": "1ae45a19-9c63-4d61-bf66-3d41a4019f87",
            "timestamp": "2026-03-21T10:15:00.251853Z",
            "was_generated_by": {
              "tool": "dpf-parser",
              "tool_version": "1.0.0",
              "parameters": []
            },
            "used": [],
            "generated": [
              "e7ca4e2a-9ef9-41b8-a42f-180dea5950b5"
            ],
            "execution_duration": "PT0S"
          }
        ]
      }
    },
    {
      "type": "Feature",
      "id": "8ce4a85b-696a-4107-8586-b523c5968b47",
      "geometry": null,
      "properties": {
        "kind": "SENSOR_CONTACT",
        "parent_track": "SENSOR_2",
        "sensor_name": "Plain",
        "bearing": -44.7,
        "time": "2010-01-12T13:00:00+00:00",
        "label": "Cookie SUBJECT held on Plain Cookie",
        "provenance": [
          {
            "activity_id": "1ae45a19-9c63-4d61-bf66-3d41a4019f87",
            "timestamp": "2026-03-21T10:15:00.251853Z",
            "was_generated_by": {
              "tool": "dpf-parser",
              "tool_version": "1.0.0",
              "parameters": []
            },
            "used": [],
            "generated": [
              "8ce4a85b-696a-4107-8586-b523c5968b47"
            ],
            "execution_duration": "PT0S"
          }
        ]
      }
    },
    {
      "type": "Feature",
      "id": "3a2f3ed2-55ef-4175-aebf-6e1e890da95c",
      "geometry": {
        "type": "LineString",
        "coordinates": [
          [
            0.2,
            60.3
          ],
          [
            0.2,
            60.3016194
          ],
          [
            0.2,
            60.3032417
          ],
          [
            0.2,
            60.3048611
          ],
          [
            0.2,
            60.3064806
          ],
          [
            0.2,
            60.3081028
          ],
          [
            0.2,
            60.3097222
          ],
          [
            0.2,
            60.3113417
          ],
          [
            0.2,
            60.3129639
          ],
          [
            0.2,
            60.3145833
          ],
          [
            0.2,
            60.3162028
          ],
          [
            0.2,
            60.317825
          ],
          [
            0.2,
            60.3194444
          ],
          [
            0.2,
            60.3210639
          ],
          [
            0.2,
            60.3226861
          ],
          [
            0.2,
            60.3243056
          ],
          [
            0.2,
            60.325925
          ],
          [
            0.2,
            60.3275472
          ],
          [
            0.2,
            60.3291667
          ],
          [
            0.2,
            60.3307861
          ],
          [
            0.2,
            60.3324083
          ],
          [
            0.2,
            60.3340278
          ],
          [
            0.2,
            60.3356472
          ],
          [
            0.2,
            60.3372694
          ],
          [
            0.2,
            60.3388889
          ],
          [
            0.2,
            60.3405083
          ],
          [
            0.2,
            60.3421306
          ],
          [
            0.2,
            60.34375
          ],
          [
            0.2,
            60.3453694
          ],
          [
            0.2,
            60.3469917
          ],
          [
            0.2,
            60.3486111
          ],
          [
            0.2,
            60.3502306
          ],
          [
            0.2,
            60.3518528
          ],
          [
            0.2,
            60.3534722
          ],
          [
            0.2,
            60.3550917
          ],
          [
            0.2,
            60.3567139
          ],
          [
            0.2,
            60.3583333
          ],
          [
            0.2,
            60.3599528
          ],
          [
            0.2,
            60.361575
          ],
          [
            0.2,
            60.3631944
          ],
          [
            0.2,
            60.3648139
          ],
          [
            0.2,
            60.3664361
          ],
          [
            0.2,
            60.3680556
          ],
          [
            0.2,
            60.369675
          ],
          [
            0.2,
            60.3712972
          ],
          [
            0.2,
            60.3729167
          ],
          [
            0.2,
            60.3745361
          ],
          [
            0.2,
            60.3761583
          ],
          [
            0.2,
            60.3777778
          ],
          [
            0.2,
            60.3793972
          ],
          [
            0.2,
            60.3810194
          ],
          [
            0.2,
            60.3826389
          ],
          [
            0.2,
            60.3842583
          ],
          [
            0.2,
            60.3858806
          ],
          [
            0.2,
            60.3875
          ],
          [
            0.2,
            60.3891194
          ],
          [
            0.2,
            60.3907417
          ],
          [
            0.2,
            60.3923611
          ],
          [
            0.2,
            60.3939806
          ],
          [
            0.2,
            60.3956028
          ],
          [
            0.2,
            60.3972222
          ],
          [
            0.2,
            60.3988417
          ],
          [
            0.2,
            60.4004639
          ],
          [
            0.2,
            60.4020833
          ],
          [
            0.2,
            60.4037028
          ],
          [
            0.2,
            60.405325
          ],
          [
            0.2,
            60.4069444
          ],
          [
            0.2,
            60.4085639
          ],
          [
            0.2,
            60.4101861
          ],
          [
            0.2,
            60.4118056
          ],
          [
            0.2,
            60.413425
          ],
          [
            0.2,
            60.4150472
          ],
          [
            0.2,
            60.4166667
          ]
        ]
      },
      "properties": {
        "kind": "TRACK",
        "platform_id": "SUBJECT",
        "platform_name": "SUBJECT",
        "track_type": "CONTACT",
        "start_time": "2010-01-12T12:00:00+00:00",
        "end_time": "2010-01-12T13:00:00+00:00",
        "positions": [
          {
            "time": "2010-01-12T12:00:00+00:00",
            "course": 0.0,
            "speed": 7.0,
            "depth": 0.0
          },
          {
            "time": "2010-01-12T12:00:50+00:00",
            "course": 0.0,
            "speed": 7.0,
            "depth": 0.0
          },
          {
            "time": "2010-01-12T12:01:40+00:00",
            "course": 0.0,
            "speed": 7.0,
            "depth": 0.0
          },
          {
            "time": "2010-01-12T12:02:30+00:00",
            "course": 0.0,
            "speed": 7.0,
            "depth": 0.0
          },
          {
            "time": "2010-01-12T12:03:20+00:00",
            "course": 0.0,
            "speed": 7.0,
            "depth": 0.0
          },
          {
            "time": "2010-01-12T12:04:10+00:00",
            "course": 0.0,
            "speed": 7.0,
            "depth": 0.0
          },
          {
            "time": "2010-01-12T12:05:00+00:00",
            "course": 0.0,
            "speed": 7.0,
            "depth": 0.0
          },
          {
            "time": "2010-01-12T12:05:50+00:00",
            "course": 0.0,
            "speed": 7.0,
            "depth": 0.0
          },
          {
            "time": "2010-01-12T12:06:40+00:00",
            "course": 0.0,
            "speed": 7.0,
            "depth": 0.0
          },
          {
            "time": "2010-01-12T12:07:30+00:00",
            "course": 0.0,
            "speed": 7.0,
            "depth": 0.0
          },
          {
            "time": "2010-01-12T12:08:20+00:00",
            "course": 0.0,
            "speed": 7.0,
            "depth": 0.0
          },
          {
            "time": "2010-01-12T12:09:10+00:00",
            "course": 0.0,
            "speed": 7.0,
            "depth": 0.0
          },
          {
            "time": "2010-01-12T12:10:00+00:00",
            "course": 0.0,
            "speed": 7.0,
            "depth": 0.0
          },
          {
            "time": "2010-01-12T12:10:50+00:00",
            "course": 0.0,
            "speed": 7.0,
            "depth": 0.0
          },
          {
            "time": "2010-01-12T12:11:40+00:00",
            "course": 0.0,
            "speed": 7.0,
            "depth": 0.0
          },
          {
            "time": "2010-01-12T12:12:30+00:00",
            "course": 0.0,
            "speed": 7.0,
            "depth": 0.0
          },
          {
            "time": "2010-01-12T12:13:20+00:00",
            "course": 0.0,
            "speed": 7.0,
            "depth": 0.0
          },
          {
            "time": "2010-01-12T12:14:10+00:00",
            "course": 0.0,
            "speed": 7.0,
            "depth": 0.0
          },
          {
            "time": "2010-01-12T12:15:00+00:00",
            "course": 0.0,
            "speed": 7.0,
            "depth": 0.0
          },
          {
            "time": "2010-01-12T12:15:50+00:00",
            "course": 0.0,
            "speed": 7.0,
            "depth": 0.0
          },
          {
            "time": "2010-01-12T12:16:40+00:00",
            "course": 0.0,
            "speed": 7.0,
            "depth": 0.0
          },
          {
            "time": "2010-01-12T12:17:30+00:00",
            "course": 0.0,
            "speed": 7.0,
            "depth": 0.0
          },
          {
            "time": "2010-01-12T12:18:20+00:00",
            "course": 0.0,
            "speed": 7.0,
            "depth": 0.0
          },
          {
            "time": "2010-01-12T12:19:10+00:00",
            "course": 0.0,
            "speed": 7.0,
            "depth": 0.0
          },
          {
            "time": "2010-01-12T12:20:00+00:00",
            "course": 0.0,
            "speed": 7.0,
            "depth": 0.0
          },
          {
            "time": "2010-01-12T12:20:50+00:00",
            "course": 0.0,
            "speed": 7.0,
            "depth": 0.0
          },
          {
            "time": "2010-01-12T12:21:40+00:00",
            "course": 0.0,
            "speed": 7.0,
            "depth": 0.0
          },
          {
            "time": "2010-01-12T12:22:30+00:00",
            "course": 0.0,
            "speed": 7.0,
            "depth": 0.0
          },
          {
            "time": "2010-01-12T12:23:20+00:00",
            "course": 0.0,
            "speed": 7.0,
            "depth": 0.0
          },
          {
            "time": "2010-01-12T12:24:10+00:00",
            "course": 0.0,
            "speed": 7.0,
            "depth": 0.0
          },
          {
            "time": "2010-01-12T12:25:00+00:00",
            "course": 0.0,
            "speed": 7.0,
            "depth": 0.0
          },
          {
            "time": "2010-01-12T12:25:50+00:00",
            "course": 0.0,
            "speed": 7.0,
            "depth": 0.0
          },
          {
            "time": "2010-01-12T12:26:40+00:00",
            "course": 0.0,
            "speed": 7.0,
            "depth": 0.0
          },
          {
            "time": "2010-01-12T12:27:30+00:00",
            "course": 0.0,
            "speed": 7.0,
            "depth": 0.0
          },
          {
            "time": "2010-01-12T12:28:20+00:00",
            "course": 0.0,
            "speed": 7.0,
            "depth": 0.0
          },
          {
            "time": "2010-01-12T12:29:10+00:00",
            "course": 0.0,
            "speed": 7.0,
            "depth": 0.0
          },
          {
            "time": "2010-01-12T12:30:00+00:00",
            "course": 0.0,
            "speed": 7.0,
            "depth": 0.0
          },
          {
            "time": "2010-01-12T12:30:50+00:00",
            "course": 0.0,
            "speed": 7.0,
            "depth": 0.0
          },
          {
            "time": "2010-01-12T12:31:40+00:00",
            "course": 0.0,
            "speed": 7.0,
            "depth": 0.0
          },
          {
            "time": "2010-01-12T12:32:30+00:00",
            "course": 0.0,
            "speed": 7.0,
            "depth": 0.0
          },
          {
            "time": "2010-01-12T12:33:20+00:00",
            "course": 0.0,
            "speed": 7.0,
            "depth": 0.0
          },
          {
            "time": "2010-01-12T12:34:10+00:00",
            "course": 0.0,
            "speed": 7.0,
            "depth": 0.0
          },
          {
            "time": "2010-01-12T12:35:00+00:00",
            "course": 0.0,
            "speed": 7.0,
            "depth": 0.0
          },
          {
            "time": "2010-01-12T12:35:50+00:00",
            "course": 0.0,
            "speed": 7.0,
            "depth": 0.0
          },
          {
            "time": "2010-01-12T12:36:40+00:00",
            "course": 0.0,
            "speed": 7.0,
            "depth": 0.0
          },
          {
            "time": "2010-01-12T12:37:30+00:00",
            "course": 0.0,
            "speed": 7.0,
            "depth": 0.0
          },
          {
            "time": "2010-01-12T12:38:20+00:00",
            "course": 0.0,
            "speed": 7.0,
            "depth": 0.0
          },
          {
            "time": "2010-01-12T12:39:10+00:00",
            "course": 0.0,
            "speed": 7.0,
            "depth": 0.0
          },
          {
            "time": "2010-01-12T12:40:00+00:00",
            "course": 0.0,
            "speed": 7.0,
            "depth": 0.0
          },
          {
            "time": "2010-01-12T12:40:50+00:00",
            "course": 0.0,
            "speed": 7.0,
            "depth": 0.0
          },
          {
            "time": "2010-01-12T12:41:40+00:00",
            "course": 0.0,
            "speed": 7.0,
            "depth": 0.0
          },
          {
            "time": "2010-01-12T12:42:30+00:00",
            "course": 0.0,
            "speed": 7.0,
            "depth": 0.0
          },
          {
            "time": "2010-01-12T12:43:20+00:00",
            "course": 0.0,
            "speed": 7.0,
            "depth": 0.0
          },
          {
            "time": "2010-01-12T12:44:10+00:00",
            "course": 0.0,
            "speed": 7.0,
            "depth": 0.0
          },
          {
            "time": "2010-01-12T12:45:00+00:00",
            "course": 0.0,
            "speed": 7.0,
            "depth": 0.0
          },
          {
            "time": "2010-01-12T12:45:50+00:00",
            "course": 0.0,
            "speed": 7.0,
            "depth": 0.0
          },
          {
            "time": "2010-01-12T12:46:40+00:00",
            "course": 0.0,
            "speed": 7.0,
            "depth": 0.0
          },
          {
            "time": "2010-01-12T12:47:30+00:00",
            "course": 0.0,
            "speed": 7.0,
            "depth": 0.0
          },
          {
            "time": "2010-01-12T12:48:20+00:00",
            "course": 0.0,
            "speed": 7.0,
            "depth": 0.0
          },
          {
            "time": "2010-01-12T12:49:10+00:00",
            "course": 0.0,
            "speed": 7.0,
            "depth": 0.0
          },
          {
            "time": "2010-01-12T12:50:00+00:00",
            "course": 0.0,
            "speed": 7.0,
            "depth": 0.0
          },
          {
            "time": "2010-01-12T12:50:50+00:00",
            "course": 0.0,
            "speed": 7.0,
            "depth": 0.0
          },
          {
            "time": "2010-01-12T12:51:40+00:00",
            "course": 0.0,
            "speed": 7.0,
            "depth": 0.0
          },
          {
            "time": "2010-01-12T12:52:30+00:00",
            "course": 0.0,
            "speed": 7.0,
            "depth": 0.0
          },
          {
            "time": "2010-01-12T12:53:20+00:00",
            "course": 0.0,
            "speed": 7.0,
            "depth": 0.0
          },
          {
            "time": "2010-01-12T12:54:10+00:00",
            "course": 0.0,
            "speed": 7.0,
            "depth": 0.0
          },
          {
            "time": "2010-01-12T12:55:00+00:00",
            "course": 0.0,
            "speed": 7.0,
            "depth": 0.0
          },
          {
            "time": "2010-01-12T12:55:50+00:00",
            "course": 0.0,
            "speed": 7.0,
            "depth": 0.0
          },
          {
            "time": "2010-01-12T12:56:40+00:00",
            "course": 0.0,
            "speed": 7.0,
            "depth": 0.0
          },
          {
            "time": "2010-01-12T12:57:30+00:00",
            "course": 0.0,
            "speed": 7.0,
            "depth": 0.0
          },
          {
            "time": "2010-01-12T12:58:20+00:00",
            "course": 0.0,
            "speed": 7.0,
            "depth": 0.0
          },
          {
            "time": "2010-01-12T12:59:10+00:00",
            "course": 0.0,
            "speed": 7.0,
            "depth": 0.0
          },
          {
            "time": "2010-01-12T13:00:00+00:00",
            "course": 0.0,
            "speed": 7.0,
            "depth": 0.0
          }
        ],
        "style": {
          "line": {
            "color": "#808080"
          },
          "point": {
            "shape": "circle",
            "radius": 3.0,
            "fill_color": "#808080",
            "color": "#808080"
          }
        },
        "default_position_style": {
          "show_symbol": false,
          "symbol": "circle",
          "show_label": false
        },
        "symbol_interval": "PT5M",
        "label_interval": "PT15M",
        "provenance": [
          {
            "activity_id": "1ae45a19-9c63-4d61-bf66-3d41a4019f87",
            "timestamp": "2026-03-21T10:15:00.251853Z",
            "was_generated_by": {
              "tool": "dpf-parser",
              "tool_version": "1.0.0",
              "parameters": []
            },
            "used": [],
            "generated": [
              "3a2f3ed2-55ef-4175-aebf-6e1e890da95c"
            ],
            "execution_duration": "PT0S"
          }
        ]
      }
    }
  ]
}
