{
  "type": "FeatureCollection",
  "features": [
    {
      "type": "Feature",
      "id": "dadccbf8-23ac-4381-84ad-08fdbe9b2583",
      "geometry": {
        "type": "LineString",
        "coordinates": [
          [
            -87.6063057,
            41.8688789
          ],
          [
            -87.6072548,
            41.8701289
          ],
          [
            -87.6082098,
            41.8713539
          ],
          [
            -87.6091889,
            41.8725706
          ],
          [
            -87.6101041,
            41.8737762
          ],
          [
            -87.6109949,
            41.8749789
          ],
          [
            -87.6119531,
            41.8761789
          ],
          [
            -87.6129149,
            41.8773762
          ],
          [
            -87.6138,
            41.8785678
          ],
          [
            -87.6146837,
            41.8797428
          ],
          [
            -87.6156258,
            41.8809289
          ],
          [
            -87.6165672,
            41.8821067
          ],
          [
            -87.617479,
            41.8832928
          ],
          [
            -87.6183505,
            41.8844734
          ],
          [
            -87.6192594,
            41.8856484
          ],
          [
            -87.6201915,
            41.8868067
          ],
          [
            -87.6210886,
            41.8879734
          ],
          [
            -87.6219812,
            41.8891595
          ],
          [
            -87.6228976,
            41.8903512
          ],
          [
            -87.6238247,
            41.8915206
          ],
          [
            -87.6247281,
            41.8926845
          ],
          [
            -87.6256253,
            41.8938762
          ],
          [
            -87.6265683,
            41.8950734
          ],
          [
            -87.6275187,
            41.8962512
          ]
        ]
      },
      "properties": {
        "kind": "TRACK",
        "platform_id": "COLLINGWOOD",
        "platform_name": "COLLINGWOOD",
        "track_type": "CONTACT",
        "start_time": "1995-12-12T05:03:00+00:00",
        "end_time": "1995-12-12T05:26:00+00:00",
        "positions": [
          {
            "time": "1995-12-12T05:03:00+00:00",
            "course": 0.3,
            "speed": 3.5,
            "depth": 0.0
          },
          {
            "time": "1995-12-12T05:04:00+00:00",
            "course": 359.6,
            "speed": 3.5,
            "depth": 0.0
          },
          {
            "time": "1995-12-12T05:05:00+00:00",
            "course": 358.5,
            "speed": 3.5,
            "depth": 0.0
          },
          {
            "time": "1995-12-12T05:06:00+00:00",
            "course": 0.4,
            "speed": 3.5,
            "depth": 0.0
          },
          {
            "time": "1995-12-12T05:07:00+00:00",
            "course": 1.1,
            "speed": 3.5,
            "depth": 0.0
          },
          {
            "time": "1995-12-12T05:08:00+00:00",
            "course": 358.8,
            "speed": 3.5,
            "depth": 0.0
          },
          {
            "time": "1995-12-12T05:09:00+00:00",
            "course": 358.7,
            "speed": 3.5,
            "depth": 0.0
          },
          {
            "time": "1995-12-12T05:10:00+00:00",
            "course": 0.9,
            "speed": 3.5,
            "depth": 0.0
          },
          {
            "time": "1995-12-12T05:11:10+00:00",
            "course": 0.7,
            "speed": 3.5,
            "depth": 0.0
          },
          {
            "time": "1995-12-12T05:12:20+00:00",
            "course": 359.1,
            "speed": 3.5,
            "depth": 0.0
          },
          {
            "time": "1995-12-12T05:13:30+00:00",
            "course": 358.8,
            "speed": 3.5,
            "depth": 0.0
          },
          {
            "time": "1995-12-12T05:14:40+00:00",
            "course": 0.0,
            "speed": 3.5,
            "depth": 0.0
          },
          {
            "time": "1995-12-12T05:15:50+00:00",
            "course": 1.2,
            "speed": 3.5,
            "depth": 0.0
          },
          {
            "time": "1995-12-12T05:16:20+00:00",
            "course": 359.7,
            "speed": 3.5,
            "depth": 0.0
          },
          {
            "time": "1995-12-12T05:17:00+00:00",
            "course": 358.6,
            "speed": 3.5,
            "depth": 0.0
          },
          {
            "time": "1995-12-12T05:18:00+00:00",
            "course": 0.0,
            "speed": 3.5,
            "depth": 0.0
          },
          {
            "time": "1995-12-12T05:19:00+00:00",
            "course": 0.7,
            "speed": 3.5,
            "depth": 0.0
          },
          {
            "time": "1995-12-12T05:20:00+00:00",
            "course": 0.0,
            "speed": 3.5,
            "depth": 0.0
          },
          {
            "time": "1995-12-12T05:21:00+00:00",
            "course": 359.1,
            "speed": 3.5,
            "depth": 0.0
          },
          {
            "time": "1995-12-12T05:22:00+00:00",
            "course": 359.7,
            "speed": 3.5,
            "depth": 0.0
          },
          {
            "time": "1995-12-12T05:23:00+00:00",
            "course": 0.7,
            "speed": 3.5,
            "depth": 0.0
          },
          {
            "time": "1995-12-12T05:24:00+00:00",
            "course": 359.2,
            "speed": 3.5,
            "depth": 0.0
          },
          {
            "time": "1995-12-12T05:25:00+00:00",
            "course": 358.5,
            "speed": 3.5,
            "depth": 0.0
          },
          {
            "time": "1995-12-12T05:26:00+00:00",
            "course": 5.6,
            "speed": 3.5,
            "depth": 0.0
          }
        ],
        "style": {
          "line": {
            "color": "#808080"
          },
          "point": {
            "shape": "circle",
            "radius": 3.0,
            "fill_color": "#808080",
            "color": "#808080"
          }
        },
        "default_position_style": {
          "show_symbol": false,
          "symbol": "circle",
          "show_label": false
        },
        "symbol_interval": "PT1M",
        "label_interval": "PT5M",
        "provenance": [
          {
            "activity_id": "4e455807-e2f7-481f-aa15-48bd31f60c96",
            "timestamp": "2026-04-13T23:12:32.482440Z",
            "was_generated_by": {
              "tool": "dpf-parser",
              "tool_version": "1.0.0",
              "parameters": []
            },
            "used": [],
            "generated": [
              "dadccbf8-23ac-4381-84ad-08fdbe9b2583"
            ],
            "execution_duration": "PT0.000794S"
          }
        ]
      }
    },
    {
      "type": "Feature",
      "id": "79604de0-c5bb-40e0-9230-5be9dadd8b32",
      "geometry": {
        "type": "LineString",
        "coordinates": [
          [
            -87.5860062,
            41.9081257
          ],
          [
            -87.5889433,
            41.9081119
          ],
          [
            -87.5922153,
            41.9080924
          ],
          [
            -87.5956764,
            41.9080924
          ],
          [
            -87.5992577,
            41.9080285
          ],
          [
            -87.60293,
            41.9080591
          ],
          [
            -87.6066037,
            41.908023
          ],
          [
            -87.6103312,
            41.907973
          ],
          [
            -87.614057,
            41.9080007
          ],
          [
            -87.6178312,
            41.9080035
          ],
          [
            -87.6215633,
            41.9079369
          ],
          [
            -87.6253507,
            41.9080341
          ],
          [
            -87.6290322,
            41.9079896
          ],
          [
            -87.6315387,
            41.9069896
          ],
          [
            -87.633848,
            41.9058063
          ],
          [
            -87.6362398,
            41.9046369
          ],
          [
            -87.6386197,
            41.9033785
          ],
          [
            -87.6409207,
            41.9020841
          ],
          [
            -87.6432452,
            41.9007952
          ],
          [
            -87.6456392,
            41.8995369
          ],
          [
            -87.6479467,
            41.8982396
          ],
          [
            -87.6503618,
            41.8969757
          ],
          [
            -87.6527065,
            41.8956952
          ],
          [
            -87.6550609,
            41.8943896
          ],
          [
            -87.6574085,
            41.8931091
          ],
          [
            -87.6597221,
            41.8918007
          ],
          [
            -87.662054,
            41.8904869
          ]
        ]
      },
      "properties": {
        "kind": "TRACK",
        "platform_id": "NELSON",
        "platform_name": "NELSON",
        "track_type": "CONTACT",
        "start_time": "1995-12-12T05:00:00+00:00",
        "end_time": "1995-12-12T05:26:00+00:00",
        "positions": [
          {
            "time": "1995-12-12T05:00:00+00:00",
            "course": 269.7,
            "speed": 2.0,
            "depth": 0.0
          },
          {
            "time": "1995-12-12T05:01:00+00:00",
            "course": 269.7,
            "speed": 2.0,
            "depth": 0.0
          },
          {
            "time": "1995-12-12T05:02:00+00:00",
            "course": 269.9,
            "speed": 2.0,
            "depth": 0.0
          },
          {
            "time": "1995-12-12T05:03:00+00:00",
            "course": 268.7,
            "speed": 2.0,
            "depth": 0.0
          },
          {
            "time": "1995-12-12T05:04:00+00:00",
            "course": 270.6,
            "speed": 2.0,
            "depth": 0.0
          },
          {
            "time": "1995-12-12T05:05:00+00:00",
            "course": 269.4,
            "speed": 2.0,
            "depth": 0.0
          },
          {
            "time": "1995-12-12T05:06:00+00:00",
            "course": 269.0,
            "speed": 2.0,
            "depth": 0.0
          },
          {
            "time": "1995-12-12T05:07:00+00:00",
            "course": 270.5,
            "speed": 2.0,
            "depth": 0.0
          },
          {
            "time": "1995-12-12T05:08:00+00:00",
            "course": 269.9,
            "speed": 2.0,
            "depth": 0.0
          },
          {
            "time": "1995-12-12T05:09:00+00:00",
            "course": 268.6,
            "speed": 2.0,
            "depth": 0.0
          },
          {
            "time": "1995-12-12T05:10:00+00:00",
            "course": 272.1,
            "speed": 2.0,
            "depth": 0.0
          },
          {
            "time": "1995-12-12T05:11:00+00:00",
            "course": 269.1,
            "speed": 2.0,
            "depth": 0.0
          },
          {
            "time": "1995-12-12T05:12:00+00:00",
            "course": 245.8,
            "speed": 2.0,
            "depth": 0.0
          },
          {
            "time": "1995-12-12T05:13:00+00:00",
            "course": 241.5,
            "speed": 2.0,
            "depth": 0.0
          },
          {
            "time": "1995-12-12T05:14:00+00:00",
            "course": 242.3,
            "speed": 2.0,
            "depth": 0.0
          },
          {
            "time": "1995-12-12T05:15:00+00:00",
            "course": 240.9,
            "speed": 2.0,
            "depth": 0.0
          },
          {
            "time": "1995-12-12T05:16:00+00:00",
            "course": 239.9,
            "speed": 2.0,
            "depth": 0.0
          },
          {
            "time": "1995-12-12T05:17:00+00:00",
            "course": 240.1,
            "speed": 2.0,
            "depth": 0.0
          },
          {
            "time": "1995-12-12T05:18:00+00:00",
            "course": 241.0,
            "speed": 2.0,
            "depth": 0.0
          },
          {
            "time": "1995-12-12T05:19:00+00:00",
            "course": 239.9,
            "speed": 2.0,
            "depth": 0.0
          },
          {
            "time": "1995-12-12T05:20:00+00:00",
            "course": 241.1,
            "speed": 2.0,
            "depth": 0.0
          },
          {
            "time": "1995-12-12T05:21:00+00:00",
            "course": 240.3,
            "speed": 2.0,
            "depth": 0.0
          },
          {
            "time": "1995-12-12T05:22:00+00:00",
            "course": 240.1,
            "speed": 2.0,
            "depth": 0.0
          },
          {
            "time": "1995-12-12T05:23:00+00:00",
            "course": 240.3,
            "speed": 2.0,
            "depth": 0.0
          },
          {
            "time": "1995-12-12T05:24:00+00:00",
            "course": 239.8,
            "speed": 2.0,
            "depth": 0.0
          },
          {
            "time": "1995-12-12T05:25:00+00:00",
            "course": 239.8,
            "speed": 2.0,
            "depth": 0.0
          },
          {
            "time": "1995-12-12T05:26:00+00:00",
            "course": 240.6,
            "speed": 2.0,
            "depth": 0.0
          }
        ],
        "style": {
          "line": {
            "color": "#808080"
          },
          "point": {
            "shape": "circle",
            "radius": 3.0,
            "fill_color": "#808080",
            "color": "#808080"
          }
        },
        "default_position_style": {
          "show_symbol": false,
          "symbol": "circle",
          "show_label": false
        },
        "symbol_interval": "PT1M",
        "label_interval": "PT5M",
        "provenance": [
          {
            "activity_id": "4e455807-e2f7-481f-aa15-48bd31f60c96",
            "timestamp": "2026-04-13T23:12:32.482440Z",
            "was_generated_by": {
              "tool": "dpf-parser",
              "tool_version": "1.0.0",
              "parameters": []
            },
            "used": [],
            "generated": [
              "79604de0-c5bb-40e0-9230-5be9dadd8b32"
            ],
            "execution_duration": "PT0.000794S"
          }
        ]
      }
    }
  ]
}