{
  "type": "FeatureCollection",
  "features": [
    {
      "type": "Feature",
      "id": "4dcc99ef-2f15-4732-9a37-0706214ba394",
      "geometry": null,
      "properties": {
        "kind": "SENSOR_CONTACT",
        "parent_track": "NONSUCH",
        "time": "2009-07-22T04:14:34+00:00",
        "bearing": 59.3,
        "range": 300.8,
        "frequency": 49.96,
        "sensor_name": "Contact_bearings",
        "label": "0414",
        "provenance": [
          {
            "activity_id": "82385597-dcd7-4547-8a0b-a3dcb4797940",
            "timestamp": "2026-03-21T10:15:01.472252Z",
            "was_generated_by": {
              "tool": "dsf-parser",
              "tool_version": "1.0.0",
              "parameters": []
            },
            "used": [],
            "generated": [
              "4dcc99ef-2f15-4732-9a37-0706214ba394"
            ],
            "execution_duration": "PT0S"
          }
        ]
      }
    },
    {
      "type": "Feature",
      "id": "8bee1248-b295-4dc2-bf91-11325eac08e7",
      "geometry": null,
      "properties": {
        "kind": "SENSOR_CONTACT",
        "parent_track": "NONSUCH",
        "time": "2009-07-22T04:15:22+00:00",
        "bearing": 59.3,
        "range": 300.8,
        "frequency": 49.92,
        "sensor_name": "Contact_bearings",
        "label": "0415",
        "provenance": [
          {
            "activity_id": "82385597-dcd7-4547-8a0b-a3dcb4797940",
            "timestamp": "2026-03-21T10:15:01.472252Z",
            "was_generated_by": {
              "tool": "dsf-parser",
              "tool_version": "1.0.0",
              "parameters": []
            },
            "used": [],
            "generated": [
              "8bee1248-b295-4dc2-bf91-11325eac08e7"
            ],
            "execution_duration": "PT0S"
          }
        ]
      }
    },
    {
      "type": "Feature",
      "id": "d3df3ddc-3a91-4262-8644-6df8e346a285",
      "geometry": null,
      "properties": {
        "kind": "SENSOR_CONTACT",
        "parent_track": "NONSUCH",
        "time": "2009-07-22T04:16:45+00:00",
        "bearing": 59.3,
        "range": 300.8,
        "frequency": 49.92,
        "sensor_name": "Contact_bearings",
        "label": "0416",
        "provenance": [
          {
            "activity_id": "82385597-dcd7-4547-8a0b-a3dcb4797940",
            "timestamp": "2026-03-21T10:15:01.472252Z",
            "was_generated_by": {
              "tool": "dsf-parser",
              "tool_version": "1.0.0",
              "parameters": []
            },
            "used": [],
            "generated": [
              "d3df3ddc-3a91-4262-8644-6df8e346a285"
            ],
            "execution_duration": "PT0S"
          }
        ]
      }
    },
    {
      "type": "Feature",
      "id": "8080751b-9146-4ac8-8fff-186bcb984e4d",
      "geometry": null,
      "properties": {
        "kind": "SENSOR_CONTACT",
        "parent_track": "NONSUCH",
        "time": "2009-07-22T04:18:25+00:00",
        "bearing": 59.5,
        "range": 300.5,
        "frequency": 49.92,
        "sensor_name": "Contact_bearings",
        "label": "0418",
        "provenance": [
          {
            "activity_id": "82385597-dcd7-4547-8a0b-a3dcb4797940",
            "timestamp": "2026-03-21T10:15:01.472252Z",
            "was_generated_by": {
              "tool": "dsf-parser",
              "tool_version": "1.0.0",
              "parameters": []
            },
            "used": [],
            "generated": [
              "8080751b-9146-4ac8-8fff-186bcb984e4d"
            ],
            "execution_duration": "PT0S"
          }
        ]
      }
    },
    {
      "type": "Feature",
      "id": "0c62bed9-fb88-42d6-ba29-68cb537113c5",
      "geometry": null,
      "properties": {
        "kind": "SENSOR_CONTACT",
        "parent_track": "NONSUCH",
        "time": "2009-07-22T04:20:36+00:00",
        "bearing": 60.0,
        "range": 300.0,
        "frequency": 49.92,
        "sensor_name": "Contact_bearings",
        "label": "0420",
        "provenance": [
          {
            "activity_id": "82385597-dcd7-4547-8a0b-a3dcb4797940",
            "timestamp": "2026-03-21T10:15:01.472252Z",
            "was_generated_by": {
              "tool": "dsf-parser",
              "tool_version": "1.0.0",
              "parameters": []
            },
            "used": [],
            "generated": [
              "0c62bed9-fb88-42d6-ba29-68cb537113c5"
            ],
            "execution_duration": "PT0S"
          }
        ]
      }
    },
    {
      "type": "Feature",
      "id": "7a428f6a-806e-46cd-a3a2-82146ad35271",
      "geometry": null,
      "properties": {
        "kind": "SENSOR_CONTACT",
        "parent_track": "NONSUCH",
        "time": "2009-07-22T04:23:12+00:00",
        "bearing": 60.8,
        "range": 299.3,
        "frequency": 49.92,
        "sensor_name": "Contact_bearings",
        "label": "0423",
        "provenance": [
          {
            "activity_id": "82385597-dcd7-4547-8a0b-a3dcb4797940",
            "timestamp": "2026-03-21T10:15:01.472252Z",
            "was_generated_by": {
              "tool": "dsf-parser",
              "tool_version": "1.0.0",
              "parameters": []
            },
            "used": [],
            "generated": [
              "7a428f6a-806e-46cd-a3a2-82146ad35271"
            ],
            "execution_duration": "PT0S"
          }
        ]
      }
    },
    {
      "type": "Feature",
      "id": "a30d03e7-312a-4efc-aba6-e327e4dbdb6a",
      "geometry": null,
      "properties": {
        "kind": "SENSOR_CONTACT",
        "parent_track": "NONSUCH",
        "time": "2009-07-22T04:25:35+00:00",
        "bearing": 61.3,
        "range": 298.8,
        "frequency": 49.92,
        "sensor_name": "Contact_bearings",
        "label": "0425",
        "provenance": [
          {
            "activity_id": "82385597-dcd7-4547-8a0b-a3dcb4797940",
            "timestamp": "2026-03-21T10:15:01.472252Z",
            "was_generated_by": {
              "tool": "dsf-parser",
              "tool_version": "1.0.0",
              "parameters": []
            },
            "used": [],
            "generated": [
              "a30d03e7-312a-4efc-aba6-e327e4dbdb6a"
            ],
            "execution_duration": "PT0S"
          }
        ]
      }
    },
    {
      "type": "Feature",
      "id": "50a8e6b6-cade-47a6-9606-232764513731",
      "geometry": null,
      "properties": {
        "kind": "SENSOR_CONTACT",
        "parent_track": "NONSUCH",
        "time": "2009-07-22T04:27:11+00:00",
        "bearing": 61.3,
        "range": 298.8,
        "frequency": 49.92,
        "sensor_name": "Contact_bearings",
        "label": "0427",
        "provenance": [
          {
            "activity_id": "82385597-dcd7-4547-8a0b-a3dcb4797940",
            "timestamp": "2026-03-21T10:15:01.472252Z",
            "was_generated_by": {
              "tool": "dsf-parser",
              "tool_version": "1.0.0",
              "parameters": []
            },
            "used": [],
            "generated": [
              "50a8e6b6-cade-47a6-9606-232764513731"
            ],
            "execution_duration": "PT0S"
          }
        ]
      }
    },
    {
      "type": "Feature",
      "id": "1bd9c01f-5624-4223-a43e-f1256e18fcf4",
      "geometry": null,
      "properties": {
        "kind": "SENSOR_CONTACT",
        "parent_track": "NONSUCH",
        "time": "2009-07-22T04:29:18+00:00",
        "bearing": 61.8,
        "range": 298.3,
        "frequency": 49.92,
        "sensor_name": "Contact_bearings",
        "label": "0429",
        "provenance": [
          {
            "activity_id": "82385597-dcd7-4547-8a0b-a3dcb4797940",
            "timestamp": "2026-03-21T10:15:01.472252Z",
            "was_generated_by": {
              "tool": "dsf-parser",
              "tool_version": "1.0.0",
              "parameters": []
            },
            "used": [],
            "generated": [
              "1bd9c01f-5624-4223-a43e-f1256e18fcf4"
            ],
            "execution_duration": "PT0S"
          }
        ]
      }
    },
    {
      "type": "Feature",
      "id": "cb959ccf-6d93-4f22-bc69-a753b37c6701",
      "geometry": null,
      "properties": {
        "kind": "SENSOR_CONTACT",
        "parent_track": "NONSUCH",
        "time": "2009-07-22T04:31:34+00:00",
        "bearing": 62.0,
        "range": 298.0,
        "frequency": 49.92,
        "sensor_name": "Contact_bearings",
        "label": "0431",
        "provenance": [
          {
            "activity_id": "82385597-dcd7-4547-8a0b-a3dcb4797940",
            "timestamp": "2026-03-21T10:15:01.472252Z",
            "was_generated_by": {
              "tool": "dsf-parser",
              "tool_version": "1.0.0",
              "parameters": []
            },
            "used": [],
            "generated": [
              "cb959ccf-6d93-4f22-bc69-a753b37c6701"
            ],
            "execution_duration": "PT0S"
          }
        ]
      }
    },
    {
      "type": "Feature",
      "id": "d2c36391-c90c-477c-bbb4-934adcfc34ca",
      "geometry": null,
      "properties": {
        "kind": "SENSOR_CONTACT",
        "parent_track": "NONSUCH",
        "time": "2009-07-22T04:34:09+00:00",
        "bearing": 62.3,
        "range": 297.8,
        "frequency": 49.92,
        "sensor_name": "Contact_bearings",
        "label": "0434",
        "provenance": [
          {
            "activity_id": "82385597-dcd7-4547-8a0b-a3dcb4797940",
            "timestamp": "2026-03-21T10:15:01.472252Z",
            "was_generated_by": {
              "tool": "dsf-parser",
              "tool_version": "1.0.0",
              "parameters": []
            },
            "used": [],
            "generated": [
              "d2c36391-c90c-477c-bbb4-934adcfc34ca"
            ],
            "execution_duration": "PT0S"
          }
        ]
      }
    },
    {
      "type": "Feature",
      "id": "ca6c0ccb-4efe-47fd-a0c1-2989aab30fd5",
      "geometry": null,
      "properties": {
        "kind": "SENSOR_CONTACT",
        "parent_track": "NONSUCH",
        "time": "2009-07-22T04:35:57+00:00",
        "bearing": 62.3,
        "range": 297.8,
        "frequency": 49.92,
        "sensor_name": "Contact_bearings",
        "label": "0435",
        "provenance": [
          {
            "activity_id": "82385597-dcd7-4547-8a0b-a3dcb4797940",
            "timestamp": "2026-03-21T10:15:01.472252Z",
            "was_generated_by": {
              "tool": "dsf-parser",
              "tool_version": "1.0.0",
              "parameters": []
            },
            "used": [],
            "generated": [
              "ca6c0ccb-4efe-47fd-a0c1-2989aab30fd5"
            ],
            "execution_duration": "PT0S"
          }
        ]
      }
    },
    {
      "type": "Feature",
      "id": "726341b6-9030-4509-a76c-18aaa7042a1f",
      "geometry": null,
      "properties": {
        "kind": "SENSOR_CONTACT",
        "parent_track": "NONSUCH",
        "time": "2009-07-22T04:37:56+00:00",
        "bearing": 62.5,
        "range": 297.5,
        "frequency": 49.92,
        "sensor_name": "Contact_bearings",
        "label": "0437",
        "provenance": [
          {
            "activity_id": "82385597-dcd7-4547-8a0b-a3dcb4797940",
            "timestamp": "2026-03-21T10:15:01.472252Z",
            "was_generated_by": {
              "tool": "dsf-parser",
              "tool_version": "1.0.0",
              "parameters": []
            },
            "used": [],
            "generated": [
              "726341b6-9030-4509-a76c-18aaa7042a1f"
            ],
            "execution_duration": "PT0S"
          }
        ]
      }
    },
    {
      "type": "Feature",
      "id": "023733a0-657a-4318-b4b3-45ac08160551",
      "geometry": null,
      "properties": {
        "kind": "SENSOR_CONTACT",
        "parent_track": "NONSUCH",
        "time": "2009-07-22T04:40:00+00:00",
        "bearing": 63.0,
        "range": 297.0,
        "frequency": 49.92,
        "sensor_name": "Contact_bearings",
        "label": "0440",
        "provenance": [
          {
            "activity_id": "82385597-dcd7-4547-8a0b-a3dcb4797940",
            "timestamp": "2026-03-21T10:15:01.472252Z",
            "was_generated_by": {
              "tool": "dsf-parser",
              "tool_version": "1.0.0",
              "parameters": []
            },
            "used": [],
            "generated": [
              "023733a0-657a-4318-b4b3-45ac08160551"
            ],
            "execution_duration": "PT0S"
          }
        ]
      }
    },
    {
      "type": "Feature",
      "id": "8ae094da-71cf-4e41-ba01-7a910ec54bc5",
      "geometry": null,
      "properties": {
        "kind": "SENSOR_CONTACT",
        "parent_track": "NONSUCH",
        "time": "2009-07-22T04:41:27+00:00",
        "bearing": 63.5,
        "range": 296.5,
        "frequency": 49.92,
        "sensor_name": "Contact_bearings",
        "label": "0441",
        "provenance": [
          {
            "activity_id": "82385597-dcd7-4547-8a0b-a3dcb4797940",
            "timestamp": "2026-03-21T10:15:01.472252Z",
            "was_generated_by": {
              "tool": "dsf-parser",
              "tool_version": "1.0.0",
              "parameters": []
            },
            "used": [],
            "generated": [
              "8ae094da-71cf-4e41-ba01-7a910ec54bc5"
            ],
            "execution_duration": "PT0S"
          }
        ]
      }
    },
    {
      "type": "Feature",
      "id": "ec85c303-bb38-4de1-b940-9f71fcf5e0af",
      "geometry": null,
      "properties": {
        "kind": "SENSOR_CONTACT",
        "parent_track": "NONSUCH",
        "time": "2009-07-22T04:42:32+00:00",
        "bearing": 63.6,
        "range": 296.2,
        "frequency": 49.96,
        "sensor_name": "Contact_bearings",
        "label": "0442",
        "provenance": [
          {
            "activity_id": "82385597-dcd7-4547-8a0b-a3dcb4797940",
            "timestamp": "2026-03-21T10:15:01.472252Z",
            "was_generated_by": {
              "tool": "dsf-parser",
              "tool_version": "1.0.0",
              "parameters": []
            },
            "used": [],
            "generated": [
              "ec85c303-bb38-4de1-b940-9f71fcf5e0af"
            ],
            "execution_duration": "PT0S"
          }
        ]
      }
    },
    {
      "type": "Feature",
      "id": "3be04339-8d97-413a-9a5a-7f130fa68b40",
      "geometry": null,
      "properties": {
        "kind": "SENSOR_CONTACT",
        "parent_track": "NONSUCH",
        "time": "2009-07-22T04:43:12+00:00",
        "bearing": 63.7,
        "range": 295.8,
        "frequency": 50.06,
        "sensor_name": "Contact_bearings",
        "label": "0443",
        "provenance": [
          {
            "activity_id": "82385597-dcd7-4547-8a0b-a3dcb4797940",
            "timestamp": "2026-03-21T10:15:01.472252Z",
            "was_generated_by": {
              "tool": "dsf-parser",
              "tool_version": "1.0.0",
              "parameters": []
            },
            "used": [],
            "generated": [
              "3be04339-8d97-413a-9a5a-7f130fa68b40"
            ],
            "execution_duration": "PT0S"
          }
        ]
      }
    },
    {
      "type": "Feature",
      "id": "e4bf3a9e-8f43-4e6f-ad2b-d88288cadfb5",
      "geometry": null,
      "properties": {
        "kind": "SENSOR_CONTACT",
        "parent_track": "NONSUCH",
        "time": "2009-07-22T04:43:19+00:00",
        "bearing": 64.5,
        "range": 295.5,
        "frequency": 50.06,
        "sensor_name": "Contact_bearings",
        "label": "0443",
        "provenance": [
          {
            "activity_id": "82385597-dcd7-4547-8a0b-a3dcb4797940",
            "timestamp": "2026-03-21T10:15:01.472252Z",
            "was_generated_by": {
              "tool": "dsf-parser",
              "tool_version": "1.0.0",
              "parameters": []
            },
            "used": [],
            "generated": [
              "e4bf3a9e-8f43-4e6f-ad2b-d88288cadfb5"
            ],
            "execution_duration": "PT0S"
          }
        ]
      }
    },
    {
      "type": "Feature",
      "id": "b26744b3-7a61-433e-b32f-b5c2bd857ebb",
      "geometry": null,
      "properties": {
        "kind": "SENSOR_CONTACT",
        "parent_track": "NONSUCH",
        "time": "2009-07-22T04:44:56+00:00",
        "bearing": 66.5,
        "range": 293.5,
        "frequency": 50.23,
        "sensor_name": "Contact_bearings",
        "label": "0444",
        "provenance": [
          {
            "activity_id": "82385597-dcd7-4547-8a0b-a3dcb4797940",
            "timestamp": "2026-03-21T10:15:01.472252Z",
            "was_generated_by": {
              "tool": "dsf-parser",
              "tool_version": "1.0.0",
              "parameters": []
            },
            "used": [],
            "generated": [
              "b26744b3-7a61-433e-b32f-b5c2bd857ebb"
            ],
            "execution_duration": "PT0S"
          }
        ]
      }
    },
    {
      "type": "Feature",
      "id": "9202b7bf-5c05-4f14-98f9-64bd8a10d4b0",
      "geometry": null,
      "properties": {
        "kind": "SENSOR_CONTACT",
        "parent_track": "NONSUCH",
        "time": "2009-07-22T04:45:44+00:00",
        "bearing": 67.0,
        "range": 293.0,
        "frequency": 50.23,
        "sensor_name": "Contact_bearings",
        "label": "0445",
        "provenance": [
          {
            "activity_id": "82385597-dcd7-4547-8a0b-a3dcb4797940",
            "timestamp": "2026-03-21T10:15:01.472252Z",
            "was_generated_by": {
              "tool": "dsf-parser",
              "tool_version": "1.0.0",
              "parameters": []
            },
            "used": [],
            "generated": [
              "9202b7bf-5c05-4f14-98f9-64bd8a10d4b0"
            ],
            "execution_duration": "PT0S"
          }
        ]
      }
    },
    {
      "type": "Feature",
      "id": "7dcb9caf-a0c4-454e-aff2-82eb5d2a8d2a",
      "geometry": null,
      "properties": {
        "kind": "SENSOR_CONTACT",
        "parent_track": "NONSUCH",
        "time": "2009-07-22T04:46:30+00:00",
        "bearing": 67.3,
        "range": 292.8,
        "frequency": 50.16,
        "sensor_name": "Contact_bearings",
        "label": "0446",
        "provenance": [
          {
            "activity_id": "82385597-dcd7-4547-8a0b-a3dcb4797940",
            "timestamp": "2026-03-21T10:15:01.472252Z",
            "was_generated_by": {
              "tool": "dsf-parser",
              "tool_version": "1.0.0",
              "parameters": []
            },
            "used": [],
            "generated": [
              "7dcb9caf-a0c4-454e-aff2-82eb5d2a8d2a"
            ],
            "execution_duration": "PT0S"
          }
        ]
      }
    },
    {
      "type": "Feature",
      "id": "19cd8001-cb48-4a5c-8d2c-7710549de394",
      "geometry": null,
      "properties": {
        "kind": "SENSOR_CONTACT",
        "parent_track": "NONSUCH",
        "time": "2009-07-22T04:48:18+00:00",
        "bearing": 69.8,
        "range": 290.3,
        "frequency": 49.96,
        "sensor_name": "Contact_bearings",
        "label": "0448",
        "provenance": [
          {
            "activity_id": "82385597-dcd7-4547-8a0b-a3dcb4797940",
            "timestamp": "2026-03-21T10:15:01.472252Z",
            "was_generated_by": {
              "tool": "dsf-parser",
              "tool_version": "1.0.0",
              "parameters": []
            },
            "used": [],
            "generated": [
              "19cd8001-cb48-4a5c-8d2c-7710549de394"
            ],
            "execution_duration": "PT0S"
          }
        ]
      }
    },
    {
      "type": "Feature",
      "id": "714984da-9b03-40b1-b125-12ecea8c9081",
      "geometry": null,
      "properties": {
        "kind": "SENSOR_CONTACT",
        "parent_track": "NONSUCH",
        "time": "2009-07-22T04:49:37+00:00",
        "bearing": 71.0,
        "range": 289.0,
        "frequency": 49.92,
        "sensor_name": "Contact_bearings",
        "label": "0449",
        "provenance": [
          {
            "activity_id": "82385597-dcd7-4547-8a0b-a3dcb4797940",
            "timestamp": "2026-03-21T10:15:01.472252Z",
            "was_generated_by": {
              "tool": "dsf-parser",
              "tool_version": "1.0.0",
              "parameters": []
            },
            "used": [],
            "generated": [
              "714984da-9b03-40b1-b125-12ecea8c9081"
            ],
            "execution_duration": "PT0S"
          }
        ]
      }
    },
    {
      "type": "Feature",
      "id": "228c5f87-2bc4-4258-ac2e-c73ad3feb999",
      "geometry": null,
      "properties": {
        "kind": "SENSOR_CONTACT",
        "parent_track": "NONSUCH",
        "time": "2009-07-22T04:50:49+00:00",
        "bearing": 71.8,
        "range": 288.3,
        "frequency": 49.96,
        "sensor_name": "Contact_bearings",
        "label": "0450",
        "provenance": [
          {
            "activity_id": "82385597-dcd7-4547-8a0b-a3dcb4797940",
            "timestamp": "2026-03-21T10:15:01.472252Z",
            "was_generated_by": {
              "tool": "dsf-parser",
              "tool_version": "1.0.0",
              "parameters": []
            },
            "used": [],
            "generated": [
              "228c5f87-2bc4-4258-ac2e-c73ad3feb999"
            ],
            "execution_duration": "PT0S"
          }
        ]
      }
    },
    {
      "type": "Feature",
      "id": "f8c9507e-14d1-4783-adf9-d5161b74876b",
      "geometry": null,
      "properties": {
        "kind": "SENSOR_CONTACT",
        "parent_track": "NONSUCH",
        "time": "2009-07-22T04:52:01+00:00",
        "bearing": 72.0,
        "range": 288.0,
        "frequency": 49.92,
        "sensor_name": "Contact_bearings",
        "label": "0452",
        "provenance": [
          {
            "activity_id": "82385597-dcd7-4547-8a0b-a3dcb4797940",
            "timestamp": "2026-03-21T10:15:01.472252Z",
            "was_generated_by": {
              "tool": "dsf-parser",
              "tool_version": "1.0.0",
              "parameters": []
            },
            "used": [],
            "generated": [
              "f8c9507e-14d1-4783-adf9-d5161b74876b"
            ],
            "execution_duration": "PT0S"
          }
        ]
      }
    },
    {
      "type": "Feature",
      "id": "65367c6d-22ac-45a8-af20-e6236f003301",
      "geometry": null,
      "properties": {
        "kind": "SENSOR_CONTACT",
        "parent_track": "NONSUCH",
        "time": "2009-07-22T04:53:13+00:00",
        "bearing": 72.0,
        "range": 288.0,
        "frequency": 49.96,
        "sensor_name": "Contact_bearings",
        "label": "0453",
        "provenance": [
          {
            "activity_id": "82385597-dcd7-4547-8a0b-a3dcb4797940",
            "timestamp": "2026-03-21T10:15:01.472252Z",
            "was_generated_by": {
              "tool": "dsf-parser",
              "tool_version": "1.0.0",
              "parameters": []
            },
            "used": [],
            "generated": [
              "65367c6d-22ac-45a8-af20-e6236f003301"
            ],
            "execution_duration": "PT0S"
          }
        ]
      }
    },
    {
      "type": "Feature",
      "id": "97cdef53-d9c9-409d-8bfe-5b12492ecd47",
      "geometry": null,
      "properties": {
        "kind": "SENSOR_CONTACT",
        "parent_track": "NONSUCH",
        "time": "2009-07-22T04:54:44+00:00",
        "bearing": 71.3,
        "range": 288.8,
        "frequency": 49.99,
        "sensor_name": "Contact_bearings",
        "label": "0454",
        "provenance": [
          {
            "activity_id": "82385597-dcd7-4547-8a0b-a3dcb4797940",
            "timestamp": "2026-03-21T10:15:01.472252Z",
            "was_generated_by": {
              "tool": "dsf-parser",
              "tool_version": "1.0.0",
              "parameters": []
            },
            "used": [],
            "generated": [
              "97cdef53-d9c9-409d-8bfe-5b12492ecd47"
            ],
            "execution_duration": "PT0S"
          }
        ]
      }
    },
    {
      "type": "Feature",
      "id": "fed7ae53-f8cd-4b31-9ea3-10d30d38f4d9",
      "geometry": null,
      "properties": {
        "kind": "SENSOR_CONTACT",
        "parent_track": "NONSUCH",
        "time": "2009-07-22T04:55:56+00:00",
        "bearing": 71.3,
        "range": 288.8,
        "frequency": 49.99,
        "sensor_name": "Contact_bearings",
        "label": "0455",
        "provenance": [
          {
            "activity_id": "82385597-dcd7-4547-8a0b-a3dcb4797940",
            "timestamp": "2026-03-21T10:15:01.472252Z",
            "was_generated_by": {
              "tool": "dsf-parser",
              "tool_version": "1.0.0",
              "parameters": []
            },
            "used": [],
            "generated": [
              "fed7ae53-f8cd-4b31-9ea3-10d30d38f4d9"
            ],
            "execution_duration": "PT0S"
          }
        ]
      }
    },
    {
      "type": "Feature",
      "id": "205849d1-314b-49db-bcdb-4efa7a0612ae",
      "geometry": null,
      "properties": {
        "kind": "SENSOR_CONTACT",
        "parent_track": "NONSUCH",
        "time": "2009-07-22T04:57:04+00:00",
        "bearing": 71.3,
        "range": 288.8,
        "frequency": 49.96,
        "sensor_name": "Contact_bearings",
        "label": "0457",
        "provenance": [
          {
            "activity_id": "82385597-dcd7-4547-8a0b-a3dcb4797940",
            "timestamp": "2026-03-21T10:15:01.472252Z",
            "was_generated_by": {
              "tool": "dsf-parser",
              "tool_version": "1.0.0",
              "parameters": []
            },
            "used": [],
            "generated": [
              "205849d1-314b-49db-bcdb-4efa7a0612ae"
            ],
            "execution_duration": "PT0S"
          }
        ]
      }
    },
    {
      "type": "Feature",
      "id": "a6fd991f-2654-477b-8487-d939f66d872e",
      "geometry": null,
      "properties": {
        "kind": "SENSOR_CONTACT",
        "parent_track": "NONSUCH",
        "time": "2009-07-22T04:58:15+00:00",
        "bearing": 70.3,
        "range": 289.8,
        "frequency": 49.96,
        "sensor_name": "Contact_bearings",
        "label": "0458",
        "provenance": [
          {
            "activity_id": "82385597-dcd7-4547-8a0b-a3dcb4797940",
            "timestamp": "2026-03-21T10:15:01.472252Z",
            "was_generated_by": {
              "tool": "dsf-parser",
              "tool_version": "1.0.0",
              "parameters": []
            },
            "used": [],
            "generated": [
              "a6fd991f-2654-477b-8487-d939f66d872e"
            ],
            "execution_duration": "PT0S"
          }
        ]
      }
    },
    {
      "type": "Feature",
      "id": "71d3b517-a642-482f-8abf-9bcd48a7b41c",
      "geometry": null,
      "properties": {
        "kind": "SENSOR_CONTACT",
        "parent_track": "NONSUCH",
        "time": "2009-07-22T04:59:19+00:00",
        "bearing": 70.3,
        "range": 289.8,
        "frequency": 49.96,
        "sensor_name": "Contact_bearings",
        "label": "0459",
        "provenance": [
          {
            "activity_id": "82385597-dcd7-4547-8a0b-a3dcb4797940",
            "timestamp": "2026-03-21T10:15:01.472252Z",
            "was_generated_by": {
              "tool": "dsf-parser",
              "tool_version": "1.0.0",
              "parameters": []
            },
            "used": [],
            "generated": [
              "71d3b517-a642-482f-8abf-9bcd48a7b41c"
            ],
            "execution_duration": "PT0S"
          }
        ]
      }
    },
    {
      "type": "Feature",
      "id": "24fede29-42fa-47a1-94c8-e602c4ad23cb",
      "geometry": null,
      "properties": {
        "kind": "SENSOR_CONTACT",
        "parent_track": "NONSUCH",
        "time": "2009-07-22T05:00:43+00:00",
        "bearing": 69.0,
        "range": 291.0,
        "frequency": 49.99,
        "sensor_name": "Contact_bearings",
        "label": "0500",
        "provenance": [
          {
            "activity_id": "82385597-dcd7-4547-8a0b-a3dcb4797940",
            "timestamp": "2026-03-21T10:15:01.472252Z",
            "was_generated_by": {
              "tool": "dsf-parser",
              "tool_version": "1.0.0",
              "parameters": []
            },
            "used": [],
            "generated": [
              "24fede29-42fa-47a1-94c8-e602c4ad23cb"
            ],
            "execution_duration": "PT0S"
          }
        ]
      }
    },
    {
      "type": "Feature",
      "id": "a31dc00d-c535-45a7-9750-48071fa5c5fe",
      "geometry": null,
      "properties": {
        "kind": "SENSOR_CONTACT",
        "parent_track": "NONSUCH",
        "time": "2009-07-22T05:02:11+00:00",
        "bearing": 68.5,
        "range": 291.5,
        "frequency": 49.99,
        "sensor_name": "Contact_bearings",
        "label": "0502",
        "provenance": [
          {
            "activity_id": "82385597-dcd7-4547-8a0b-a3dcb4797940",
            "timestamp": "2026-03-21T10:15:01.472252Z",
            "was_generated_by": {
              "tool": "dsf-parser",
              "tool_version": "1.0.0",
              "parameters": []
            },
            "used": [],
            "generated": [
              "a31dc00d-c535-45a7-9750-48071fa5c5fe"
            ],
            "execution_duration": "PT0S"
          }
        ]
      }
    },
    {
      "type": "Feature",
      "id": "6fe9e976-8484-456a-a330-4c70afa4692b",
      "geometry": null,
      "properties": {
        "kind": "SENSOR_CONTACT",
        "parent_track": "NONSUCH",
        "time": "2009-07-22T05:03:26+00:00",
        "bearing": 67.8,
        "range": 292.3,
        "frequency": 49.99,
        "sensor_name": "Contact_bearings",
        "label": "0503",
        "provenance": [
          {
            "activity_id": "82385597-dcd7-4547-8a0b-a3dcb4797940",
            "timestamp": "2026-03-21T10:15:01.472252Z",
            "was_generated_by": {
              "tool": "dsf-parser",
              "tool_version": "1.0.0",
              "parameters": []
            },
            "used": [],
            "generated": [
              "6fe9e976-8484-456a-a330-4c70afa4692b"
            ],
            "execution_duration": "PT0S"
          }
        ]
      }
    },
    {
      "type": "Feature",
      "id": "8d749608-5b28-4a6d-9a45-ac7720ea3b27",
      "geometry": null,
      "properties": {
        "kind": "SENSOR_CONTACT",
        "parent_track": "NONSUCH",
        "time": "2009-07-22T05:04:34+00:00",
        "bearing": 67.8,
        "range": 292.3,
        "frequency": 49.96,
        "sensor_name": "Contact_bearings",
        "label": "0504",
        "provenance": [
          {
            "activity_id": "82385597-dcd7-4547-8a0b-a3dcb4797940",
            "timestamp": "2026-03-21T10:15:01.472252Z",
            "was_generated_by": {
              "tool": "dsf-parser",
              "tool_version": "1.0.0",
              "parameters": []
            },
            "used": [],
            "generated": [
              "8d749608-5b28-4a6d-9a45-ac7720ea3b27"
            ],
            "execution_duration": "PT0S"
          }
        ]
      }
    },
    {
      "type": "Feature",
      "id": "e39f0e93-fd6f-4c2c-bcf9-8548deffc232",
      "geometry": null,
      "properties": {
        "kind": "SENSOR_CONTACT",
        "parent_track": "NONSUCH",
        "time": "2009-07-22T05:06:02+00:00",
        "bearing": 67.0,
        "range": 293.0,
        "frequency": 49.96,
        "sensor_name": "Contact_bearings",
        "label": "0506",
        "provenance": [
          {
            "activity_id": "82385597-dcd7-4547-8a0b-a3dcb4797940",
            "timestamp": "2026-03-21T10:15:01.472252Z",
            "was_generated_by": {
              "tool": "dsf-parser",
              "tool_version": "1.0.0",
              "parameters": []
            },
            "used": [],
            "generated": [
              "e39f0e93-fd6f-4c2c-bcf9-8548deffc232"
            ],
            "execution_duration": "PT0S"
          }
        ]
      }
    },
    {
      "type": "Feature",
      "id": "c4d653e6-bf09-4ae5-abad-d3eabd3a3a81",
      "geometry": null,
      "properties": {
        "kind": "SENSOR_CONTACT",
        "parent_track": "NONSUCH",
        "time": "2009-07-22T05:07:57+00:00",
        "bearing": 66.5,
        "range": 293.5,
        "frequency": 49.99,
        "sensor_name": "Contact_bearings",
        "label": "0507",
        "provenance": [
          {
            "activity_id": "82385597-dcd7-4547-8a0b-a3dcb4797940",
            "timestamp": "2026-03-21T10:15:01.472252Z",
            "was_generated_by": {
              "tool": "dsf-parser",
              "tool_version": "1.0.0",
              "parameters": []
            },
            "used": [],
            "generated": [
              "c4d653e6-bf09-4ae5-abad-d3eabd3a3a81"
            ],
            "execution_duration": "PT0S"
          }
        ]
      }
    },
    {
      "type": "Feature",
      "id": "392de84b-33be-4bbe-8b83-65ec3c372990",
      "geometry": null,
      "properties": {
        "kind": "SENSOR_CONTACT",
        "parent_track": "NONSUCH",
        "time": "2009-07-22T05:09:13+00:00",
        "bearing": 66.0,
        "range": 294.0,
        "frequency": 49.99,
        "sensor_name": "Contact_bearings",
        "label": "0509",
        "provenance": [
          {
            "activity_id": "82385597-dcd7-4547-8a0b-a3dcb4797940",
            "timestamp": "2026-03-21T10:15:01.472252Z",
            "was_generated_by": {
              "tool": "dsf-parser",
              "tool_version": "1.0.0",
              "parameters": []
            },
            "used": [],
            "generated": [
              "392de84b-33be-4bbe-8b83-65ec3c372990"
            ],
            "execution_duration": "PT0S"
          }
        ]
      }
    },
    {
      "type": "Feature",
      "id": "47e823e9-8b58-4092-8d8c-a0439b323209",
      "geometry": null,
      "properties": {
        "kind": "SENSOR_CONTACT",
        "parent_track": "NONSUCH",
        "time": "2009-07-22T05:10:44+00:00",
        "bearing": 65.8,
        "range": 294.3,
        "frequency": 49.99,
        "sensor_name": "Contact_bearings",
        "label": "0510",
        "provenance": [
          {
            "activity_id": "82385597-dcd7-4547-8a0b-a3dcb4797940",
            "timestamp": "2026-03-21T10:15:01.472252Z",
            "was_generated_by": {
              "tool": "dsf-parser",
              "tool_version": "1.0.0",
              "parameters": []
            },
            "used": [],
            "generated": [
              "47e823e9-8b58-4092-8d8c-a0439b323209"
            ],
            "execution_duration": "PT0S"
          }
        ]
      }
    },
    {
      "type": "Feature",
      "id": "9a969b08-8824-4c2e-8389-4d02ef41a3e5",
      "geometry": null,
      "properties": {
        "kind": "SENSOR_CONTACT",
        "parent_track": "NONSUCH",
        "time": "2009-07-22T05:12:00+00:00",
        "bearing": 65.3,
        "range": 294.8,
        "frequency": 49.99,
        "sensor_name": "Contact_bearings",
        "label": "0512",
        "provenance": [
          {
            "activity_id": "82385597-dcd7-4547-8a0b-a3dcb4797940",
            "timestamp": "2026-03-21T10:15:01.472252Z",
            "was_generated_by": {
              "tool": "dsf-parser",
              "tool_version": "1.0.0",
              "parameters": []
            },
            "used": [],
            "generated": [
              "9a969b08-8824-4c2e-8389-4d02ef41a3e5"
            ],
            "execution_duration": "PT0S"
          }
        ]
      }
    },
    {
      "type": "Feature",
      "id": "4793beb8-7dc3-45fa-8e1d-e017ac488f98",
      "geometry": null,
      "properties": {
        "kind": "SENSOR_CONTACT",
        "parent_track": "NONSUCH",
        "time": "2009-07-22T05:13:20+00:00",
        "bearing": 65.3,
        "range": 294.8,
        "frequency": 49.99,
        "sensor_name": "Contact_bearings",
        "label": "0513",
        "provenance": [
          {
            "activity_id": "82385597-dcd7-4547-8a0b-a3dcb4797940",
            "timestamp": "2026-03-21T10:15:01.472252Z",
            "was_generated_by": {
              "tool": "dsf-parser",
              "tool_version": "1.0.0",
              "parameters": []
            },
            "used": [],
            "generated": [
              "4793beb8-7dc3-45fa-8e1d-e017ac488f98"
            ],
            "execution_duration": "PT0S"
          }
        ]
      }
    },
    {
      "type": "Feature",
      "id": "a7d8b71d-1019-4515-8a36-f6957f9df256",
      "geometry": null,
      "properties": {
        "kind": "SENSOR_CONTACT",
        "parent_track": "NONSUCH",
        "time": "2009-07-22T05:14:04+00:00",
        "bearing": 65.3,
        "range": 294.8,
        "frequency": 49.99,
        "sensor_name": "Contact_bearings",
        "label": "0514",
        "provenance": [
          {
            "activity_id": "82385597-dcd7-4547-8a0b-a3dcb4797940",
            "timestamp": "2026-03-21T10:15:01.472252Z",
            "was_generated_by": {
              "tool": "dsf-parser",
              "tool_version": "1.0.0",
              "parameters": []
            },
            "used": [],
            "generated": [
              "a7d8b71d-1019-4515-8a36-f6957f9df256"
            ],
            "execution_duration": "PT0S"
          }
        ]
      }
    },
    {
      "type": "Feature",
      "id": "32735616-2789-4393-a6e8-46a56f8d1a81",
      "geometry": null,
      "properties": {
        "kind": "SENSOR_CONTACT",
        "parent_track": "NONSUCH",
        "time": "2009-07-22T05:15:35+00:00",
        "bearing": 64.3,
        "range": 295.8,
        "frequency": 49.99,
        "sensor_name": "Contact_bearings",
        "label": "0515",
        "provenance": [
          {
            "activity_id": "82385597-dcd7-4547-8a0b-a3dcb4797940",
            "timestamp": "2026-03-21T10:15:01.472252Z",
            "was_generated_by": {
              "tool": "dsf-parser",
              "tool_version": "1.0.0",
              "parameters": []
            },
            "used": [],
            "generated": [
              "32735616-2789-4393-a6e8-46a56f8d1a81"
            ],
            "execution_duration": "PT0S"
          }
        ]
      }
    },
    {
      "type": "Feature",
      "id": "58316b4b-b518-4f7d-bce9-13fd0d821d65",
      "geometry": null,
      "properties": {
        "kind": "SENSOR_CONTACT",
        "parent_track": "NONSUCH",
        "time": "2009-07-22T05:16:39+00:00",
        "bearing": 64.3,
        "range": 295.8,
        "frequency": 49.99,
        "sensor_name": "Contact_bearings",
        "label": "0516",
        "provenance": [
          {
            "activity_id": "82385597-dcd7-4547-8a0b-a3dcb4797940",
            "timestamp": "2026-03-21T10:15:01.472252Z",
            "was_generated_by": {
              "tool": "dsf-parser",
              "tool_version": "1.0.0",
              "parameters": []
            },
            "used": [],
            "generated": [
              "58316b4b-b518-4f7d-bce9-13fd0d821d65"
            ],
            "execution_duration": "PT0S"
          }
        ]
      }
    },
    {
      "type": "Feature",
      "id": "c2efe3c7-7b8d-4df5-b645-66a7b3653db8",
      "geometry": null,
      "properties": {
        "kind": "SENSOR_CONTACT",
        "parent_track": "NONSUCH",
        "time": "2009-07-22T05:18:11+00:00",
        "bearing": 64.3,
        "range": 295.8,
        "frequency": 49.99,
        "sensor_name": "Contact_bearings",
        "label": "0518",
        "provenance": [
          {
            "activity_id": "82385597-dcd7-4547-8a0b-a3dcb4797940",
            "timestamp": "2026-03-21T10:15:01.472252Z",
            "was_generated_by": {
              "tool": "dsf-parser",
              "tool_version": "1.0.0",
              "parameters": []
            },
            "used": [],
            "generated": [
              "c2efe3c7-7b8d-4df5-b645-66a7b3653db8"
            ],
            "execution_duration": "PT0S"
          }
        ]
      }
    },
    {
      "type": "Feature",
      "id": "3ccd2a9a-87e9-445b-9528-901286b01077",
      "geometry": null,
      "properties": {
        "kind": "SENSOR_CONTACT",
        "parent_track": "NONSUCH",
        "time": "2009-07-22T05:19:11+00:00",
        "bearing": 63.5,
        "range": 296.5,
        "frequency": 49.96,
        "sensor_name": "Contact_bearings",
        "label": "0519",
        "provenance": [
          {
            "activity_id": "82385597-dcd7-4547-8a0b-a3dcb4797940",
            "timestamp": "2026-03-21T10:15:01.472252Z",
            "was_generated_by": {
              "tool": "dsf-parser",
              "tool_version": "1.0.0",
              "parameters": []
            },
            "used": [],
            "generated": [
              "3ccd2a9a-87e9-445b-9528-901286b01077"
            ],
            "execution_duration": "PT0S"
          }
        ]
      }
    },
    {
      "type": "Feature",
      "id": "80326215-172b-47b5-8744-f4cfa04bebfa",
      "geometry": null,
      "properties": {
        "kind": "SENSOR_CONTACT",
        "parent_track": "NONSUCH",
        "time": "2009-07-22T05:20:30+00:00",
        "bearing": 63.5,
        "range": 296.5,
        "frequency": 49.99,
        "sensor_name": "Contact_bearings",
        "label": "0520",
        "provenance": [
          {
            "activity_id": "82385597-dcd7-4547-8a0b-a3dcb4797940",
            "timestamp": "2026-03-21T10:15:01.472252Z",
            "was_generated_by": {
              "tool": "dsf-parser",
              "tool_version": "1.0.0",
              "parameters": []
            },
            "used": [],
            "generated": [
              "80326215-172b-47b5-8744-f4cfa04bebfa"
            ],
            "execution_duration": "PT0S"
          }
        ]
      }
    },
    {
      "type": "Feature",
      "id": "e254a345-84a1-4bce-9fcd-5ead6d0b6d6f",
      "geometry": null,
      "properties": {
        "kind": "SENSOR_CONTACT",
        "parent_track": "NONSUCH",
        "time": "2009-07-22T05:21:30+00:00",
        "bearing": 62.5,
        "range": 297.5,
        "frequency": 50.09,
        "sensor_name": "Contact_bearings",
        "label": "0521",
        "provenance": [
          {
            "activity_id": "82385597-dcd7-4547-8a0b-a3dcb4797940",
            "timestamp": "2026-03-21T10:15:01.472252Z",
            "was_generated_by": {
              "tool": "dsf-parser",
              "tool_version": "1.0.0",
              "parameters": []
            },
            "used": [],
            "generated": [
              "e254a345-84a1-4bce-9fcd-5ead6d0b6d6f"
            ],
            "execution_duration": "PT0S"
          }
        ]
      }
    },
    {
      "type": "Feature",
      "id": "1cdb54b2-c190-4362-a9e3-da5d363ae5c2",
      "geometry": null,
      "properties": {
        "kind": "SENSOR_CONTACT",
        "parent_track": "NONSUCH",
        "time": "2009-07-22T05:22:22+00:00",
        "bearing": 62.3,
        "range": 297.8,
        "frequency": 50.2,
        "sensor_name": "Contact_bearings",
        "label": "0522",
        "provenance": [
          {
            "activity_id": "82385597-dcd7-4547-8a0b-a3dcb4797940",
            "timestamp": "2026-03-21T10:15:01.472252Z",
            "was_generated_by": {
              "tool": "dsf-parser",
              "tool_version": "1.0.0",
              "parameters": []
            },
            "used": [],
            "generated": [
              "1cdb54b2-c190-4362-a9e3-da5d363ae5c2"
            ],
            "execution_duration": "PT0S"
          }
        ]
      }
    },
    {
      "type": "Feature",
      "id": "419aae19-b154-41a7-a511-5648d3273ce5",
      "geometry": null,
      "properties": {
        "kind": "SENSOR_CONTACT",
        "parent_track": "NONSUCH",
        "time": "2009-07-22T05:23:18+00:00",
        "bearing": 61.8,
        "range": 298.3,
        "frequency": 50.2,
        "sensor_name": "Contact_bearings",
        "label": "0523",
        "provenance": [
          {
            "activity_id": "82385597-dcd7-4547-8a0b-a3dcb4797940",
            "timestamp": "2026-03-21T10:15:01.472252Z",
            "was_generated_by": {
              "tool": "dsf-parser",
              "tool_version": "1.0.0",
              "parameters": []
            },
            "used": [],
            "generated": [
              "419aae19-b154-41a7-a511-5648d3273ce5"
            ],
            "execution_duration": "PT0S"
          }
        ]
      }
    },
    {
      "type": "Feature",
      "id": "4006cc23-ca84-4f33-bc7e-4f798ed2da8a",
      "geometry": null,
      "properties": {
        "kind": "SENSOR_CONTACT",
        "parent_track": "NONSUCH",
        "time": "2009-07-22T05:24:17+00:00",
        "bearing": 61.0,
        "range": 299.0,
        "frequency": 50.2,
        "sensor_name": "Contact_bearings",
        "label": "0524",
        "provenance": [
          {
            "activity_id": "82385597-dcd7-4547-8a0b-a3dcb4797940",
            "timestamp": "2026-03-21T10:15:01.472252Z",
            "was_generated_by": {
              "tool": "dsf-parser",
              "tool_version": "1.0.0",
              "parameters": []
            },
            "used": [],
            "generated": [
              "4006cc23-ca84-4f33-bc7e-4f798ed2da8a"
            ],
            "execution_duration": "PT0S"
          }
        ]
      }
    },
    {
      "type": "Feature",
      "id": "e4d6536d-362f-46e9-82ab-b52d10cd11f8",
      "geometry": null,
      "properties": {
        "kind": "SENSOR_CONTACT",
        "parent_track": "NONSUCH",
        "time": "2009-07-22T05:25:05+00:00",
        "bearing": 60.5,
        "range": 299.5,
        "frequency": 50.2,
        "sensor_name": "Contact_bearings",
        "label": "0525",
        "provenance": [
          {
            "activity_id": "82385597-dcd7-4547-8a0b-a3dcb4797940",
            "timestamp": "2026-03-21T10:15:01.472252Z",
            "was_generated_by": {
              "tool": "dsf-parser",
              "tool_version": "1.0.0",
              "parameters": []
            },
            "used": [],
            "generated": [
              "e4d6536d-362f-46e9-82ab-b52d10cd11f8"
            ],
            "execution_duration": "PT0S"
          }
        ]
      }
    },
    {
      "type": "Feature",
      "id": "8b5b1154-45be-48f7-bc2e-273e0a4e877d",
      "geometry": null,
      "properties": {
        "kind": "SENSOR_CONTACT",
        "parent_track": "NONSUCH",
        "time": "2009-07-22T05:25:49+00:00",
        "bearing": 60.0,
        "range": 300.0,
        "frequency": 50.2,
        "sensor_name": "Contact_bearings",
        "label": "0525",
        "provenance": [
          {
            "activity_id": "82385597-dcd7-4547-8a0b-a3dcb4797940",
            "timestamp": "2026-03-21T10:15:01.472252Z",
            "was_generated_by": {
              "tool": "dsf-parser",
              "tool_version": "1.0.0",
              "parameters": []
            },
            "used": [],
            "generated": [
              "8b5b1154-45be-48f7-bc2e-273e0a4e877d"
            ],
            "execution_duration": "PT0S"
          }
        ]
      }
    }
  ]
}
