{
  "type": "FeatureCollection",
  "features": [
    {
      "type": "Feature",
      "id": "8f5ba8d0-e59b-4672-bea6-07efd371cc2c",
      "geometry": {
        "type": "LineString",
        "coordinates": [
          [
            -30.002777777777776,
            -0.06666666666666667
          ],
          [
            -29.99826369059747,
            0.041036117749308
          ]
        ]
      },
      "properties": {
        "kind": "SENSOR",
        "track_id": "SENSOR",
        "bearing": 2.4,
        "range": 12000.0,
        "sensor_type": "Plain",
        "timestamp": "2010-01-12T12:13:14+00:00",
        "label": "Cookie SUBJECT held on Plain Cookie",
        "symbol": "A",
        "style": {
          "stroke": true,
          "color": "#0000FF",
          "weight": 1,
          "opacity": 1.0
        }
      }
    },
    {
      "type": "Feature",
      "id": "e6195548-0eec-4ff3-b134-232489eb5ad6",
      "geometry": {
        "type": "LineString",
        "coordinates": [
          [
            -30.005552777777776,
            -0.06436111111111112
          ],
          [
            -30.00254289746806,
            0.04339420132586563
          ]
        ]
      },
      "properties": {
        "kind": "SENSOR",
        "track_id": "SENSOR",
        "bearing": 1.6,
        "range": 12000.0,
        "sensor_type": "Plain",
        "timestamp": "2010-01-12T12:14:44+00:00",
        "label": "Cookie SUBJECT held on Plain Cookie",
        "symbol": "A",
        "style": {
          "stroke": true,
          "color": "#0000FF",
          "weight": 1,
          "opacity": 1.0
        }
      }
    },
    {
      "type": "Feature",
      "id": "eedfde9c-5402-462d-9c9c-7692b8a81c06",
      "geometry": {
        "type": "LineString",
        "coordinates": [
          [
            -30.01055277777778,
            -0.06436111111111112
          ],
          [
            -30.00547482444362,
            0.04331656136053495
          ]
        ]
      },
      "properties": {
        "kind": "SENSOR",
        "track_id": "SENSOR",
        "bearing": 2.7,
        "range": 12000.0,
        "sensor_type": "Plain",
        "timestamp": "2010-01-12T12:16:14+00:00",
        "label": "Cookie SUBJECT held on Plain Cookie",
        "symbol": "A",
        "style": {
          "stroke": true,
          "color": "#0000FF",
          "weight": 1,
          "opacity": 1.0
        }
      }
    },
    {
      "type": "Feature",
      "id": "41d14d3f-2d45-45c8-8f74-ac9c185bad14",
      "geometry": {
        "type": "LineString",
        "coordinates": [
          [
            -30.015552777777778,
            -0.06436111111111112
          ],
          [
            -30.008408623029666,
            0.04319923401559207
          ]
        ]
      },
      "properties": {
        "kind": "SENSOR",
        "track_id": "SENSOR",
        "bearing": 3.8,
        "range": 12000.0,
        "sensor_type": "Plain",
        "timestamp": "2010-01-12T12:17:44+00:00",
        "label": "Cookie SUBJECT held on Plain Cookie",
        "symbol": "A",
        "style": {
          "stroke": true,
          "color": "#0000FF",
          "weight": 1,
          "opacity": 1.0
        }
      }
    },
    {
      "type": "Feature",
      "id": "f8dc5352-ca8c-4671-8b30-3c3f3f0d6953",
      "geometry": {
        "type": "LineString",
        "coordinates": [
          [
            -30.01867777777778,
            -0.06180555555555556
          ],
          [
            -30.01228470468246,
            0.0458020435738478
          ]
        ]
      },
      "properties": {
        "kind": "SENSOR",
        "track_id": "SENSOR",
        "bearing": 3.4,
        "range": 12000.0,
        "sensor_type": "Plain",
        "timestamp": "2010-01-12T12:19:14+00:00",
        "label": "Cookie SUBJECT held on Plain Cookie",
        "symbol": "A",
        "style": {
          "stroke": true,
          "color": "#0000FF",
          "weight": 1,
          "opacity": 1.0
        }
      }
    },
    {
      "type": "Feature",
      "id": "0636d60f-3585-422d-92bd-78192d61e084",
      "geometry": {
        "type": "LineString",
        "coordinates": [
          [
            -30.019477777777777,
            -0.052672222222222224
          ],
          [
            -30.024367789344197,
            0.05501414893739489
          ]
        ]
      },
      "properties": {
        "kind": "SENSOR",
        "track_id": "SENSOR",
        "bearing": -2.6,
        "range": 12000.0,
        "sensor_type": "Plain",
        "timestamp": "2010-01-12T12:21:59+00:00",
        "label": "Cookie SUBJECT held on Plain Cookie",
        "symbol": "A",
        "style": {
          "stroke": true,
          "color": "#0000FF",
          "weight": 1,
          "opacity": 1.0
        }
      }
    },
    {
      "type": "Feature",
      "id": "8847e432-99f3-452e-8871-fb9a202277fb",
      "geometry": {
        "type": "LineString",
        "coordinates": [
          [
            -30.019913888888887,
            -0.04769166666666667
          ],
          [
            -30.032677526257697,
            0.059347374810861574
          ]
        ]
      },
      "properties": {
        "kind": "SENSOR",
        "track_id": "SENSOR",
        "bearing": -6.8,
        "range": 12000.0,
        "sensor_type": "Plain",
        "timestamp": "2010-01-12T12:23:29+00:00",
        "label": "Cookie SUBJECT held on Plain Cookie",
        "symbol": "A",
        "style": {
          "stroke": true,
          "color": "#0000FF",
          "weight": 1,
          "opacity": 1.0
        }
      }
    },
    {
      "type": "Feature",
      "id": "f5dff93c-20c5-40cf-99ec-9f81d53b0586",
      "geometry": {
        "type": "LineString",
        "coordinates": [
          [
            -30.02035,
            -0.04271111111111111
          ],
          [
            -30.042578269064673,
            0.06276955562641442
          ]
        ]
      },
      "properties": {
        "kind": "SENSOR",
        "track_id": "SENSOR",
        "bearing": -11.9,
        "range": 12000.0,
        "sensor_type": "Plain",
        "timestamp": "2010-01-12T12:24:59+00:00",
        "label": "Cookie SUBJECT held on Plain Cookie",
        "symbol": "A",
        "style": {
          "stroke": true,
          "color": "#0000FF",
          "weight": 1,
          "opacity": 1.0
        }
      }
    },
    {
      "type": "Feature",
      "id": "750c538f-a072-4567-8371-85cbb04243d7",
      "geometry": {
        "type": "LineString",
        "coordinates": [
          [
            -30.02078611111111,
            -0.03773055555555556
          ],
          [
            -30.054276211397863,
            0.06473251289156451
          ]
        ]
      },
      "properties": {
        "kind": "SENSOR",
        "track_id": "SENSOR",
        "bearing": -18.1,
        "range": 12000.0,
        "sensor_type": "Plain",
        "timestamp": "2010-01-12T12:26:29+00:00",
        "label": "Cookie SUBJECT held on Plain Cookie",
        "symbol": "A",
        "style": {
          "stroke": true,
          "color": "#0000FF",
          "weight": 1,
          "opacity": 1.0
        }
      }
    },
    {
      "type": "Feature",
      "id": "aaf4e1f0-6add-4e9e-aa48-b4f3697301aa",
      "geometry": {
        "type": "LineString",
        "coordinates": [
          [
            -30.021294444444443,
            -0.031919444444444445
          ],
          [
            -30.07006571065219,
            0.06421395795640508
          ]
        ]
      },
      "properties": {
        "kind": "SENSOR",
        "track_id": "SENSOR",
        "bearing": -26.9,
        "range": 12000.0,
        "sensor_type": "Plain",
        "timestamp": "2010-01-12T12:28:14+00:00",
        "label": "Cookie SUBJECT held on Plain Cookie",
        "symbol": "A",
        "style": {
          "stroke": true,
          "color": "#0000FF",
          "weight": 1,
          "opacity": 1.0
        }
      }
    },
    {
      "type": "Feature",
      "id": "eb5ed007-a2b3-4208-bd0d-fc142f54f9a0",
      "geometry": {
        "type": "LineString",
        "coordinates": [
          [
            -30.023747222222223,
            -0.02671111111111111
          ],
          [
            -30.084338322358793,
            0.062445975587548073
          ]
        ]
      },
      "properties": {
        "kind": "SENSOR",
        "track_id": "SENSOR",
        "bearing": -34.2,
        "range": 12000.0,
        "sensor_type": "Plain",
        "timestamp": "2010-01-12T12:29:59+00:00",
        "label": "Cookie SUBJECT held on Plain Cookie",
        "symbol": "A",
        "style": {
          "stroke": true,
          "color": "#0000FF",
          "weight": 1,
          "opacity": 1.0
        }
      }
    },
    {
      "type": "Feature",
      "id": "04e81aa2-d2cb-48fb-ace2-bee9c7509639",
      "geometry": {
        "type": "LineString",
        "coordinates": [
          [
            -30.02624722222222,
            -0.022380555555555556
          ],
          [
            -30.096826546368902,
            0.05909843860552669
          ]
        ]
      },
      "properties": {
        "kind": "SENSOR",
        "track_id": "SENSOR",
        "bearing": -40.9,
        "range": 12000.0,
        "sensor_type": "Plain",
        "timestamp": "2010-01-12T12:31:29+00:00",
        "label": "Cookie SUBJECT held on Plain Cookie",
        "symbol": "A",
        "style": {
          "stroke": true,
          "color": "#0000FF",
          "weight": 1,
          "opacity": 1.0
        }
      }
    },
    {
      "type": "Feature",
      "id": "ff853c25-2566-4df7-bffa-803b8de1f15d",
      "geometry": {
        "type": "LineString",
        "coordinates": [
          [
            -30.028747222222222,
            -0.01805
          ],
          [
            -30.110716967461173,
            0.05195877272693321
          ]
        ]
      },
      "properties": {
        "kind": "SENSOR",
        "track_id": "SENSOR",
        "bearing": -49.5,
        "range": 12000.0,
        "sensor_type": "Plain",
        "timestamp": "2010-01-12T12:32:59+00:00",
        "label": "Cookie SUBJECT held on Plain Cookie",
        "symbol": "A",
        "style": {
          "stroke": true,
          "color": "#0000FF",
          "weight": 1,
          "opacity": 1.0
        }
      }
    },
    {
      "type": "Feature",
      "id": "27b6624c-e430-4b30-8b10-e3de6256891a",
      "geometry": {
        "type": "LineString",
        "coordinates": [
          [
            -30.03166388888889,
            -0.013
          ],
          [
            -30.129677126307246,
            0.03187396251459589
          ]
        ]
      },
      "properties": {
        "kind": "SENSOR",
        "track_id": "SENSOR",
        "bearing": -65.4,
        "range": 12000.0,
        "sensor_type": "Plain",
        "timestamp": "2010-01-12T12:34:44+00:00",
        "label": "Cookie SUBJECT held on Plain Cookie",
        "symbol": "A",
        "style": {
          "stroke": true,
          "color": "#0000FF",
          "weight": 1,
          "opacity": 1.0
        }
      }
    },
    {
      "type": "Feature",
      "id": "31459b8b-d227-4693-a191-0dfc7e2c39be",
      "geometry": {
        "type": "LineString",
        "coordinates": [
          [
            -30.03558611111111,
            -0.010880555555555557
          ],
          [
            -30.140360924417354,
            0.014467138993771434
          ]
        ]
      },
      "properties": {
        "kind": "SENSOR",
        "track_id": "SENSOR",
        "bearing": -76.4,
        "range": 12000.0,
        "sensor_type": "Plain",
        "timestamp": "2010-01-12T12:36:14+00:00",
        "label": "Cookie SUBJECT held on Plain Cookie",
        "symbol": "A",
        "style": {
          "stroke": true,
          "color": "#0000FF",
          "weight": 1,
          "opacity": 1.0
        }
      }
    },
    {
      "type": "Feature",
      "id": "2c3456aa-72dd-4d8c-b9fa-8a238f23c9f9",
      "geometry": {
        "type": "LineString",
        "coordinates": [
          [
            -30.041419444444447,
            -0.010880555555555557
          ],
          [
            -30.148738378963422,
            -0.000735929613926269
          ]
        ]
      },
      "properties": {
        "kind": "SENSOR",
        "track_id": "SENSOR",
        "bearing": -84.6,
        "range": 12000.0,
        "sensor_type": "Plain",
        "timestamp": "2010-01-12T12:37:59+00:00",
        "label": "Cookie SUBJECT held on Plain Cookie",
        "symbol": "A",
        "style": {
          "stroke": true,
          "color": "#0000FF",
          "weight": 1,
          "opacity": 1.0
        }
      }
    },
    {
      "type": "Feature",
      "id": "0782b41f-0cc7-4b97-999e-410a5ec77aa1",
      "geometry": {
        "type": "LineString",
        "coordinates": [
          [
            -30.04725277777778,
            -0.010880555555555557
          ],
          [
            -30.154378318964934,
            -0.02289661005138655
          ]
        ]
      },
      "properties": {
        "kind": "SENSOR",
        "track_id": "SENSOR",
        "bearing": -96.4,
        "range": 12000.0,
        "sensor_type": "Plain",
        "timestamp": "2010-01-12T12:39:44+00:00",
        "label": "Cookie SUBJECT held on Plain Cookie",
        "symbol": "A",
        "style": {
          "stroke": true,
          "color": "#0000FF",
          "weight": 1,
          "opacity": 1.0
        }
      }
    },
    {
      "type": "Feature",
      "id": "2e879432-1ce5-4d37-87a5-5987007419b5",
      "geometry": {
        "type": "LineString",
        "coordinates": [
          [
            -30.05308611111111,
            -0.010880555555555557
          ],
          [
            -30.152460509409085,
            -0.052653705370730136
          ]
        ]
      },
      "properties": {
        "kind": "SENSOR",
        "track_id": "SENSOR",
        "bearing": -112.8,
        "range": 12000.0,
        "sensor_type": "Plain",
        "timestamp": "2010-01-12T12:41:29+00:00",
        "label": "Cookie SUBJECT held on Plain Cookie",
        "symbol": "A",
        "style": {
          "stroke": true,
          "color": "#0000FF",
          "weight": 1,
          "opacity": 1.0
        }
      }
    },
    {
      "type": "Feature",
      "id": "3ea09aaa-982d-4e2b-8a74-555ed7716a14",
      "geometry": {
        "type": "LineString",
        "coordinates": [
          [
            -30.058919444444445,
            -0.010880555555555557
          ],
          [
            -30.137757430230263,
            -0.0843981653359183
          ]
        ]
      },
      "properties": {
        "kind": "SENSOR",
        "track_id": "SENSOR",
        "bearing": -133.0,
        "range": 12000.0,
        "sensor_type": "Plain",
        "timestamp": "2010-01-12T12:43:14+00:00",
        "label": "Cookie SUBJECT held on Plain Cookie",
        "symbol": "A",
        "style": {
          "stroke": true,
          "color": "#0000FF",
          "weight": 1,
          "opacity": 1.0
        }
      }
    },
    {
      "type": "Feature",
      "id": "0b33dfdb-7781-4e39-aac8-438eeebc6bfc",
      "geometry": {
        "type": "LineString",
        "coordinates": [
          [
            -30.064752777777777,
            -0.010880555555555557
          ],
          [
            -30.114026719779297,
            -0.10675727563726209
          ]
        ]
      },
      "properties": {
        "kind": "SENSOR",
        "track_id": "SENSOR",
        "bearing": -152.8,
        "range": 12000.0,
        "sensor_type": "Plain",
        "timestamp": "2010-01-12T12:44:59+00:00",
        "label": "Cookie SUBJECT held on Plain Cookie",
        "symbol": "A",
        "style": {
          "stroke": true,
          "color": "#0000FF",
          "weight": 1,
          "opacity": 1.0
        }
      }
    },
    {
      "type": "Feature",
      "id": "36b28854-b58d-4f10-9e76-e0ba08750a56",
      "geometry": {
        "type": "LineString",
        "coordinates": [
          [
            -30.070586111111112,
            -0.010880555555555557
          ],
          [
            -30.09189304721709,
            -0.11655118163766716
          ]
        ]
      },
      "properties": {
        "kind": "SENSOR",
        "track_id": "SENSOR",
        "bearing": -168.6,
        "range": 12000.0,
        "sensor_type": "Plain",
        "timestamp": "2010-01-12T12:46:44+00:00",
        "label": "Cookie SUBJECT held on Plain Cookie",
        "symbol": "A",
        "style": {
          "stroke": true,
          "color": "#0000FF",
          "weight": 1,
          "opacity": 1.0
        }
      }
    },
    {
      "type": "Feature",
      "id": "35c26a7d-f5db-47c1-b6d7-1fba12e5e41b",
      "geometry": {
        "type": "LineString",
        "coordinates": [
          [
            -30.075269444444444,
            -0.012611111111111111
          ],
          [
            -30.08372712654596,
            -0.12007614888327726
          ]
        ]
      },
      "properties": {
        "kind": "SENSOR",
        "track_id": "SENSOR",
        "bearing": -175.5,
        "range": 12000.0,
        "sensor_type": "Plain",
        "timestamp": "2010-01-12T12:48:29+00:00",
        "label": "Cookie SUBJECT held on Plain Cookie",
        "symbol": "A",
        "style": {
          "stroke": true,
          "color": "#0000FF",
          "weight": 1,
          "opacity": 1.0
        }
      }
    },
    {
      "type": "Feature",
      "id": "1b95129e-de2c-4122-aaf6-fe8a8fc52ea0",
      "geometry": {
        "type": "LineString",
        "coordinates": [
          [
            -30.075269444444444,
            -0.018444444444444444
          ],
          [
            -30.109474044463802,
            -0.12067121288205127
          ]
        ]
      },
      "properties": {
        "kind": "SENSOR",
        "track_id": "SENSOR",
        "bearing": -161.5,
        "range": 12000.0,
        "sensor_type": "Plain",
        "timestamp": "2010-01-12T12:50:14+00:00",
        "label": "Cookie SUBJECT held on Plain Cookie",
        "symbol": "A",
        "style": {
          "stroke": true,
          "color": "#0000FF",
          "weight": 1,
          "opacity": 1.0
        }
      }
    },
    {
      "type": "Feature",
      "id": "40d76540-a65e-4d78-917e-ef40384ac15a",
      "geometry": {
        "type": "LineString",
        "coordinates": [
          [
            -30.075269444444444,
            -0.023444444444444445
          ],
          [
            -30.13476678884088,
            -0.11333511875998538
          ]
        ]
      },
      "properties": {
        "kind": "SENSOR",
        "track_id": "SENSOR",
        "bearing": -146.5,
        "range": 12000.0,
        "sensor_type": "Plain",
        "timestamp": "2010-01-12T12:51:44+00:00",
        "label": "Cookie SUBJECT held on Plain Cookie",
        "symbol": "A",
        "style": {
          "stroke": true,
          "color": "#0000FF",
          "weight": 1,
          "opacity": 1.0
        }
      }
    },
    {
      "type": "Feature",
      "id": "28ac575d-9a15-40ab-9db2-8c17037df732",
      "geometry": {
        "type": "LineString",
        "coordinates": [
          [
            -30.075269444444444,
            -0.028444444444444446
          ],
          [
            -30.15736125918197,
            -0.09831004642753438
          ]
        ]
      },
      "properties": {
        "kind": "SENSOR",
        "track_id": "SENSOR",
        "bearing": -130.4,
        "range": 12000.0,
        "sensor_type": "Plain",
        "timestamp": "2010-01-12T12:53:14+00:00",
        "label": "Cookie SUBJECT held on Plain Cookie",
        "symbol": "A",
        "style": {
          "stroke": true,
          "color": "#0000FF",
          "weight": 1,
          "opacity": 1.0
        }
      }
    },
    {
      "type": "Feature",
      "id": "125a835b-81cf-4df3-ad5c-01397184870a",
      "geometry": {
        "type": "LineString",
        "coordinates": [
          [
            -30.075269444444444,
            -0.03344444444444444
          ],
          [
            -30.172565754697708,
            -0.07985239595090818
          ]
        ]
      },
      "properties": {
        "kind": "SENSOR",
        "track_id": "SENSOR",
        "bearing": -115.5,
        "range": 12000.0,
        "sensor_type": "Plain",
        "timestamp": "2010-01-12T12:54:44+00:00",
        "label": "Cookie SUBJECT held on Plain Cookie",
        "symbol": "A",
        "style": {
          "stroke": true,
          "color": "#0000FF",
          "weight": 1,
          "opacity": 1.0
        }
      }
    },
    {
      "type": "Feature",
      "id": "ff0dc8f8-9631-4907-9d47-0619a55ede05",
      "geometry": {
        "type": "LineString",
        "coordinates": [
          [
            -30.075269444444444,
            -0.03927777777777778
          ],
          [
            -30.18090274680273,
            -0.060769110988399086
          ]
        ]
      },
      "properties": {
        "kind": "SENSOR",
        "track_id": "SENSOR",
        "bearing": -101.5,
        "range": 12000.0,
        "sensor_type": "Plain",
        "timestamp": "2010-01-12T12:56:29+00:00",
        "label": "Cookie SUBJECT held on Plain Cookie",
        "symbol": "A",
        "style": {
          "stroke": true,
          "color": "#0000FF",
          "weight": 1,
          "opacity": 1.0
        }
      }
    },
    {
      "type": "Feature",
      "id": "190f69c1-90bf-49f1-8b50-23baf438e7c3",
      "geometry": {
        "type": "LineString",
        "coordinates": [
          [
            -30.075269444444444,
            -0.04427777777777778
          ],
          [
            -30.182964218418814,
            -0.04897983175176295
          ]
        ]
      },
      "properties": {
        "kind": "SENSOR",
        "track_id": "SENSOR",
        "bearing": -92.5,
        "range": 12000.0,
        "sensor_type": "Plain",
        "timestamp": "2010-01-12T12:57:59+00:00",
        "label": "Cookie SUBJECT held on Plain Cookie",
        "symbol": "A",
        "style": {
          "stroke": true,
          "color": "#0000FF",
          "weight": 1,
          "opacity": 1.0
        }
      }
    },
    {
      "type": "Feature",
      "id": "90404d6d-9b62-4e53-9dc9-d3951e187a93",
      "geometry": {
        "type": "LineString",
        "coordinates": [
          [
            -30.075269444444444,
            -0.05011111111111111
          ],
          [
            -30.18260596032826,
            -0.04015380739786335
          ]
        ]
      },
      "properties": {
        "kind": "SENSOR",
        "track_id": "SENSOR",
        "bearing": -84.7,
        "range": 12000.0,
        "sensor_type": "Plain",
        "timestamp": "2010-01-12T12:59:44+00:00",
        "label": "Cookie SUBJECT held on Plain Cookie",
        "symbol": "A",
        "style": {
          "stroke": true,
          "color": "#0000FF",
          "weight": 1,
          "opacity": 1.0
        }
      }
    },
    {
      "type": "Feature",
      "id": "823c1876-766a-4660-adf4-1a51a5f647f5",
      "geometry": {
        "type": "LineString",
        "coordinates": [
          [
            -30.075269444444444,
            -0.05594444444444445
          ],
          [
            -30.1810862951145,
            -0.035375742104177293
          ]
        ]
      },
      "properties": {
        "kind": "SENSOR",
        "track_id": "SENSOR",
        "bearing": -79.0,
        "range": 12000.0,
        "sensor_type": "Plain",
        "timestamp": "2010-01-12T13:01:29+00:00",
        "label": "Cookie SUBJECT held on Plain Cookie",
        "symbol": "A",
        "style": {
          "stroke": true,
          "color": "#0000FF",
          "weight": 1,
          "opacity": 1.0
        }
      }
    },
    {
      "type": "Feature",
      "id": "b037220e-3b32-4f65-8aa8-66113715cb82",
      "geometry": {
        "type": "LineString",
        "coordinates": [
          [
            -30.075269444444444,
            -0.06177777777777778
          ],
          [
            -30.179295717037594,
            -0.033514481481601195
          ]
        ]
      },
      "properties": {
        "kind": "SENSOR",
        "track_id": "SENSOR",
        "bearing": -74.8,
        "range": 12000.0,
        "sensor_type": "Plain",
        "timestamp": "2010-01-12T13:03:14+00:00",
        "label": "Cookie SUBJECT held on Plain Cookie",
        "symbol": "A",
        "style": {
          "stroke": true,
          "color": "#0000FF",
          "weight": 1,
          "opacity": 1.0
        }
      }
    },
    {
      "type": "Feature",
      "id": "52fd2e3c-aa34-4dd7-a9f2-9016bc63ae3f",
      "geometry": {
        "type": "LineString",
        "coordinates": [
          [
            -30.075269444444444,
            -0.06761111111111111
          ],
          [
            -30.177496284056772,
            -0.0334065128640656
          ]
        ]
      },
      "properties": {
        "kind": "SENSOR",
        "track_id": "SENSOR",
        "bearing": -71.5,
        "range": 12000.0,
        "sensor_type": "Plain",
        "timestamp": "2010-01-12T13:04:59+00:00",
        "label": "Cookie SUBJECT held on Plain Cookie",
        "symbol": "A",
        "style": {
          "stroke": true,
          "color": "#0000FF",
          "weight": 1,
          "opacity": 1.0
        }
      }
    },
    {
      "type": "Feature",
      "id": "eb0d7844-d867-4ccb-bf55-81536a6971e6",
      "geometry": {
        "type": "LineString",
        "coordinates": [
          [
            -30.075269444444444,
            -0.07344444444444444
          ],
          [
            -30.175839437399087,
            -0.03463774576100379
          ]
        ]
      },
      "properties": {
        "kind": "SENSOR",
        "track_id": "SENSOR",
        "bearing": -68.9,
        "range": 12000.0,
        "sensor_type": "Plain",
        "timestamp": "2010-01-12T13:06:44+00:00",
        "label": "Cookie SUBJECT held on Plain Cookie",
        "symbol": "A",
        "style": {
          "stroke": true,
          "color": "#0000FF",
          "weight": 1,
          "opacity": 1.0
        }
      }
    },
    {
      "type": "Feature",
      "id": "186e7a3a-ff54-4822-a174-d3c3cce8a46d",
      "geometry": {
        "type": "LineString",
        "coordinates": [
          [
            -30.075269444444444,
            -0.07844444444444444
          ],
          [
            -30.174570874800338,
            -0.03649791730033309
          ]
        ]
      },
      "properties": {
        "kind": "SENSOR",
        "track_id": "SENSOR",
        "bearing": -67.1,
        "range": 12000.0,
        "sensor_type": "Plain",
        "timestamp": "2010-01-12T13:08:14+00:00",
        "label": "Cookie SUBJECT held on Plain Cookie",
        "symbol": "A",
        "style": {
          "stroke": true,
          "color": "#0000FF",
          "weight": 1,
          "opacity": 1.0
        }
      }
    },
    {
      "type": "Feature",
      "id": "5bcf848e-a5f6-480e-a687-93b94829b302",
      "geometry": {
        "type": "LineString",
        "coordinates": [
          [
            -30.075269444444444,
            -0.08427777777777777
          ],
          [
            -30.173282785371693,
            -0.03940381526318188
          ]
        ]
      },
      "properties": {
        "kind": "SENSOR",
        "track_id": "SENSOR",
        "bearing": -65.4,
        "range": 12000.0,
        "sensor_type": "Plain",
        "timestamp": "2010-01-12T13:09:59+00:00",
        "label": "Cookie SUBJECT held on Plain Cookie",
        "symbol": "A",
        "style": {
          "stroke": true,
          "color": "#0000FF",
          "weight": 1,
          "opacity": 1.0
        }
      }
    },
    {
      "type": "Feature",
      "id": "58b2955a-3e2d-4ef8-8261-daea6a2e2a32",
      "geometry": {
        "type": "LineString",
        "coordinates": [
          [
            -30.075269444444444,
            -0.08927777777777778
          ],
          [
            -30.172239498810377,
            -0.042191706448165604
          ]
        ]
      },
      "properties": {
        "kind": "SENSOR",
        "track_id": "SENSOR",
        "bearing": -64.1,
        "range": 12000.0,
        "sensor_type": "Plain",
        "timestamp": "2010-01-12T13:11:29+00:00",
        "label": "Cookie SUBJECT held on Plain Cookie",
        "symbol": "A",
        "style": {
          "stroke": true,
          "color": "#0000FF",
          "weight": 1,
          "opacity": 1.0
        }
      }
    },
    {
      "type": "Feature",
      "id": "b18b823d-761e-4ff2-8f2b-065b8ef6cb83",
      "geometry": {
        "type": "LineString",
        "coordinates": [
          [
            -30.075269444444444,
            -0.09427777777777777
          ],
          [
            -30.17131770859143,
            -0.04533880906708281
          ]
        ]
      },
      "properties": {
        "kind": "SENSOR",
        "track_id": "SENSOR",
        "bearing": -63.0,
        "range": 12000.0,
        "sensor_type": "Plain",
        "timestamp": "2010-01-12T13:12:59+00:00",
        "label": "Cookie SUBJECT held on Plain Cookie",
        "symbol": "A",
        "style": {
          "stroke": true,
          "color": "#0000FF",
          "weight": 1,
          "opacity": 1.0
        }
      }
    },
    {
      "type": "Feature",
      "id": "4896ae2f-82e3-4435-b4ef-d1091f9fd899",
      "geometry": {
        "type": "LineString",
        "coordinates": [
          [
            -30.075269444444444,
            -0.0951111111111111
          ],
          [
            -30.171146296625572,
            -0.04583716999806468
          ]
        ]
      },
      "properties": {
        "kind": "SENSOR",
        "track_id": "SENSOR",
        "bearing": -62.8,
        "range": 12000.0,
        "sensor_type": "Plain",
        "timestamp": "2010-01-12T13:13:14+00:00",
        "label": "Cookie SUBJECT held on Plain Cookie",
        "symbol": "A",
        "style": {
          "stroke": true,
          "color": "#0000FF",
          "weight": 1,
          "opacity": 1.0
        }
      }
    }
  ]
}