{
  "type": "FeatureCollection",
  "features": [
    {
      "type": "Feature",
      "id": "e97c56d0-79ad-4b2a-b32e-4cc26190928c",
      "geometry": {
        "type": "LineString",
        "coordinates": [
          [
            -0.0,
            -0.0
          ],
          [
            -0.0,
            -0.0
          ],
          [
            -0.0,
            -0.0
          ],
          [
            -0.0001611111111111111,
            0.001061111111111111
          ],
          [
            -0.0011388888888888887,
            0.0029805555555555557
          ],
          [
            -0.002344444444444444,
            0.005986111111111111
          ],
          [
            -0.0037916666666666667,
            0.010052777777777777
          ],
          [
            -0.0053972222222222225,
            0.015208333333333334
          ],
          [
            -0.0071222222222222225,
            0.02145277777777778
          ],
          [
            -0.008927777777777778,
            0.028791666666666667
          ],
          [
            -0.010791666666666666,
            0.037225
          ],
          [
            -0.012686111111111112,
            0.04675833333333333
          ],
          [
            -0.014591666666666668,
            0.05738611111111111
          ],
          [
            -0.01648888888888889,
            0.06911111111111111
          ],
          [
            -0.018366666666666667,
            0.08193055555555556
          ],
          [
            -0.020205555555555556,
            0.09584722222222222
          ],
          [
            -0.021994444444444445,
            0.11085833333333334
          ],
          [
            -0.009788888888888889,
            0.12033611111111112
          ],
          [
            -0.01661111111111111,
            0.13349166666666668
          ],
          [
            -0.01659722222222222,
            0.15152222222222222
          ],
          [
            -0.0003361111111111111,
            0.16102777777777777
          ],
          [
            0.01733888888888889,
            0.16911666666666667
          ],
          [
            0.009033333333333334,
            0.18478333333333333
          ],
          [
            -0.0050999999999999995,
            0.19965833333333333
          ],
          [
            -0.01286388888888889,
            0.1842472222222222
          ],
          [
            -0.015402777777777779,
            0.1627972222222222
          ],
          [
            0.0024416666666666666,
            0.16706388888888887
          ],
          [
            0.02166388888888889,
            0.17909999999999998
          ],
          [
            0.0067555555555555554,
            0.19234166666666666
          ],
          [
            -0.01473611111111111,
            0.20259166666666667
          ],
          [
            -0.015288888888888888,
            0.18221666666666667
          ],
          [
            -0.008630555555555556,
            0.15811666666666666
          ],
          [
            0.008933333333333333,
            0.17128888888888888
          ],
          [
            0.025080555555555557,
            0.19198888888888888
          ],
          [
            0.002719444444444444,
            0.19803055555555554
          ],
          [
            -0.024844444444444447,
            0.19835
          ],
          [
            -0.016302777777777777,
            0.17649166666666666
          ],
          [
            -0.00019166666666666665,
            0.15386388888888888
          ],
          [
            0.012930555555555555,
            0.173475
          ],
          [
            0.022405555555555554,
            0.1995861111111111
          ],
          [
            -0.0010222222222222223,
            0.19865
          ],
          [
            -0.02766111111111111,
            0.19078333333333333
          ],
          [
            -0.012694444444444446,
            0.17290555555555553
          ],
          [
            0.009883333333333333,
            0.1567222222222222
          ],
          [
            0.015291666666666665,
            0.17953055555555555
          ],
          [
            0.014886111111111112,
            0.20730555555555558
          ],
          [
            -0.0065027777777777775,
            0.19788055555555553
          ],
          [
            -0.02836388888888889,
            0.18074166666666666
          ],
          [
            -0.007927777777777778,
            0.16938055555555553
          ],
          [
            0.018930555555555555,
            0.16229166666666667
          ],
          [
            0.015722222222222224,
            0.1854722222222222
          ],
          [
            0.005255555555555556,
            0.2112027777777778
          ],
          [
            -0.011277777777777779,
            0.19466944444444442
          ],
          [
            -0.025455555555555558,
            0.17078333333333331
          ],
          [
            -0.002288888888888889,
            0.1675472222222222
          ],
          [
            0.02532222222222222,
            0.17060833333333333
          ],
          [
            0.013944444444444445,
            0.1910472222222222
          ],
          [
            -0.0051333333333333335,
            0.21123611111111112
          ],
          [
            -0.014580555555555557,
            0.1898388888888889
          ],
          [
            -0.019183333333333333,
            0.16244722222222222
          ],
          [
            0.003588888888888889,
            0.1678
          ],
          [
            0.028227777777777775,
            0.18062777777777778
          ],
          [
            0.010233333333333334,
            0.19556944444444443
          ],
          [
            -0.014852777777777777,
            0.20749722222222222
          ],
          [
            -0.015933333333333334,
            0.18413055555555555
          ],
          [
            -0.010333333333333333,
            0.15692499999999998
          ],
          [
            0.00896388888888889,
            0.17014444444444443
          ],
          [
            0.027302777777777777,
            0.1910083333333333
          ],
          [
            0.005125,
            0.1984388888888889
          ],
          [
            -0.02257777777777778,
            0.20049722222222224
          ],
          [
            -0.015141666666666666,
            0.17831944444444445
          ],
          [
            -8.888888888888889e-05,
            0.154975
          ],
          [
            0.013127777777777776,
            0.17427222222222222
          ],
          [
            0.022686111111111112,
            0.2003527777777778
          ],
          [
            -0.0006805555555555556,
            0.19926944444444444
          ],
          [
            -0.02725277777777778,
            0.19118055555555555
          ],
          [
            -0.012308333333333334,
            0.1731861111111111
          ],
          [
            0.010163888888888889,
            0.15685833333333332
          ],
          [
            0.01551388888888889,
            0.17962777777777778
          ],
          [
            0.015002777777777778,
            0.2074
          ],
          [
            -0.006391666666666667,
            0.19794722222222222
          ],
          [
            -0.028247222222222222,
            0.18080277777777776
          ],
          [
            -0.0078111111111111116,
            0.169425
          ],
          [
            0.019044444444444444,
            0.16231666666666666
          ],
          [
            0.015805555555555555,
            0.18548333333333333
          ],
          [
            0.0052944444444444445,
            0.21119444444444446
          ],
          [
            -0.011241666666666667,
            0.19465
          ],
          [
            -0.025425,
            0.17076666666666665
          ],
          [
            -0.0022555555555555554,
            0.16754166666666664
          ],
          [
            0.02535,
            0.17061944444444443
          ],
          [
            0.01396111111111111,
            0.1910472222222222
          ],
          [
            -0.005130555555555555,
            0.211225
          ],
          [
            -0.014569444444444446,
            0.189825
          ],
          [
            -0.019166666666666665,
            0.16243055555555555
          ],
          [
            0.0036000000000000003,
            0.16779444444444444
          ],
          [
            0.028230555555555557,
            0.1806361111111111
          ],
          [
            0.010230555555555555,
            0.1955722222222222
          ]
        ]
      },
      "properties": {
        "kind": "TRACK",
        "platform_id": "T23_B",
        "platform_name": "T23_B",
        "track_type": "CONTACT",
        "start_time": "2010-01-12T12:13:14+00:00",
        "end_time": "2010-01-12T20:13:14+00:00",
        "positions": [
          {
            "time": "2010-01-12T12:13:14+00:00",
            "course": 0.0,
            "speed": 0.0,
            "depth": -6.0
          },
          {
            "time": "2010-01-12T12:18:14+00:00",
            "course": 0.0,
            "speed": 0.0,
            "depth": -6.0
          },
          {
            "time": "2010-01-12T12:23:14+00:00",
            "course": 0.0,
            "speed": 0.0,
            "depth": -6.0
          },
          {
            "time": "2010-01-12T12:28:14+00:00",
            "course": 342.83,
            "speed": 0.78,
            "depth": -6.0
          },
          {
            "time": "2010-01-12T12:33:14+00:00",
            "course": 330.92,
            "speed": 1.56,
            "depth": -6.0
          },
          {
            "time": "2010-01-12T12:38:14+00:00",
            "course": 338.72,
            "speed": 2.33,
            "depth": -6.0
          },
          {
            "time": "2010-01-12T12:43:14+00:00",
            "course": 340.43,
            "speed": 3.11,
            "depth": -6.0
          },
          {
            "time": "2010-01-12T12:48:14+00:00",
            "course": 342.74,
            "speed": 3.89,
            "depth": -6.0
          },
          {
            "time": "2010-01-12T12:53:14+00:00",
            "course": 344.58,
            "speed": 4.67,
            "depth": -6.0
          },
          {
            "time": "2010-01-12T12:58:14+00:00",
            "course": 346.17,
            "speed": 5.44,
            "depth": -6.0
          },
          {
            "time": "2010-01-12T13:03:14+00:00",
            "course": 347.55,
            "speed": 6.22,
            "depth": -6.0
          },
          {
            "time": "2010-01-12T13:08:14+00:00",
            "course": 348.76,
            "speed": 7.0,
            "depth": -6.0
          },
          {
            "time": "2010-01-12T13:13:14+00:00",
            "course": 349.84,
            "speed": 7.78,
            "depth": -6.0
          },
          {
            "time": "2010-01-12T13:18:14+00:00",
            "course": 350.81,
            "speed": 8.55,
            "depth": -6.0
          },
          {
            "time": "2010-01-12T13:23:14+00:00",
            "course": 351.68,
            "speed": 9.33,
            "depth": -6.0
          },
          {
            "time": "2010-01-12T13:28:14+00:00",
            "course": 352.47,
            "speed": 10.11,
            "depth": -6.0
          },
          {
            "time": "2010-01-12T13:33:14+00:00",
            "course": 353.2,
            "speed": 10.89,
            "depth": -6.0
          },
          {
            "time": "2010-01-12T13:38:14+00:00",
            "course": 60.37,
            "speed": 11.66,
            "depth": -6.0
          },
          {
            "time": "2010-01-12T13:43:14+00:00",
            "course": 314.6,
            "speed": 12.44,
            "depth": -6.0
          },
          {
            "time": "2010-01-12T13:48:14+00:00",
            "course": 4.05,
            "speed": 13.22,
            "depth": -6.0
          },
          {
            "time": "2010-01-12T13:53:14+00:00",
            "course": 65.4,
            "speed": 14.0,
            "depth": -6.0
          },
          {
            "time": "2010-01-12T13:58:14+00:00",
            "course": 65.4,
            "speed": 14.0,
            "depth": -6.0
          },
          {
            "time": "2010-01-12T14:03:14+00:00",
            "course": 316.47,
            "speed": 14.77,
            "depth": -6.0
          },
          {
            "time": "2010-01-12T14:08:14+00:00",
            "course": 316.47,
            "speed": 14.77,
            "depth": -6.0
          },
          {
            "time": "2010-01-12T14:13:14+00:00",
            "course": 186.75,
            "speed": 15.55,
            "depth": -6.0
          },
          {
            "time": "2010-01-12T14:18:14+00:00",
            "course": 186.75,
            "speed": 15.55,
            "depth": -6.0
          },
          {
            "time": "2010-01-12T14:23:14+00:00",
            "course": 57.94,
            "speed": 16.33,
            "depth": -6.0
          },
          {
            "time": "2010-01-12T14:28:14+00:00",
            "course": 57.94,
            "speed": 16.33,
            "depth": -6.0
          },
          {
            "time": "2010-01-12T14:33:14+00:00",
            "course": 295.5,
            "speed": 17.14,
            "depth": -6.0
          },
          {
            "time": "2010-01-12T14:38:14+00:00",
            "course": 295.5,
            "speed": 17.14,
            "depth": -6.0
          },
          {
            "time": "2010-01-12T14:43:14+00:00",
            "course": 164.55,
            "speed": 18.0,
            "depth": -6.0
          },
          {
            "time": "2010-01-12T14:48:14+00:00",
            "course": 164.55,
            "speed": 18.0,
            "depth": -6.0
          },
          {
            "time": "2010-01-12T14:53:14+00:00",
            "course": 37.96,
            "speed": 18.9,
            "depth": -6.0
          },
          {
            "time": "2010-01-12T14:58:14+00:00",
            "course": 37.96,
            "speed": 18.9,
            "depth": -6.0
          },
          {
            "time": "2010-01-12T15:03:14+00:00",
            "course": 270.67,
            "speed": 19.85,
            "depth": -6.0
          },
          {
            "time": "2010-01-12T15:08:14+00:00",
            "course": 270.67,
            "speed": 19.85,
            "depth": -6.0
          },
          {
            "time": "2010-01-12T15:13:14+00:00",
            "course": 144.55,
            "speed": 20.0,
            "depth": -6.0
          },
          {
            "time": "2010-01-12T15:18:14+00:00",
            "course": 144.55,
            "speed": 20.0,
            "depth": -6.0
          },
          {
            "time": "2010-01-12T15:23:14+00:00",
            "course": 19.95,
            "speed": 20.0,
            "depth": -6.0
          },
          {
            "time": "2010-01-12T15:28:14+00:00",
            "course": 19.95,
            "speed": 20.0,
            "depth": -6.0
          },
          {
            "time": "2010-01-12T15:33:14+00:00",
            "course": 253.55,
            "speed": 20.0,
            "depth": -6.0
          },
          {
            "time": "2010-01-12T15:38:14+00:00",
            "course": 253.55,
            "speed": 20.0,
            "depth": -6.0
          },
          {
            "time": "2010-01-12T15:43:14+00:00",
            "course": 125.63,
            "speed": 20.0,
            "depth": -6.0
          },
          {
            "time": "2010-01-12T15:48:14+00:00",
            "course": 125.63,
            "speed": 20.0,
            "depth": -6.0
          },
          {
            "time": "2010-01-12T15:53:14+00:00",
            "course": 359.16,
            "speed": 20.0,
            "depth": -6.0
          },
          {
            "time": "2010-01-12T15:58:14+00:00",
            "course": 359.16,
            "speed": 20.0,
            "depth": -6.0
          },
          {
            "time": "2010-01-12T16:03:14+00:00",
            "course": 231.91,
            "speed": 20.0,
            "depth": -6.0
          },
          {
            "time": "2010-01-12T16:08:14+00:00",
            "course": 231.91,
            "speed": 20.0,
            "depth": -6.0
          },
          {
            "time": "2010-01-12T16:13:14+00:00",
            "course": 104.78,
            "speed": 20.0,
            "depth": -6.0
          },
          {
            "time": "2010-01-12T16:18:14+00:00",
            "course": 104.78,
            "speed": 20.0,
            "depth": -6.0
          },
          {
            "time": "2010-01-12T16:23:14+00:00",
            "course": 337.86,
            "speed": 20.0,
            "depth": -6.0
          },
          {
            "time": "2010-01-12T16:28:14+00:00",
            "course": 337.86,
            "speed": 20.0,
            "depth": -6.0
          },
          {
            "time": "2010-01-12T16:33:14+00:00",
            "course": 210.7,
            "speed": 20.0,
            "depth": -6.0
          },
          {
            "time": "2010-01-12T16:38:14+00:00",
            "course": 210.7,
            "speed": 20.0,
            "depth": -6.0
          },
          {
            "time": "2010-01-12T16:43:14+00:00",
            "course": 83.68,
            "speed": 20.0,
            "depth": -6.0
          },
          {
            "time": "2010-01-12T16:48:14+00:00",
            "course": 83.68,
            "speed": 20.0,
            "depth": -6.0
          },
          {
            "time": "2010-01-12T16:53:14+00:00",
            "course": 316.62,
            "speed": 20.0,
            "depth": -6.0
          },
          {
            "time": "2010-01-12T16:58:14+00:00",
            "course": 316.62,
            "speed": 20.0,
            "depth": -6.0
          },
          {
            "time": "2010-01-12T17:03:14+00:00",
            "course": 189.54,
            "speed": 20.0,
            "depth": -6.0
          },
          {
            "time": "2010-01-12T17:08:14+00:00",
            "course": 189.54,
            "speed": 20.0,
            "depth": -6.0
          },
          {
            "time": "2010-01-12T17:13:14+00:00",
            "course": 62.5,
            "speed": 20.0,
            "depth": -6.0
          },
          {
            "time": "2010-01-12T17:18:14+00:00",
            "course": 62.5,
            "speed": 20.0,
            "depth": -6.0
          },
          {
            "time": "2010-01-12T17:23:14+00:00",
            "course": 295.43,
            "speed": 20.0,
            "depth": -6.0
          },
          {
            "time": "2010-01-12T17:28:14+00:00",
            "course": 295.43,
            "speed": 20.0,
            "depth": -6.0
          },
          {
            "time": "2010-01-12T17:33:14+00:00",
            "course": 168.37,
            "speed": 20.0,
            "depth": -6.0
          },
          {
            "time": "2010-01-12T17:38:14+00:00",
            "course": 168.37,
            "speed": 20.0,
            "depth": -6.0
          },
          {
            "time": "2010-01-12T17:43:14+00:00",
            "course": 41.31,
            "speed": 20.0,
            "depth": -6.0
          },
          {
            "time": "2010-01-12T17:48:14+00:00",
            "course": 41.31,
            "speed": 20.0,
            "depth": -6.0
          },
          {
            "time": "2010-01-12T17:53:14+00:00",
            "course": 274.25,
            "speed": 20.0,
            "depth": -6.0
          },
          {
            "time": "2010-01-12T17:58:14+00:00",
            "course": 274.25,
            "speed": 20.0,
            "depth": -6.0
          },
          {
            "time": "2010-01-12T18:03:14+00:00",
            "course": 147.19,
            "speed": 20.0,
            "depth": -6.0
          },
          {
            "time": "2010-01-12T18:08:14+00:00",
            "course": 147.19,
            "speed": 20.0,
            "depth": -6.0
          },
          {
            "time": "2010-01-12T18:13:14+00:00",
            "course": 20.13,
            "speed": 20.0,
            "depth": -6.0
          },
          {
            "time": "2010-01-12T18:18:14+00:00",
            "course": 20.13,
            "speed": 20.0,
            "depth": -6.0
          },
          {
            "time": "2010-01-12T18:23:14+00:00",
            "course": 253.07,
            "speed": 20.0,
            "depth": -6.0
          },
          {
            "time": "2010-01-12T18:28:14+00:00",
            "course": 253.07,
            "speed": 20.0,
            "depth": -6.0
          },
          {
            "time": "2010-01-12T18:33:14+00:00",
            "course": 126.01,
            "speed": 20.0,
            "depth": -6.0
          },
          {
            "time": "2010-01-12T18:38:14+00:00",
            "course": 126.01,
            "speed": 20.0,
            "depth": -6.0
          },
          {
            "time": "2010-01-12T18:43:14+00:00",
            "course": 358.95,
            "speed": 20.0,
            "depth": -6.0
          },
          {
            "time": "2010-01-12T18:48:14+00:00",
            "course": 358.95,
            "speed": 20.0,
            "depth": -6.0
          },
          {
            "time": "2010-01-12T18:53:14+00:00",
            "course": 231.88,
            "speed": 20.0,
            "depth": -6.0
          },
          {
            "time": "2010-01-12T18:58:14+00:00",
            "course": 231.88,
            "speed": 20.0,
            "depth": -6.0
          },
          {
            "time": "2010-01-12T19:03:14+00:00",
            "course": 104.82,
            "speed": 20.0,
            "depth": -6.0
          },
          {
            "time": "2010-01-12T19:08:14+00:00",
            "course": 104.82,
            "speed": 20.0,
            "depth": -6.0
          },
          {
            "time": "2010-01-12T19:13:14+00:00",
            "course": 337.76,
            "speed": 20.0,
            "depth": -6.0
          },
          {
            "time": "2010-01-12T19:18:14+00:00",
            "course": 337.76,
            "speed": 20.0,
            "depth": -6.0
          },
          {
            "time": "2010-01-12T19:23:14+00:00",
            "course": 210.7,
            "speed": 20.0,
            "depth": -6.0
          },
          {
            "time": "2010-01-12T19:28:14+00:00",
            "course": 210.7,
            "speed": 20.0,
            "depth": -6.0
          },
          {
            "time": "2010-01-12T19:33:14+00:00",
            "course": 83.64,
            "speed": 20.0,
            "depth": -6.0
          },
          {
            "time": "2010-01-12T19:38:14+00:00",
            "course": 83.64,
            "speed": 20.0,
            "depth": -6.0
          },
          {
            "time": "2010-01-12T19:43:14+00:00",
            "course": 316.58,
            "speed": 20.0,
            "depth": -6.0
          },
          {
            "time": "2010-01-12T19:48:14+00:00",
            "course": 316.58,
            "speed": 20.0,
            "depth": -6.0
          },
          {
            "time": "2010-01-12T19:53:14+00:00",
            "course": 189.52,
            "speed": 20.0,
            "depth": -6.0
          },
          {
            "time": "2010-01-12T19:58:14+00:00",
            "course": 189.52,
            "speed": 20.0,
            "depth": -6.0
          },
          {
            "time": "2010-01-12T20:03:14+00:00",
            "course": 62.46,
            "speed": 20.0,
            "depth": -6.0
          },
          {
            "time": "2010-01-12T20:08:14+00:00",
            "course": 62.46,
            "speed": 20.0,
            "depth": -6.0
          },
          {
            "time": "2010-01-12T20:13:14+00:00",
            "course": 295.4,
            "speed": 20.0,
            "depth": -6.0
          }
        ],
        "style": {
          "line": {
            "color": "#FFA500"
          },
          "point": {
            "shape": "circle",
            "radius": 3.0,
            "fill_color": "#FFA500",
            "color": "#FFA500"
          }
        },
        "default_position_style": {
          "show_symbol": false,
          "symbol": "circle",
          "show_label": false
        },
        "symbol_interval": "PT15M",
        "label_interval": "PT1H",
        "provenance": [
          {
            "activity_id": "d241b9b3-4d05-4c4a-8084-65b37078fdf6",
            "timestamp": "2026-04-13T23:12:29.952892Z",
            "was_generated_by": {
              "tool": "rep-parser",
              "tool_version": "1.0.0",
              "parameters": []
            },
            "used": [],
            "generated": [
              "e97c56d0-79ad-4b2a-b32e-4cc26190928c"
            ],
            "execution_duration": "PT0.002003S"
          }
        ]
      }
    },
    {
      "type": "Feature",
      "id": "b5576863-5477-40f0-82ea-07d795a1318a",
      "geometry": {
        "type": "LineString",
        "coordinates": [
          [
            -0.0,
            -0.0
          ],
          [
            -0.0,
            0.0125
          ],
          [
            -0.0,
            0.025
          ],
          [
            -0.0,
            0.0375
          ],
          [
            -0.0,
            0.05
          ],
          [
            -0.0,
            0.0625
          ],
          [
            -0.0,
            0.075
          ],
          [
            -0.0,
            0.0875
          ],
          [
            -0.0,
            0.1
          ],
          [
            -0.0,
            0.1125
          ],
          [
            -0.0,
            0.125
          ],
          [
            -0.0,
            0.1375
          ],
          [
            -0.0,
            0.15
          ],
          [
            -0.0,
            0.1625
          ],
          [
            -0.0,
            0.175
          ],
          [
            -0.0,
            0.1875
          ],
          [
            0.007200000000000001,
            0.18630833333333333
          ],
          [
            -0.0026555555555555555,
            0.17982777777777778
          ],
          [
            -0.005027777777777779,
            0.1878
          ],
          [
            0.005138888888888889,
            0.18395555555555554
          ],
          [
            -0.0010277777777777778,
            0.17718055555555554
          ],
          [
            -0.0040527777777777775,
            0.18708333333333332
          ],
          [
            0.005430555555555556,
            0.18590555555555555
          ],
          [
            -0.0004166666666666667,
            0.17766944444444444
          ],
          [
            -0.0051805555555555554,
            0.1861611111111111
          ],
          [
            0.004797222222222222,
            0.1865111111111111
          ],
          [
            0.0008111111111111111,
            0.17753611111111112
          ],
          [
            -0.005469444444444445,
            0.18522777777777777
          ],
          [
            0.004136111111111111,
            0.18744444444444444
          ],
          [
            0.001802777777777778,
            0.17781944444444445
          ],
          [
            -0.005761111111111111,
            0.18416388888888888
          ],
          [
            0.003313888888888889,
            0.18810555555555555
          ],
          [
            0.0028027777777777777,
            0.1782361111111111
          ],
          [
            -0.005808333333333334,
            0.18309999999999998
          ],
          [
            0.0023777777777777777,
            0.18863888888888888
          ],
          [
            0.0036888888888888887,
            0.17883888888888888
          ],
          [
            -0.005666666666666666,
            0.18203333333333332
          ],
          [
            0.0013638888888888889,
            0.1889861111111111
          ],
          [
            0.00445,
            0.17959444444444445
          ],
          [
            -0.005330555555555556,
            0.1810138888888889
          ],
          [
            0.0003027777777777778,
            0.18913888888888888
          ],
          [
            0.005063888888888889,
            0.180475
          ],
          [
            -0.004813888888888888,
            0.18007499999999999
          ],
          [
            -0.0007722222222222222,
            0.18909444444444443
          ],
          [
            0.0055027777777777774,
            0.18145555555555554
          ],
          [
            -0.0041333333333333335,
            0.17924444444444443
          ],
          [
            -0.0018166666666666667,
            0.18885555555555555
          ],
          [
            0.005752777777777778,
            0.1824972222222222
          ],
          [
            -0.003311111111111111,
            0.17855555555555555
          ],
          [
            -0.0028,
            0.18842777777777778
          ],
          [
            0.005808333333333334,
            0.18356944444444442
          ],
          [
            -0.0023777777777777777,
            0.17802777777777776
          ],
          [
            -0.0036888888888888887,
            0.187825
          ],
          [
            0.005666666666666666,
            0.18463333333333332
          ],
          [
            -0.0013611111111111111,
            0.17768055555555554
          ],
          [
            -0.004452777777777778,
            0.18707222222222222
          ],
          [
            0.005330555555555556,
            0.18565277777777778
          ],
          [
            -0.00030000000000000003,
            0.17752777777777776
          ],
          [
            -0.005063888888888889,
            0.18618888888888888
          ],
          [
            0.004813888888888888,
            0.18659166666666666
          ],
          [
            0.0007722222222222222,
            0.17757222222222221
          ],
          [
            -0.0055027777777777774,
            0.1852111111111111
          ],
          [
            0.0041333333333333335,
            0.1874222222222222
          ],
          [
            0.0018194444444444445,
            0.1778111111111111
          ],
          [
            -0.005752777777777778,
            0.18416666666666665
          ],
          [
            0.003311111111111111,
            0.1881111111111111
          ],
          [
            0.0028027777777777777,
            0.1782388888888889
          ],
          [
            -0.005808333333333334,
            0.18309444444444445
          ],
          [
            0.0023750000000000004,
            0.18863888888888888
          ],
          [
            0.0036916666666666664,
            0.17884166666666665
          ],
          [
            -0.005666666666666666,
            0.18203055555555556
          ],
          [
            0.0013611111111111111,
            0.1889861111111111
          ],
          [
            0.004452777777777778,
            0.1795972222222222
          ],
          [
            -0.005330555555555556,
            0.1810138888888889
          ],
          [
            0.0002972222222222222,
            0.18913888888888888
          ],
          [
            0.005063888888888889,
            0.18047777777777776
          ],
          [
            -0.004813888888888888,
            0.18007222222222222
          ],
          [
            -0.000775,
            0.18909444444444443
          ],
          [
            0.0055027777777777774,
            0.18145833333333333
          ],
          [
            -0.004130555555555556,
            0.17924444444444443
          ],
          [
            -0.0018194444444444445,
            0.18885555555555555
          ],
          [
            0.005752777777777778,
            0.1825
          ],
          [
            -0.0033083333333333333,
            0.17855277777777778
          ],
          [
            -0.0028027777777777777,
            0.18842777777777778
          ],
          [
            0.005808333333333334,
            0.18357222222222222
          ],
          [
            -0.0023750000000000004,
            0.17802777777777776
          ],
          [
            -0.0036916666666666664,
            0.187825
          ],
          [
            0.005666666666666666,
            0.1846361111111111
          ],
          [
            -0.0013583333333333331,
            0.17768055555555554
          ],
          [
            -0.0044555555555555555,
            0.18706944444444443
          ],
          [
            0.005330555555555556,
            0.18565555555555555
          ],
          [
            -0.0002972222222222222,
            0.17752777777777776
          ],
          [
            -0.005063888888888889,
            0.1861861111111111
          ],
          [
            0.0048111111111111115,
            0.18659444444444442
          ],
          [
            0.000775,
            0.17757222222222221
          ],
          [
            -0.0055027777777777774,
            0.1852083333333333
          ],
          [
            0.004130555555555556,
            0.18742499999999998
          ]
        ]
      },
      "properties": {
        "kind": "TRACK",
        "platform_id": "HVU",
        "platform_name": "HVU",
        "track_type": "CONTACT",
        "start_time": "2010-01-12T12:13:14+00:00",
        "end_time": "2010-01-12T20:13:14+00:00",
        "positions": [
          {
            "time": "2010-01-12T12:13:14+00:00",
            "course": 0.0,
            "speed": 9.0,
            "depth": -6.0
          },
          {
            "time": "2010-01-12T12:18:14+00:00",
            "course": 0.0,
            "speed": 9.0,
            "depth": -6.0
          },
          {
            "time": "2010-01-12T12:23:14+00:00",
            "course": 0.0,
            "speed": 9.0,
            "depth": -6.0
          },
          {
            "time": "2010-01-12T12:28:14+00:00",
            "course": 0.0,
            "speed": 9.0,
            "depth": -6.0
          },
          {
            "time": "2010-01-12T12:33:14+00:00",
            "course": 0.0,
            "speed": 9.0,
            "depth": -6.0
          },
          {
            "time": "2010-01-12T12:38:14+00:00",
            "course": 0.0,
            "speed": 9.0,
            "depth": -6.0
          },
          {
            "time": "2010-01-12T12:43:14+00:00",
            "course": 0.0,
            "speed": 9.0,
            "depth": -6.0
          },
          {
            "time": "2010-01-12T12:48:14+00:00",
            "course": 0.0,
            "speed": 9.0,
            "depth": -6.0
          },
          {
            "time": "2010-01-12T12:53:14+00:00",
            "course": 0.0,
            "speed": 9.0,
            "depth": -6.0
          },
          {
            "time": "2010-01-12T12:58:14+00:00",
            "course": 0.0,
            "speed": 9.0,
            "depth": -6.0
          },
          {
            "time": "2010-01-12T13:03:14+00:00",
            "course": 0.0,
            "speed": 9.0,
            "depth": -6.0
          },
          {
            "time": "2010-01-12T13:08:14+00:00",
            "course": 0.0,
            "speed": 9.0,
            "depth": -6.0
          },
          {
            "time": "2010-01-12T13:13:14+00:00",
            "course": 0.0,
            "speed": 9.0,
            "depth": -6.0
          },
          {
            "time": "2010-01-12T13:18:14+00:00",
            "course": 0.0,
            "speed": 9.0,
            "depth": -6.0
          },
          {
            "time": "2010-01-12T13:23:14+00:00",
            "course": 0.0,
            "speed": 9.0,
            "depth": -6.0
          },
          {
            "time": "2010-01-12T13:28:14+00:00",
            "course": 0.0,
            "speed": 9.0,
            "depth": -6.0
          },
          {
            "time": "2010-01-12T13:33:14+00:00",
            "course": 180.0,
            "speed": 9.0,
            "depth": -6.0
          },
          {
            "time": "2010-01-12T13:38:14+00:00",
            "course": 247.54,
            "speed": 9.0,
            "depth": -6.0
          },
          {
            "time": "2010-01-12T13:43:14+00:00",
            "course": 37.15,
            "speed": 9.0,
            "depth": -6.0
          },
          {
            "time": "2010-01-12T13:48:14+00:00",
            "course": 131.62,
            "speed": 9.0,
            "depth": -6.0
          },
          {
            "time": "2010-01-12T13:53:14+00:00",
            "course": 263.08,
            "speed": 9.0,
            "depth": -6.0
          },
          {
            "time": "2010-01-12T13:58:14+00:00",
            "course": 9.48,
            "speed": 9.0,
            "depth": -6.0
          },
          {
            "time": "2010-01-12T14:03:14+00:00",
            "course": 132.78,
            "speed": 9.0,
            "depth": -6.0
          },
          {
            "time": "2010-01-12T14:08:14+00:00",
            "course": 244.66,
            "speed": 9.0,
            "depth": -6.0
          },
          {
            "time": "2010-01-12T14:13:14+00:00",
            "course": 4.22,
            "speed": 9.0,
            "depth": -6.0
          },
          {
            "time": "2010-01-12T14:18:14+00:00",
            "course": 118.63,
            "speed": 9.0,
            "depth": -6.0
          },
          {
            "time": "2010-01-12T14:23:14+00:00",
            "course": 236.47,
            "speed": 9.0,
            "depth": -6.0
          },
          {
            "time": "2010-01-12T14:28:14+00:00",
            "course": 352.03,
            "speed": 9.0,
            "depth": -6.0
          },
          {
            "time": "2010-01-12T14:33:14+00:00",
            "course": 109.1,
            "speed": 9.0,
            "depth": -6.0
          },
          {
            "time": "2010-01-12T14:38:14+00:00",
            "course": 225.18,
            "speed": 9.0,
            "depth": -6.0
          },
          {
            "time": "2010-01-12T14:43:14+00:00",
            "course": 341.9,
            "speed": 9.0,
            "depth": -6.0
          },
          {
            "time": "2010-01-12T14:48:14+00:00",
            "course": 98.21,
            "speed": 9.0,
            "depth": -6.0
          },
          {
            "time": "2010-01-12T14:53:14+00:00",
            "course": 214.78,
            "speed": 9.0,
            "depth": -6.0
          },
          {
            "time": "2010-01-12T14:58:14+00:00",
            "course": 331.19,
            "speed": 9.0,
            "depth": -6.0
          },
          {
            "time": "2010-01-12T15:03:14+00:00",
            "course": 87.69,
            "speed": 9.0,
            "depth": -6.0
          },
          {
            "time": "2010-01-12T15:08:14+00:00",
            "course": 204.15,
            "speed": 9.0,
            "depth": -6.0
          },
          {
            "time": "2010-01-12T15:13:14+00:00",
            "course": 320.62,
            "speed": 9.0,
            "depth": -6.0
          },
          {
            "time": "2010-01-12T15:18:14+00:00",
            "course": 77.09,
            "speed": 9.0,
            "depth": -6.0
          },
          {
            "time": "2010-01-12T15:23:14+00:00",
            "course": 193.56,
            "speed": 9.0,
            "depth": -6.0
          },
          {
            "time": "2010-01-12T15:28:14+00:00",
            "course": 310.03,
            "speed": 9.0,
            "depth": -6.0
          },
          {
            "time": "2010-01-12T15:33:14+00:00",
            "course": 66.5,
            "speed": 9.0,
            "depth": -6.0
          },
          {
            "time": "2010-01-12T15:38:14+00:00",
            "course": 182.97,
            "speed": 9.0,
            "depth": -6.0
          },
          {
            "time": "2010-01-12T15:43:14+00:00",
            "course": 299.44,
            "speed": 9.0,
            "depth": -6.0
          },
          {
            "time": "2010-01-12T15:48:14+00:00",
            "course": 55.91,
            "speed": 9.0,
            "depth": -6.0
          },
          {
            "time": "2010-01-12T15:53:14+00:00",
            "course": 172.38,
            "speed": 9.0,
            "depth": -6.0
          },
          {
            "time": "2010-01-12T15:58:14+00:00",
            "course": 288.85,
            "speed": 9.0,
            "depth": -6.0
          },
          {
            "time": "2010-01-12T16:03:14+00:00",
            "course": 45.32,
            "speed": 9.0,
            "depth": -6.0
          },
          {
            "time": "2010-01-12T16:08:14+00:00",
            "course": 161.79,
            "speed": 9.0,
            "depth": -6.0
          },
          {
            "time": "2010-01-12T16:13:14+00:00",
            "course": 278.26,
            "speed": 9.0,
            "depth": -6.0
          },
          {
            "time": "2010-01-12T16:18:14+00:00",
            "course": 34.73,
            "speed": 9.0,
            "depth": -6.0
          },
          {
            "time": "2010-01-12T16:23:14+00:00",
            "course": 151.2,
            "speed": 9.0,
            "depth": -6.0
          },
          {
            "time": "2010-01-12T16:28:14+00:00",
            "course": 267.67,
            "speed": 9.0,
            "depth": -6.0
          },
          {
            "time": "2010-01-12T16:33:14+00:00",
            "course": 24.14,
            "speed": 9.0,
            "depth": -6.0
          },
          {
            "time": "2010-01-12T16:38:14+00:00",
            "course": 140.61,
            "speed": 9.0,
            "depth": -6.0
          },
          {
            "time": "2010-01-12T16:43:14+00:00",
            "course": 257.08,
            "speed": 9.0,
            "depth": -6.0
          },
          {
            "time": "2010-01-12T16:48:14+00:00",
            "course": 13.55,
            "speed": 9.0,
            "depth": -6.0
          },
          {
            "time": "2010-01-12T16:53:14+00:00",
            "course": 130.02,
            "speed": 9.0,
            "depth": -6.0
          },
          {
            "time": "2010-01-12T16:58:14+00:00",
            "course": 246.49,
            "speed": 9.0,
            "depth": -6.0
          },
          {
            "time": "2010-01-12T17:03:14+00:00",
            "course": 2.96,
            "speed": 9.0,
            "depth": -6.0
          },
          {
            "time": "2010-01-12T17:08:14+00:00",
            "course": 119.43,
            "speed": 9.0,
            "depth": -6.0
          },
          {
            "time": "2010-01-12T17:13:14+00:00",
            "course": 235.9,
            "speed": 9.0,
            "depth": -6.0
          },
          {
            "time": "2010-01-12T17:18:14+00:00",
            "course": 352.37,
            "speed": 9.0,
            "depth": -6.0
          },
          {
            "time": "2010-01-12T17:23:14+00:00",
            "course": 108.84,
            "speed": 9.0,
            "depth": -6.0
          },
          {
            "time": "2010-01-12T17:28:14+00:00",
            "course": 225.31,
            "speed": 9.0,
            "depth": -6.0
          },
          {
            "time": "2010-01-12T17:33:14+00:00",
            "course": 341.78,
            "speed": 9.0,
            "depth": -6.0
          },
          {
            "time": "2010-01-12T17:38:14+00:00",
            "course": 98.25,
            "speed": 9.0,
            "depth": -6.0
          },
          {
            "time": "2010-01-12T17:43:14+00:00",
            "course": 214.72,
            "speed": 9.0,
            "depth": -6.0
          },
          {
            "time": "2010-01-12T17:48:14+00:00",
            "course": 331.18,
            "speed": 9.0,
            "depth": -6.0
          },
          {
            "time": "2010-01-12T17:53:14+00:00",
            "course": 87.65,
            "speed": 9.0,
            "depth": -6.0
          },
          {
            "time": "2010-01-12T17:58:14+00:00",
            "course": 204.12,
            "speed": 9.0,
            "depth": -6.0
          },
          {
            "time": "2010-01-12T18:03:14+00:00",
            "course": 320.59,
            "speed": 9.0,
            "depth": -6.0
          },
          {
            "time": "2010-01-12T18:08:14+00:00",
            "course": 77.06,
            "speed": 9.0,
            "depth": -6.0
          },
          {
            "time": "2010-01-12T18:13:14+00:00",
            "course": 193.53,
            "speed": 9.0,
            "depth": -6.0
          },
          {
            "time": "2010-01-12T18:18:14+00:00",
            "course": 310.0,
            "speed": 9.0,
            "depth": -6.0
          },
          {
            "time": "2010-01-12T18:23:14+00:00",
            "course": 66.47,
            "speed": 9.0,
            "depth": -6.0
          },
          {
            "time": "2010-01-12T18:28:14+00:00",
            "course": 182.94,
            "speed": 9.0,
            "depth": -6.0
          },
          {
            "time": "2010-01-12T18:33:14+00:00",
            "course": 299.41,
            "speed": 9.0,
            "depth": -6.0
          },
          {
            "time": "2010-01-12T18:38:14+00:00",
            "course": 55.88,
            "speed": 9.0,
            "depth": -6.0
          },
          {
            "time": "2010-01-12T18:43:14+00:00",
            "course": 172.35,
            "speed": 9.0,
            "depth": -6.0
          },
          {
            "time": "2010-01-12T18:48:14+00:00",
            "course": 288.82,
            "speed": 9.0,
            "depth": -6.0
          },
          {
            "time": "2010-01-12T18:53:14+00:00",
            "course": 45.29,
            "speed": 9.0,
            "depth": -6.0
          },
          {
            "time": "2010-01-12T18:58:14+00:00",
            "course": 161.76,
            "speed": 9.0,
            "depth": -6.0
          },
          {
            "time": "2010-01-12T19:03:14+00:00",
            "course": 278.23,
            "speed": 9.0,
            "depth": -6.0
          },
          {
            "time": "2010-01-12T19:08:14+00:00",
            "course": 34.7,
            "speed": 9.0,
            "depth": -6.0
          },
          {
            "time": "2010-01-12T19:13:14+00:00",
            "course": 151.17,
            "speed": 9.0,
            "depth": -6.0
          },
          {
            "time": "2010-01-12T19:18:14+00:00",
            "course": 267.64,
            "speed": 9.0,
            "depth": -6.0
          },
          {
            "time": "2010-01-12T19:23:14+00:00",
            "course": 24.11,
            "speed": 9.0,
            "depth": -6.0
          },
          {
            "time": "2010-01-12T19:28:14+00:00",
            "course": 140.58,
            "speed": 9.0,
            "depth": -6.0
          },
          {
            "time": "2010-01-12T19:33:14+00:00",
            "course": 257.05,
            "speed": 9.0,
            "depth": -6.0
          },
          {
            "time": "2010-01-12T19:38:14+00:00",
            "course": 13.52,
            "speed": 9.0,
            "depth": -6.0
          },
          {
            "time": "2010-01-12T19:43:14+00:00",
            "course": 129.99,
            "speed": 9.0,
            "depth": -6.0
          },
          {
            "time": "2010-01-12T19:48:14+00:00",
            "course": 246.46,
            "speed": 9.0,
            "depth": -6.0
          },
          {
            "time": "2010-01-12T19:53:14+00:00",
            "course": 2.93,
            "speed": 9.0,
            "depth": -6.0
          },
          {
            "time": "2010-01-12T19:58:14+00:00",
            "course": 119.4,
            "speed": 9.0,
            "depth": -6.0
          },
          {
            "time": "2010-01-12T20:03:14+00:00",
            "course": 235.87,
            "speed": 9.0,
            "depth": -6.0
          },
          {
            "time": "2010-01-12T20:08:14+00:00",
            "course": 352.34,
            "speed": 9.0,
            "depth": -6.0
          },
          {
            "time": "2010-01-12T20:13:14+00:00",
            "course": 108.81,
            "speed": 9.0,
            "depth": -6.0
          }
        ],
        "style": {
          "line": {
            "color": "#FF0000"
          },
          "point": {
            "shape": "circle",
            "radius": 3.0,
            "fill_color": "#FF0000",
            "color": "#FF0000"
          }
        },
        "default_position_style": {
          "show_symbol": false,
          "symbol": "circle",
          "show_label": false
        },
        "symbol_interval": "PT15M",
        "label_interval": "PT1H",
        "provenance": [
          {
            "activity_id": "d241b9b3-4d05-4c4a-8084-65b37078fdf6",
            "timestamp": "2026-04-13T23:12:29.952892Z",
            "was_generated_by": {
              "tool": "rep-parser",
              "tool_version": "1.0.0",
              "parameters": []
            },
            "used": [],
            "generated": [
              "b5576863-5477-40f0-82ea-07d795a1318a"
            ],
            "execution_duration": "PT0.002003S"
          }
        ]
      }
    },
    {
      "type": "Feature",
      "id": "f1f3bd29-ecf2-4615-b0db-e6453af98c93",
      "geometry": {
        "type": "LineString",
        "coordinates": [
          [
            -0.0,
            -0.0
          ],
          [
            -0.0,
            -0.0
          ],
          [
            -0.0,
            -0.0
          ],
          [
            0.0001611111111111111,
            0.001061111111111111
          ],
          [
            0.0011388888888888887,
            0.0029805555555555557
          ],
          [
            0.002344444444444444,
            0.005986111111111111
          ],
          [
            0.0037916666666666667,
            0.010052777777777777
          ],
          [
            0.0053972222222222225,
            0.015208333333333334
          ],
          [
            0.0071222222222222225,
            0.02145277777777778
          ],
          [
            0.008927777777777778,
            0.028791666666666667
          ],
          [
            0.010791666666666666,
            0.037225
          ],
          [
            0.012686111111111112,
            0.04675833333333333
          ],
          [
            0.014591666666666668,
            0.05738611111111111
          ],
          [
            0.01648888888888889,
            0.06911111111111111
          ],
          [
            0.018366666666666667,
            0.08193055555555556
          ],
          [
            0.020205555555555556,
            0.09584722222222222
          ],
          [
            0.021994444444444445,
            0.11085833333333334
          ],
          [
            0.010608333333333332,
            0.12158611111111112
          ],
          [
            9.444444444444446e-05,
            0.13528055555555554
          ],
          [
            0.008722222222222221,
            0.1502638888888889
          ],
          [
            0.02009722222222222,
            0.14801111111111112
          ],
          [
            0.021377777777777777,
            0.1560388888888889
          ],
          [
            0.02313888888888889,
            0.16981666666666667
          ],
          [
            0.014811111111111112,
            0.1677
          ],
          [
            0.00022500000000000002,
            0.17039166666666666
          ],
          [
            0.005888888888888889,
            0.1850472222222222
          ],
          [
            0.016619444444444444,
            0.1993722222222222
          ],
          [
            0.0030555555555555557,
            0.20250555555555558
          ],
          [
            0.007508333333333334,
            0.21572222222222223
          ],
          [
            0.016061111111111113,
            0.20047777777777778
          ],
          [
            -0.002588888888888889,
            0.19131388888888887
          ],
          [
            -0.023805555555555555,
            0.1847111111111111
          ],
          [
            -0.011497222222222223,
            0.17075833333333332
          ],
          [
            0.008794444444444445,
            0.1592472222222222
          ],
          [
            0.013161111111111111,
            0.17933055555555555
          ],
          [
            0.011697222222222222,
            0.20378333333333334
          ],
          [
            -0.007619444444444444,
            0.19467222222222222
          ],
          [
            -0.027033333333333333,
            0.17779999999999999
          ],
          [
            -0.006641666666666666,
            0.16851388888888888
          ],
          [
            0.020019444444444444,
            0.16419444444444445
          ],
          [
            0.015186111111111112,
            0.1872611111111111
          ],
          [
            0.003127777777777778,
            0.21228611111111112
          ],
          [
            -0.01271388888888889,
            0.19494722222222222
          ],
          [
            -0.02251111111111111,
            0.2146527777777778
          ],
          [
            0.0004555555555555555,
            0.20965833333333334
          ],
          [
            -0.005619444444444444,
            0.18409722222222222
          ],
          [
            -0.015316666666666668,
            0.15806666666666666
          ],
          [
            0.006947222222222223,
            0.16189166666666666
          ],
          [
            -0.0013750000000000001,
            0.14352222222222222
          ],
          [
            -0.015338888888888888,
            0.16371944444444445
          ],
          [
            0.005991666666666667,
            0.1790361111111111
          ],
          [
            0.03038611111111111,
            0.1923222222222222
          ],
          [
            0.011108333333333335,
            0.20416944444444446
          ],
          [
            0.029525,
            0.21203611111111112
          ],
          [
            0.025847222222222223,
            0.1878111111111111
          ],
          [
            -0.0003222222222222222,
            0.19074999999999998
          ],
          [
            -0.02735833333333333,
            0.19713055555555553
          ],
          [
            -0.021269444444444445,
            0.17521944444444443
          ],
          [
            -0.040402777777777774,
            0.1816861111111111
          ],
          [
            -0.02152222222222222,
            0.19726388888888888
          ],
          [
            -0.004255555555555556,
            0.17742777777777777
          ],
          [
            0.011297222222222222,
            0.15441388888888888
          ],
          [
            0.02145277777777778,
            0.17469444444444443
          ],
          [
            0.03112222222222222,
            0.15705
          ],
          [
            0.006661111111111112,
            0.15834444444444443
          ],
          [
            0.007222222222222222,
            0.18464999999999998
          ],
          [
            0.011166666666666667,
            0.21214444444444447
          ],
          [
            -0.010033333333333333,
            0.20401944444444445
          ],
          [
            -0.005319444444444444,
            0.22360833333333335
          ],
          [
            0.011902777777777778,
            0.2062027777777778
          ],
          [
            -0.006241666666666666,
            0.18715555555555555
          ],
          [
            -0.027694444444444445,
            0.16950833333333332
          ],
          [
            -0.006552777777777778,
            0.1612472222222222
          ],
          [
            -0.023233333333333335,
            0.14995833333333333
          ],
          [
            -0.024225,
            0.17442777777777776
          ],
          [
            0.0020166666666666666,
            0.17628888888888888
          ],
          [
            0.029758333333333335,
            0.17488888888888887
          ],
          [
            0.019702777777777777,
            0.19523888888888888
          ],
          [
            0.03963888888888889,
            0.19235
          ],
          [
            0.023891666666666665,
            0.17359444444444444
          ],
          [
            0.0032444444444444443,
            0.18989722222222222
          ],
          [
            -0.01631111111111111,
            0.209625
          ],
          [
            -0.022588888888888888,
            0.1878111111111111
          ],
          [
            -0.03537222222222222,
            0.203375
          ],
          [
            -0.0111,
            0.2066277777777778
          ],
          [
            -0.006822222222222222,
            0.18066944444444444
          ],
          [
            -0.005658333333333334,
            0.15291666666666667
          ],
          [
            0.013677777777777778,
            0.1648111111111111
          ],
          [
            0.012641666666666666,
            0.14469444444444443
          ],
          [
            -0.0074888888888888895,
            0.15864166666666665
          ],
          [
            0.006836111111111111,
            0.18070555555555554
          ],
          [
            0.02467222222222222,
            0.20200277777777778
          ],
          [
            0.0023694444444444444,
            0.20623611111111112
          ],
          [
            0.01668611111111111,
            0.22040555555555558
          ],
          [
            0.022169444444444443,
            0.19653888888888887
          ],
          [
            -0.0032833333333333334,
            0.18988055555555555
          ],
          [
            -0.030811111111111112,
            0.18615555555555555
          ]
        ]
      },
      "properties": {
        "kind": "TRACK",
        "platform_id": "T23_A",
        "platform_name": "T23_A",
        "track_type": "CONTACT",
        "start_time": "2010-01-12T12:13:14+00:00",
        "end_time": "2010-01-12T20:13:14+00:00",
        "positions": [
          {
            "time": "2010-01-12T12:13:14+00:00",
            "course": 0.0,
            "speed": 0.0,
            "depth": -6.0
          },
          {
            "time": "2010-01-12T12:18:14+00:00",
            "course": 0.0,
            "speed": 0.0,
            "depth": -6.0
          },
          {
            "time": "2010-01-12T12:23:14+00:00",
            "course": 0.0,
            "speed": 0.0,
            "depth": -6.0
          },
          {
            "time": "2010-01-12T12:28:14+00:00",
            "course": 17.17,
            "speed": 0.78,
            "depth": -6.0
          },
          {
            "time": "2010-01-12T12:33:14+00:00",
            "course": 29.08,
            "speed": 1.56,
            "depth": -6.0
          },
          {
            "time": "2010-01-12T12:38:14+00:00",
            "course": 21.28,
            "speed": 2.33,
            "depth": -6.0
          },
          {
            "time": "2010-01-12T12:43:14+00:00",
            "course": 19.57,
            "speed": 3.11,
            "depth": -6.0
          },
          {
            "time": "2010-01-12T12:48:14+00:00",
            "course": 17.26,
            "speed": 3.89,
            "depth": -6.0
          },
          {
            "time": "2010-01-12T12:53:14+00:00",
            "course": 15.42,
            "speed": 4.67,
            "depth": -6.0
          },
          {
            "time": "2010-01-12T12:58:14+00:00",
            "course": 13.83,
            "speed": 5.44,
            "depth": -6.0
          },
          {
            "time": "2010-01-12T13:03:14+00:00",
            "course": 12.45,
            "speed": 6.22,
            "depth": -6.0
          },
          {
            "time": "2010-01-12T13:08:14+00:00",
            "course": 11.24,
            "speed": 7.0,
            "depth": -6.0
          },
          {
            "time": "2010-01-12T13:13:14+00:00",
            "course": 10.16,
            "speed": 7.78,
            "depth": -6.0
          },
          {
            "time": "2010-01-12T13:18:14+00:00",
            "course": 9.19,
            "speed": 8.55,
            "depth": -6.0
          },
          {
            "time": "2010-01-12T13:23:14+00:00",
            "course": 8.32,
            "speed": 9.33,
            "depth": -6.0
          },
          {
            "time": "2010-01-12T13:28:14+00:00",
            "course": 7.53,
            "speed": 10.11,
            "depth": -6.0
          },
          {
            "time": "2010-01-12T13:33:14+00:00",
            "course": 6.8,
            "speed": 10.89,
            "depth": -6.0
          },
          {
            "time": "2010-01-12T13:38:14+00:00",
            "course": 306.66,
            "speed": 11.66,
            "depth": -6.0
          },
          {
            "time": "2010-01-12T13:43:14+00:00",
            "course": 322.97,
            "speed": 12.44,
            "depth": -6.0
          },
          {
            "time": "2010-01-12T13:48:14+00:00",
            "course": 39.02,
            "speed": 13.22,
            "depth": -6.0
          },
          {
            "time": "2010-01-12T13:53:14+00:00",
            "course": 114.72,
            "speed": 9.0,
            "depth": -6.0
          },
          {
            "time": "2010-01-12T13:58:14+00:00",
            "course": 308.18,
            "speed": 9.78,
            "depth": -6.0
          },
          {
            "time": "2010-01-12T14:03:14+00:00",
            "course": 16.76,
            "speed": 10.56,
            "depth": -6.0
          },
          {
            "time": "2010-01-12T14:08:14+00:00",
            "course": 198.89,
            "speed": 11.33,
            "depth": -6.0
          },
          {
            "time": "2010-01-12T14:13:14+00:00",
            "course": 296.37,
            "speed": 12.11,
            "depth": -6.0
          },
          {
            "time": "2010-01-12T14:18:14+00:00",
            "course": 36.84,
            "speed": 12.89,
            "depth": -6.0
          },
          {
            "time": "2010-01-12T14:23:14+00:00",
            "course": 36.84,
            "speed": 12.89,
            "depth": -6.0
          },
          {
            "time": "2010-01-12T14:28:14+00:00",
            "course": 255.6,
            "speed": 13.67,
            "depth": -6.0
          },
          {
            "time": "2010-01-12T14:33:14+00:00",
            "course": 47.72,
            "speed": 14.44,
            "depth": -6.0
          },
          {
            "time": "2010-01-12T14:38:14+00:00",
            "course": 168.92,
            "speed": 15.22,
            "depth": -6.0
          },
          {
            "time": "2010-01-12T14:43:14+00:00",
            "course": 252.72,
            "speed": 16.0,
            "depth": -6.0
          },
          {
            "time": "2010-01-12T14:48:14+00:00",
            "course": 252.72,
            "speed": 16.0,
            "depth": -6.0
          },
          {
            "time": "2010-01-12T14:53:14+00:00",
            "course": 119.57,
            "speed": 16.8,
            "depth": -6.0
          },
          {
            "time": "2010-01-12T14:58:14+00:00",
            "course": 119.57,
            "speed": 16.8,
            "depth": -6.0
          },
          {
            "time": "2010-01-12T15:03:14+00:00",
            "course": 356.57,
            "speed": 17.64,
            "depth": -6.0
          },
          {
            "time": "2010-01-12T15:08:14+00:00",
            "course": 356.57,
            "speed": 17.64,
            "depth": -6.0
          },
          {
            "time": "2010-01-12T15:13:14+00:00",
            "course": 229.01,
            "speed": 18.52,
            "depth": -6.0
          },
          {
            "time": "2010-01-12T15:18:14+00:00",
            "course": 229.01,
            "speed": 18.52,
            "depth": -6.0
          },
          {
            "time": "2010-01-12T15:23:14+00:00",
            "course": 99.2,
            "speed": 19.45,
            "depth": -6.0
          },
          {
            "time": "2010-01-12T15:28:14+00:00",
            "course": 99.2,
            "speed": 19.45,
            "depth": -6.0
          },
          {
            "time": "2010-01-12T15:33:14+00:00",
            "course": 334.27,
            "speed": 20.0,
            "depth": -6.0
          },
          {
            "time": "2010-01-12T15:38:14+00:00",
            "course": 334.27,
            "speed": 20.0,
            "depth": -6.0
          },
          {
            "time": "2010-01-12T15:43:14+00:00",
            "course": 208.34,
            "speed": 20.0,
            "depth": -6.0
          },
          {
            "time": "2010-01-12T15:48:14+00:00",
            "course": 350.59,
            "speed": 20.0,
            "depth": -6.0
          },
          {
            "time": "2010-01-12T15:53:14+00:00",
            "course": 116.31,
            "speed": 20.0,
            "depth": -6.0
          },
          {
            "time": "2010-01-12T15:58:14+00:00",
            "course": 200.43,
            "speed": 20.0,
            "depth": -6.0
          },
          {
            "time": "2010-01-12T16:03:14+00:00",
            "course": 200.43,
            "speed": 20.0,
            "depth": -6.0
          },
          {
            "time": "2010-01-12T16:08:14+00:00",
            "course": 64.34,
            "speed": 20.0,
            "depth": -6.0
          },
          {
            "time": "2010-01-12T16:13:14+00:00",
            "course": 224.64,
            "speed": 20.0,
            "depth": -6.0
          },
          {
            "time": "2010-01-12T16:18:14+00:00",
            "course": 337.02,
            "speed": 20.0,
            "depth": -6.0
          },
          {
            "time": "2010-01-12T16:23:14+00:00",
            "course": 61.43,
            "speed": 20.0,
            "depth": -6.0
          },
          {
            "time": "2010-01-12T16:28:14+00:00",
            "course": 61.43,
            "speed": 20.0,
            "depth": -6.0
          },
          {
            "time": "2010-01-12T16:33:14+00:00",
            "course": 285.74,
            "speed": 20.0,
            "depth": -6.0
          },
          {
            "time": "2010-01-12T16:38:14+00:00",
            "course": 87.38,
            "speed": 20.0,
            "depth": -6.0
          },
          {
            "time": "2010-01-12T16:43:14+00:00",
            "course": 200.43,
            "speed": 20.0,
            "depth": -6.0
          },
          {
            "time": "2010-01-12T16:48:14+00:00",
            "course": 283.28,
            "speed": 20.0,
            "depth": -6.0
          },
          {
            "time": "2010-01-12T16:53:14+00:00",
            "course": 283.28,
            "speed": 20.0,
            "depth": -6.0
          },
          {
            "time": "2010-01-12T16:58:14+00:00",
            "course": 148.86,
            "speed": 20.0,
            "depth": -6.0
          },
          {
            "time": "2010-01-12T17:03:14+00:00",
            "course": 308.9,
            "speed": 20.0,
            "depth": -6.0
          },
          {
            "time": "2010-01-12T17:08:14+00:00",
            "course": 62.34,
            "speed": 20.0,
            "depth": -6.0
          },
          {
            "time": "2010-01-12T17:13:14+00:00",
            "course": 145.95,
            "speed": 20.0,
            "depth": -6.0
          },
          {
            "time": "2010-01-12T17:18:14+00:00",
            "course": 145.95,
            "speed": 20.0,
            "depth": -6.0
          },
          {
            "time": "2010-01-12T17:23:14+00:00",
            "course": 10.87,
            "speed": 20.0,
            "depth": -6.0
          },
          {
            "time": "2010-01-12T17:28:14+00:00",
            "course": 171.64,
            "speed": 20.0,
            "depth": -6.0
          },
          {
            "time": "2010-01-12T17:33:14+00:00",
            "course": 284.85,
            "speed": 20.0,
            "depth": -6.0
          },
          {
            "time": "2010-01-12T17:38:14+00:00",
            "course": 8.16,
            "speed": 20.0,
            "depth": -6.0
          },
          {
            "time": "2010-01-12T17:43:14+00:00",
            "course": 8.16,
            "speed": 20.0,
            "depth": -6.0
          },
          {
            "time": "2010-01-12T17:48:14+00:00",
            "course": 233.35,
            "speed": 20.0,
            "depth": -6.0
          },
          {
            "time": "2010-01-12T17:53:14+00:00",
            "course": 33.83,
            "speed": 20.0,
            "depth": -6.0
          },
          {
            "time": "2010-01-12T17:58:14+00:00",
            "course": 147.14,
            "speed": 20.0,
            "depth": -6.0
          },
          {
            "time": "2010-01-12T18:03:14+00:00",
            "course": 230.56,
            "speed": 20.0,
            "depth": -6.0
          },
          {
            "time": "2010-01-12T18:08:14+00:00",
            "course": 230.56,
            "speed": 20.0,
            "depth": -6.0
          },
          {
            "time": "2010-01-12T18:13:14+00:00",
            "course": 95.65,
            "speed": 20.0,
            "depth": -6.0
          },
          {
            "time": "2010-01-12T18:18:14+00:00",
            "course": 256.24,
            "speed": 20.0,
            "depth": -6.0
          },
          {
            "time": "2010-01-12T18:23:14+00:00",
            "course": 9.51,
            "speed": 20.0,
            "depth": -6.0
          },
          {
            "time": "2010-01-12T18:28:14+00:00",
            "course": 92.89,
            "speed": 20.0,
            "depth": -6.0
          },
          {
            "time": "2010-01-12T18:33:14+00:00",
            "course": 92.89,
            "speed": 20.0,
            "depth": -6.0
          },
          {
            "time": "2010-01-12T18:38:14+00:00",
            "course": 318.01,
            "speed": 20.0,
            "depth": -6.0
          },
          {
            "time": "2010-01-12T18:43:14+00:00",
            "course": 118.57,
            "speed": 20.0,
            "depth": -6.0
          },
          {
            "time": "2010-01-12T18:48:14+00:00",
            "course": 231.85,
            "speed": 20.0,
            "depth": -6.0
          },
          {
            "time": "2010-01-12T18:53:14+00:00",
            "course": 315.25,
            "speed": 20.0,
            "depth": -6.0
          },
          {
            "time": "2010-01-12T18:58:14+00:00",
            "course": 315.25,
            "speed": 20.0,
            "depth": -6.0
          },
          {
            "time": "2010-01-12T19:03:14+00:00",
            "course": 180.36,
            "speed": 20.0,
            "depth": -6.0
          },
          {
            "time": "2010-01-12T19:08:14+00:00",
            "course": 340.92,
            "speed": 20.0,
            "depth": -6.0
          },
          {
            "time": "2010-01-12T19:13:14+00:00",
            "course": 94.2,
            "speed": 20.0,
            "depth": -6.0
          },
          {
            "time": "2010-01-12T19:18:14+00:00",
            "course": 177.6,
            "speed": 20.0,
            "depth": -6.0
          },
          {
            "time": "2010-01-12T19:23:14+00:00",
            "course": 177.6,
            "speed": 20.0,
            "depth": -6.0
          },
          {
            "time": "2010-01-12T19:28:14+00:00",
            "course": 42.71,
            "speed": 20.0,
            "depth": -6.0
          },
          {
            "time": "2010-01-12T19:33:14+00:00",
            "course": 203.27,
            "speed": 20.0,
            "depth": -6.0
          },
          {
            "time": "2010-01-12T19:38:14+00:00",
            "course": 316.55,
            "speed": 20.0,
            "depth": -6.0
          },
          {
            "time": "2010-01-12T19:43:14+00:00",
            "course": 39.94,
            "speed": 20.0,
            "depth": -6.0
          },
          {
            "time": "2010-01-12T19:48:14+00:00",
            "course": 39.94,
            "speed": 20.0,
            "depth": -6.0
          },
          {
            "time": "2010-01-12T19:53:14+00:00",
            "course": 265.06,
            "speed": 20.0,
            "depth": -6.0
          },
          {
            "time": "2010-01-12T19:58:14+00:00",
            "course": 65.62,
            "speed": 20.0,
            "depth": -6.0
          },
          {
            "time": "2010-01-12T20:03:14+00:00",
            "course": 178.9,
            "speed": 20.0,
            "depth": -6.0
          },
          {
            "time": "2010-01-12T20:08:14+00:00",
            "course": 262.29,
            "speed": 20.0,
            "depth": -6.0
          },
          {
            "time": "2010-01-12T20:13:14+00:00",
            "course": 262.29,
            "speed": 20.0,
            "depth": -6.0
          }
        ],
        "style": {
          "line": {
            "color": "#FFA500"
          },
          "point": {
            "shape": "circle",
            "radius": 3.0,
            "fill_color": "#FFA500",
            "color": "#FFA500"
          }
        },
        "default_position_style": {
          "show_symbol": false,
          "symbol": "circle",
          "show_label": false
        },
        "symbol_interval": "PT15M",
        "label_interval": "PT1H",
        "provenance": [
          {
            "activity_id": "d241b9b3-4d05-4c4a-8084-65b37078fdf6",
            "timestamp": "2026-04-13T23:12:29.952892Z",
            "was_generated_by": {
              "tool": "rep-parser",
              "tool_version": "1.0.0",
              "parameters": []
            },
            "used": [],
            "generated": [
              "f1f3bd29-ecf2-4615-b0db-e6453af98c93"
            ],
            "execution_duration": "PT0.002003S"
          }
        ]
      }
    }
  ]
}