{
  "type": "FeatureCollection",
  "features": [
    {
      "type": "Feature",
      "id": "eb9b497e-cb83-4d4e-8a18-ce82a1ad27ec",
      "geometry": {
        "type": "LineString",
        "coordinates": [
          [
            0.5999111,
            60.4822278
          ],
          [
            0.5999361,
            60.4777833
          ],
          [
            0.5999611,
            60.4733389
          ],
          [
            0.5999861,
            60.4688944
          ],
          [
            0.5965028,
            60.4649306
          ],
          [
            0.5882389,
            60.4634722
          ],
          [
            0.5792361,
            60.4637111
          ],
          [
            0.5702361,
            60.4639722
          ],
          [
            0.5612361,
            60.4642306
          ],
          [
            0.5522361,
            60.4644889
          ],
          [
            0.5440139,
            60.4629944
          ],
          [
            0.5406472,
            60.4590056
          ],
          [
            0.5422722,
            60.4546389
          ],
          [
            0.5441194,
            60.4502889
          ],
          [
            0.5459639,
            60.4459389
          ],
          [
            0.5478111,
            60.4415889
          ],
          [
            0.5496556,
            60.4372389
          ],
          [
            0.5515,
            60.4328889
          ],
          [
            0.5497167,
            60.4286611
          ],
          [
            0.5422194,
            60.4264306
          ],
          [
            0.5332194,
            60.4263028
          ],
          [
            0.5242167,
            60.4262139
          ],
          [
            0.5152139,
            60.4261222
          ],
          [
            0.5062111,
            60.4260333
          ],
          [
            0.4972083,
            60.4259417
          ],
          [
            0.4882056,
            60.4258528
          ],
          [
            0.4792,
            60.4257611
          ],
          [
            0.4701972,
            60.4256722
          ],
          [
            0.4622472,
            60.4238639
          ],
          [
            0.4588917,
            60.4198
          ],
          [
            0.4568833,
            60.4154667
          ],
          [
            0.4548778,
            60.4111361
          ],
          [
            0.4528722,
            60.4068028
          ],
          [
            0.4508667,
            60.4024694
          ],
          [
            0.4488611,
            60.3981361
          ],
          [
            0.4448083,
            60.3941889
          ],
          [
            0.4402444,
            60.3903583
          ],
          [
            0.4356833,
            60.3865278
          ],
          [
            0.4311222,
            60.3826972
          ],
          [
            0.4265611,
            60.3788667
          ],
          [
            0.4220028,
            60.3750361
          ],
          [
            0.4174417,
            60.3712056
          ],
          [
            0.4163944,
            60.3669167
          ],
          [
            0.4201694,
            60.3628889
          ],
          [
            0.4241083,
            60.3588917
          ],
          [
            0.4280444,
            60.3548972
          ],
          [
            0.4319806,
            60.3509028
          ],
          [
            0.4323472,
            60.3465861
          ],
          [
            0.427625,
            60.3428139
          ],
          [
            0.4226611,
            60.3391083
          ],
          [
            0.4177,
            60.3354056
          ],
          [
            0.4127389,
            60.3317
          ],
          [
            0.4077778,
            60.3279944
          ],
          [
            0.4028194,
            60.3242917
          ],
          [
            0.3978611,
            60.3205861
          ],
          [
            0.3929,
            60.3168806
          ],
          [
            0.3879417,
            60.3131778
          ],
          [
            0.3864361,
            60.3089222
          ],
          [
            0.3899361,
            60.3048361
          ],
          [
            0.3936389,
            60.3007861
          ],
          [
            0.3973417,
            60.2967389
          ],
          [
            0.4010444,
            60.2926917
          ],
          [
            0.4047444,
            60.2886417
          ],
          [
            0.4084472,
            60.2845944
          ],
          [
            0.4085667,
            60.280275
          ],
          [
            0.4033917,
            60.2766611
          ],
          [
            0.3978,
            60.2731861
          ],
          [
            0.3922083,
            60.2697139
          ],
          [
            0.38995,
            60.2655417
          ],
          [
            0.3945806,
            60.2618833
          ],
          [
            0.4021167,
            60.2594806
          ],
          [
            0.4096611,
            60.2570833
          ],
          [
            0.4172028,
            60.2546833
          ],
          [
            0.4247444,
            60.2522861
          ],
          [
            0.4322861,
            60.2498889
          ],
          [
            0.439825,
            60.2474889
          ],
          [
            0.4473667,
            60.2450917
          ],
          [
            0.4549056,
            60.2426944
          ],
          [
            0.4624444,
            60.2402944
          ],
          [
            0.4710389,
            60.2396139
          ],
          [
            0.4779222,
            60.2422694
          ],
          [
            0.4824472,
            60.2461028
          ],
          [
            0.4869583,
            60.2499417
          ],
          [
            0.4914694,
            60.2537833
          ],
          [
            0.4959806,
            60.2576222
          ],
          [
            0.5004944,
            60.2614611
          ],
          [
            0.5050056,
            60.2653
          ],
          [
            0.5060167,
            60.2695917
          ],
          [
            0.5003583,
            60.2728778
          ],
          [
            0.4919083,
            60.2743556
          ],
          [
            0.4834222,
            60.2757861
          ],
          [
            0.4749361,
            60.2772194
          ],
          [
            0.46645,
            60.27865
          ],
          [
            0.4579639,
            60.2800833
          ],
          [
            0.4494778,
            60.2815139
          ],
          [
            0.4409889,
            60.2829472
          ],
          [
            0.4325028,
            60.2843778
          ],
          [
            0.4240139,
            60.2858111
          ],
          [
            0.415525,
            60.2872417
          ],
          [
            0.4070361,
            60.288675
          ],
          [
            0.3985472,
            60.2901056
          ],
          [
            0.3900583,
            60.2915389
          ],
          [
            0.3815694,
            60.2929694
          ],
          [
            0.3730778,
            60.2944028
          ],
          [
            0.3645861,
            60.2958361
          ],
          [
            0.3560972,
            60.2972667
          ],
          [
            0.3476056,
            60.2987
          ],
          [
            0.3391139,
            60.3001306
          ],
          [
            0.3306194,
            60.3015639
          ],
          [
            0.3221278,
            60.3029944
          ],
          [
            0.3136361,
            60.3044278
          ],
          [
            0.3051417,
            60.3058583
          ],
          [
            0.2966472,
            60.3072917
          ],
          [
            0.2881556,
            60.3087222
          ]
        ]
      },
      "properties": {
        "kind": "TRACK",
        "platform_id": "SENSOR",
        "platform_name": "SENSOR",
        "track_type": "CONTACT",
        "times": [
          1263298080000,
          1263298200000,
          1263298320000,
          1263298440000,
          1263298560000,
          1263298680000,
          1263298800000,
          1263298920000,
          1263299040000,
          1263299160000,
          1263299280000,
          1263299400000,
          1263299520000,
          1263299640000,
          1263299760000,
          1263299880000,
          1263300000000,
          1263300120000,
          1263300240000,
          1263300360000,
          1263300480000,
          1263300600000,
          1263300720000,
          1263300840000,
          1263300960000,
          1263301080000,
          1263301200000,
          1263301320000,
          1263301440000,
          1263301560000,
          1263301680000,
          1263301800000,
          1263301920000,
          1263302040000,
          1263302160000,
          1263302280000,
          1263302400000,
          1263302520000,
          1263302640000,
          1263302760000,
          1263302880000,
          1263303000000,
          1263303120000,
          1263303240000,
          1263303360000,
          1263303480000,
          1263303600000,
          1263303720000,
          1263303840000,
          1263303960000,
          1263304080000,
          1263304200000,
          1263304320000,
          1263304440000,
          1263304560000,
          1263304680000,
          1263304800000,
          1263304920000,
          1263305040000,
          1263305160000,
          1263305280000,
          1263305400000,
          1263305520000,
          1263305640000,
          1263305760000,
          1263305880000,
          1263306000000,
          1263306120000,
          1263306240000,
          1263306360000,
          1263306480000,
          1263306600000,
          1263306720000,
          1263306840000,
          1263306960000,
          1263307080000,
          1263307200000,
          1263307320000,
          1263307440000,
          1263307560000,
          1263307680000,
          1263307800000,
          1263307920000,
          1263308040000,
          1263308160000,
          1263308280000,
          1263308400000,
          1263308520000,
          1263308640000,
          1263308760000,
          1263308880000,
          1263309000000,
          1263309120000,
          1263309240000,
          1263309360000,
          1263309480000,
          1263309600000,
          1263309720000,
          1263309840000,
          1263309960000,
          1263310080000,
          1263310200000,
          1263310320000,
          1263310440000,
          1263310560000,
          1263310680000,
          1263310800000,
          1263310920000,
          1263311040000,
          1263311160000,
          1263311280000,
          1263311400000,
          1263311520000,
          1263311640000
        ],
        "start_time": "2010-01-12T12:08:00+00:00",
        "end_time": "2010-01-12T15:54:00+00:00",
        "positions": [
          {
            "time": "2010-01-12T12:08:00+00:00",
            "course": 179.84,
            "speed": 8.0,
            "depth": 0.0
          },
          {
            "time": "2010-01-12T12:10:00+00:00",
            "course": 179.84,
            "speed": 8.0,
            "depth": 0.0
          },
          {
            "time": "2010-01-12T12:12:00+00:00",
            "course": 179.84,
            "speed": 8.0,
            "depth": 0.0
          },
          {
            "time": "2010-01-12T12:14:00+00:00",
            "course": 179.84,
            "speed": 8.0,
            "depth": 0.0
          },
          {
            "time": "2010-01-12T12:16:00+00:00",
            "course": 227.0,
            "speed": 8.0,
            "depth": 0.0
          },
          {
            "time": "2010-01-12T12:18:00+00:00",
            "course": 269.06,
            "speed": 8.0,
            "depth": 0.0
          },
          {
            "time": "2010-01-12T12:20:00+00:00",
            "course": 273.29,
            "speed": 8.0,
            "depth": 0.0
          },
          {
            "time": "2010-01-12T12:22:00+00:00",
            "course": 273.34,
            "speed": 8.0,
            "depth": 0.0
          },
          {
            "time": "2010-01-12T12:24:00+00:00",
            "course": 273.34,
            "speed": 8.0,
            "depth": 0.0
          },
          {
            "time": "2010-01-12T12:26:00+00:00",
            "course": 273.34,
            "speed": 8.0,
            "depth": 0.0
          },
          {
            "time": "2010-01-12T12:28:00+00:00",
            "course": 226.18,
            "speed": 8.0,
            "depth": 0.0
          },
          {
            "time": "2010-01-12T12:30:00+00:00",
            "course": 179.02,
            "speed": 8.0,
            "depth": 0.0
          },
          {
            "time": "2010-01-12T12:32:00+00:00",
            "course": 168.4,
            "speed": 8.0,
            "depth": 0.0
          },
          {
            "time": "2010-01-12T12:34:00+00:00",
            "course": 168.18,
            "speed": 8.0,
            "depth": 0.0
          },
          {
            "time": "2010-01-12T12:36:00+00:00",
            "course": 168.18,
            "speed": 8.0,
            "depth": 0.0
          },
          {
            "time": "2010-01-12T12:38:00+00:00",
            "course": 168.18,
            "speed": 8.0,
            "depth": 0.0
          },
          {
            "time": "2010-01-12T12:40:00+00:00",
            "course": 168.18,
            "speed": 8.0,
            "depth": 0.0
          },
          {
            "time": "2010-01-12T12:42:00+00:00",
            "course": 168.18,
            "speed": 8.0,
            "depth": 0.0
          },
          {
            "time": "2010-01-12T12:44:00+00:00",
            "course": 215.34,
            "speed": 8.0,
            "depth": 0.0
          },
          {
            "time": "2010-01-12T12:46:00+00:00",
            "course": 262.5,
            "speed": 8.0,
            "depth": 0.0
          },
          {
            "time": "2010-01-12T12:48:00+00:00",
            "course": 268.78,
            "speed": 8.0,
            "depth": 0.0
          },
          {
            "time": "2010-01-12T12:50:00+00:00",
            "course": 268.84,
            "speed": 8.0,
            "depth": 0.0
          },
          {
            "time": "2010-01-12T12:52:00+00:00",
            "course": 268.84,
            "speed": 8.0,
            "depth": 0.0
          },
          {
            "time": "2010-01-12T12:54:00+00:00",
            "course": 268.84,
            "speed": 8.0,
            "depth": 0.0
          },
          {
            "time": "2010-01-12T12:56:00+00:00",
            "course": 268.84,
            "speed": 8.0,
            "depth": 0.0
          },
          {
            "time": "2010-01-12T12:58:00+00:00",
            "course": 268.84,
            "speed": 8.0,
            "depth": 0.0
          },
          {
            "time": "2010-01-12T13:00:00+00:00",
            "course": 268.84,
            "speed": 8.0,
            "depth": 0.0
          },
          {
            "time": "2010-01-12T13:02:00+00:00",
            "course": 268.84,
            "speed": 8.0,
            "depth": 0.0
          },
          {
            "time": "2010-01-12T13:04:00+00:00",
            "course": 221.68,
            "speed": 8.0,
            "depth": 0.0
          },
          {
            "time": "2010-01-12T13:06:00+00:00",
            "course": 194.21,
            "speed": 8.0,
            "depth": 0.0
          },
          {
            "time": "2010-01-12T13:08:00+00:00",
            "course": 192.88,
            "speed": 8.0,
            "depth": 0.0
          },
          {
            "time": "2010-01-12T13:10:00+00:00",
            "course": 192.87,
            "speed": 8.0,
            "depth": 0.0
          },
          {
            "time": "2010-01-12T13:12:00+00:00",
            "course": 192.87,
            "speed": 8.0,
            "depth": 0.0
          },
          {
            "time": "2010-01-12T13:14:00+00:00",
            "course": 192.87,
            "speed": 8.0,
            "depth": 0.0
          },
          {
            "time": "2010-01-12T13:16:00+00:00",
            "course": 192.87,
            "speed": 8.0,
            "depth": 0.0
          },
          {
            "time": "2010-01-12T13:18:00+00:00",
            "course": 210.0,
            "speed": 8.0,
            "depth": 0.0
          },
          {
            "time": "2010-01-12T13:20:00+00:00",
            "course": 210.47,
            "speed": 8.0,
            "depth": 0.0
          },
          {
            "time": "2010-01-12T13:22:00+00:00",
            "course": 210.47,
            "speed": 8.0,
            "depth": 0.0
          },
          {
            "time": "2010-01-12T13:24:00+00:00",
            "course": 210.47,
            "speed": 8.0,
            "depth": 0.0
          },
          {
            "time": "2010-01-12T13:26:00+00:00",
            "course": 210.47,
            "speed": 8.0,
            "depth": 0.0
          },
          {
            "time": "2010-01-12T13:28:00+00:00",
            "course": 210.47,
            "speed": 8.0,
            "depth": 0.0
          },
          {
            "time": "2010-01-12T13:30:00+00:00",
            "course": 210.47,
            "speed": 8.0,
            "depth": 0.0
          },
          {
            "time": "2010-01-12T13:32:00+00:00",
            "course": 163.31,
            "speed": 8.0,
            "depth": 0.0
          },
          {
            "time": "2010-01-12T13:34:00+00:00",
            "course": 154.27,
            "speed": 8.0,
            "depth": 0.0
          },
          {
            "time": "2010-01-12T13:36:00+00:00",
            "course": 154.02,
            "speed": 8.0,
            "depth": 0.0
          },
          {
            "time": "2010-01-12T13:38:00+00:00",
            "course": 154.02,
            "speed": 8.0,
            "depth": 0.0
          },
          {
            "time": "2010-01-12T13:40:00+00:00",
            "course": 154.02,
            "speed": 8.0,
            "depth": 0.0
          },
          {
            "time": "2010-01-12T13:42:00+00:00",
            "course": 201.18,
            "speed": 8.0,
            "depth": 0.0
          },
          {
            "time": "2010-01-12T13:44:00+00:00",
            "course": 213.34,
            "speed": 8.0,
            "depth": 0.0
          },
          {
            "time": "2010-01-12T13:46:00+00:00",
            "course": 213.54,
            "speed": 8.0,
            "depth": 0.0
          },
          {
            "time": "2010-01-12T13:48:00+00:00",
            "course": 213.54,
            "speed": 8.0,
            "depth": 0.0
          },
          {
            "time": "2010-01-12T13:50:00+00:00",
            "course": 213.54,
            "speed": 8.0,
            "depth": 0.0
          },
          {
            "time": "2010-01-12T13:52:00+00:00",
            "course": 213.54,
            "speed": 8.0,
            "depth": 0.0
          },
          {
            "time": "2010-01-12T13:54:00+00:00",
            "course": 213.54,
            "speed": 8.0,
            "depth": 0.0
          },
          {
            "time": "2010-01-12T13:56:00+00:00",
            "course": 213.54,
            "speed": 8.0,
            "depth": 0.0
          },
          {
            "time": "2010-01-12T13:58:00+00:00",
            "course": 213.54,
            "speed": 8.0,
            "depth": 0.0
          },
          {
            "time": "2010-01-12T14:00:00+00:00",
            "course": 213.54,
            "speed": 8.0,
            "depth": 0.0
          },
          {
            "time": "2010-01-12T14:02:00+00:00",
            "course": 166.38,
            "speed": 8.0,
            "depth": 0.0
          },
          {
            "time": "2010-01-12T14:04:00+00:00",
            "course": 155.83,
            "speed": 8.0,
            "depth": 0.0
          },
          {
            "time": "2010-01-12T14:06:00+00:00",
            "course": 155.62,
            "speed": 8.0,
            "depth": 0.0
          },
          {
            "time": "2010-01-12T14:08:00+00:00",
            "course": 155.62,
            "speed": 8.0,
            "depth": 0.0
          },
          {
            "time": "2010-01-12T14:10:00+00:00",
            "course": 155.62,
            "speed": 8.0,
            "depth": 0.0
          },
          {
            "time": "2010-01-12T14:12:00+00:00",
            "course": 155.62,
            "speed": 8.0,
            "depth": 0.0
          },
          {
            "time": "2010-01-12T14:14:00+00:00",
            "course": 155.62,
            "speed": 8.0,
            "depth": 0.0
          },
          {
            "time": "2010-01-12T14:16:00+00:00",
            "course": 202.78,
            "speed": 8.0,
            "depth": 0.0
          },
          {
            "time": "2010-01-12T14:18:00+00:00",
            "course": 217.73,
            "speed": 8.0,
            "depth": 0.0
          },
          {
            "time": "2010-01-12T14:20:00+00:00",
            "course": 218.61,
            "speed": 8.0,
            "depth": 0.0
          },
          {
            "time": "2010-01-12T14:22:00+00:00",
            "course": 218.61,
            "speed": 8.0,
            "depth": 0.0
          },
          {
            "time": "2010-01-12T14:24:00+00:00",
            "course": 171.45,
            "speed": 8.0,
            "depth": 0.0
          },
          {
            "time": "2010-01-12T14:26:00+00:00",
            "course": 125.01,
            "speed": 8.0,
            "depth": 0.0
          },
          {
            "time": "2010-01-12T14:28:00+00:00",
            "course": 122.66,
            "speed": 8.0,
            "depth": 0.0
          },
          {
            "time": "2010-01-12T14:30:00+00:00",
            "course": 122.66,
            "speed": 8.0,
            "depth": 0.0
          },
          {
            "time": "2010-01-12T14:32:00+00:00",
            "course": 122.66,
            "speed": 8.0,
            "depth": 0.0
          },
          {
            "time": "2010-01-12T14:34:00+00:00",
            "course": 122.66,
            "speed": 8.0,
            "depth": 0.0
          },
          {
            "time": "2010-01-12T14:36:00+00:00",
            "course": 122.66,
            "speed": 8.0,
            "depth": 0.0
          },
          {
            "time": "2010-01-12T14:38:00+00:00",
            "course": 122.66,
            "speed": 8.0,
            "depth": 0.0
          },
          {
            "time": "2010-01-12T14:40:00+00:00",
            "course": 122.66,
            "speed": 8.0,
            "depth": 0.0
          },
          {
            "time": "2010-01-12T14:42:00+00:00",
            "course": 122.66,
            "speed": 8.0,
            "depth": 0.0
          },
          {
            "time": "2010-01-12T14:44:00+00:00",
            "course": 122.66,
            "speed": 8.0,
            "depth": 0.0
          },
          {
            "time": "2010-01-12T14:46:00+00:00",
            "course": 75.5,
            "speed": 8.0,
            "depth": 0.0
          },
          {
            "time": "2010-01-12T14:48:00+00:00",
            "course": 33.21,
            "speed": 8.0,
            "depth": 0.0
          },
          {
            "time": "2010-01-12T14:50:00+00:00",
            "course": 30.26,
            "speed": 8.0,
            "depth": 0.0
          },
          {
            "time": "2010-01-12T14:52:00+00:00",
            "course": 30.24,
            "speed": 8.0,
            "depth": 0.0
          },
          {
            "time": "2010-01-12T14:54:00+00:00",
            "course": 30.24,
            "speed": 8.0,
            "depth": 0.0
          },
          {
            "time": "2010-01-12T14:56:00+00:00",
            "course": 30.24,
            "speed": 8.0,
            "depth": 0.0
          },
          {
            "time": "2010-01-12T14:58:00+00:00",
            "course": 30.24,
            "speed": 8.0,
            "depth": 0.0
          },
          {
            "time": "2010-01-12T15:00:00+00:00",
            "course": 30.24,
            "speed": 8.0,
            "depth": 0.0
          },
          {
            "time": "2010-01-12T15:02:00+00:00",
            "course": 343.08,
            "speed": 8.0,
            "depth": 0.0
          },
          {
            "time": "2010-01-12T15:04:00+00:00",
            "course": 295.92,
            "speed": 8.0,
            "depth": 0.0
          },
          {
            "time": "2010-01-12T15:06:00+00:00",
            "course": 288.89,
            "speed": 8.0,
            "depth": 0.0
          },
          {
            "time": "2010-01-12T15:08:00+00:00",
            "course": 288.8,
            "speed": 8.0,
            "depth": 0.0
          },
          {
            "time": "2010-01-12T15:10:00+00:00",
            "course": 288.8,
            "speed": 8.0,
            "depth": 0.0
          },
          {
            "time": "2010-01-12T15:12:00+00:00",
            "course": 288.8,
            "speed": 8.0,
            "depth": 0.0
          },
          {
            "time": "2010-01-12T15:14:00+00:00",
            "course": 288.8,
            "speed": 8.0,
            "depth": 0.0
          },
          {
            "time": "2010-01-12T15:16:00+00:00",
            "course": 288.8,
            "speed": 8.0,
            "depth": 0.0
          },
          {
            "time": "2010-01-12T15:18:00+00:00",
            "course": 288.8,
            "speed": 8.0,
            "depth": 0.0
          },
          {
            "time": "2010-01-12T15:20:00+00:00",
            "course": 288.8,
            "speed": 8.0,
            "depth": 0.0
          },
          {
            "time": "2010-01-12T15:22:00+00:00",
            "course": 288.8,
            "speed": 8.0,
            "depth": 0.0
          },
          {
            "time": "2010-01-12T15:24:00+00:00",
            "course": 288.8,
            "speed": 8.0,
            "depth": 0.0
          },
          {
            "time": "2010-01-12T15:26:00+00:00",
            "course": 288.8,
            "speed": 8.0,
            "depth": 0.0
          },
          {
            "time": "2010-01-12T15:28:00+00:00",
            "course": 288.8,
            "speed": 8.0,
            "depth": 0.0
          },
          {
            "time": "2010-01-12T15:30:00+00:00",
            "course": 288.8,
            "speed": 8.0,
            "depth": 0.0
          },
          {
            "time": "2010-01-12T15:32:00+00:00",
            "course": 288.8,
            "speed": 8.0,
            "depth": 0.0
          },
          {
            "time": "2010-01-12T15:34:00+00:00",
            "course": 288.8,
            "speed": 8.0,
            "depth": 0.0
          },
          {
            "time": "2010-01-12T15:36:00+00:00",
            "course": 288.8,
            "speed": 8.0,
            "depth": 0.0
          },
          {
            "time": "2010-01-12T15:38:00+00:00",
            "course": 288.8,
            "speed": 8.0,
            "depth": 0.0
          },
          {
            "time": "2010-01-12T15:40:00+00:00",
            "course": 288.8,
            "speed": 8.0,
            "depth": 0.0
          },
          {
            "time": "2010-01-12T15:42:00+00:00",
            "course": 288.8,
            "speed": 8.0,
            "depth": 0.0
          },
          {
            "time": "2010-01-12T15:44:00+00:00",
            "course": 288.8,
            "speed": 8.0,
            "depth": 0.0
          },
          {
            "time": "2010-01-12T15:46:00+00:00",
            "course": 288.8,
            "speed": 8.0,
            "depth": 0.0
          },
          {
            "time": "2010-01-12T15:48:00+00:00",
            "course": 288.8,
            "speed": 8.0,
            "depth": 0.0
          },
          {
            "time": "2010-01-12T15:50:00+00:00",
            "course": 288.8,
            "speed": 8.0,
            "depth": 0.0
          },
          {
            "time": "2010-01-12T15:52:00+00:00",
            "course": 288.8,
            "speed": 8.0,
            "depth": 0.0
          },
          {
            "time": "2010-01-12T15:54:00+00:00",
            "course": 288.8,
            "speed": 8.0,
            "depth": 0.0
          }
        ],
        "default_position_style": {
          "show_symbol": false,
          "symbol": "circle",
          "show_label": false
        },
        "symbol_interval": "PT10M",
        "label_interval": "PT30M"
      }
    },
    {
      "type": "Feature",
      "id": "29ff5a8c-71ee-4320-9f45-06091ec16a94",
      "geometry": null,
      "properties": {
        "kind": "SENSOR_CONTACT",
        "parent_track": "SENSOR",
        "sensor_name": "BB",
        "bearing": 251.33,
        "time": "2010-01-12T12:00:00+00:00",
        "label": "SUBJECT held on BB",
        "ambiguous_bearing": 128.67
      }
    },
    {
      "type": "Feature",
      "id": "f27b7794-52b1-4ddb-9fff-5095c484d4d3",
      "geometry": null,
      "properties": {
        "kind": "SENSOR_CONTACT",
        "parent_track": "SENSOR",
        "sensor_name": "BB",
        "bearing": 251.58,
        "time": "2010-01-12T12:02:00+00:00",
        "label": "SUBJECT held on BB",
        "ambiguous_bearing": 108.42
      }
    },
    {
      "type": "Feature",
      "id": "0221ef5e-dcbe-438d-8b14-9785c209c7ef",
      "geometry": null,
      "properties": {
        "kind": "SENSOR_CONTACT",
        "parent_track": "SENSOR",
        "sensor_name": "BB",
        "bearing": 251.99,
        "time": "2010-01-12T12:04:00+00:00",
        "label": "SUBJECT held on BB",
        "ambiguous_bearing": 107.69
      }
    },
    {
      "type": "Feature",
      "id": "ad276275-e590-4167-8f93-3d8fe062dd19",
      "geometry": null,
      "properties": {
        "kind": "SENSOR_CONTACT",
        "parent_track": "SENSOR",
        "sensor_name": "BB",
        "bearing": 252.41,
        "time": "2010-01-12T12:06:00+00:00",
        "label": "SUBJECT held on BB",
        "ambiguous_bearing": 107.26
      }
    },
    {
      "type": "Feature",
      "id": "d60c1d25-64fd-4e10-8dbb-9d9168531821",
      "geometry": null,
      "properties": {
        "kind": "SENSOR_CONTACT",
        "parent_track": "SENSOR",
        "sensor_name": "BB",
        "bearing": 252.85,
        "time": "2010-01-12T12:08:00+00:00",
        "label": "SUBJECT held on BB",
        "ambiguous_bearing": 106.83
      }
    },
    {
      "type": "Feature",
      "id": "26dc239d-8cdc-4926-88d9-455f7fb7421e",
      "geometry": null,
      "properties": {
        "kind": "SENSOR_CONTACT",
        "parent_track": "SENSOR",
        "sensor_name": "BB",
        "bearing": 253.29,
        "time": "2010-01-12T12:10:00+00:00",
        "label": "SUBJECT held on BB",
        "ambiguous_bearing": 106.38
      }
    },
    {
      "type": "Feature",
      "id": "174309d0-0181-4781-8c34-f13bd12c7e9a",
      "geometry": null,
      "properties": {
        "kind": "SENSOR_CONTACT",
        "parent_track": "SENSOR",
        "sensor_name": "BB",
        "bearing": 253.75,
        "time": "2010-01-12T12:12:00+00:00",
        "label": "SUBJECT held on BB",
        "ambiguous_bearing": 105.92
      }
    },
    {
      "type": "Feature",
      "id": "48f3eef2-9935-4e51-a265-e6b7cb4c3b1b",
      "geometry": null,
      "properties": {
        "kind": "SENSOR_CONTACT",
        "parent_track": "SENSOR",
        "sensor_name": "BB",
        "bearing": 254.23,
        "time": "2010-01-12T12:14:00+00:00",
        "label": "SUBJECT held on BB",
        "ambiguous_bearing": 105.45
      }
    },
    {
      "type": "Feature",
      "id": "ea8c6ce2-546d-46f1-a808-c0a199214e04",
      "geometry": null,
      "properties": {
        "kind": "SENSOR_CONTACT",
        "parent_track": "SENSOR",
        "sensor_name": "BB",
        "bearing": 254.52,
        "time": "2010-01-12T12:16:00+00:00",
        "label": "SUBJECT held on BB",
        "ambiguous_bearing": 199.47
      }
    },
    {
      "type": "Feature",
      "id": "900052f4-39ae-410a-a3b4-45f2e34f16dc",
      "geometry": null,
      "properties": {
        "kind": "SENSOR_CONTACT",
        "parent_track": "SENSOR",
        "sensor_name": "BB",
        "bearing": 254.19,
        "time": "2010-01-12T12:18:00+00:00",
        "label": "SUBJECT held on BB",
        "ambiguous_bearing": 283.92
      }
    },
    {
      "type": "Feature",
      "id": "0b5596b7-8314-4b54-9fde-51740c62b7d6",
      "geometry": null,
      "properties": {
        "kind": "SENSOR_CONTACT",
        "parent_track": "SENSOR",
        "sensor_name": "BB",
        "bearing": 253.47,
        "time": "2010-01-12T12:20:00+00:00",
        "label": "SUBJECT held on BB",
        "ambiguous_bearing": 293.1
      }
    },
    {
      "type": "Feature",
      "id": "35c9f886-967a-4160-bc80-aafb69caa8bd",
      "geometry": null,
      "properties": {
        "kind": "SENSOR_CONTACT",
        "parent_track": "SENSOR",
        "sensor_name": "BB",
        "bearing": 252.71,
        "time": "2010-01-12T12:22:00+00:00",
        "label": "SUBJECT held on BB",
        "ambiguous_bearing": 293.98
      }
    },
    {
      "type": "Feature",
      "id": "6a060ff9-3344-4284-83a7-5a0baa9c7465",
      "geometry": null,
      "properties": {
        "kind": "SENSOR_CONTACT",
        "parent_track": "SENSOR",
        "sensor_name": "BB",
        "bearing": 251.91,
        "time": "2010-01-12T12:24:00+00:00",
        "label": "SUBJECT held on BB",
        "ambiguous_bearing": 294.78
      }
    },
    {
      "type": "Feature",
      "id": "142e7b31-9bd4-4180-8637-2a17ea986eac",
      "geometry": null,
      "properties": {
        "kind": "SENSOR_CONTACT",
        "parent_track": "SENSOR",
        "sensor_name": "BB",
        "bearing": 251.06,
        "time": "2010-01-12T12:26:00+00:00",
        "label": "SUBJECT held on BB",
        "ambiguous_bearing": 295.63
      }
    },
    {
      "type": "Feature",
      "id": "b0d3a28d-ec5c-4c05-965a-e78782628af4",
      "geometry": null,
      "properties": {
        "kind": "SENSOR_CONTACT",
        "parent_track": "SENSOR",
        "sensor_name": "BB",
        "bearing": 250.59,
        "time": "2010-01-12T12:28:00+00:00",
        "label": "SUBJECT held on BB",
        "ambiguous_bearing": 201.78
      }
    },
    {
      "type": "Feature",
      "id": "90f476d5-ca93-4234-9d81-9696a7785eca",
      "geometry": null,
      "properties": {
        "kind": "SENSOR_CONTACT",
        "parent_track": "SENSOR",
        "sensor_name": "BB",
        "bearing": 250.87,
        "time": "2010-01-12T12:30:00+00:00",
        "label": "SUBJECT held on BB",
        "ambiguous_bearing": 107.17
      }
    },
    {
      "type": "Feature",
      "id": "1413c321-e908-44ad-9fdb-178e1fbb8a1f",
      "geometry": null,
      "properties": {
        "kind": "SENSOR_CONTACT",
        "parent_track": "SENSOR",
        "sensor_name": "BB",
        "bearing": 251.45,
        "time": "2010-01-12T12:32:00+00:00",
        "label": "SUBJECT held on BB",
        "ambiguous_bearing": 85.35
      }
    },
    {
      "type": "Feature",
      "id": "958c8800-a562-4ba3-8740-69850a9fc8af",
      "geometry": null,
      "properties": {
        "kind": "SENSOR_CONTACT",
        "parent_track": "SENSOR",
        "sensor_name": "BB",
        "bearing": 252.05,
        "time": "2010-01-12T12:34:00+00:00",
        "label": "SUBJECT held on BB",
        "ambiguous_bearing": 84.31
      }
    },
    {
      "type": "Feature",
      "id": "1072e2f6-c069-49fd-b3a8-91bb01e30ae0",
      "geometry": null,
      "properties": {
        "kind": "SENSOR_CONTACT",
        "parent_track": "SENSOR",
        "sensor_name": "BB",
        "bearing": 252.67,
        "time": "2010-01-12T12:36:00+00:00",
        "label": "SUBJECT held on BB",
        "ambiguous_bearing": 83.69
      }
    },
    {
      "type": "Feature",
      "id": "b2a19f48-93a4-4e88-b521-6560a6205f1d",
      "geometry": null,
      "properties": {
        "kind": "SENSOR_CONTACT",
        "parent_track": "SENSOR",
        "sensor_name": "BB",
        "bearing": 253.31,
        "time": "2010-01-12T12:38:00+00:00",
        "label": "SUBJECT held on BB",
        "ambiguous_bearing": 83.05
      }
    },
    {
      "type": "Feature",
      "id": "4917df44-6130-401a-ab11-15d050dde011",
      "geometry": null,
      "properties": {
        "kind": "SENSOR_CONTACT",
        "parent_track": "SENSOR",
        "sensor_name": "BB",
        "bearing": 253.96,
        "time": "2010-01-12T12:40:00+00:00",
        "label": "SUBJECT held on BB",
        "ambiguous_bearing": 82.4
      }
    },
    {
      "type": "Feature",
      "id": "5e2eab08-1f49-4902-b836-e936a5a1c8fb",
      "geometry": null,
      "properties": {
        "kind": "SENSOR_CONTACT",
        "parent_track": "SENSOR",
        "sensor_name": "BB",
        "bearing": 254.63,
        "time": "2010-01-12T12:42:00+00:00",
        "label": "SUBJECT held on BB",
        "ambiguous_bearing": 81.72
      }
    },
    {
      "type": "Feature",
      "id": "5b8ac2d2-6081-40a1-9222-2490255f10a3",
      "geometry": null,
      "properties": {
        "kind": "SENSOR_CONTACT",
        "parent_track": "SENSOR",
        "sensor_name": "BB",
        "bearing": 255.17,
        "time": "2010-01-12T12:44:00+00:00",
        "label": "SUBJECT held on BB",
        "ambiguous_bearing": 175.51
      }
    },
    {
      "type": "Feature",
      "id": "7158136b-3b1f-41c0-b3f4-8443939be02e",
      "geometry": null,
      "properties": {
        "kind": "SENSOR_CONTACT",
        "parent_track": "SENSOR",
        "sensor_name": "BB",
        "bearing": 254.99,
        "time": "2010-01-12T12:46:00+00:00",
        "label": "SUBJECT held on BB",
        "ambiguous_bearing": 270.01
      }
    },
    {
      "type": "Feature",
      "id": "f4b51b65-2445-4d35-9395-3b848d0db00d",
      "geometry": null,
      "properties": {
        "kind": "SENSOR_CONTACT",
        "parent_track": "SENSOR",
        "sensor_name": "BB",
        "bearing": 254.14,
        "time": "2010-01-12T12:48:00+00:00",
        "label": "SUBJECT held on BB",
        "ambiguous_bearing": 283.42
      }
    },
    {
      "type": "Feature",
      "id": "c39c6965-ea44-4f8f-be62-88b3135c15c3",
      "geometry": null,
      "properties": {
        "kind": "SENSOR_CONTACT",
        "parent_track": "SENSOR",
        "sensor_name": "BB",
        "bearing": 253.66,
        "time": "2010-01-12T12:50:00+00:00",
        "label": "SUBJECT held on BB",
        "ambiguous_bearing": 284.02
      }
    },
    {
      "type": "Feature",
      "id": "070c31c1-33c7-490f-a2da-8223bb23dac0",
      "geometry": null,
      "properties": {
        "kind": "SENSOR_CONTACT",
        "parent_track": "SENSOR",
        "sensor_name": "BB",
        "bearing": 253.99,
        "time": "2010-01-12T12:52:00+00:00",
        "label": "SUBJECT held on BB",
        "ambiguous_bearing": 283.68
      }
    },
    {
      "type": "Feature",
      "id": "631c84f4-035b-4aca-a9a4-c4289d1c2924",
      "geometry": null,
      "properties": {
        "kind": "SENSOR_CONTACT",
        "parent_track": "SENSOR",
        "sensor_name": "BB",
        "bearing": 254.65,
        "time": "2010-01-12T12:54:00+00:00",
        "label": "SUBJECT held on BB",
        "ambiguous_bearing": 283.03
      }
    },
    {
      "type": "Feature",
      "id": "c97c5443-5fc4-4823-b5b5-9e310f52b61a",
      "geometry": null,
      "properties": {
        "kind": "SENSOR_CONTACT",
        "parent_track": "SENSOR",
        "sensor_name": "BB",
        "bearing": 254.86,
        "time": "2010-01-12T12:56:00+00:00",
        "label": "SUBJECT held on BB",
        "ambiguous_bearing": 282.82
      }
    },
    {
      "type": "Feature",
      "id": "15de0363-1881-429b-b411-21f48b17df77",
      "geometry": null,
      "properties": {
        "kind": "SENSOR_CONTACT",
        "parent_track": "SENSOR",
        "sensor_name": "BB",
        "bearing": 254.85,
        "time": "2010-01-12T12:58:00+00:00",
        "label": "SUBJECT held on BB",
        "ambiguous_bearing": 282.82
      }
    },
    {
      "type": "Feature",
      "id": "71dc8e9f-e146-476d-ad85-538451e634e2",
      "geometry": null,
      "properties": {
        "kind": "SENSOR_CONTACT",
        "parent_track": "SENSOR",
        "sensor_name": "BB",
        "bearing": 254.85,
        "time": "2010-01-12T13:00:00+00:00",
        "label": "SUBJECT held on BB",
        "ambiguous_bearing": 282.83
      }
    },
    {
      "type": "Feature",
      "id": "2b7debe1-be96-4729-a739-b1194e9f083c",
      "geometry": null,
      "properties": {
        "kind": "SENSOR_CONTACT",
        "parent_track": "SENSOR",
        "sensor_name": "BB",
        "bearing": 254.85,
        "time": "2010-01-12T13:02:00+00:00",
        "label": "SUBJECT held on BB",
        "ambiguous_bearing": 282.83
      }
    },
    {
      "type": "Feature",
      "id": "77d15bd2-ae7c-4f7d-97ec-cb309453a4c5",
      "geometry": null,
      "properties": {
        "kind": "SENSOR_CONTACT",
        "parent_track": "SENSOR",
        "sensor_name": "BB",
        "bearing": 255.44,
        "time": "2010-01-12T13:04:00+00:00",
        "label": "SUBJECT held on BB",
        "ambiguous_bearing": 187.91
      }
    },
    {
      "type": "Feature",
      "id": "8281429a-b16e-4449-b2de-88391c1f1b28",
      "geometry": null,
      "properties": {
        "kind": "SENSOR_CONTACT",
        "parent_track": "SENSOR",
        "sensor_name": "BB",
        "bearing": 256.95,
        "time": "2010-01-12T13:06:00+00:00",
        "label": "SUBJECT held on BB",
        "ambiguous_bearing": 131.47
      }
    },
    {
      "type": "Feature",
      "id": "de2355ab-e55b-40c4-ae00-2a5d558144ab",
      "geometry": null,
      "properties": {
        "kind": "SENSOR_CONTACT",
        "parent_track": "SENSOR",
        "sensor_name": "BB",
        "bearing": 258.58,
        "time": "2010-01-12T13:08:00+00:00",
        "label": "SUBJECT held on BB",
        "ambiguous_bearing": 127.17
      }
    },
    {
      "type": "Feature",
      "id": "3a335204-c7a4-409d-b559-e2b13fd0ddb7",
      "geometry": null,
      "properties": {
        "kind": "SENSOR_CONTACT",
        "parent_track": "SENSOR",
        "sensor_name": "BB",
        "bearing": 260.61,
        "time": "2010-01-12T13:10:00+00:00",
        "label": "SUBJECT held on BB",
        "ambiguous_bearing": 125.14
      }
    },
    {
      "type": "Feature",
      "id": "9540e841-c546-4571-9bf7-ee795c921dc4",
      "geometry": null,
      "properties": {
        "kind": "SENSOR_CONTACT",
        "parent_track": "SENSOR",
        "sensor_name": "BB",
        "bearing": 263.04,
        "time": "2010-01-12T13:12:00+00:00",
        "label": "SUBJECT held on BB",
        "ambiguous_bearing": 122.71
      }
    },
    {
      "type": "Feature",
      "id": "9441b0b6-41f6-4f8e-b65b-0593e8628563",
      "geometry": null,
      "properties": {
        "kind": "SENSOR_CONTACT",
        "parent_track": "SENSOR",
        "sensor_name": "BB",
        "bearing": 265.11,
        "time": "2010-01-12T13:14:00+00:00",
        "label": "SUBJECT held on BB",
        "ambiguous_bearing": 120.64
      }
    },
    {
      "type": "Feature",
      "id": "186a611d-9908-4ca3-9729-2718604bb453",
      "geometry": null,
      "properties": {
        "kind": "SENSOR_CONTACT",
        "parent_track": "SENSOR",
        "sensor_name": "BB",
        "bearing": 266.6,
        "time": "2010-01-12T13:16:00+00:00",
        "label": "SUBJECT held on BB",
        "ambiguous_bearing": 119.15
      }
    },
    {
      "type": "Feature",
      "id": "b1a6a8cc-6330-4828-972a-7b521c1df30d",
      "geometry": null,
      "properties": {
        "kind": "SENSOR_CONTACT",
        "parent_track": "SENSOR",
        "sensor_name": "BB",
        "bearing": 267.99,
        "time": "2010-01-12T13:18:00+00:00",
        "label": "SUBJECT held on BB",
        "ambiguous_bearing": 152.01
      }
    },
    {
      "type": "Feature",
      "id": "3ed50118-e256-4bdd-9892-0f17debc82b2",
      "geometry": null,
      "properties": {
        "kind": "SENSOR_CONTACT",
        "parent_track": "SENSOR",
        "sensor_name": "BB",
        "bearing": 269.43,
        "time": "2010-01-12T13:20:00+00:00",
        "label": "SUBJECT held on BB",
        "ambiguous_bearing": 151.52
      }
    },
    {
      "type": "Feature",
      "id": "076eb7af-f446-4786-bd0d-89415fee4758",
      "geometry": null,
      "properties": {
        "kind": "SENSOR_CONTACT",
        "parent_track": "SENSOR",
        "sensor_name": "BB",
        "bearing": 270.98,
        "time": "2010-01-12T13:22:00+00:00",
        "label": "SUBJECT held on BB",
        "ambiguous_bearing": 149.97
      }
    },
    {
      "type": "Feature",
      "id": "e8510c84-0c21-4196-8cc0-a5dad6b61493",
      "geometry": null,
      "properties": {
        "kind": "SENSOR_CONTACT",
        "parent_track": "SENSOR",
        "sensor_name": "BB",
        "bearing": 272.65,
        "time": "2010-01-12T13:24:00+00:00",
        "label": "SUBJECT held on BB",
        "ambiguous_bearing": 148.3
      }
    },
    {
      "type": "Feature",
      "id": "6000fc58-99be-458d-b157-ba2b42e3088b",
      "geometry": null,
      "properties": {
        "kind": "SENSOR_CONTACT",
        "parent_track": "SENSOR",
        "sensor_name": "BB",
        "bearing": 274.45,
        "time": "2010-01-12T13:26:00+00:00",
        "label": "SUBJECT held on BB",
        "ambiguous_bearing": 146.5
      }
    },
    {
      "type": "Feature",
      "id": "c1cd670c-68f9-4181-bd9d-4af6cd68a96d",
      "geometry": null,
      "properties": {
        "kind": "SENSOR_CONTACT",
        "parent_track": "SENSOR",
        "sensor_name": "BB",
        "bearing": 276.4,
        "time": "2010-01-12T13:28:00+00:00",
        "label": "SUBJECT held on BB",
        "ambiguous_bearing": 144.55
      }
    },
    {
      "type": "Feature",
      "id": "a81cf572-b400-4514-a3e8-963fcf3da977",
      "geometry": null,
      "properties": {
        "kind": "SENSOR_CONTACT",
        "parent_track": "SENSOR",
        "sensor_name": "BB",
        "bearing": 278.5,
        "time": "2010-01-12T13:30:00+00:00",
        "label": "SUBJECT held on BB",
        "ambiguous_bearing": 142.45
      }
    },
    {
      "type": "Feature",
      "id": "7f13877c-cf92-48ad-af95-7912b9c483da",
      "geometry": null,
      "properties": {
        "kind": "SENSOR_CONTACT",
        "parent_track": "SENSOR",
        "sensor_name": "BB",
        "bearing": 280.83,
        "time": "2010-01-12T13:32:00+00:00",
        "label": "SUBJECT held on BB",
        "ambiguous_bearing": 45.8
      }
    },
    {
      "type": "Feature",
      "id": "1844a031-dffb-453c-8338-93de552997dc",
      "geometry": null,
      "properties": {
        "kind": "SENSOR_CONTACT",
        "parent_track": "SENSOR",
        "sensor_name": "BB",
        "bearing": 282.9,
        "time": "2010-01-12T13:34:00+00:00",
        "label": "SUBJECT held on BB",
        "ambiguous_bearing": 25.64
      }
    },
    {
      "type": "Feature",
      "id": "7da450d8-2bce-4c2b-95d4-bea465105463",
      "geometry": null,
      "properties": {
        "kind": "SENSOR_CONTACT",
        "parent_track": "SENSOR",
        "sensor_name": "BB",
        "bearing": 284.96,
        "time": "2010-01-12T13:36:00+00:00",
        "label": "SUBJECT held on BB",
        "ambiguous_bearing": 23.07
      }
    },
    {
      "type": "Feature",
      "id": "4e5f774a-8a5c-4be6-b900-7d8452a5920b",
      "geometry": null,
      "properties": {
        "kind": "SENSOR_CONTACT",
        "parent_track": "SENSOR",
        "sensor_name": "BB",
        "bearing": 287.03,
        "time": "2010-01-12T13:38:00+00:00",
        "label": "SUBJECT held on BB",
        "ambiguous_bearing": 21.01
      }
    },
    {
      "type": "Feature",
      "id": "f7e93846-4be3-4010-b745-dc18a3ceaca6",
      "geometry": null,
      "properties": {
        "kind": "SENSOR_CONTACT",
        "parent_track": "SENSOR",
        "sensor_name": "BB",
        "bearing": 289.1,
        "time": "2010-01-12T13:40:00+00:00",
        "label": "SUBJECT held on BB",
        "ambiguous_bearing": 18.93
      }
    },
    {
      "type": "Feature",
      "id": "d2fb92ae-13f3-4637-8022-da20bb09b5b1",
      "geometry": null,
      "properties": {
        "kind": "SENSOR_CONTACT",
        "parent_track": "SENSOR",
        "sensor_name": "BB",
        "bearing": 291.61,
        "time": "2010-01-12T13:42:00+00:00",
        "label": "SUBJECT held on BB",
        "ambiguous_bearing": 110.75
      }
    },
    {
      "type": "Feature",
      "id": "0d181d49-902f-4526-9018-1b7fe02c03b3",
      "geometry": null,
      "properties": {
        "kind": "SENSOR_CONTACT",
        "parent_track": "SENSOR",
        "sensor_name": "BB",
        "bearing": 294.43,
        "time": "2010-01-12T13:44:00+00:00",
        "label": "SUBJECT held on BB",
        "ambiguous_bearing": 132.25
      }
    },
    {
      "type": "Feature",
      "id": "3ed0a40f-a345-494f-8d23-bbd5fec655fd",
      "geometry": null,
      "properties": {
        "kind": "SENSOR_CONTACT",
        "parent_track": "SENSOR",
        "sensor_name": "BB",
        "bearing": 297.42,
        "time": "2010-01-12T13:46:00+00:00",
        "label": "SUBJECT held on BB",
        "ambiguous_bearing": 129.65
      }
    },
    {
      "type": "Feature",
      "id": "a030444c-3b8f-4d85-827b-69433f67db78",
      "geometry": null,
      "properties": {
        "kind": "SENSOR_CONTACT",
        "parent_track": "SENSOR",
        "sensor_name": "BB",
        "bearing": 300.6,
        "time": "2010-01-12T13:48:00+00:00",
        "label": "SUBJECT held on BB",
        "ambiguous_bearing": 126.48
      }
    },
    {
      "type": "Feature",
      "id": "d39aab77-13fc-4b13-856c-e17dc6cdf73e",
      "geometry": null,
      "properties": {
        "kind": "SENSOR_CONTACT",
        "parent_track": "SENSOR",
        "sensor_name": "BB",
        "bearing": 303.94,
        "time": "2010-01-12T13:50:00+00:00",
        "label": "SUBJECT held on BB",
        "ambiguous_bearing": 123.13
      }
    },
    {
      "type": "Feature",
      "id": "f3db54fa-d1ce-4826-8854-32a22e4d721b",
      "geometry": null,
      "properties": {
        "kind": "SENSOR_CONTACT",
        "parent_track": "SENSOR",
        "sensor_name": "BB",
        "bearing": 307.45,
        "time": "2010-01-12T13:52:00+00:00",
        "label": "SUBJECT held on BB",
        "ambiguous_bearing": 119.62
      }
    },
    {
      "type": "Feature",
      "id": "87b7e2da-2431-4833-9f46-f617afd6295d",
      "geometry": null,
      "properties": {
        "kind": "SENSOR_CONTACT",
        "parent_track": "SENSOR",
        "sensor_name": "BB",
        "bearing": 310.37,
        "time": "2010-01-12T13:54:00+00:00",
        "label": "SUBJECT held on BB",
        "ambiguous_bearing": 116.71
      }
    },
    {
      "type": "Feature",
      "id": "d9522dea-2a23-4a96-b4c3-d5e3fc82d277",
      "geometry": null,
      "properties": {
        "kind": "SENSOR_CONTACT",
        "parent_track": "SENSOR",
        "sensor_name": "BB",
        "bearing": 312.05,
        "time": "2010-01-12T13:56:00+00:00",
        "label": "SUBJECT held on BB",
        "ambiguous_bearing": 115.03
      }
    },
    {
      "type": "Feature",
      "id": "8f997e67-58fd-4f6b-817d-df2a911bd535",
      "geometry": null,
      "properties": {
        "kind": "SENSOR_CONTACT",
        "parent_track": "SENSOR",
        "sensor_name": "BB",
        "bearing": 313.67,
        "time": "2010-01-12T13:58:00+00:00",
        "label": "SUBJECT held on BB",
        "ambiguous_bearing": 113.41
      }
    },
    {
      "type": "Feature",
      "id": "d5f651e7-26ac-4e96-b53a-07867cee22ff",
      "geometry": null,
      "properties": {
        "kind": "SENSOR_CONTACT",
        "parent_track": "SENSOR",
        "sensor_name": "BB",
        "bearing": 315.36,
        "time": "2010-01-12T14:00:00+00:00",
        "label": "SUBJECT held on BB",
        "ambiguous_bearing": 111.71
      }
    },
    {
      "type": "Feature",
      "id": "cd2d1f12-f8a3-402c-b6d2-d44a68313efb",
      "geometry": null,
      "properties": {
        "kind": "SENSOR_CONTACT",
        "parent_track": "SENSOR",
        "sensor_name": "BB",
        "bearing": 316.61,
        "time": "2010-01-12T14:02:00+00:00",
        "label": "SUBJECT held on BB",
        "ambiguous_bearing": 16.15
      }
    },
    {
      "type": "Feature",
      "id": "02250054-dcc9-4236-85f8-65ecb857f0e8",
      "geometry": null,
      "properties": {
        "kind": "SENSOR_CONTACT",
        "parent_track": "SENSOR",
        "sensor_name": "BB",
        "bearing": 316.71,
        "time": "2010-01-12T14:04:00+00:00",
        "label": "SUBJECT held on BB",
        "ambiguous_bearing": 354.94
      }
    },
    {
      "type": "Feature",
      "id": "373cb9a7-7884-4917-8a25-6808cb1b3353",
      "geometry": null,
      "properties": {
        "kind": "SENSOR_CONTACT",
        "parent_track": "SENSOR",
        "sensor_name": "BB",
        "bearing": 316.76,
        "time": "2010-01-12T14:06:00+00:00",
        "label": "SUBJECT held on BB",
        "ambiguous_bearing": 354.48
      }
    },
    {
      "type": "Feature",
      "id": "bdc7198c-ddfe-4483-802f-ff0937ef640e",
      "geometry": null,
      "properties": {
        "kind": "SENSOR_CONTACT",
        "parent_track": "SENSOR",
        "sensor_name": "BB",
        "bearing": 316.8,
        "time": "2010-01-12T14:08:00+00:00",
        "label": "SUBJECT held on BB",
        "ambiguous_bearing": 354.44
      }
    },
    {
      "type": "Feature",
      "id": "3114b1d7-c581-49bb-ad46-1cf7d28aeea9",
      "geometry": null,
      "properties": {
        "kind": "SENSOR_CONTACT",
        "parent_track": "SENSOR",
        "sensor_name": "BB",
        "bearing": 316.85,
        "time": "2010-01-12T14:10:00+00:00",
        "label": "SUBJECT held on BB",
        "ambiguous_bearing": 354.39
      }
    },
    {
      "type": "Feature",
      "id": "b608c781-0354-447e-a042-a4f42ca7d1fd",
      "geometry": null,
      "properties": {
        "kind": "SENSOR_CONTACT",
        "parent_track": "SENSOR",
        "sensor_name": "BB",
        "bearing": 316.89,
        "time": "2010-01-12T14:12:00+00:00",
        "label": "SUBJECT held on BB",
        "ambiguous_bearing": 354.35
      }
    },
    {
      "type": "Feature",
      "id": "ab5f4bf9-c02d-4c81-9e7d-fc9577ba8cae",
      "geometry": null,
      "properties": {
        "kind": "SENSOR_CONTACT",
        "parent_track": "SENSOR",
        "sensor_name": "BB",
        "bearing": 316.93,
        "time": "2010-01-12T14:14:00+00:00",
        "label": "SUBJECT held on BB",
        "ambiguous_bearing": 354.31
      }
    },
    {
      "type": "Feature",
      "id": "b8585473-6edf-4045-a098-80233ca79459",
      "geometry": null,
      "properties": {
        "kind": "SENSOR_CONTACT",
        "parent_track": "SENSOR",
        "sensor_name": "BB",
        "bearing": 317.8,
        "time": "2010-01-12T14:16:00+00:00",
        "label": "SUBJECT held on BB",
        "ambiguous_bearing": 87.77
      }
    },
    {
      "type": "Feature",
      "id": "1fa00202-0b34-43c9-8d46-ec03b52d7902",
      "geometry": null,
      "properties": {
        "kind": "SENSOR_CONTACT",
        "parent_track": "SENSOR",
        "sensor_name": "BB",
        "bearing": 319.51,
        "time": "2010-01-12T14:18:00+00:00",
        "label": "SUBJECT held on BB",
        "ambiguous_bearing": 115.96
      }
    },
    {
      "type": "Feature",
      "id": "7eaa7b40-c345-4c28-bbcb-423a879de6f4",
      "geometry": null,
      "properties": {
        "kind": "SENSOR_CONTACT",
        "parent_track": "SENSOR",
        "sensor_name": "BB",
        "bearing": 321.34,
        "time": "2010-01-12T14:20:00+00:00",
        "label": "SUBJECT held on BB",
        "ambiguous_bearing": 115.88
      }
    },
    {
      "type": "Feature",
      "id": "4669a428-8245-4eb3-8595-7a23801c2a24",
      "geometry": null,
      "properties": {
        "kind": "SENSOR_CONTACT",
        "parent_track": "SENSOR",
        "sensor_name": "BB",
        "bearing": 323.25,
        "time": "2010-01-12T14:22:00+00:00",
        "label": "SUBJECT held on BB",
        "ambiguous_bearing": 113.98
      }
    },
    {
      "type": "Feature",
      "id": "9c4e534a-8f05-4283-b300-ef1d1c961999",
      "geometry": null,
      "properties": {
        "kind": "SENSOR_CONTACT",
        "parent_track": "SENSOR",
        "sensor_name": "BB",
        "bearing": 324.67,
        "time": "2010-01-12T14:24:00+00:00",
        "label": "SUBJECT held on BB",
        "ambiguous_bearing": 18.24
      }
    },
    {
      "type": "Feature",
      "id": "72f768b8-889a-4990-85c8-fc8602306450",
      "geometry": null,
      "properties": {
        "kind": "SENSOR_CONTACT",
        "parent_track": "SENSOR",
        "sensor_name": "BB",
        "bearing": 324.26,
        "time": "2010-01-12T14:26:00+00:00",
        "label": "SUBJECT held on BB",
        "ambiguous_bearing": 285.75
      }
    },
    {
      "type": "Feature",
      "id": "2e609297-36e9-4a7c-91c9-fed464609d67",
      "geometry": null,
      "properties": {
        "kind": "SENSOR_CONTACT",
        "parent_track": "SENSOR",
        "sensor_name": "BB",
        "bearing": 322.76,
        "time": "2010-01-12T14:28:00+00:00",
        "label": "SUBJECT held on BB",
        "ambiguous_bearing": 282.56
      }
    },
    {
      "type": "Feature",
      "id": "50dd794b-4d3b-48b5-8a2d-c8bcf7fe308e",
      "geometry": null,
      "properties": {
        "kind": "SENSOR_CONTACT",
        "parent_track": "SENSOR",
        "sensor_name": "BB",
        "bearing": 321.29,
        "time": "2010-01-12T14:30:00+00:00",
        "label": "SUBJECT held on BB",
        "ambiguous_bearing": 284.03
      }
    },
    {
      "type": "Feature",
      "id": "a4771dd9-5441-4690-a058-6b78e9287676",
      "geometry": null,
      "properties": {
        "kind": "SENSOR_CONTACT",
        "parent_track": "SENSOR",
        "sensor_name": "BB",
        "bearing": 319.84,
        "time": "2010-01-12T14:32:00+00:00",
        "label": "SUBJECT held on BB",
        "ambiguous_bearing": 285.47
      }
    },
    {
      "type": "Feature",
      "id": "69b22901-007f-4078-8cb4-10ea9e823b6b",
      "geometry": null,
      "properties": {
        "kind": "SENSOR_CONTACT",
        "parent_track": "SENSOR",
        "sensor_name": "BB",
        "bearing": 318.43,
        "time": "2010-01-12T14:34:00+00:00",
        "label": "SUBJECT held on BB",
        "ambiguous_bearing": 286.88
      }
    },
    {
      "type": "Feature",
      "id": "17f37544-fe49-40cf-b7cc-cb528f5d0162",
      "geometry": null,
      "properties": {
        "kind": "SENSOR_CONTACT",
        "parent_track": "SENSOR",
        "sensor_name": "BB",
        "bearing": 317.05,
        "time": "2010-01-12T14:36:00+00:00",
        "label": "SUBJECT held on BB",
        "ambiguous_bearing": 288.26
      }
    },
    {
      "type": "Feature",
      "id": "c98e62a9-da7b-4485-a6f7-a6cd08461faa",
      "geometry": null,
      "properties": {
        "kind": "SENSOR_CONTACT",
        "parent_track": "SENSOR",
        "sensor_name": "BB",
        "bearing": 315.71,
        "time": "2010-01-12T14:38:00+00:00",
        "label": "SUBJECT held on BB",
        "ambiguous_bearing": 289.61
      }
    },
    {
      "type": "Feature",
      "id": "b90d620a-fc32-4b22-945b-6385f0fbeef7",
      "geometry": null,
      "properties": {
        "kind": "SENSOR_CONTACT",
        "parent_track": "SENSOR",
        "sensor_name": "BB",
        "bearing": 314.39,
        "time": "2010-01-12T14:40:00+00:00",
        "label": "SUBJECT held on BB",
        "ambiguous_bearing": 290.92
      }
    },
    {
      "type": "Feature",
      "id": "f8fc786e-1a49-4d9a-b0d7-280ad17e1200",
      "geometry": null,
      "properties": {
        "kind": "SENSOR_CONTACT",
        "parent_track": "SENSOR",
        "sensor_name": "BB",
        "bearing": 313.12,
        "time": "2010-01-12T14:42:00+00:00",
        "label": "SUBJECT held on BB",
        "ambiguous_bearing": 292.2
      }
    },
    {
      "type": "Feature",
      "id": "06ba601d-5ba7-42dd-aa80-d61a06ebef71",
      "geometry": null,
      "properties": {
        "kind": "SENSOR_CONTACT",
        "parent_track": "SENSOR",
        "sensor_name": "BB",
        "bearing": 311.87,
        "time": "2010-01-12T14:44:00+00:00",
        "label": "SUBJECT held on BB",
        "ambiguous_bearing": 293.44
      }
    },
    {
      "type": "Feature",
      "id": "14fd4614-f434-4b21-a216-1d187c163dbe",
      "geometry": null,
      "properties": {
        "kind": "SENSOR_CONTACT",
        "parent_track": "SENSOR",
        "sensor_name": "BB",
        "bearing": 309.79,
        "time": "2010-01-12T14:46:00+00:00",
        "label": "SUBJECT held on BB",
        "ambiguous_bearing": 201.2
      }
    },
    {
      "type": "Feature",
      "id": "fa268abf-a944-479a-a284-52f68d662c5e",
      "geometry": null,
      "properties": {
        "kind": "SENSOR_CONTACT",
        "parent_track": "SENSOR",
        "sensor_name": "BB",
        "bearing": 306.62,
        "time": "2010-01-12T14:48:00+00:00",
        "label": "SUBJECT held on BB",
        "ambiguous_bearing": 119.8
      }
    },
    {
      "type": "Feature",
      "id": "30c1dd03-6355-49b7-b498-c21f875fa1b7",
      "geometry": null,
      "properties": {
        "kind": "SENSOR_CONTACT",
        "parent_track": "SENSOR",
        "sensor_name": "BB",
        "bearing": 303.17,
        "time": "2010-01-12T14:50:00+00:00",
        "label": "SUBJECT held on BB",
        "ambiguous_bearing": 117.35
      }
    },
    {
      "type": "Feature",
      "id": "68ceeaad-5f50-401f-b90f-43ff314a1ee1",
      "geometry": null,
      "properties": {
        "kind": "SENSOR_CONTACT",
        "parent_track": "SENSOR",
        "sensor_name": "BB",
        "bearing": 299.51,
        "time": "2010-01-12T14:52:00+00:00",
        "label": "SUBJECT held on BB",
        "ambiguous_bearing": 120.97
      }
    },
    {
      "type": "Feature",
      "id": "5a64aa07-c6dd-46d4-bb93-4af53034f00e",
      "geometry": null,
      "properties": {
        "kind": "SENSOR_CONTACT",
        "parent_track": "SENSOR",
        "sensor_name": "BB",
        "bearing": 295.68,
        "time": "2010-01-12T14:54:00+00:00",
        "label": "SUBJECT held on BB",
        "ambiguous_bearing": 124.8
      }
    },
    {
      "type": "Feature",
      "id": "fa40e0e6-cf30-40e2-b53b-6685c23a45cc",
      "geometry": null,
      "properties": {
        "kind": "SENSOR_CONTACT",
        "parent_track": "SENSOR",
        "sensor_name": "BB",
        "bearing": 291.69,
        "time": "2010-01-12T14:56:00+00:00",
        "label": "SUBJECT held on BB",
        "ambiguous_bearing": 128.79
      }
    },
    {
      "type": "Feature",
      "id": "85a3e106-3a06-4204-8f9e-2a590060fbe8",
      "geometry": null,
      "properties": {
        "kind": "SENSOR_CONTACT",
        "parent_track": "SENSOR",
        "sensor_name": "BB",
        "bearing": 287.58,
        "time": "2010-01-12T14:58:00+00:00",
        "label": "SUBJECT held on BB",
        "ambiguous_bearing": 132.91
      }
    },
    {
      "type": "Feature",
      "id": "df6ab301-36cb-4d2e-b1dd-211a0ef36d3d",
      "geometry": null,
      "properties": {
        "kind": "SENSOR_CONTACT",
        "parent_track": "SENSOR",
        "sensor_name": "BB",
        "bearing": 283.37,
        "time": "2010-01-12T15:00:00+00:00",
        "label": "SUBJECT held on BB",
        "ambiguous_bearing": 137.11
      }
    },
    {
      "type": "Feature",
      "id": "355b6cfb-5e24-4917-98b2-6dee151c0814",
      "geometry": null,
      "properties": {
        "kind": "SENSOR_CONTACT",
        "parent_track": "SENSOR",
        "sensor_name": "BB",
        "bearing": 279.02,
        "time": "2010-01-12T15:02:00+00:00",
        "label": "SUBJECT held on BB",
        "ambiguous_bearing": 47.14
      }
    },
    {
      "type": "Feature",
      "id": "76743182-b1d3-43bd-b52b-e4a0296b3dad",
      "geometry": null,
      "properties": {
        "kind": "SENSOR_CONTACT",
        "parent_track": "SENSOR",
        "sensor_name": "BB",
        "bearing": 275.32,
        "time": "2010-01-12T15:04:00+00:00",
        "label": "SUBJECT held on BB",
        "ambiguous_bearing": 316.52
      }
    },
    {
      "type": "Feature",
      "id": "4d384eda-066d-404f-a226-c08a370e15f2",
      "geometry": null,
      "properties": {
        "kind": "SENSOR_CONTACT",
        "parent_track": "SENSOR",
        "sensor_name": "BB",
        "bearing": 272.48,
        "time": "2010-01-12T15:06:00+00:00",
        "label": "SUBJECT held on BB",
        "ambiguous_bearing": 305.31
      }
    },
    {
      "type": "Feature",
      "id": "372b64a8-53ec-40f4-8eb9-b98dd083873f",
      "geometry": null,
      "properties": {
        "kind": "SENSOR_CONTACT",
        "parent_track": "SENSOR",
        "sensor_name": "BB",
        "bearing": 269.28,
        "time": "2010-01-12T15:08:00+00:00",
        "label": "SUBJECT held on BB",
        "ambiguous_bearing": 308.31
      }
    },
    {
      "type": "Feature",
      "id": "ad79e07f-5d2a-44b1-bc38-164b87f995e7",
      "geometry": null,
      "properties": {
        "kind": "SENSOR_CONTACT",
        "parent_track": "SENSOR",
        "sensor_name": "BB",
        "bearing": 265.62,
        "time": "2010-01-12T15:10:00+00:00",
        "label": "SUBJECT held on BB",
        "ambiguous_bearing": 311.97
      }
    },
    {
      "type": "Feature",
      "id": "2b1ecb4c-fd1b-466b-b55d-a17f46db0070",
      "geometry": null,
      "properties": {
        "kind": "SENSOR_CONTACT",
        "parent_track": "SENSOR",
        "sensor_name": "BB",
        "bearing": 261.43,
        "time": "2010-01-12T15:12:00+00:00",
        "label": "SUBJECT held on BB",
        "ambiguous_bearing": 316.16
      }
    },
    {
      "type": "Feature",
      "id": "230f0fd3-f9e3-4018-899f-6d4e680c7e7b",
      "geometry": null,
      "properties": {
        "kind": "SENSOR_CONTACT",
        "parent_track": "SENSOR",
        "sensor_name": "BB",
        "bearing": 256.64,
        "time": "2010-01-12T15:14:00+00:00",
        "label": "SUBJECT held on BB",
        "ambiguous_bearing": 320.95
      }
    },
    {
      "type": "Feature",
      "id": "8153a0b5-1eff-423e-9419-46b15d703463",
      "geometry": null,
      "properties": {
        "kind": "SENSOR_CONTACT",
        "parent_track": "SENSOR",
        "sensor_name": "BB",
        "bearing": 251.19,
        "time": "2010-01-12T15:16:00+00:00",
        "label": "SUBJECT held on BB",
        "ambiguous_bearing": 326.4
      }
    },
    {
      "type": "Feature",
      "id": "16b59ed6-6fcd-4967-a490-93c84e5c3487",
      "geometry": null,
      "properties": {
        "kind": "SENSOR_CONTACT",
        "parent_track": "SENSOR",
        "sensor_name": "BB",
        "bearing": 245.06,
        "time": "2010-01-12T15:18:00+00:00",
        "label": "SUBJECT held on BB",
        "ambiguous_bearing": 332.53
      }
    },
    {
      "type": "Feature",
      "id": "f27355ce-9253-4536-a7c9-38cd5f0a4fdd",
      "geometry": null,
      "properties": {
        "kind": "SENSOR_CONTACT",
        "parent_track": "SENSOR",
        "sensor_name": "BB",
        "bearing": 238.28,
        "time": "2010-01-12T15:20:00+00:00",
        "label": "SUBJECT held on BB",
        "ambiguous_bearing": 339.31
      }
    },
    {
      "type": "Feature",
      "id": "176a2f80-d101-4a3e-9ded-580d8352adf9",
      "geometry": null,
      "properties": {
        "kind": "SENSOR_CONTACT",
        "parent_track": "SENSOR",
        "sensor_name": "BB",
        "bearing": 230.96,
        "time": "2010-01-12T15:22:00+00:00",
        "label": "SUBJECT held on BB",
        "ambiguous_bearing": 346.63
      }
    },
    {
      "type": "Feature",
      "id": "a839c6fa-c7dd-42cd-8ec7-237c17215ba3",
      "geometry": null,
      "properties": {
        "kind": "SENSOR_CONTACT",
        "parent_track": "SENSOR",
        "sensor_name": "BB",
        "bearing": 223.29,
        "time": "2010-01-12T15:24:00+00:00",
        "label": "SUBJECT held on BB",
        "ambiguous_bearing": 354.31
      }
    },
    {
      "type": "Feature",
      "id": "acab6384-af82-47f9-8b7f-ed89c4a77333",
      "geometry": null,
      "properties": {
        "kind": "SENSOR_CONTACT",
        "parent_track": "SENSOR",
        "sensor_name": "BB",
        "bearing": 215.52,
        "time": "2010-01-12T15:26:00+00:00",
        "label": "SUBJECT held on BB",
        "ambiguous_bearing": 2.07
      }
    },
    {
      "type": "Feature",
      "id": "6b44ba57-1332-4b47-a380-c7cbc3759575",
      "geometry": null,
      "properties": {
        "kind": "SENSOR_CONTACT",
        "parent_track": "SENSOR",
        "sensor_name": "BB",
        "bearing": 207.94,
        "time": "2010-01-12T15:28:00+00:00",
        "label": "SUBJECT held on BB",
        "ambiguous_bearing": 9.65
      }
    },
    {
      "type": "Feature",
      "id": "677b854a-c454-48d4-bc5c-1c03603adb31",
      "geometry": null,
      "properties": {
        "kind": "SENSOR_CONTACT",
        "parent_track": "SENSOR",
        "sensor_name": "BB",
        "bearing": 200.8,
        "time": "2010-01-12T15:30:00+00:00",
        "label": "SUBJECT held on BB",
        "ambiguous_bearing": 16.8
      }
    },
    {
      "type": "Feature",
      "id": "bb14e032-df47-46f1-9da0-f140ded8ac64",
      "geometry": null,
      "properties": {
        "kind": "SENSOR_CONTACT",
        "parent_track": "SENSOR",
        "sensor_name": "BB",
        "bearing": 194.24,
        "time": "2010-01-12T15:32:00+00:00",
        "label": "SUBJECT held on BB",
        "ambiguous_bearing": 23.35
      }
    },
    {
      "type": "Feature",
      "id": "d8deb9ba-3de3-488f-8586-a31459545d49",
      "geometry": null,
      "properties": {
        "kind": "SENSOR_CONTACT",
        "parent_track": "SENSOR",
        "sensor_name": "BB",
        "bearing": 188.35,
        "time": "2010-01-12T15:34:00+00:00",
        "label": "SUBJECT held on BB",
        "ambiguous_bearing": 29.24
      }
    },
    {
      "type": "Feature",
      "id": "ebafc600-adb3-44e9-a7ce-fb9300d250dd",
      "geometry": null,
      "properties": {
        "kind": "SENSOR_CONTACT",
        "parent_track": "SENSOR",
        "sensor_name": "BB",
        "bearing": 183.14,
        "time": "2010-01-12T15:36:00+00:00",
        "label": "SUBJECT held on BB",
        "ambiguous_bearing": 34.45
      }
    },
    {
      "type": "Feature",
      "id": "b81f8fb0-ca41-4bf7-b2e5-3dc672054c11",
      "geometry": null,
      "properties": {
        "kind": "SENSOR_CONTACT",
        "parent_track": "SENSOR",
        "sensor_name": "BB",
        "bearing": 178.57,
        "time": "2010-01-12T15:38:00+00:00",
        "label": "SUBJECT held on BB",
        "ambiguous_bearing": 39.02
      }
    },
    {
      "type": "Feature",
      "id": "24e5a639-d0a4-406f-9c11-4e57c9a4f38d",
      "geometry": null,
      "properties": {
        "kind": "SENSOR_CONTACT",
        "parent_track": "SENSOR",
        "sensor_name": "BB",
        "bearing": 174.58,
        "time": "2010-01-12T15:40:00+00:00",
        "label": "SUBJECT held on BB",
        "ambiguous_bearing": 43.01
      }
    },
    {
      "type": "Feature",
      "id": "d532776c-ca16-4897-858f-c46933269ee7",
      "geometry": null,
      "properties": {
        "kind": "SENSOR_CONTACT",
        "parent_track": "SENSOR",
        "sensor_name": "BB",
        "bearing": 171.09,
        "time": "2010-01-12T15:42:00+00:00",
        "label": "SUBJECT held on BB",
        "ambiguous_bearing": 46.5
      }
    },
    {
      "type": "Feature",
      "id": "7bad7627-4009-44c7-a043-83de1a3ad073",
      "geometry": null,
      "properties": {
        "kind": "SENSOR_CONTACT",
        "parent_track": "SENSOR",
        "sensor_name": "BB",
        "bearing": 168.04,
        "time": "2010-01-12T15:44:00+00:00",
        "label": "SUBJECT held on BB",
        "ambiguous_bearing": 49.55
      }
    },
    {
      "type": "Feature",
      "id": "1fb0eac8-5e6f-4f09-8727-66b9a4603f40",
      "geometry": null,
      "properties": {
        "kind": "SENSOR_CONTACT",
        "parent_track": "SENSOR",
        "sensor_name": "BB",
        "bearing": 165.37,
        "time": "2010-01-12T15:46:00+00:00",
        "label": "SUBJECT held on BB",
        "ambiguous_bearing": 52.23
      }
    },
    {
      "type": "Feature",
      "id": "3e580658-b994-4984-9ca2-1791844d956b",
      "geometry": null,
      "properties": {
        "kind": "SENSOR_CONTACT",
        "parent_track": "SENSOR",
        "sensor_name": "BB",
        "bearing": 163.01,
        "time": "2010-01-12T15:48:00+00:00",
        "label": "SUBJECT held on BB",
        "ambiguous_bearing": 54.59
      }
    },
    {
      "type": "Feature",
      "id": "9299de02-cbdf-41ff-bc84-62df4075bc05",
      "geometry": null,
      "properties": {
        "kind": "SENSOR_CONTACT",
        "parent_track": "SENSOR",
        "sensor_name": "BB",
        "bearing": 160.92,
        "time": "2010-01-12T15:50:00+00:00",
        "label": "SUBJECT held on BB",
        "ambiguous_bearing": 56.67
      }
    },
    {
      "type": "Feature",
      "id": "b683eb1f-720a-4219-aebe-c060dda0f407",
      "geometry": null,
      "properties": {
        "kind": "SENSOR_CONTACT",
        "parent_track": "SENSOR",
        "sensor_name": "BB",
        "bearing": 159.07,
        "time": "2010-01-12T15:52:00+00:00",
        "label": "SUBJECT held on BB",
        "ambiguous_bearing": 58.53
      }
    },
    {
      "type": "Feature",
      "id": "671f954c-2612-47e9-a2ff-eb8fe1f6c9ca",
      "geometry": null,
      "properties": {
        "kind": "SENSOR_CONTACT",
        "parent_track": "SENSOR",
        "sensor_name": "BB",
        "bearing": 157.41,
        "time": "2010-01-12T15:54:00+00:00",
        "label": "SUBJECT held on BB",
        "ambiguous_bearing": 60.18
      }
    },
    {
      "type": "Feature",
      "id": "c6129ac0-ca4a-45c5-b2a1-426ad67ff767",
      "geometry": null,
      "properties": {
        "kind": "SENSOR_CONTACT",
        "parent_track": "SENSOR",
        "sensor_name": "BB",
        "bearing": 155.93,
        "time": "2010-01-12T15:56:00+00:00",
        "label": "SUBJECT held on BB",
        "ambiguous_bearing": 61.66
      }
    },
    {
      "type": "Feature",
      "id": "486405ae-0ab9-4922-bc14-9e1030bf6d4c",
      "geometry": null,
      "properties": {
        "kind": "SENSOR_CONTACT",
        "parent_track": "SENSOR",
        "sensor_name": "BB",
        "bearing": 154.59,
        "time": "2010-01-12T15:58:00+00:00",
        "label": "SUBJECT held on BB",
        "ambiguous_bearing": 63.0
      }
    },
    {
      "type": "Feature",
      "id": "c1619850-71c6-45f1-959a-60ae0aa0081a",
      "geometry": null,
      "properties": {
        "kind": "SENSOR_CONTACT",
        "parent_track": "SENSOR",
        "sensor_name": "BB",
        "bearing": 153.38,
        "time": "2010-01-12T16:00:00+00:00",
        "label": "SUBJECT held on BB",
        "ambiguous_bearing": 64.21
      }
    }
  ]
}