{
  "type": "FeatureCollection",
  "features": [
    {
      "type": "Feature",
      "id": "e029fe41-eef8-4e80-8de5-2b325db7d242",
      "geometry": {
        "type": "LineString",
        "coordinates": [
          [
            -21.697880555555557,
            22.186286111111112
          ],
          [
            -21.70082777777778,
            22.18627222222222
          ],
          [
            -21.704113888888887,
            22.186252777777778
          ]
        ]
      },
      "properties": {
        "kind": "TRACK",
        "platform_id": "NELSON",
        "platform_name": "NELSON",
        "track_type": "CONTACT",
        "start_time": "1995-12-12T05:00:00+00:00",
        "end_time": "1995-12-12T05:02:00+00:00",
        "positions": [
          {
            "time": "1995-12-12T05:00:00+00:00",
            "course": 269.7,
            "speed": 2.0,
            "depth": 0.0
          },
          {
            "time": "1995-12-12T05:01:00+00:00",
            "course": 269.7,
            "speed": 2.0,
            "depth": 0.0
          },
          {
            "time": "1995-12-12T05:02:00+00:00",
            "course": 269.9,
            "speed": 2.0,
            "depth": 0.0
          }
        ],
        "style": {
          "line": {
            "color": "#FF0000"
          },
          "point": {
            "shape": "circle",
            "radius": 3.0,
            "fill_color": "#FF0000",
            "color": "#FF0000"
          }
        },
        "default_position_style": {
          "show_symbol": false,
          "symbol": "circle",
          "show_label": false
        },
        "symbol_interval": "PT1M",
        "label_interval": "PT5M",
        "provenance": [
          {
            "activity_id": "dfeddd9a-13f8-4da5-a11a-842ad1239ed7",
            "timestamp": "2026-03-28T13:51:03.762819Z",
            "was_generated_by": {
              "tool": "rep-parser",
              "tool_version": "1.0.0",
              "parameters": []
            },
            "used": [],
            "generated": [
              "e029fe41-eef8-4e80-8de5-2b325db7d242"
            ],
            "execution_duration": "PT0.000075S"
          }
        ],
        "display_name": "HMS Nelson",
        "nationality": "GB",
        "vessel_class": "surface/warship/frigate/type23",
        "vessel_type": "type23",
        "vessel_role": "frigate",
        "domain": "surface"
      }
    }
  ]
}
