{
  "type": "FeatureCollection",
  "features": [
    {
      "type": "Feature",
      "id": "8555bd7f-b7a3-4920-8dc0-2e4e739b6274",
      "geometry": {
        "type": "Point",
        "coordinates": []
      },
      "properties": {
        "kind": "NARRATIVE",
        "time": "1995-12-12T05:00:00+00:00",
        "text": "ENDEX END OF SERIAL 12D",
        "track_id": "COLLINGWOOD",
        "line_number": 1
      }
    },
    {
      "type": "Feature",
      "id": "86be9855-046c-455f-be2a-b4f8b2a78cf0",
      "geometry": {
        "type": "Point",
        "coordinates": []
      },
      "properties": {
        "kind": "NARRATIVE",
        "time": "1995-12-12T05:01:00+00:00",
        "text": "COMEX START OF SERIAL 12E",
        "track_id": "COLLINGWOOD",
        "line_number": 2
      }
    },
    {
      "type": "Feature",
      "id": "79dd3784-5a38-451e-84f5-ec5f9c546c7e",
      "geometry": {
        "type": "Point",
        "coordinates": []
      },
      "properties": {
        "kind": "NARRATIVE",
        "time": "1995-12-12T05:01:00+00:00",
        "text": "COMEX COMEX SERIAL 12E",
        "track_id": "NELSON",
        "line_number": 3
      }
    },
    {
      "type": "Feature",
      "id": "6be9f28e-fc35-403f-8a5c-58e3a24e1387",
      "geometry": {
        "type": "Point",
        "coordinates": []
      },
      "properties": {
        "kind": "NARRATIVE",
        "time": "1995-12-12T05:10:00+00:00",
        "text": "CMD_COMMENT STARTING ZULU SEARCH. DECISION BASED ON CLIMATOLOGY AND MET FORECAST FOR NEXT 48 HOURS",
        "track_id": "NELSON",
        "line_number": 4
      }
    },
    {
      "type": "Feature",
      "id": "7bdcd9d5-6662-4ffd-aa2e-9f704d38f5a3",
      "geometry": {
        "type": "Point",
        "coordinates": []
      },
      "properties": {
        "kind": "NARRATIVE",
        "time": "1995-12-12T06:24:00+00:00",
        "text": "NEW_CONTACT GAINED SUSPICIOUS CONTACT, WILL RANGE",
        "track_id": "NELSON",
        "line_number": 5
      }
    },
    {
      "type": "Feature",
      "id": "63c1b2d6-1270-4d87-a7b8-d761837c5c20",
      "geometry": {
        "type": "Point",
        "coordinates": []
      },
      "properties": {
        "kind": "NARRATIVE",
        "time": "1995-12-12T06:48:00+00:00",
        "text": "CONTACT_LOST IGNORE CONTACT, BIOLOGIC",
        "track_id": "NELSON",
        "line_number": 6
      }
    },
    {
      "type": "Feature",
      "id": "53067077-604e-4963-834a-0dc0ca0b1231",
      "geometry": {
        "type": "Point",
        "coordinates": []
      },
      "properties": {
        "kind": "NARRATIVE",
        "time": "1995-12-12T06:59:00+00:00",
        "text": "CMD_COMMENT NO SIGN OF CONTACT. SAC THEN MOVE TO SECTOR VICTOR",
        "track_id": "NELSON",
        "line_number": 7
      }
    },
    {
      "type": "Feature",
      "id": "4364884c-410b-47ee-8008-8816d36e1a01",
      "geometry": {
        "type": "Point",
        "coordinates": []
      },
      "properties": {
        "kind": "NARRATIVE",
        "time": "1995-12-12T07:15:00+00:00",
        "text": "CMD_COMMENT SAC SUCCESSFUL. CLEAR",
        "track_id": "NELSON",
        "line_number": 8
      }
    },
    {
      "type": "Feature",
      "id": "8165d6e2-8451-46c9-9e9a-4417611afbfc",
      "geometry": {
        "type": "Point",
        "coordinates": []
      },
      "properties": {
        "kind": "NARRATIVE",
        "time": "1995-12-12T07:29:00+00:00",
        "text": "NEW_CONTACT NEW CONTACT, LOW BEARING RATE. TO INVESTIGATE",
        "track_id": "NELSON",
        "line_number": 9
      }
    },
    {
      "type": "Feature",
      "id": "e9a78c8e-969d-4041-822d-f7ef18557f49",
      "geometry": {
        "type": "Point",
        "coordinates": []
      },
      "properties": {
        "kind": "NARRATIVE",
        "time": "1995-12-12T07:55:00+00:00",
        "text": "CMD_COMMENT FEAR CONTACT MAY HAVE RNG ADV, EVADE",
        "track_id": "NELSON",
        "line_number": 10
      }
    },
    {
      "type": "Feature",
      "id": "15d86dfb-945c-4943-9607-6cf2c4fdabba",
      "geometry": {
        "type": "Point",
        "coordinates": []
      },
      "properties": {
        "kind": "NARRATIVE",
        "time": "1995-12-12T10:09:00+00:00",
        "text": "NEW_CONTACT NEW CONTACT, SUSPECT EARLIER C132, WILL RANGE",
        "track_id": "NELSON",
        "line_number": 11
      }
    },
    {
      "type": "Feature",
      "id": "20d668be-930c-4459-b716-3aef3a3e13eb",
      "geometry": {
        "type": "Point",
        "coordinates": []
      },
      "properties": {
        "kind": "NARRATIVE",
        "time": "1995-12-12T10:15:00+00:00",
        "text": "CONTACT_LOST CONTACT LOST, SUSPECT BIOLOGIC",
        "track_id": "NELSON",
        "line_number": 12
      }
    },
    {
      "type": "Feature",
      "id": "e0585685-f53b-4192-bd7d-5ea6ad10d869",
      "geometry": {
        "type": "Point",
        "coordinates": []
      },
      "properties": {
        "kind": "NARRATIVE",
        "time": "1995-12-12T10:18:00+00:00",
        "text": "NEW_CONTACT NEW CONTACT, SUSPECT PLAYMATE",
        "track_id": "COLLINGWOOD",
        "line_number": 13
      }
    },
    {
      "type": "Feature",
      "id": "17deca46-a74f-4cce-bbc8-41c7d53d7f00",
      "geometry": {
        "type": "Point",
        "coordinates": []
      },
      "properties": {
        "kind": "NARRATIVE",
        "time": "1995-12-12T10:21:00+00:00",
        "text": "WATERSHOT PLAYMATE CONFIRMED, LAUNCH WATERSHOT",
        "track_id": "COLLINGWOOD",
        "line_number": 14
      }
    },
    {
      "type": "Feature",
      "id": "507baaef-a359-4d50-a665-9439a940acf4",
      "geometry": {
        "type": "Point",
        "coordinates": []
      },
      "properties": {
        "kind": "NARRATIVE",
        "time": "1995-12-12T10:22:00+00:00",
        "text": "CMD_COMMENT WATERSHOT HEARD, PREPARE FOR EVASIVE",
        "track_id": "NELSON",
        "line_number": 15
      }
    },
    {
      "type": "Feature",
      "id": "8d946c35-6864-4c8d-9c90-14e9f0f2c324",
      "geometry": {
        "type": "Point",
        "coordinates": []
      },
      "properties": {
        "kind": "NARRATIVE",
        "time": "1995-12-12T10:22:39+00:00",
        "text": "CMD_COMMENT FAILURE ON CIRCUIT 12, DAMAGE PROCESS 4",
        "track_id": "NELSON",
        "line_number": 16
      }
    },
    {
      "type": "Feature",
      "id": "641b564a-718a-45ef-b828-f9eef34b2fb0",
      "geometry": {
        "type": "Point",
        "coordinates": []
      },
      "properties": {
        "kind": "NARRATIVE",
        "time": "1995-12-12T10:29:00+00:00",
        "text": "CMD_COMMENT PROCESS 4 COMPLETE, START EVASIVE",
        "track_id": "NELSON",
        "line_number": 17
      }
    },
    {
      "type": "Feature",
      "id": "05c22014-ca93-4403-b27f-b623256e5a7e",
      "geometry": {
        "type": "Point",
        "coordinates": []
      },
      "properties": {
        "kind": "NARRATIVE",
        "time": "1995-12-12T10:29:00+00:00",
        "text": "NEW_CONTACT PLAYMATE FOUND, LAUNCH WATERSHOT, ENTER MELEE",
        "track_id": "NELSON",
        "line_number": 18
      }
    },
    {
      "type": "Feature",
      "id": "e1d77d57-db57-47b8-84b5-0f591c8fbdd4",
      "geometry": {
        "type": "Point",
        "coordinates": []
      },
      "properties": {
        "kind": "NARRATIVE",
        "time": "1995-12-12T10:30:00+00:00",
        "text": "CMD_COMMENT WATERSHOT HEARD, EVASIVE MANOEUVRES",
        "track_id": "COLLINGWOOD",
        "line_number": 19
      }
    },
    {
      "type": "Feature",
      "id": "1fdf2394-5ebb-4152-8c58-762931a6ac44",
      "geometry": {
        "type": "Point",
        "coordinates": []
      },
      "properties": {
        "kind": "NARRATIVE",
        "time": "1995-12-12T11:25:00+00:00",
        "text": "ENDEX FINEX HEARD, END OF SERIAL 12E",
        "track_id": "COLLINGWOOD",
        "line_number": 20
      }
    },
    {
      "type": "Feature",
      "id": "7e0955ee-0a5f-4c7d-8f6e-10ffa41ab0e9",
      "geometry": {
        "type": "Point",
        "coordinates": []
      },
      "properties": {
        "kind": "NARRATIVE",
        "time": "1995-12-12T11:25:00+00:00",
        "text": "ENDEX FINEX HEARD, COMMENCE PLOT LOCK",
        "track_id": "NELSON",
        "line_number": 21
      }
    }
  ]
}