{
  "type": "FeatureCollection",
  "features": [
    {
      "type": "Feature",
      "id": "d45809ca-b826-4ceb-9f1f-ae81b81900de",
      "geometry": null,
      "properties": {
        "kind": "SENSOR_CONTACT",
        "parent_track": "SENSOR",
        "time": "2010-01-12T12:13:14+00:00",
        "bearing": 2.4,
        "range": 12000.0,
        "sensor_name": "Plain",
        "label": "Cookie SUBJECT held on Plain Cookie"
      }
    },
    {
      "type": "Feature",
      "id": "20804f90-81ca-4886-a574-295b37c61427",
      "geometry": null,
      "properties": {
        "kind": "SENSOR_CONTACT",
        "parent_track": "SENSOR",
        "time": "2010-01-12T12:13:29+00:00",
        "bearing": 1.5,
        "range": 12000.0,
        "sensor_name": "Plain",
        "label": "Cookie SUBJECT held on Plain Cookie"
      }
    },
    {
      "type": "Feature",
      "id": "22b51bae-3018-4897-a766-480a9437df8d",
      "geometry": null,
      "properties": {
        "kind": "SENSOR_CONTACT",
        "parent_track": "SENSOR",
        "time": "2010-01-12T12:13:44+00:00",
        "bearing": 1.1,
        "range": 12000.0,
        "sensor_name": "Plain",
        "label": "Cookie SUBJECT held on Plain Cookie"
      }
    },
    {
      "type": "Feature",
      "id": "bcd5a2df-4480-4b98-a7e1-2fe2869b2e46",
      "geometry": null,
      "properties": {
        "kind": "SENSOR_CONTACT",
        "parent_track": "SENSOR",
        "time": "2010-01-12T12:13:59+00:00",
        "bearing": 1.1,
        "range": 12000.0,
        "sensor_name": "Plain",
        "label": "Cookie SUBJECT held on Plain Cookie"
      }
    },
    {
      "type": "Feature",
      "id": "7d1d14f5-8c43-45da-94dd-5c6f46b0dfd1",
      "geometry": null,
      "properties": {
        "kind": "SENSOR_CONTACT",
        "parent_track": "SENSOR",
        "time": "2010-01-12T12:14:14+00:00",
        "bearing": 1.2,
        "range": 12000.0,
        "sensor_name": "Plain",
        "label": "Cookie SUBJECT held on Plain Cookie"
      }
    },
    {
      "type": "Feature",
      "id": "f99da608-44e6-4779-9da8-4e29371734db",
      "geometry": null,
      "properties": {
        "kind": "SENSOR_CONTACT",
        "parent_track": "SENSOR",
        "time": "2010-01-12T12:14:29+00:00",
        "bearing": 1.4,
        "range": 12000.0,
        "sensor_name": "Plain",
        "label": "Cookie SUBJECT held on Plain Cookie"
      }
    },
    {
      "type": "Feature",
      "id": "d142b0d0-b14e-4537-8499-b247634b856e",
      "geometry": null,
      "properties": {
        "kind": "SENSOR_CONTACT",
        "parent_track": "SENSOR",
        "time": "2010-01-12T12:14:44+00:00",
        "bearing": 1.6,
        "range": 12000.0,
        "sensor_name": "Plain",
        "label": "Cookie SUBJECT held on Plain Cookie"
      }
    },
    {
      "type": "Feature",
      "id": "4cf21bcf-e8fe-4300-99ae-affd0637fc8c",
      "geometry": null,
      "properties": {
        "kind": "SENSOR_CONTACT",
        "parent_track": "SENSOR",
        "time": "2010-01-12T12:14:59+00:00",
        "bearing": 1.8,
        "range": 12000.0,
        "sensor_name": "Plain",
        "label": "Cookie SUBJECT held on Plain Cookie"
      }
    },
    {
      "type": "Feature",
      "id": "d8af9676-8ca0-48ef-8754-3307cec859d9",
      "geometry": null,
      "properties": {
        "kind": "SENSOR_CONTACT",
        "parent_track": "SENSOR",
        "time": "2010-01-12T12:15:14+00:00",
        "bearing": 2.0,
        "range": 12000.0,
        "sensor_name": "Plain",
        "label": "Cookie SUBJECT held on Plain Cookie"
      }
    },
    {
      "type": "Feature",
      "id": "6c232af0-e43d-4915-96ac-da0fe1191204",
      "geometry": null,
      "properties": {
        "kind": "SENSOR_CONTACT",
        "parent_track": "SENSOR",
        "time": "2010-01-12T12:15:29+00:00",
        "bearing": 2.2,
        "range": 12000.0,
        "sensor_name": "Plain",
        "label": "Cookie SUBJECT held on Plain Cookie"
      }
    },
    {
      "type": "Feature",
      "id": "9422f939-600a-484b-b626-3839c62dc618",
      "geometry": null,
      "properties": {
        "kind": "SENSOR_CONTACT",
        "parent_track": "SENSOR",
        "time": "2010-01-12T12:15:44+00:00",
        "bearing": 2.3,
        "range": 12000.0,
        "sensor_name": "Plain",
        "label": "Cookie SUBJECT held on Plain Cookie"
      }
    },
    {
      "type": "Feature",
      "id": "0984c00d-cc98-4734-91bc-2edf01058790",
      "geometry": null,
      "properties": {
        "kind": "SENSOR_CONTACT",
        "parent_track": "SENSOR",
        "time": "2010-01-12T12:15:59+00:00",
        "bearing": 2.5,
        "range": 12000.0,
        "sensor_name": "Plain",
        "label": "Cookie SUBJECT held on Plain Cookie"
      }
    },
    {
      "type": "Feature",
      "id": "e08c6959-e4a6-4d34-a25d-9eba45475669",
      "geometry": null,
      "properties": {
        "kind": "SENSOR_CONTACT",
        "parent_track": "SENSOR",
        "time": "2010-01-12T12:16:14+00:00",
        "bearing": 2.7,
        "range": 12000.0,
        "sensor_name": "Plain",
        "label": "Cookie SUBJECT held on Plain Cookie"
      }
    },
    {
      "type": "Feature",
      "id": "28696314-1d4d-4e64-9426-67563483f014",
      "geometry": null,
      "properties": {
        "kind": "SENSOR_CONTACT",
        "parent_track": "SENSOR",
        "time": "2010-01-12T12:16:29+00:00",
        "bearing": 2.9,
        "range": 12000.0,
        "sensor_name": "Plain",
        "label": "Cookie SUBJECT held on Plain Cookie"
      }
    },
    {
      "type": "Feature",
      "id": "f45e5733-0af9-4a89-9e79-6fd1966c6933",
      "geometry": null,
      "properties": {
        "kind": "SENSOR_CONTACT",
        "parent_track": "SENSOR",
        "time": "2010-01-12T12:16:44+00:00",
        "bearing": 3.1,
        "range": 12000.0,
        "sensor_name": "Plain",
        "label": "Cookie SUBJECT held on Plain Cookie"
      }
    },
    {
      "type": "Feature",
      "id": "3ed2ecb7-eeca-4974-9b71-1886e7622b8c",
      "geometry": null,
      "properties": {
        "kind": "SENSOR_CONTACT",
        "parent_track": "SENSOR",
        "time": "2010-01-12T12:16:59+00:00",
        "bearing": 3.3,
        "range": 12000.0,
        "sensor_name": "Plain",
        "label": "Cookie SUBJECT held on Plain Cookie"
      }
    },
    {
      "type": "Feature",
      "id": "f1503924-eeea-41aa-84c8-e0f08e2c1879",
      "geometry": null,
      "properties": {
        "kind": "SENSOR_CONTACT",
        "parent_track": "SENSOR",
        "time": "2010-01-12T12:17:14+00:00",
        "bearing": 3.5,
        "range": 12000.0,
        "sensor_name": "Plain",
        "label": "Cookie SUBJECT held on Plain Cookie"
      }
    },
    {
      "type": "Feature",
      "id": "bbddaf0d-7b50-46bd-b14a-5d3911a483e8",
      "geometry": null,
      "properties": {
        "kind": "SENSOR_CONTACT",
        "parent_track": "SENSOR",
        "time": "2010-01-12T12:17:29+00:00",
        "bearing": 3.6,
        "range": 12000.0,
        "sensor_name": "Plain",
        "label": "Cookie SUBJECT held on Plain Cookie"
      }
    },
    {
      "type": "Feature",
      "id": "2880ef37-38d5-431d-bea2-46563fbd7712",
      "geometry": null,
      "properties": {
        "kind": "SENSOR_CONTACT",
        "parent_track": "SENSOR",
        "time": "2010-01-12T12:17:44+00:00",
        "bearing": 3.8,
        "range": 12000.0,
        "sensor_name": "Plain",
        "label": "Cookie SUBJECT held on Plain Cookie"
      }
    },
    {
      "type": "Feature",
      "id": "da0cfc36-b3e3-4bbb-a9a9-689c3fcc1110",
      "geometry": null,
      "properties": {
        "kind": "SENSOR_CONTACT",
        "parent_track": "SENSOR",
        "time": "2010-01-12T12:17:59+00:00",
        "bearing": 4.0,
        "range": 12000.0,
        "sensor_name": "Plain",
        "label": "Cookie SUBJECT held on Plain Cookie"
      }
    },
    {
      "type": "Feature",
      "id": "a5300f7f-1373-4f40-bc1c-9dd6e3824ba1",
      "geometry": null,
      "properties": {
        "kind": "SENSOR_CONTACT",
        "parent_track": "SENSOR",
        "time": "2010-01-12T12:18:14+00:00",
        "bearing": 4.2,
        "range": 12000.0,
        "sensor_name": "Plain",
        "label": "Cookie SUBJECT held on Plain Cookie"
      }
    },
    {
      "type": "Feature",
      "id": "086153d2-1cf2-403d-8100-ab045f70cb56",
      "geometry": null,
      "properties": {
        "kind": "SENSOR_CONTACT",
        "parent_track": "SENSOR",
        "time": "2010-01-12T12:18:29+00:00",
        "bearing": 4.3,
        "range": 12000.0,
        "sensor_name": "Plain",
        "label": "Cookie SUBJECT held on Plain Cookie"
      }
    },
    {
      "type": "Feature",
      "id": "e85f0a65-d474-4cc6-ade5-f6ab1ea6a6ec",
      "geometry": null,
      "properties": {
        "kind": "SENSOR_CONTACT",
        "parent_track": "SENSOR",
        "time": "2010-01-12T12:18:44+00:00",
        "bearing": 4.3,
        "range": 12000.0,
        "sensor_name": "Plain",
        "label": "Cookie SUBJECT held on Plain Cookie"
      }
    },
    {
      "type": "Feature",
      "id": "cdaa6401-9f10-472b-8e8f-14747f4c3c2f",
      "geometry": null,
      "properties": {
        "kind": "SENSOR_CONTACT",
        "parent_track": "SENSOR",
        "time": "2010-01-12T12:18:59+00:00",
        "bearing": 3.9,
        "range": 12000.0,
        "sensor_name": "Plain",
        "label": "Cookie SUBJECT held on Plain Cookie"
      }
    },
    {
      "type": "Feature",
      "id": "37947c43-5c54-493a-a5a2-f4445a97038b",
      "geometry": null,
      "properties": {
        "kind": "SENSOR_CONTACT",
        "parent_track": "SENSOR",
        "time": "2010-01-12T12:19:14+00:00",
        "bearing": 3.4,
        "range": 12000.0,
        "sensor_name": "Plain",
        "label": "Cookie SUBJECT held on Plain Cookie"
      }
    },
    {
      "type": "Feature",
      "id": "ca3c27bf-8a81-43fe-aefd-2205692c5624",
      "geometry": null,
      "properties": {
        "kind": "SENSOR_CONTACT",
        "parent_track": "SENSOR",
        "time": "2010-01-12T12:19:29+00:00",
        "bearing": 2.9,
        "range": 12000.0,
        "sensor_name": "Plain",
        "label": "Cookie SUBJECT held on Plain Cookie"
      }
    },
    {
      "type": "Feature",
      "id": "992afcb8-ca1a-4d85-8b0d-7154067fa9c0",
      "geometry": null,
      "properties": {
        "kind": "SENSOR_CONTACT",
        "parent_track": "SENSOR",
        "time": "2010-01-12T12:19:44+00:00",
        "bearing": 2.5,
        "range": 12000.0,
        "sensor_name": "Plain",
        "label": "Cookie SUBJECT held on Plain Cookie"
      }
    },
    {
      "type": "Feature",
      "id": "82a57e67-9373-47c7-acfa-b77a685145d1",
      "geometry": null,
      "properties": {
        "kind": "SENSOR_CONTACT",
        "parent_track": "SENSOR",
        "time": "2010-01-12T12:19:59+00:00",
        "bearing": 2.0,
        "range": 12000.0,
        "sensor_name": "Plain",
        "label": "Cookie SUBJECT held on Plain Cookie"
      }
    },
    {
      "type": "Feature",
      "id": "a0893908-41ec-4669-b08e-bbae3154e95d",
      "geometry": null,
      "properties": {
        "kind": "SENSOR_CONTACT",
        "parent_track": "SENSOR",
        "time": "2010-01-12T12:20:14+00:00",
        "bearing": 1.4,
        "range": 12000.0,
        "sensor_name": "Plain",
        "label": "Cookie SUBJECT held on Plain Cookie"
      }
    },
    {
      "type": "Feature",
      "id": "2772777c-2155-4f99-9b57-53d15823d6f2",
      "geometry": null,
      "properties": {
        "kind": "SENSOR_CONTACT",
        "parent_track": "SENSOR",
        "time": "2010-01-12T12:20:29+00:00",
        "bearing": 0.9,
        "range": 12000.0,
        "sensor_name": "Plain",
        "label": "Cookie SUBJECT held on Plain Cookie"
      }
    },
    {
      "type": "Feature",
      "id": "efb6820b-0e6d-4aac-9123-99452e474103",
      "geometry": null,
      "properties": {
        "kind": "SENSOR_CONTACT",
        "parent_track": "SENSOR",
        "time": "2010-01-12T12:20:44+00:00",
        "bearing": 0.4,
        "range": 12000.0,
        "sensor_name": "Plain",
        "label": "Cookie SUBJECT held on Plain Cookie"
      }
    },
    {
      "type": "Feature",
      "id": "3b74a581-1438-4998-afed-a27a54a8e0e9",
      "geometry": null,
      "properties": {
        "kind": "SENSOR_CONTACT",
        "parent_track": "SENSOR",
        "time": "2010-01-12T12:20:59+00:00",
        "bearing": -0.2,
        "range": 12000.0,
        "sensor_name": "Plain",
        "label": "Cookie SUBJECT held on Plain Cookie"
      }
    },
    {
      "type": "Feature",
      "id": "2080f52a-1a0c-4380-8e70-0fa1df0bc22b",
      "geometry": null,
      "properties": {
        "kind": "SENSOR_CONTACT",
        "parent_track": "SENSOR",
        "time": "2010-01-12T12:21:14+00:00",
        "bearing": -0.8,
        "range": 12000.0,
        "sensor_name": "Plain",
        "label": "Cookie SUBJECT held on Plain Cookie"
      }
    },
    {
      "type": "Feature",
      "id": "ee411b20-5b56-432a-8b98-f38aeb0f8112",
      "geometry": null,
      "properties": {
        "kind": "SENSOR_CONTACT",
        "parent_track": "SENSOR",
        "time": "2010-01-12T12:21:29+00:00",
        "bearing": -1.4,
        "range": 12000.0,
        "sensor_name": "Plain",
        "label": "Cookie SUBJECT held on Plain Cookie"
      }
    },
    {
      "type": "Feature",
      "id": "624f5e72-55ad-4a3f-ad56-edd8317a86db",
      "geometry": null,
      "properties": {
        "kind": "SENSOR_CONTACT",
        "parent_track": "SENSOR",
        "time": "2010-01-12T12:21:44+00:00",
        "bearing": -2.0,
        "range": 12000.0,
        "sensor_name": "Plain",
        "label": "Cookie SUBJECT held on Plain Cookie"
      }
    },
    {
      "type": "Feature",
      "id": "982d0413-9c8b-4aef-9932-b3f9f28bc013",
      "geometry": null,
      "properties": {
        "kind": "SENSOR_CONTACT",
        "parent_track": "SENSOR",
        "time": "2010-01-12T12:21:59+00:00",
        "bearing": -2.6,
        "range": 12000.0,
        "sensor_name": "Plain",
        "label": "Cookie SUBJECT held on Plain Cookie"
      }
    },
    {
      "type": "Feature",
      "id": "19253838-f0f0-465c-822e-6fb0624a5f65",
      "geometry": null,
      "properties": {
        "kind": "SENSOR_CONTACT",
        "parent_track": "SENSOR",
        "time": "2010-01-12T12:22:14+00:00",
        "bearing": -3.3,
        "range": 12000.0,
        "sensor_name": "Plain",
        "label": "Cookie SUBJECT held on Plain Cookie"
      }
    },
    {
      "type": "Feature",
      "id": "bac7c968-29e8-412a-86fd-40008d063d48",
      "geometry": null,
      "properties": {
        "kind": "SENSOR_CONTACT",
        "parent_track": "SENSOR",
        "time": "2010-01-12T12:22:29+00:00",
        "bearing": -3.9,
        "range": 12000.0,
        "sensor_name": "Plain",
        "label": "Cookie SUBJECT held on Plain Cookie"
      }
    },
    {
      "type": "Feature",
      "id": "81f155d6-290d-4296-9057-99178d9cc483",
      "geometry": null,
      "properties": {
        "kind": "SENSOR_CONTACT",
        "parent_track": "SENSOR",
        "time": "2010-01-12T12:22:44+00:00",
        "bearing": -4.6,
        "range": 12000.0,
        "sensor_name": "Plain",
        "label": "Cookie SUBJECT held on Plain Cookie"
      }
    },
    {
      "type": "Feature",
      "id": "585c05b2-e8b8-477b-b0e8-340eaf6a524b",
      "geometry": null,
      "properties": {
        "kind": "SENSOR_CONTACT",
        "parent_track": "SENSOR",
        "time": "2010-01-12T12:22:59+00:00",
        "bearing": -5.3,
        "range": 12000.0,
        "sensor_name": "Plain",
        "label": "Cookie SUBJECT held on Plain Cookie"
      }
    },
    {
      "type": "Feature",
      "id": "412cdf58-9044-49ca-9142-676971144040",
      "geometry": null,
      "properties": {
        "kind": "SENSOR_CONTACT",
        "parent_track": "SENSOR",
        "time": "2010-01-12T12:23:14+00:00",
        "bearing": -6.1,
        "range": 12000.0,
        "sensor_name": "Plain",
        "label": "Cookie SUBJECT held on Plain Cookie"
      }
    },
    {
      "type": "Feature",
      "id": "02f1bc5c-5632-40a1-90d6-a7fcf02ce297",
      "geometry": null,
      "properties": {
        "kind": "SENSOR_CONTACT",
        "parent_track": "SENSOR",
        "time": "2010-01-12T12:23:29+00:00",
        "bearing": -6.8,
        "range": 12000.0,
        "sensor_name": "Plain",
        "label": "Cookie SUBJECT held on Plain Cookie"
      }
    },
    {
      "type": "Feature",
      "id": "73e0103b-5fa1-4a01-8ed8-7124e8a4f8b2",
      "geometry": null,
      "properties": {
        "kind": "SENSOR_CONTACT",
        "parent_track": "SENSOR",
        "time": "2010-01-12T12:23:44+00:00",
        "bearing": -7.6,
        "range": 12000.0,
        "sensor_name": "Plain",
        "label": "Cookie SUBJECT held on Plain Cookie"
      }
    },
    {
      "type": "Feature",
      "id": "fde7a07e-b7c2-4227-b2f5-94fed9956c6f",
      "geometry": null,
      "properties": {
        "kind": "SENSOR_CONTACT",
        "parent_track": "SENSOR",
        "time": "2010-01-12T12:23:59+00:00",
        "bearing": -8.4,
        "range": 12000.0,
        "sensor_name": "Plain",
        "label": "Cookie SUBJECT held on Plain Cookie"
      }
    },
    {
      "type": "Feature",
      "id": "1428c2e5-aae4-441f-aedc-6fab2a254dcd",
      "geometry": null,
      "properties": {
        "kind": "SENSOR_CONTACT",
        "parent_track": "SENSOR",
        "time": "2010-01-12T12:24:14+00:00",
        "bearing": -9.3,
        "range": 12000.0,
        "sensor_name": "Plain",
        "label": "Cookie SUBJECT held on Plain Cookie"
      }
    },
    {
      "type": "Feature",
      "id": "6e758478-2b2c-4b6a-a67d-628a3d8598c6",
      "geometry": null,
      "properties": {
        "kind": "SENSOR_CONTACT",
        "parent_track": "SENSOR",
        "time": "2010-01-12T12:24:29+00:00",
        "bearing": -10.1,
        "range": 12000.0,
        "sensor_name": "Plain",
        "label": "Cookie SUBJECT held on Plain Cookie"
      }
    },
    {
      "type": "Feature",
      "id": "5b8acd9f-7ba6-40b1-963f-cee2b69aecf9",
      "geometry": null,
      "properties": {
        "kind": "SENSOR_CONTACT",
        "parent_track": "SENSOR",
        "time": "2010-01-12T12:24:44+00:00",
        "bearing": -11.0,
        "range": 12000.0,
        "sensor_name": "Plain",
        "label": "Cookie SUBJECT held on Plain Cookie"
      }
    },
    {
      "type": "Feature",
      "id": "a3999b09-44c5-4a3d-8384-a44f6bde9256",
      "geometry": null,
      "properties": {
        "kind": "SENSOR_CONTACT",
        "parent_track": "SENSOR",
        "time": "2010-01-12T12:24:59+00:00",
        "bearing": -11.9,
        "range": 12000.0,
        "sensor_name": "Plain",
        "label": "Cookie SUBJECT held on Plain Cookie"
      }
    },
    {
      "type": "Feature",
      "id": "244055bd-a6fe-4a6a-8e21-aefc54ff2609",
      "geometry": null,
      "properties": {
        "kind": "SENSOR_CONTACT",
        "parent_track": "SENSOR",
        "time": "2010-01-12T12:25:14+00:00",
        "bearing": -12.9,
        "range": 12000.0,
        "sensor_name": "Plain",
        "label": "Cookie SUBJECT held on Plain Cookie"
      }
    },
    {
      "type": "Feature",
      "id": "4103bf5a-a89e-49b6-9187-6bb8ed77bd1c",
      "geometry": null,
      "properties": {
        "kind": "SENSOR_CONTACT",
        "parent_track": "SENSOR",
        "time": "2010-01-12T12:25:29+00:00",
        "bearing": -13.9,
        "range": 12000.0,
        "sensor_name": "Plain",
        "label": "Cookie SUBJECT held on Plain Cookie"
      }
    },
    {
      "type": "Feature",
      "id": "65586e79-ebb2-456c-8c03-719f47a17f1f",
      "geometry": null,
      "properties": {
        "kind": "SENSOR_CONTACT",
        "parent_track": "SENSOR",
        "time": "2010-01-12T12:25:44+00:00",
        "bearing": -14.9,
        "range": 12000.0,
        "sensor_name": "Plain",
        "label": "Cookie SUBJECT held on Plain Cookie"
      }
    },
    {
      "type": "Feature",
      "id": "de4d86c0-b474-44a9-bd56-626c02cb24f2",
      "geometry": null,
      "properties": {
        "kind": "SENSOR_CONTACT",
        "parent_track": "SENSOR",
        "time": "2010-01-12T12:25:59+00:00",
        "bearing": -15.9,
        "range": 12000.0,
        "sensor_name": "Plain",
        "label": "Cookie SUBJECT held on Plain Cookie"
      }
    },
    {
      "type": "Feature",
      "id": "9b3f8fc3-fb86-49ef-afb8-f68a6cc7be80",
      "geometry": null,
      "properties": {
        "kind": "SENSOR_CONTACT",
        "parent_track": "SENSOR",
        "time": "2010-01-12T12:26:14+00:00",
        "bearing": -17.0,
        "range": 12000.0,
        "sensor_name": "Plain",
        "label": "Cookie SUBJECT held on Plain Cookie"
      }
    },
    {
      "type": "Feature",
      "id": "0fa70978-1e8c-4cda-bab5-64bd05efa10d",
      "geometry": null,
      "properties": {
        "kind": "SENSOR_CONTACT",
        "parent_track": "SENSOR",
        "time": "2010-01-12T12:26:29+00:00",
        "bearing": -18.1,
        "range": 12000.0,
        "sensor_name": "Plain",
        "label": "Cookie SUBJECT held on Plain Cookie"
      }
    },
    {
      "type": "Feature",
      "id": "e69da12c-5818-48b4-ba8b-2a1dbf55a637",
      "geometry": null,
      "properties": {
        "kind": "SENSOR_CONTACT",
        "parent_track": "SENSOR",
        "time": "2010-01-12T12:26:44+00:00",
        "bearing": -19.3,
        "range": 12000.0,
        "sensor_name": "Plain",
        "label": "Cookie SUBJECT held on Plain Cookie"
      }
    },
    {
      "type": "Feature",
      "id": "ade17a80-e1b6-4f3e-a428-3c41d99831b7",
      "geometry": null,
      "properties": {
        "kind": "SENSOR_CONTACT",
        "parent_track": "SENSOR",
        "time": "2010-01-12T12:26:59+00:00",
        "bearing": -20.4,
        "range": 12000.0,
        "sensor_name": "Plain",
        "label": "Cookie SUBJECT held on Plain Cookie"
      }
    },
    {
      "type": "Feature",
      "id": "4156ae1f-12c2-4249-9c4a-0675e83b10c3",
      "geometry": null,
      "properties": {
        "kind": "SENSOR_CONTACT",
        "parent_track": "SENSOR",
        "time": "2010-01-12T12:27:14+00:00",
        "bearing": -21.7,
        "range": 12000.0,
        "sensor_name": "Plain",
        "label": "Cookie SUBJECT held on Plain Cookie"
      }
    },
    {
      "type": "Feature",
      "id": "5a5569c9-cb0d-4790-98c0-2b6814128c2b",
      "geometry": null,
      "properties": {
        "kind": "SENSOR_CONTACT",
        "parent_track": "SENSOR",
        "time": "2010-01-12T12:27:29+00:00",
        "bearing": -22.9,
        "range": 12000.0,
        "sensor_name": "Plain",
        "label": "Cookie SUBJECT held on Plain Cookie"
      }
    },
    {
      "type": "Feature",
      "id": "5473cbaa-c167-4017-a5bb-b4529836dc88",
      "geometry": null,
      "properties": {
        "kind": "SENSOR_CONTACT",
        "parent_track": "SENSOR",
        "time": "2010-01-12T12:27:44+00:00",
        "bearing": -24.2,
        "range": 12000.0,
        "sensor_name": "Plain",
        "label": "Cookie SUBJECT held on Plain Cookie"
      }
    },
    {
      "type": "Feature",
      "id": "dfbc0a87-9119-4dc0-994d-5b1fc474c735",
      "geometry": null,
      "properties": {
        "kind": "SENSOR_CONTACT",
        "parent_track": "SENSOR",
        "time": "2010-01-12T12:27:59+00:00",
        "bearing": -25.5,
        "range": 12000.0,
        "sensor_name": "Plain",
        "label": "Cookie SUBJECT held on Plain Cookie"
      }
    },
    {
      "type": "Feature",
      "id": "e5b49aeb-c025-4261-9228-740a677eb630",
      "geometry": null,
      "properties": {
        "kind": "SENSOR_CONTACT",
        "parent_track": "SENSOR",
        "time": "2010-01-12T12:28:14+00:00",
        "bearing": -26.9,
        "range": 12000.0,
        "sensor_name": "Plain",
        "label": "Cookie SUBJECT held on Plain Cookie"
      }
    },
    {
      "type": "Feature",
      "id": "bdb098ab-a1ab-49a4-8446-911a33aa05a8",
      "geometry": null,
      "properties": {
        "kind": "SENSOR_CONTACT",
        "parent_track": "SENSOR",
        "time": "2010-01-12T12:28:29+00:00",
        "bearing": -28.3,
        "range": 12000.0,
        "sensor_name": "Plain",
        "label": "Cookie SUBJECT held on Plain Cookie"
      }
    },
    {
      "type": "Feature",
      "id": "0b7d072c-c054-46f7-aeed-c61e0b579e1d",
      "geometry": null,
      "properties": {
        "kind": "SENSOR_CONTACT",
        "parent_track": "SENSOR",
        "time": "2010-01-12T12:28:44+00:00",
        "bearing": -29.4,
        "range": 12000.0,
        "sensor_name": "Plain",
        "label": "Cookie SUBJECT held on Plain Cookie"
      }
    },
    {
      "type": "Feature",
      "id": "dc4e4590-4123-4e9c-abd1-46bfd5a209e7",
      "geometry": null,
      "properties": {
        "kind": "SENSOR_CONTACT",
        "parent_track": "SENSOR",
        "time": "2010-01-12T12:28:59+00:00",
        "bearing": -30.3,
        "range": 12000.0,
        "sensor_name": "Plain",
        "label": "Cookie SUBJECT held on Plain Cookie"
      }
    },
    {
      "type": "Feature",
      "id": "bad5627b-1508-4264-8c08-c2f422e07d93",
      "geometry": null,
      "properties": {
        "kind": "SENSOR_CONTACT",
        "parent_track": "SENSOR",
        "time": "2010-01-12T12:29:14+00:00",
        "bearing": -31.2,
        "range": 12000.0,
        "sensor_name": "Plain",
        "label": "Cookie SUBJECT held on Plain Cookie"
      }
    },
    {
      "type": "Feature",
      "id": "33366cca-e5bd-4267-b1c2-3ead32d4b6e6",
      "geometry": null,
      "properties": {
        "kind": "SENSOR_CONTACT",
        "parent_track": "SENSOR",
        "time": "2010-01-12T12:29:29+00:00",
        "bearing": -32.2,
        "range": 12000.0,
        "sensor_name": "Plain",
        "label": "Cookie SUBJECT held on Plain Cookie"
      }
    },
    {
      "type": "Feature",
      "id": "8e3c8681-2f36-4849-b892-8fbb026e73c9",
      "geometry": null,
      "properties": {
        "kind": "SENSOR_CONTACT",
        "parent_track": "SENSOR",
        "time": "2010-01-12T12:29:44+00:00",
        "bearing": -33.2,
        "range": 12000.0,
        "sensor_name": "Plain",
        "label": "Cookie SUBJECT held on Plain Cookie"
      }
    },
    {
      "type": "Feature",
      "id": "018fa737-c68c-4385-97c8-ec4bb5236161",
      "geometry": null,
      "properties": {
        "kind": "SENSOR_CONTACT",
        "parent_track": "SENSOR",
        "time": "2010-01-12T12:29:59+00:00",
        "bearing": -34.2,
        "range": 12000.0,
        "sensor_name": "Plain",
        "label": "Cookie SUBJECT held on Plain Cookie"
      }
    },
    {
      "type": "Feature",
      "id": "afa38e9e-f7b2-4b3e-9c38-e335640386aa",
      "geometry": null,
      "properties": {
        "kind": "SENSOR_CONTACT",
        "parent_track": "SENSOR",
        "time": "2010-01-12T12:30:14+00:00",
        "bearing": -35.2,
        "range": 12000.0,
        "sensor_name": "Plain",
        "label": "Cookie SUBJECT held on Plain Cookie"
      }
    },
    {
      "type": "Feature",
      "id": "2c0a598e-5c15-4e78-a55b-a5818711ca6a",
      "geometry": null,
      "properties": {
        "kind": "SENSOR_CONTACT",
        "parent_track": "SENSOR",
        "time": "2010-01-12T12:30:29+00:00",
        "bearing": -36.3,
        "range": 12000.0,
        "sensor_name": "Plain",
        "label": "Cookie SUBJECT held on Plain Cookie"
      }
    },
    {
      "type": "Feature",
      "id": "ccd3e8cc-a9c0-4fa1-9734-991aecc21d69",
      "geometry": null,
      "properties": {
        "kind": "SENSOR_CONTACT",
        "parent_track": "SENSOR",
        "time": "2010-01-12T12:30:44+00:00",
        "bearing": -37.4,
        "range": 12000.0,
        "sensor_name": "Plain",
        "label": "Cookie SUBJECT held on Plain Cookie"
      }
    },
    {
      "type": "Feature",
      "id": "e3f8a78f-db60-456c-a4f7-4622f8f50a99",
      "geometry": null,
      "properties": {
        "kind": "SENSOR_CONTACT",
        "parent_track": "SENSOR",
        "time": "2010-01-12T12:30:59+00:00",
        "bearing": -38.5,
        "range": 12000.0,
        "sensor_name": "Plain",
        "label": "Cookie SUBJECT held on Plain Cookie"
      }
    },
    {
      "type": "Feature",
      "id": "b58a4ba6-398b-489d-9528-9ebb53de1c16",
      "geometry": null,
      "properties": {
        "kind": "SENSOR_CONTACT",
        "parent_track": "SENSOR",
        "time": "2010-01-12T12:31:14+00:00",
        "bearing": -39.7,
        "range": 12000.0,
        "sensor_name": "Plain",
        "label": "Cookie SUBJECT held on Plain Cookie"
      }
    },
    {
      "type": "Feature",
      "id": "58c7a436-5af2-47de-8169-b3bdde35ffe4",
      "geometry": null,
      "properties": {
        "kind": "SENSOR_CONTACT",
        "parent_track": "SENSOR",
        "time": "2010-01-12T12:31:29+00:00",
        "bearing": -40.9,
        "range": 12000.0,
        "sensor_name": "Plain",
        "label": "Cookie SUBJECT held on Plain Cookie"
      }
    },
    {
      "type": "Feature",
      "id": "406968c8-e4de-4272-bdef-e2975c1bd8e3",
      "geometry": null,
      "properties": {
        "kind": "SENSOR_CONTACT",
        "parent_track": "SENSOR",
        "time": "2010-01-12T12:31:44+00:00",
        "bearing": -42.1,
        "range": 12000.0,
        "sensor_name": "Plain",
        "label": "Cookie SUBJECT held on Plain Cookie"
      }
    },
    {
      "type": "Feature",
      "id": "e98500f2-9a32-4334-8753-3a549c36a290",
      "geometry": null,
      "properties": {
        "kind": "SENSOR_CONTACT",
        "parent_track": "SENSOR",
        "time": "2010-01-12T12:31:59+00:00",
        "bearing": -43.4,
        "range": 12000.0,
        "sensor_name": "Plain",
        "label": "Cookie SUBJECT held on Plain Cookie"
      }
    },
    {
      "type": "Feature",
      "id": "d1898488-3dd7-414f-bba6-4c27afc1d4f4",
      "geometry": null,
      "properties": {
        "kind": "SENSOR_CONTACT",
        "parent_track": "SENSOR",
        "time": "2010-01-12T12:32:14+00:00",
        "bearing": -44.7,
        "range": 12000.0,
        "sensor_name": "Plain",
        "label": "Cookie SUBJECT held on Plain Cookie"
      }
    },
    {
      "type": "Feature",
      "id": "d952fa16-71a2-4c74-9880-b5465883973e",
      "geometry": null,
      "properties": {
        "kind": "SENSOR_CONTACT",
        "parent_track": "SENSOR",
        "time": "2010-01-12T12:32:29+00:00",
        "bearing": -46.1,
        "range": 12000.0,
        "sensor_name": "Plain",
        "label": "Cookie SUBJECT held on Plain Cookie"
      }
    },
    {
      "type": "Feature",
      "id": "e9a8e2fa-9347-4a7b-81a6-f2f815ef539a",
      "geometry": null,
      "properties": {
        "kind": "SENSOR_CONTACT",
        "parent_track": "SENSOR",
        "time": "2010-01-12T12:32:44+00:00",
        "bearing": -47.7,
        "range": 12000.0,
        "sensor_name": "Plain",
        "label": "Cookie SUBJECT held on Plain Cookie"
      }
    },
    {
      "type": "Feature",
      "id": "000c0ee4-c29a-4b83-a29a-1dfdafa08329",
      "geometry": null,
      "properties": {
        "kind": "SENSOR_CONTACT",
        "parent_track": "SENSOR",
        "time": "2010-01-12T12:32:59+00:00",
        "bearing": -49.5,
        "range": 12000.0,
        "sensor_name": "Plain",
        "label": "Cookie SUBJECT held on Plain Cookie"
      }
    },
    {
      "type": "Feature",
      "id": "356d7a2b-3c0a-46da-a742-4b852ff484de",
      "geometry": null,
      "properties": {
        "kind": "SENSOR_CONTACT",
        "parent_track": "SENSOR",
        "time": "2010-01-12T12:33:14+00:00",
        "bearing": -51.4,
        "range": 12000.0,
        "sensor_name": "Plain",
        "label": "Cookie SUBJECT held on Plain Cookie"
      }
    },
    {
      "type": "Feature",
      "id": "e2e2fe0a-9f3d-4ab3-a627-058a2942aaec",
      "geometry": null,
      "properties": {
        "kind": "SENSOR_CONTACT",
        "parent_track": "SENSOR",
        "time": "2010-01-12T12:33:29+00:00",
        "bearing": -53.4,
        "range": 12000.0,
        "sensor_name": "Plain",
        "label": "Cookie SUBJECT held on Plain Cookie"
      }
    },
    {
      "type": "Feature",
      "id": "5a8e6b2c-885e-43b4-ae3b-b67b42624f0a",
      "geometry": null,
      "properties": {
        "kind": "SENSOR_CONTACT",
        "parent_track": "SENSOR",
        "time": "2010-01-12T12:33:44+00:00",
        "bearing": -55.6,
        "range": 12000.0,
        "sensor_name": "Plain",
        "label": "Cookie SUBJECT held on Plain Cookie"
      }
    },
    {
      "type": "Feature",
      "id": "46a91d04-da92-4cc2-b6cd-4483be69caa6",
      "geometry": null,
      "properties": {
        "kind": "SENSOR_CONTACT",
        "parent_track": "SENSOR",
        "time": "2010-01-12T12:33:59+00:00",
        "bearing": -57.9,
        "range": 12000.0,
        "sensor_name": "Plain",
        "label": "Cookie SUBJECT held on Plain Cookie"
      }
    },
    {
      "type": "Feature",
      "id": "27791fcd-57e3-456a-b8c4-4d293db50b24",
      "geometry": null,
      "properties": {
        "kind": "SENSOR_CONTACT",
        "parent_track": "SENSOR",
        "time": "2010-01-12T12:34:14+00:00",
        "bearing": -60.3,
        "range": 12000.0,
        "sensor_name": "Plain",
        "label": "Cookie SUBJECT held on Plain Cookie"
      }
    },
    {
      "type": "Feature",
      "id": "3392bf13-5430-4bb2-a137-907dd4f1ef37",
      "geometry": null,
      "properties": {
        "kind": "SENSOR_CONTACT",
        "parent_track": "SENSOR",
        "time": "2010-01-12T12:34:29+00:00",
        "bearing": -62.8,
        "range": 12000.0,
        "sensor_name": "Plain",
        "label": "Cookie SUBJECT held on Plain Cookie"
      }
    },
    {
      "type": "Feature",
      "id": "fa9d2b77-e471-4d16-b83f-c4879399b0d9",
      "geometry": null,
      "properties": {
        "kind": "SENSOR_CONTACT",
        "parent_track": "SENSOR",
        "time": "2010-01-12T12:34:44+00:00",
        "bearing": -65.4,
        "range": 12000.0,
        "sensor_name": "Plain",
        "label": "Cookie SUBJECT held on Plain Cookie"
      }
    },
    {
      "type": "Feature",
      "id": "eeac00c7-7099-4598-91fc-177dae3bf481",
      "geometry": null,
      "properties": {
        "kind": "SENSOR_CONTACT",
        "parent_track": "SENSOR",
        "time": "2010-01-12T12:34:59+00:00",
        "bearing": -68.2,
        "range": 12000.0,
        "sensor_name": "Plain",
        "label": "Cookie SUBJECT held on Plain Cookie"
      }
    },
    {
      "type": "Feature",
      "id": "aabcb44b-dcde-4b03-b823-8b512a8d6ef2",
      "geometry": null,
      "properties": {
        "kind": "SENSOR_CONTACT",
        "parent_track": "SENSOR",
        "time": "2010-01-12T12:35:14+00:00",
        "bearing": -71.0,
        "range": 12000.0,
        "sensor_name": "Plain",
        "label": "Cookie SUBJECT held on Plain Cookie"
      }
    },
    {
      "type": "Feature",
      "id": "9723417e-cffd-4d0b-a7dc-18a539a72984",
      "geometry": null,
      "properties": {
        "kind": "SENSOR_CONTACT",
        "parent_track": "SENSOR",
        "time": "2010-01-12T12:35:29+00:00",
        "bearing": -73.4,
        "range": 12000.0,
        "sensor_name": "Plain",
        "label": "Cookie SUBJECT held on Plain Cookie"
      }
    },
    {
      "type": "Feature",
      "id": "e5bb5af8-3a8a-45c5-94fb-38461f65c9c7",
      "geometry": null,
      "properties": {
        "kind": "SENSOR_CONTACT",
        "parent_track": "SENSOR",
        "time": "2010-01-12T12:35:44+00:00",
        "bearing": -74.6,
        "range": 12000.0,
        "sensor_name": "Plain",
        "label": "Cookie SUBJECT held on Plain Cookie"
      }
    },
    {
      "type": "Feature",
      "id": "2b314e17-de47-4011-8ed1-cf7473efa9fe",
      "geometry": null,
      "properties": {
        "kind": "SENSOR_CONTACT",
        "parent_track": "SENSOR",
        "time": "2010-01-12T12:35:59+00:00",
        "bearing": -75.5,
        "range": 12000.0,
        "sensor_name": "Plain",
        "label": "Cookie SUBJECT held on Plain Cookie"
      }
    },
    {
      "type": "Feature",
      "id": "9ab735fe-a6eb-4a39-85c1-718079e23acd",
      "geometry": null,
      "properties": {
        "kind": "SENSOR_CONTACT",
        "parent_track": "SENSOR",
        "time": "2010-01-12T12:36:14+00:00",
        "bearing": -76.4,
        "range": 12000.0,
        "sensor_name": "Plain",
        "label": "Cookie SUBJECT held on Plain Cookie"
      }
    },
    {
      "type": "Feature",
      "id": "b4703a58-f69f-4ccd-94f8-7be3d0f2bb5c",
      "geometry": null,
      "properties": {
        "kind": "SENSOR_CONTACT",
        "parent_track": "SENSOR",
        "time": "2010-01-12T12:36:29+00:00",
        "bearing": -77.4,
        "range": 12000.0,
        "sensor_name": "Plain",
        "label": "Cookie SUBJECT held on Plain Cookie"
      }
    },
    {
      "type": "Feature",
      "id": "6720e178-0108-4fcb-8f05-eefc2a6dac0a",
      "geometry": null,
      "properties": {
        "kind": "SENSOR_CONTACT",
        "parent_track": "SENSOR",
        "time": "2010-01-12T12:36:44+00:00",
        "bearing": -78.5,
        "range": 12000.0,
        "sensor_name": "Plain",
        "label": "Cookie SUBJECT held on Plain Cookie"
      }
    },
    {
      "type": "Feature",
      "id": "a5a7e894-726c-4531-a713-6c16366aee09",
      "geometry": null,
      "properties": {
        "kind": "SENSOR_CONTACT",
        "parent_track": "SENSOR",
        "time": "2010-01-12T12:36:59+00:00",
        "bearing": -79.6,
        "range": 12000.0,
        "sensor_name": "Plain",
        "label": "Cookie SUBJECT held on Plain Cookie"
      }
    },
    {
      "type": "Feature",
      "id": "3c4b779f-f8e8-4adf-b7a6-f1fa0c969d94",
      "geometry": null,
      "properties": {
        "kind": "SENSOR_CONTACT",
        "parent_track": "SENSOR",
        "time": "2010-01-12T12:37:14+00:00",
        "bearing": -80.8,
        "range": 12000.0,
        "sensor_name": "Plain",
        "label": "Cookie SUBJECT held on Plain Cookie"
      }
    },
    {
      "type": "Feature",
      "id": "c27f89d3-abbf-4ff9-ae0f-a48751597238",
      "geometry": null,
      "properties": {
        "kind": "SENSOR_CONTACT",
        "parent_track": "SENSOR",
        "time": "2010-01-12T12:37:29+00:00",
        "bearing": -82.0,
        "range": 12000.0,
        "sensor_name": "Plain",
        "label": "Cookie SUBJECT held on Plain Cookie"
      }
    },
    {
      "type": "Feature",
      "id": "52c8b465-24ab-401d-b7d8-736c233fb8a6",
      "geometry": null,
      "properties": {
        "kind": "SENSOR_CONTACT",
        "parent_track": "SENSOR",
        "time": "2010-01-12T12:37:44+00:00",
        "bearing": -83.3,
        "range": 12000.0,
        "sensor_name": "Plain",
        "label": "Cookie SUBJECT held on Plain Cookie"
      }
    },
    {
      "type": "Feature",
      "id": "11166158-7f9b-4d74-b046-ce2269247c6d",
      "geometry": null,
      "properties": {
        "kind": "SENSOR_CONTACT",
        "parent_track": "SENSOR",
        "time": "2010-01-12T12:37:59+00:00",
        "bearing": -84.6,
        "range": 12000.0,
        "sensor_name": "Plain",
        "label": "Cookie SUBJECT held on Plain Cookie"
      }
    },
    {
      "type": "Feature",
      "id": "9638dfc4-ecf3-4250-b423-88946ce79ac4",
      "geometry": null,
      "properties": {
        "kind": "SENSOR_CONTACT",
        "parent_track": "SENSOR",
        "time": "2010-01-12T12:38:14+00:00",
        "bearing": -86.0,
        "range": 12000.0,
        "sensor_name": "Plain",
        "label": "Cookie SUBJECT held on Plain Cookie"
      }
    },
    {
      "type": "Feature",
      "id": "350c89c8-0ce6-4505-843f-56f3d125350f",
      "geometry": null,
      "properties": {
        "kind": "SENSOR_CONTACT",
        "parent_track": "SENSOR",
        "time": "2010-01-12T12:38:29+00:00",
        "bearing": -87.6,
        "range": 12000.0,
        "sensor_name": "Plain",
        "label": "Cookie SUBJECT held on Plain Cookie"
      }
    },
    {
      "type": "Feature",
      "id": "913b3946-d963-4079-9433-4a2323b7100b",
      "geometry": null,
      "properties": {
        "kind": "SENSOR_CONTACT",
        "parent_track": "SENSOR",
        "time": "2010-01-12T12:38:44+00:00",
        "bearing": -89.1,
        "range": 12000.0,
        "sensor_name": "Plain",
        "label": "Cookie SUBJECT held on Plain Cookie"
      }
    },
    {
      "type": "Feature",
      "id": "3a56e147-77de-4459-bf32-027d7732e82c",
      "geometry": null,
      "properties": {
        "kind": "SENSOR_CONTACT",
        "parent_track": "SENSOR",
        "time": "2010-01-12T12:38:59+00:00",
        "bearing": -90.8,
        "range": 12000.0,
        "sensor_name": "Plain",
        "label": "Cookie SUBJECT held on Plain Cookie"
      }
    },
    {
      "type": "Feature",
      "id": "68b9d0de-a8a9-4b88-83b1-422b30c025b5",
      "geometry": null,
      "properties": {
        "kind": "SENSOR_CONTACT",
        "parent_track": "SENSOR",
        "time": "2010-01-12T12:39:14+00:00",
        "bearing": -92.6,
        "range": 12000.0,
        "sensor_name": "Plain",
        "label": "Cookie SUBJECT held on Plain Cookie"
      }
    },
    {
      "type": "Feature",
      "id": "35e156cd-63ad-4084-9fae-17af41eeb03a",
      "geometry": null,
      "properties": {
        "kind": "SENSOR_CONTACT",
        "parent_track": "SENSOR",
        "time": "2010-01-12T12:39:29+00:00",
        "bearing": -94.4,
        "range": 12000.0,
        "sensor_name": "Plain",
        "label": "Cookie SUBJECT held on Plain Cookie"
      }
    },
    {
      "type": "Feature",
      "id": "560ef210-d0d1-4aac-850c-30e41debfe8d",
      "geometry": null,
      "properties": {
        "kind": "SENSOR_CONTACT",
        "parent_track": "SENSOR",
        "time": "2010-01-12T12:39:44+00:00",
        "bearing": -96.4,
        "range": 12000.0,
        "sensor_name": "Plain",
        "label": "Cookie SUBJECT held on Plain Cookie"
      }
    },
    {
      "type": "Feature",
      "id": "671ebbed-3743-43fc-919a-fd7d165bfa9e",
      "geometry": null,
      "properties": {
        "kind": "SENSOR_CONTACT",
        "parent_track": "SENSOR",
        "time": "2010-01-12T12:39:59+00:00",
        "bearing": -98.4,
        "range": 12000.0,
        "sensor_name": "Plain",
        "label": "Cookie SUBJECT held on Plain Cookie"
      }
    },
    {
      "type": "Feature",
      "id": "f7b46736-3c7e-4f10-8203-c255da3cacc6",
      "geometry": null,
      "properties": {
        "kind": "SENSOR_CONTACT",
        "parent_track": "SENSOR",
        "time": "2010-01-12T12:40:14+00:00",
        "bearing": -100.6,
        "range": 12000.0,
        "sensor_name": "Plain",
        "label": "Cookie SUBJECT held on Plain Cookie"
      }
    },
    {
      "type": "Feature",
      "id": "a8bb6b8e-7b3f-42f5-8764-abfdc9aff3ba",
      "geometry": null,
      "properties": {
        "kind": "SENSOR_CONTACT",
        "parent_track": "SENSOR",
        "time": "2010-01-12T12:40:29+00:00",
        "bearing": -102.8,
        "range": 12000.0,
        "sensor_name": "Plain",
        "label": "Cookie SUBJECT held on Plain Cookie"
      }
    },
    {
      "type": "Feature",
      "id": "8d49af28-398c-4996-9c62-ebdd2ca798c3",
      "geometry": null,
      "properties": {
        "kind": "SENSOR_CONTACT",
        "parent_track": "SENSOR",
        "time": "2010-01-12T12:40:44+00:00",
        "bearing": -105.1,
        "range": 12000.0,
        "sensor_name": "Plain",
        "label": "Cookie SUBJECT held on Plain Cookie"
      }
    },
    {
      "type": "Feature",
      "id": "8f3efcf8-7299-44e0-8ab6-bc928e1301ae",
      "geometry": null,
      "properties": {
        "kind": "SENSOR_CONTACT",
        "parent_track": "SENSOR",
        "time": "2010-01-12T12:40:59+00:00",
        "bearing": -107.6,
        "range": 12000.0,
        "sensor_name": "Plain",
        "label": "Cookie SUBJECT held on Plain Cookie"
      }
    },
    {
      "type": "Feature",
      "id": "e66deb94-ac95-408f-be58-bb33cb2d907a",
      "geometry": null,
      "properties": {
        "kind": "SENSOR_CONTACT",
        "parent_track": "SENSOR",
        "time": "2010-01-12T12:41:14+00:00",
        "bearing": -110.1,
        "range": 12000.0,
        "sensor_name": "Plain",
        "label": "Cookie SUBJECT held on Plain Cookie"
      }
    },
    {
      "type": "Feature",
      "id": "b6034041-bbc5-4412-9de3-c02ff55ebf43",
      "geometry": null,
      "properties": {
        "kind": "SENSOR_CONTACT",
        "parent_track": "SENSOR",
        "time": "2010-01-12T12:41:29+00:00",
        "bearing": -112.8,
        "range": 12000.0,
        "sensor_name": "Plain",
        "label": "Cookie SUBJECT held on Plain Cookie"
      }
    },
    {
      "type": "Feature",
      "id": "57c04c67-aa2f-4727-9ef3-f7740220ceb2",
      "geometry": null,
      "properties": {
        "kind": "SENSOR_CONTACT",
        "parent_track": "SENSOR",
        "time": "2010-01-12T12:41:44+00:00",
        "bearing": -115.5,
        "range": 12000.0,
        "sensor_name": "Plain",
        "label": "Cookie SUBJECT held on Plain Cookie"
      }
    },
    {
      "type": "Feature",
      "id": "c974b15b-d9a3-450c-ba68-2b95fa1ef213",
      "geometry": null,
      "properties": {
        "kind": "SENSOR_CONTACT",
        "parent_track": "SENSOR",
        "time": "2010-01-12T12:41:59+00:00",
        "bearing": -118.3,
        "range": 12000.0,
        "sensor_name": "Plain",
        "label": "Cookie SUBJECT held on Plain Cookie"
      }
    },
    {
      "type": "Feature",
      "id": "603e8af5-9d3b-49ff-87bc-d213c307dd95",
      "geometry": null,
      "properties": {
        "kind": "SENSOR_CONTACT",
        "parent_track": "SENSOR",
        "time": "2010-01-12T12:42:14+00:00",
        "bearing": -121.1,
        "range": 12000.0,
        "sensor_name": "Plain",
        "label": "Cookie SUBJECT held on Plain Cookie"
      }
    },
    {
      "type": "Feature",
      "id": "391ad17f-3bd3-41a9-b0f8-616db5867f02",
      "geometry": null,
      "properties": {
        "kind": "SENSOR_CONTACT",
        "parent_track": "SENSOR",
        "time": "2010-01-12T12:42:29+00:00",
        "bearing": -124.0,
        "range": 12000.0,
        "sensor_name": "Plain",
        "label": "Cookie SUBJECT held on Plain Cookie"
      }
    },
    {
      "type": "Feature",
      "id": "815e8e17-2ed3-405f-8c90-d29baccdefff",
      "geometry": null,
      "properties": {
        "kind": "SENSOR_CONTACT",
        "parent_track": "SENSOR",
        "time": "2010-01-12T12:42:44+00:00",
        "bearing": -127.0,
        "range": 12000.0,
        "sensor_name": "Plain",
        "label": "Cookie SUBJECT held on Plain Cookie"
      }
    },
    {
      "type": "Feature",
      "id": "ba8ad668-9d2d-4bee-ba3d-f852d6c00188",
      "geometry": null,
      "properties": {
        "kind": "SENSOR_CONTACT",
        "parent_track": "SENSOR",
        "time": "2010-01-12T12:42:59+00:00",
        "bearing": -130.0,
        "range": 12000.0,
        "sensor_name": "Plain",
        "label": "Cookie SUBJECT held on Plain Cookie"
      }
    },
    {
      "type": "Feature",
      "id": "6ce40ca9-63c1-423b-9dda-18732d1fee52",
      "geometry": null,
      "properties": {
        "kind": "SENSOR_CONTACT",
        "parent_track": "SENSOR",
        "time": "2010-01-12T12:43:14+00:00",
        "bearing": -133.0,
        "range": 12000.0,
        "sensor_name": "Plain",
        "label": "Cookie SUBJECT held on Plain Cookie"
      }
    },
    {
      "type": "Feature",
      "id": "0377292d-908d-4687-9a72-85e541711e9e",
      "geometry": null,
      "properties": {
        "kind": "SENSOR_CONTACT",
        "parent_track": "SENSOR",
        "time": "2010-01-12T12:43:29+00:00",
        "bearing": -135.9,
        "range": 12000.0,
        "sensor_name": "Plain",
        "label": "Cookie SUBJECT held on Plain Cookie"
      }
    },
    {
      "type": "Feature",
      "id": "08e94fc6-47d5-423f-952c-9cd826c53174",
      "geometry": null,
      "properties": {
        "kind": "SENSOR_CONTACT",
        "parent_track": "SENSOR",
        "time": "2010-01-12T12:43:44+00:00",
        "bearing": -138.9,
        "range": 12000.0,
        "sensor_name": "Plain",
        "label": "Cookie SUBJECT held on Plain Cookie"
      }
    },
    {
      "type": "Feature",
      "id": "3f2e1b03-d17c-4349-bf85-4957b8eb1a01",
      "geometry": null,
      "properties": {
        "kind": "SENSOR_CONTACT",
        "parent_track": "SENSOR",
        "time": "2010-01-12T12:43:59+00:00",
        "bearing": -141.8,
        "range": 12000.0,
        "sensor_name": "Plain",
        "label": "Cookie SUBJECT held on Plain Cookie"
      }
    },
    {
      "type": "Feature",
      "id": "0e103e32-cea2-48a3-b38c-c28b1fa2b19d",
      "geometry": null,
      "properties": {
        "kind": "SENSOR_CONTACT",
        "parent_track": "SENSOR",
        "time": "2010-01-12T12:44:14+00:00",
        "bearing": -144.7,
        "range": 12000.0,
        "sensor_name": "Plain",
        "label": "Cookie SUBJECT held on Plain Cookie"
      }
    },
    {
      "type": "Feature",
      "id": "478f811e-0fb6-4f64-bcd7-7af20551f99b",
      "geometry": null,
      "properties": {
        "kind": "SENSOR_CONTACT",
        "parent_track": "SENSOR",
        "time": "2010-01-12T12:44:29+00:00",
        "bearing": -147.5,
        "range": 12000.0,
        "sensor_name": "Plain",
        "label": "Cookie SUBJECT held on Plain Cookie"
      }
    },
    {
      "type": "Feature",
      "id": "c22ed361-250e-415b-989a-0ff788cb0787",
      "geometry": null,
      "properties": {
        "kind": "SENSOR_CONTACT",
        "parent_track": "SENSOR",
        "time": "2010-01-12T12:44:44+00:00",
        "bearing": -150.2,
        "range": 12000.0,
        "sensor_name": "Plain",
        "label": "Cookie SUBJECT held on Plain Cookie"
      }
    },
    {
      "type": "Feature",
      "id": "a19547e2-8826-4c54-ba1f-12ae234e1f4a",
      "geometry": null,
      "properties": {
        "kind": "SENSOR_CONTACT",
        "parent_track": "SENSOR",
        "time": "2010-01-12T12:44:59+00:00",
        "bearing": -152.8,
        "range": 12000.0,
        "sensor_name": "Plain",
        "label": "Cookie SUBJECT held on Plain Cookie"
      }
    },
    {
      "type": "Feature",
      "id": "217a45da-24a6-45a1-9c61-1002f8e16b76",
      "geometry": null,
      "properties": {
        "kind": "SENSOR_CONTACT",
        "parent_track": "SENSOR",
        "time": "2010-01-12T12:45:14+00:00",
        "bearing": -155.4,
        "range": 12000.0,
        "sensor_name": "Plain",
        "label": "Cookie SUBJECT held on Plain Cookie"
      }
    },
    {
      "type": "Feature",
      "id": "91e943f1-77ce-45aa-8bbe-de88427479a7",
      "geometry": null,
      "properties": {
        "kind": "SENSOR_CONTACT",
        "parent_track": "SENSOR",
        "time": "2010-01-12T12:45:29+00:00",
        "bearing": -157.8,
        "range": 12000.0,
        "sensor_name": "Plain",
        "label": "Cookie SUBJECT held on Plain Cookie"
      }
    },
    {
      "type": "Feature",
      "id": "53ef5cd5-c2ec-4f5a-8e75-a39b18705084",
      "geometry": null,
      "properties": {
        "kind": "SENSOR_CONTACT",
        "parent_track": "SENSOR",
        "time": "2010-01-12T12:45:44+00:00",
        "bearing": -160.2,
        "range": 12000.0,
        "sensor_name": "Plain",
        "label": "Cookie SUBJECT held on Plain Cookie"
      }
    },
    {
      "type": "Feature",
      "id": "eb6f01fb-ce0f-4d52-91bc-548cde00872f",
      "geometry": null,
      "properties": {
        "kind": "SENSOR_CONTACT",
        "parent_track": "SENSOR",
        "time": "2010-01-12T12:45:59+00:00",
        "bearing": -162.4,
        "range": 12000.0,
        "sensor_name": "Plain",
        "label": "Cookie SUBJECT held on Plain Cookie"
      }
    },
    {
      "type": "Feature",
      "id": "f54bbff7-8c80-4d57-b6f8-2c7b55ba9ba5",
      "geometry": null,
      "properties": {
        "kind": "SENSOR_CONTACT",
        "parent_track": "SENSOR",
        "time": "2010-01-12T12:46:14+00:00",
        "bearing": -164.6,
        "range": 12000.0,
        "sensor_name": "Plain",
        "label": "Cookie SUBJECT held on Plain Cookie"
      }
    },
    {
      "type": "Feature",
      "id": "97e3a6e4-11fd-4d3d-8abe-0ed3c5c4ef7f",
      "geometry": null,
      "properties": {
        "kind": "SENSOR_CONTACT",
        "parent_track": "SENSOR",
        "time": "2010-01-12T12:46:29+00:00",
        "bearing": -166.6,
        "range": 12000.0,
        "sensor_name": "Plain",
        "label": "Cookie SUBJECT held on Plain Cookie"
      }
    },
    {
      "type": "Feature",
      "id": "a9ff444f-a636-4953-b67c-d3517c4969ad",
      "geometry": null,
      "properties": {
        "kind": "SENSOR_CONTACT",
        "parent_track": "SENSOR",
        "time": "2010-01-12T12:46:44+00:00",
        "bearing": -168.6,
        "range": 12000.0,
        "sensor_name": "Plain",
        "label": "Cookie SUBJECT held on Plain Cookie"
      }
    },
    {
      "type": "Feature",
      "id": "fdbb69cc-8af8-424b-9c08-0cb9aa35cd6e",
      "geometry": null,
      "properties": {
        "kind": "SENSOR_CONTACT",
        "parent_track": "SENSOR",
        "time": "2010-01-12T12:46:59+00:00",
        "bearing": -170.5,
        "range": 12000.0,
        "sensor_name": "Plain",
        "label": "Cookie SUBJECT held on Plain Cookie"
      }
    },
    {
      "type": "Feature",
      "id": "979de5d4-6730-4ce5-8ba2-815cd811dfc0",
      "geometry": null,
      "properties": {
        "kind": "SENSOR_CONTACT",
        "parent_track": "SENSOR",
        "time": "2010-01-12T12:47:14+00:00",
        "bearing": -172.2,
        "range": 12000.0,
        "sensor_name": "Plain",
        "label": "Cookie SUBJECT held on Plain Cookie"
      }
    },
    {
      "type": "Feature",
      "id": "cab40786-4c0d-425f-8eb8-342d3b527a28",
      "geometry": null,
      "properties": {
        "kind": "SENSOR_CONTACT",
        "parent_track": "SENSOR",
        "time": "2010-01-12T12:47:29+00:00",
        "bearing": -173.9,
        "range": 12000.0,
        "sensor_name": "Plain",
        "label": "Cookie SUBJECT held on Plain Cookie"
      }
    },
    {
      "type": "Feature",
      "id": "b46deca3-7f1b-4351-b1b6-78efc895c5c6",
      "geometry": null,
      "properties": {
        "kind": "SENSOR_CONTACT",
        "parent_track": "SENSOR",
        "time": "2010-01-12T12:47:44+00:00",
        "bearing": -175.5,
        "range": 12000.0,
        "sensor_name": "Plain",
        "label": "Cookie SUBJECT held on Plain Cookie"
      }
    },
    {
      "type": "Feature",
      "id": "6717c134-d16c-4ecf-98e4-c7e129af986c",
      "geometry": null,
      "properties": {
        "kind": "SENSOR_CONTACT",
        "parent_track": "SENSOR",
        "time": "2010-01-12T12:47:59+00:00",
        "bearing": -176.8,
        "range": 12000.0,
        "sensor_name": "Plain",
        "label": "Cookie SUBJECT held on Plain Cookie"
      }
    },
    {
      "type": "Feature",
      "id": "14951974-329f-4b8b-9914-ec6a8f00d47c",
      "geometry": null,
      "properties": {
        "kind": "SENSOR_CONTACT",
        "parent_track": "SENSOR",
        "time": "2010-01-12T12:48:14+00:00",
        "bearing": -176.9,
        "range": 12000.0,
        "sensor_name": "Plain",
        "label": "Cookie SUBJECT held on Plain Cookie"
      }
    },
    {
      "type": "Feature",
      "id": "42a06b73-f11b-4c84-8e7b-2a2575b25fc4",
      "geometry": null,
      "properties": {
        "kind": "SENSOR_CONTACT",
        "parent_track": "SENSOR",
        "time": "2010-01-12T12:48:29+00:00",
        "bearing": -175.5,
        "range": 12000.0,
        "sensor_name": "Plain",
        "label": "Cookie SUBJECT held on Plain Cookie"
      }
    },
    {
      "type": "Feature",
      "id": "af864dc7-3348-4273-a3e1-3192ac19c93c",
      "geometry": null,
      "properties": {
        "kind": "SENSOR_CONTACT",
        "parent_track": "SENSOR",
        "time": "2010-01-12T12:48:44+00:00",
        "bearing": -173.8,
        "range": 12000.0,
        "sensor_name": "Plain",
        "label": "Cookie SUBJECT held on Plain Cookie"
      }
    },
    {
      "type": "Feature",
      "id": "a954ebe0-8be6-4c61-b15f-37e3083df918",
      "geometry": null,
      "properties": {
        "kind": "SENSOR_CONTACT",
        "parent_track": "SENSOR",
        "time": "2010-01-12T12:48:59+00:00",
        "bearing": -171.9,
        "range": 12000.0,
        "sensor_name": "Plain",
        "label": "Cookie SUBJECT held on Plain Cookie"
      }
    },
    {
      "type": "Feature",
      "id": "4fbdc257-8306-4752-860c-8d41eb00186e",
      "geometry": null,
      "properties": {
        "kind": "SENSOR_CONTACT",
        "parent_track": "SENSOR",
        "time": "2010-01-12T12:49:14+00:00",
        "bearing": -170.0,
        "range": 12000.0,
        "sensor_name": "Plain",
        "label": "Cookie SUBJECT held on Plain Cookie"
      }
    },
    {
      "type": "Feature",
      "id": "e0b19d71-f710-48ba-9108-e27b718a9cdd",
      "geometry": null,
      "properties": {
        "kind": "SENSOR_CONTACT",
        "parent_track": "SENSOR",
        "time": "2010-01-12T12:49:29+00:00",
        "bearing": -168.0,
        "range": 12000.0,
        "sensor_name": "Plain",
        "label": "Cookie SUBJECT held on Plain Cookie"
      }
    },
    {
      "type": "Feature",
      "id": "6f227abe-c68d-42c2-b70d-1f87c5ba0328",
      "geometry": null,
      "properties": {
        "kind": "SENSOR_CONTACT",
        "parent_track": "SENSOR",
        "time": "2010-01-12T12:49:44+00:00",
        "bearing": -165.9,
        "range": 12000.0,
        "sensor_name": "Plain",
        "label": "Cookie SUBJECT held on Plain Cookie"
      }
    },
    {
      "type": "Feature",
      "id": "1cee0434-46b8-4d88-827c-8ef88199323d",
      "geometry": null,
      "properties": {
        "kind": "SENSOR_CONTACT",
        "parent_track": "SENSOR",
        "time": "2010-01-12T12:49:59+00:00",
        "bearing": -163.7,
        "range": 12000.0,
        "sensor_name": "Plain",
        "label": "Cookie SUBJECT held on Plain Cookie"
      }
    },
    {
      "type": "Feature",
      "id": "22982f48-c57c-4739-bf47-56d3f874b0aa",
      "geometry": null,
      "properties": {
        "kind": "SENSOR_CONTACT",
        "parent_track": "SENSOR",
        "time": "2010-01-12T12:50:14+00:00",
        "bearing": -161.5,
        "range": 12000.0,
        "sensor_name": "Plain",
        "label": "Cookie SUBJECT held on Plain Cookie"
      }
    },
    {
      "type": "Feature",
      "id": "5403dfc5-042f-4955-a801-307aeefac044",
      "geometry": null,
      "properties": {
        "kind": "SENSOR_CONTACT",
        "parent_track": "SENSOR",
        "time": "2010-01-12T12:50:29+00:00",
        "bearing": -159.2,
        "range": 12000.0,
        "sensor_name": "Plain",
        "label": "Cookie SUBJECT held on Plain Cookie"
      }
    },
    {
      "type": "Feature",
      "id": "8435b601-7286-4c54-bf4a-6ef990020722",
      "geometry": null,
      "properties": {
        "kind": "SENSOR_CONTACT",
        "parent_track": "SENSOR",
        "time": "2010-01-12T12:50:44+00:00",
        "bearing": -156.8,
        "range": 12000.0,
        "sensor_name": "Plain",
        "label": "Cookie SUBJECT held on Plain Cookie"
      }
    },
    {
      "type": "Feature",
      "id": "cc0bb875-7289-4151-b189-3ab37d082174",
      "geometry": null,
      "properties": {
        "kind": "SENSOR_CONTACT",
        "parent_track": "SENSOR",
        "time": "2010-01-12T12:50:59+00:00",
        "bearing": -154.3,
        "range": 12000.0,
        "sensor_name": "Plain",
        "label": "Cookie SUBJECT held on Plain Cookie"
      }
    },
    {
      "type": "Feature",
      "id": "5fc3f75e-ba9d-47d4-8b90-dd3b70c7f63a",
      "geometry": null,
      "properties": {
        "kind": "SENSOR_CONTACT",
        "parent_track": "SENSOR",
        "time": "2010-01-12T12:51:14+00:00",
        "bearing": -151.8,
        "range": 12000.0,
        "sensor_name": "Plain",
        "label": "Cookie SUBJECT held on Plain Cookie"
      }
    },
    {
      "type": "Feature",
      "id": "9cd30833-48b6-4dc9-9a82-da10918d32fa",
      "geometry": null,
      "properties": {
        "kind": "SENSOR_CONTACT",
        "parent_track": "SENSOR",
        "time": "2010-01-12T12:51:29+00:00",
        "bearing": -149.2,
        "range": 12000.0,
        "sensor_name": "Plain",
        "label": "Cookie SUBJECT held on Plain Cookie"
      }
    },
    {
      "type": "Feature",
      "id": "2673e41d-e555-4b4f-808a-f3dbf0ce0fff",
      "geometry": null,
      "properties": {
        "kind": "SENSOR_CONTACT",
        "parent_track": "SENSOR",
        "time": "2010-01-12T12:51:44+00:00",
        "bearing": -146.5,
        "range": 12000.0,
        "sensor_name": "Plain",
        "label": "Cookie SUBJECT held on Plain Cookie"
      }
    },
    {
      "type": "Feature",
      "id": "38a880db-5ab2-49b8-84e4-99f5da054fab",
      "geometry": null,
      "properties": {
        "kind": "SENSOR_CONTACT",
        "parent_track": "SENSOR",
        "time": "2010-01-12T12:51:59+00:00",
        "bearing": -143.9,
        "range": 12000.0,
        "sensor_name": "Plain",
        "label": "Cookie SUBJECT held on Plain Cookie"
      }
    },
    {
      "type": "Feature",
      "id": "368f35c0-b6d5-40f5-8695-2337280072da",
      "geometry": null,
      "properties": {
        "kind": "SENSOR_CONTACT",
        "parent_track": "SENSOR",
        "time": "2010-01-12T12:52:14+00:00",
        "bearing": -141.2,
        "range": 12000.0,
        "sensor_name": "Plain",
        "label": "Cookie SUBJECT held on Plain Cookie"
      }
    },
    {
      "type": "Feature",
      "id": "8c43b12b-f64c-4b59-89ea-65139cfa81e7",
      "geometry": null,
      "properties": {
        "kind": "SENSOR_CONTACT",
        "parent_track": "SENSOR",
        "time": "2010-01-12T12:52:29+00:00",
        "bearing": -138.5,
        "range": 12000.0,
        "sensor_name": "Plain",
        "label": "Cookie SUBJECT held on Plain Cookie"
      }
    },
    {
      "type": "Feature",
      "id": "4dac799e-006f-49b0-ae76-9eaa3d088459",
      "geometry": null,
      "properties": {
        "kind": "SENSOR_CONTACT",
        "parent_track": "SENSOR",
        "time": "2010-01-12T12:52:44+00:00",
        "bearing": -135.8,
        "range": 12000.0,
        "sensor_name": "Plain",
        "label": "Cookie SUBJECT held on Plain Cookie"
      }
    },
    {
      "type": "Feature",
      "id": "0865ebfc-65df-4d4b-ba1c-7ae43c1cb983",
      "geometry": null,
      "properties": {
        "kind": "SENSOR_CONTACT",
        "parent_track": "SENSOR",
        "time": "2010-01-12T12:52:59+00:00",
        "bearing": -133.1,
        "range": 12000.0,
        "sensor_name": "Plain",
        "label": "Cookie SUBJECT held on Plain Cookie"
      }
    },
    {
      "type": "Feature",
      "id": "2e48df25-6c62-40cd-9054-63b88fbeabb3",
      "geometry": null,
      "properties": {
        "kind": "SENSOR_CONTACT",
        "parent_track": "SENSOR",
        "time": "2010-01-12T12:53:14+00:00",
        "bearing": -130.4,
        "range": 12000.0,
        "sensor_name": "Plain",
        "label": "Cookie SUBJECT held on Plain Cookie"
      }
    },
    {
      "type": "Feature",
      "id": "82655549-2449-4f68-8c84-6cca75fcdba6",
      "geometry": null,
      "properties": {
        "kind": "SENSOR_CONTACT",
        "parent_track": "SENSOR",
        "time": "2010-01-12T12:53:29+00:00",
        "bearing": -127.8,
        "range": 12000.0,
        "sensor_name": "Plain",
        "label": "Cookie SUBJECT held on Plain Cookie"
      }
    },
    {
      "type": "Feature",
      "id": "51f5f963-346b-4151-b0f3-249baaaf8741",
      "geometry": null,
      "properties": {
        "kind": "SENSOR_CONTACT",
        "parent_track": "SENSOR",
        "time": "2010-01-12T12:53:44+00:00",
        "bearing": -125.2,
        "range": 12000.0,
        "sensor_name": "Plain",
        "label": "Cookie SUBJECT held on Plain Cookie"
      }
    },
    {
      "type": "Feature",
      "id": "1c803bfe-2a5f-437f-b87f-b7ad5828c635",
      "geometry": null,
      "properties": {
        "kind": "SENSOR_CONTACT",
        "parent_track": "SENSOR",
        "time": "2010-01-12T12:53:59+00:00",
        "bearing": -122.7,
        "range": 12000.0,
        "sensor_name": "Plain",
        "label": "Cookie SUBJECT held on Plain Cookie"
      }
    },
    {
      "type": "Feature",
      "id": "47faa47f-1686-4800-adc6-6191ab0ac918",
      "geometry": null,
      "properties": {
        "kind": "SENSOR_CONTACT",
        "parent_track": "SENSOR",
        "time": "2010-01-12T12:54:14+00:00",
        "bearing": -120.2,
        "range": 12000.0,
        "sensor_name": "Plain",
        "label": "Cookie SUBJECT held on Plain Cookie"
      }
    },
    {
      "type": "Feature",
      "id": "a4801fde-33dc-4b1c-9d37-9bb79709ef21",
      "geometry": null,
      "properties": {
        "kind": "SENSOR_CONTACT",
        "parent_track": "SENSOR",
        "time": "2010-01-12T12:54:29+00:00",
        "bearing": -117.8,
        "range": 12000.0,
        "sensor_name": "Plain",
        "label": "Cookie SUBJECT held on Plain Cookie"
      }
    },
    {
      "type": "Feature",
      "id": "ce010757-5977-4bdd-b5a2-14c256e11376",
      "geometry": null,
      "properties": {
        "kind": "SENSOR_CONTACT",
        "parent_track": "SENSOR",
        "time": "2010-01-12T12:54:44+00:00",
        "bearing": -115.5,
        "range": 12000.0,
        "sensor_name": "Plain",
        "label": "Cookie SUBJECT held on Plain Cookie"
      }
    },
    {
      "type": "Feature",
      "id": "99934096-9ae9-4a85-b610-38d1304699ce",
      "geometry": null,
      "properties": {
        "kind": "SENSOR_CONTACT",
        "parent_track": "SENSOR",
        "time": "2010-01-12T12:54:59+00:00",
        "bearing": -113.3,
        "range": 12000.0,
        "sensor_name": "Plain",
        "label": "Cookie SUBJECT held on Plain Cookie"
      }
    },
    {
      "type": "Feature",
      "id": "c8dea6f9-7a64-48fd-b1e1-82b6a8380175",
      "geometry": null,
      "properties": {
        "kind": "SENSOR_CONTACT",
        "parent_track": "SENSOR",
        "time": "2010-01-12T12:55:14+00:00",
        "bearing": -111.1,
        "range": 12000.0,
        "sensor_name": "Plain",
        "label": "Cookie SUBJECT held on Plain Cookie"
      }
    },
    {
      "type": "Feature",
      "id": "708d286f-a2b5-4c89-992f-906adc9c77f4",
      "geometry": null,
      "properties": {
        "kind": "SENSOR_CONTACT",
        "parent_track": "SENSOR",
        "time": "2010-01-12T12:55:29+00:00",
        "bearing": -109.0,
        "range": 12000.0,
        "sensor_name": "Plain",
        "label": "Cookie SUBJECT held on Plain Cookie"
      }
    },
    {
      "type": "Feature",
      "id": "82b4a820-21a4-4218-aae3-378757ca31d3",
      "geometry": null,
      "properties": {
        "kind": "SENSOR_CONTACT",
        "parent_track": "SENSOR",
        "time": "2010-01-12T12:55:44+00:00",
        "bearing": -107.0,
        "range": 12000.0,
        "sensor_name": "Plain",
        "label": "Cookie SUBJECT held on Plain Cookie"
      }
    },
    {
      "type": "Feature",
      "id": "cdc50a4c-f596-4294-a882-04719ab11eb1",
      "geometry": null,
      "properties": {
        "kind": "SENSOR_CONTACT",
        "parent_track": "SENSOR",
        "time": "2010-01-12T12:55:59+00:00",
        "bearing": -105.1,
        "range": 12000.0,
        "sensor_name": "Plain",
        "label": "Cookie SUBJECT held on Plain Cookie"
      }
    },
    {
      "type": "Feature",
      "id": "f574144c-441a-41e4-82a5-a1ac8c49a288",
      "geometry": null,
      "properties": {
        "kind": "SENSOR_CONTACT",
        "parent_track": "SENSOR",
        "time": "2010-01-12T12:56:14+00:00",
        "bearing": -103.2,
        "range": 12000.0,
        "sensor_name": "Plain",
        "label": "Cookie SUBJECT held on Plain Cookie"
      }
    },
    {
      "type": "Feature",
      "id": "460987f0-5b75-47d0-b51d-c95f7b08eaca",
      "geometry": null,
      "properties": {
        "kind": "SENSOR_CONTACT",
        "parent_track": "SENSOR",
        "time": "2010-01-12T12:56:29+00:00",
        "bearing": -101.5,
        "range": 12000.0,
        "sensor_name": "Plain",
        "label": "Cookie SUBJECT held on Plain Cookie"
      }
    },
    {
      "type": "Feature",
      "id": "d081e71d-346f-4c0b-b4e2-64042f91c1de",
      "geometry": null,
      "properties": {
        "kind": "SENSOR_CONTACT",
        "parent_track": "SENSOR",
        "time": "2010-01-12T12:56:44+00:00",
        "bearing": -99.8,
        "range": 12000.0,
        "sensor_name": "Plain",
        "label": "Cookie SUBJECT held on Plain Cookie"
      }
    },
    {
      "type": "Feature",
      "id": "884a51fd-94ed-49c8-8aa2-5910508c9e5e",
      "geometry": null,
      "properties": {
        "kind": "SENSOR_CONTACT",
        "parent_track": "SENSOR",
        "time": "2010-01-12T12:56:59+00:00",
        "bearing": -98.2,
        "range": 12000.0,
        "sensor_name": "Plain",
        "label": "Cookie SUBJECT held on Plain Cookie"
      }
    },
    {
      "type": "Feature",
      "id": "a14007c2-7904-48b2-a768-0c23ad814f2a",
      "geometry": null,
      "properties": {
        "kind": "SENSOR_CONTACT",
        "parent_track": "SENSOR",
        "time": "2010-01-12T12:57:14+00:00",
        "bearing": -96.7,
        "range": 12000.0,
        "sensor_name": "Plain",
        "label": "Cookie SUBJECT held on Plain Cookie"
      }
    },
    {
      "type": "Feature",
      "id": "24647d55-08a9-42db-8f7f-e44530f05f90",
      "geometry": null,
      "properties": {
        "kind": "SENSOR_CONTACT",
        "parent_track": "SENSOR",
        "time": "2010-01-12T12:57:29+00:00",
        "bearing": -95.2,
        "range": 12000.0,
        "sensor_name": "Plain",
        "label": "Cookie SUBJECT held on Plain Cookie"
      }
    },
    {
      "type": "Feature",
      "id": "8aa263bb-f8fb-4ac9-8373-ae3b0d6db411",
      "geometry": null,
      "properties": {
        "kind": "SENSOR_CONTACT",
        "parent_track": "SENSOR",
        "time": "2010-01-12T12:57:44+00:00",
        "bearing": -93.8,
        "range": 12000.0,
        "sensor_name": "Plain",
        "label": "Cookie SUBJECT held on Plain Cookie"
      }
    },
    {
      "type": "Feature",
      "id": "b1455614-32c2-4695-93a7-39da5ea9a9e7",
      "geometry": null,
      "properties": {
        "kind": "SENSOR_CONTACT",
        "parent_track": "SENSOR",
        "time": "2010-01-12T12:57:59+00:00",
        "bearing": -92.5,
        "range": 12000.0,
        "sensor_name": "Plain",
        "label": "Cookie SUBJECT held on Plain Cookie"
      }
    },
    {
      "type": "Feature",
      "id": "37ec0946-9b3e-4955-893f-c65e55434d4b",
      "geometry": null,
      "properties": {
        "kind": "SENSOR_CONTACT",
        "parent_track": "SENSOR",
        "time": "2010-01-12T12:58:14+00:00",
        "bearing": -91.2,
        "range": 12000.0,
        "sensor_name": "Plain",
        "label": "Cookie SUBJECT held on Plain Cookie"
      }
    },
    {
      "type": "Feature",
      "id": "6dd964d1-3a18-4b20-8519-6da531e76b2e",
      "geometry": null,
      "properties": {
        "kind": "SENSOR_CONTACT",
        "parent_track": "SENSOR",
        "time": "2010-01-12T12:58:29+00:00",
        "bearing": -90.0,
        "range": 12000.0,
        "sensor_name": "Plain",
        "label": "Cookie SUBJECT held on Plain Cookie"
      }
    },
    {
      "type": "Feature",
      "id": "66e5eb0c-6e38-47ca-80f3-a7e7349186da",
      "geometry": null,
      "properties": {
        "kind": "SENSOR_CONTACT",
        "parent_track": "SENSOR",
        "time": "2010-01-12T12:58:44+00:00",
        "bearing": -88.8,
        "range": 12000.0,
        "sensor_name": "Plain",
        "label": "Cookie SUBJECT held on Plain Cookie"
      }
    },
    {
      "type": "Feature",
      "id": "6992803b-65d2-481f-ac54-5ed3ad4c78cd",
      "geometry": null,
      "properties": {
        "kind": "SENSOR_CONTACT",
        "parent_track": "SENSOR",
        "time": "2010-01-12T12:58:59+00:00",
        "bearing": -87.7,
        "range": 12000.0,
        "sensor_name": "Plain",
        "label": "Cookie SUBJECT held on Plain Cookie"
      }
    },
    {
      "type": "Feature",
      "id": "29d4a194-310b-4114-9f4b-aac8bd3f55a5",
      "geometry": null,
      "properties": {
        "kind": "SENSOR_CONTACT",
        "parent_track": "SENSOR",
        "time": "2010-01-12T12:59:14+00:00",
        "bearing": -86.7,
        "range": 12000.0,
        "sensor_name": "Plain",
        "label": "Cookie SUBJECT held on Plain Cookie"
      }
    },
    {
      "type": "Feature",
      "id": "1f7191c2-2c67-4e31-ae8f-352e28931350",
      "geometry": null,
      "properties": {
        "kind": "SENSOR_CONTACT",
        "parent_track": "SENSOR",
        "time": "2010-01-12T12:59:29+00:00",
        "bearing": -85.7,
        "range": 12000.0,
        "sensor_name": "Plain",
        "label": "Cookie SUBJECT held on Plain Cookie"
      }
    },
    {
      "type": "Feature",
      "id": "94901a95-b120-44a2-b8e4-c9dca42fb59c",
      "geometry": null,
      "properties": {
        "kind": "SENSOR_CONTACT",
        "parent_track": "SENSOR",
        "time": "2010-01-12T12:59:44+00:00",
        "bearing": -84.7,
        "range": 12000.0,
        "sensor_name": "Plain",
        "label": "Cookie SUBJECT held on Plain Cookie"
      }
    },
    {
      "type": "Feature",
      "id": "fa5a55cd-1ef0-4756-b7d7-ffba67906bd9",
      "geometry": null,
      "properties": {
        "kind": "SENSOR_CONTACT",
        "parent_track": "SENSOR",
        "time": "2010-01-12T12:59:59+00:00",
        "bearing": -83.8,
        "range": 12000.0,
        "sensor_name": "Plain",
        "label": "Cookie SUBJECT held on Plain Cookie"
      }
    },
    {
      "type": "Feature",
      "id": "9d983364-44ef-4bff-8199-0f1fcdf77b6a",
      "geometry": null,
      "properties": {
        "kind": "SENSOR_CONTACT",
        "parent_track": "SENSOR",
        "time": "2010-01-12T13:00:14+00:00",
        "bearing": -82.9,
        "range": 12000.0,
        "sensor_name": "Plain",
        "label": "Cookie SUBJECT held on Plain Cookie"
      }
    },
    {
      "type": "Feature",
      "id": "25d956cb-8704-4a00-a6eb-c58fb16d7f82",
      "geometry": null,
      "properties": {
        "kind": "SENSOR_CONTACT",
        "parent_track": "SENSOR",
        "time": "2010-01-12T13:00:29+00:00",
        "bearing": -82.0,
        "range": 12000.0,
        "sensor_name": "Plain",
        "label": "Cookie SUBJECT held on Plain Cookie"
      }
    },
    {
      "type": "Feature",
      "id": "868a2231-7c15-4d38-a4dd-7c3f51b4a0fa",
      "geometry": null,
      "properties": {
        "kind": "SENSOR_CONTACT",
        "parent_track": "SENSOR",
        "time": "2010-01-12T13:00:44+00:00",
        "bearing": -81.2,
        "range": 12000.0,
        "sensor_name": "Plain",
        "label": "Cookie SUBJECT held on Plain Cookie"
      }
    },
    {
      "type": "Feature",
      "id": "3d829cc3-9d8c-4b5a-932e-a5a472c864fe",
      "geometry": null,
      "properties": {
        "kind": "SENSOR_CONTACT",
        "parent_track": "SENSOR",
        "time": "2010-01-12T13:00:59+00:00",
        "bearing": -80.5,
        "range": 12000.0,
        "sensor_name": "Plain",
        "label": "Cookie SUBJECT held on Plain Cookie"
      }
    },
    {
      "type": "Feature",
      "id": "1f5260c5-1506-4b0c-b603-f4ac1d635fb5",
      "geometry": null,
      "properties": {
        "kind": "SENSOR_CONTACT",
        "parent_track": "SENSOR",
        "time": "2010-01-12T13:01:14+00:00",
        "bearing": -79.7,
        "range": 12000.0,
        "sensor_name": "Plain",
        "label": "Cookie SUBJECT held on Plain Cookie"
      }
    },
    {
      "type": "Feature",
      "id": "706463cf-fc45-4a3b-a492-728e9c8b7d9b",
      "geometry": null,
      "properties": {
        "kind": "SENSOR_CONTACT",
        "parent_track": "SENSOR",
        "time": "2010-01-12T13:01:29+00:00",
        "bearing": -79.0,
        "range": 12000.0,
        "sensor_name": "Plain",
        "label": "Cookie SUBJECT held on Plain Cookie"
      }
    },
    {
      "type": "Feature",
      "id": "79127443-4b7a-4e2e-93d9-44169c7445e4",
      "geometry": null,
      "properties": {
        "kind": "SENSOR_CONTACT",
        "parent_track": "SENSOR",
        "time": "2010-01-12T13:01:44+00:00",
        "bearing": -78.3,
        "range": 12000.0,
        "sensor_name": "Plain",
        "label": "Cookie SUBJECT held on Plain Cookie"
      }
    },
    {
      "type": "Feature",
      "id": "a2aa9f56-49e5-4792-9604-0fed54bbfac4",
      "geometry": null,
      "properties": {
        "kind": "SENSOR_CONTACT",
        "parent_track": "SENSOR",
        "time": "2010-01-12T13:01:59+00:00",
        "bearing": -77.7,
        "range": 12000.0,
        "sensor_name": "Plain",
        "label": "Cookie SUBJECT held on Plain Cookie"
      }
    },
    {
      "type": "Feature",
      "id": "1b66cd32-b1c6-4523-b14c-07e4ac29e552",
      "geometry": null,
      "properties": {
        "kind": "SENSOR_CONTACT",
        "parent_track": "SENSOR",
        "time": "2010-01-12T13:02:14+00:00",
        "bearing": -77.1,
        "range": 12000.0,
        "sensor_name": "Plain",
        "label": "Cookie SUBJECT held on Plain Cookie"
      }
    },
    {
      "type": "Feature",
      "id": "d5b32f0a-7298-4a61-a1fd-bb3c95ed4bc3",
      "geometry": null,
      "properties": {
        "kind": "SENSOR_CONTACT",
        "parent_track": "SENSOR",
        "time": "2010-01-12T13:02:29+00:00",
        "bearing": -76.4,
        "range": 12000.0,
        "sensor_name": "Plain",
        "label": "Cookie SUBJECT held on Plain Cookie"
      }
    },
    {
      "type": "Feature",
      "id": "daa1ef9e-e737-42e0-abc9-6364fa01c421",
      "geometry": null,
      "properties": {
        "kind": "SENSOR_CONTACT",
        "parent_track": "SENSOR",
        "time": "2010-01-12T13:02:44+00:00",
        "bearing": -75.9,
        "range": 12000.0,
        "sensor_name": "Plain",
        "label": "Cookie SUBJECT held on Plain Cookie"
      }
    },
    {
      "type": "Feature",
      "id": "41d06206-fc55-449e-8912-64380823091c",
      "geometry": null,
      "properties": {
        "kind": "SENSOR_CONTACT",
        "parent_track": "SENSOR",
        "time": "2010-01-12T13:02:59+00:00",
        "bearing": -75.3,
        "range": 12000.0,
        "sensor_name": "Plain",
        "label": "Cookie SUBJECT held on Plain Cookie"
      }
    },
    {
      "type": "Feature",
      "id": "b5aaaa49-d972-4eaa-8530-5da93076ef1a",
      "geometry": null,
      "properties": {
        "kind": "SENSOR_CONTACT",
        "parent_track": "SENSOR",
        "time": "2010-01-12T13:03:14+00:00",
        "bearing": -74.8,
        "range": 12000.0,
        "sensor_name": "Plain",
        "label": "Cookie SUBJECT held on Plain Cookie"
      }
    },
    {
      "type": "Feature",
      "id": "7c86e051-a38d-4240-b791-2f9693b9bce2",
      "geometry": null,
      "properties": {
        "kind": "SENSOR_CONTACT",
        "parent_track": "SENSOR",
        "time": "2010-01-12T13:03:29+00:00",
        "bearing": -74.2,
        "range": 12000.0,
        "sensor_name": "Plain",
        "label": "Cookie SUBJECT held on Plain Cookie"
      }
    },
    {
      "type": "Feature",
      "id": "8f66c630-1570-4518-88d6-8eafd8507997",
      "geometry": null,
      "properties": {
        "kind": "SENSOR_CONTACT",
        "parent_track": "SENSOR",
        "time": "2010-01-12T13:03:44+00:00",
        "bearing": -73.7,
        "range": 12000.0,
        "sensor_name": "Plain",
        "label": "Cookie SUBJECT held on Plain Cookie"
      }
    },
    {
      "type": "Feature",
      "id": "52228ae3-c857-4ea3-81ac-9491ab28dcf4",
      "geometry": null,
      "properties": {
        "kind": "SENSOR_CONTACT",
        "parent_track": "SENSOR",
        "time": "2010-01-12T13:03:59+00:00",
        "bearing": -73.3,
        "range": 12000.0,
        "sensor_name": "Plain",
        "label": "Cookie SUBJECT held on Plain Cookie"
      }
    },
    {
      "type": "Feature",
      "id": "737499f7-88d0-4495-b0fa-d6dd8d0bc179",
      "geometry": null,
      "properties": {
        "kind": "SENSOR_CONTACT",
        "parent_track": "SENSOR",
        "time": "2010-01-12T13:04:14+00:00",
        "bearing": -72.8,
        "range": 12000.0,
        "sensor_name": "Plain",
        "label": "Cookie SUBJECT held on Plain Cookie"
      }
    },
    {
      "type": "Feature",
      "id": "63a8e013-a0e1-4886-a4bb-0b231dcf1400",
      "geometry": null,
      "properties": {
        "kind": "SENSOR_CONTACT",
        "parent_track": "SENSOR",
        "time": "2010-01-12T13:04:29+00:00",
        "bearing": -72.4,
        "range": 12000.0,
        "sensor_name": "Plain",
        "label": "Cookie SUBJECT held on Plain Cookie"
      }
    },
    {
      "type": "Feature",
      "id": "69a4ab99-8270-4a5b-9d57-aade9f90339a",
      "geometry": null,
      "properties": {
        "kind": "SENSOR_CONTACT",
        "parent_track": "SENSOR",
        "time": "2010-01-12T13:04:44+00:00",
        "bearing": -71.9,
        "range": 12000.0,
        "sensor_name": "Plain",
        "label": "Cookie SUBJECT held on Plain Cookie"
      }
    },
    {
      "type": "Feature",
      "id": "8f30d475-0f3b-40be-92c9-6cbb79ad6906",
      "geometry": null,
      "properties": {
        "kind": "SENSOR_CONTACT",
        "parent_track": "SENSOR",
        "time": "2010-01-12T13:04:59+00:00",
        "bearing": -71.5,
        "range": 12000.0,
        "sensor_name": "Plain",
        "label": "Cookie SUBJECT held on Plain Cookie"
      }
    },
    {
      "type": "Feature",
      "id": "50ac2218-e828-429a-b068-377997ecc7d6",
      "geometry": null,
      "properties": {
        "kind": "SENSOR_CONTACT",
        "parent_track": "SENSOR",
        "time": "2010-01-12T13:05:14+00:00",
        "bearing": -71.1,
        "range": 12000.0,
        "sensor_name": "Plain",
        "label": "Cookie SUBJECT held on Plain Cookie"
      }
    },
    {
      "type": "Feature",
      "id": "fb9bdb2b-6378-4c3a-98c5-ada8973cebbb",
      "geometry": null,
      "properties": {
        "kind": "SENSOR_CONTACT",
        "parent_track": "SENSOR",
        "time": "2010-01-12T13:05:29+00:00",
        "bearing": -70.7,
        "range": 12000.0,
        "sensor_name": "Plain",
        "label": "Cookie SUBJECT held on Plain Cookie"
      }
    },
    {
      "type": "Feature",
      "id": "8c5add19-083d-40e8-839d-dc8623dc5a50",
      "geometry": null,
      "properties": {
        "kind": "SENSOR_CONTACT",
        "parent_track": "SENSOR",
        "time": "2010-01-12T13:05:44+00:00",
        "bearing": -70.3,
        "range": 12000.0,
        "sensor_name": "Plain",
        "label": "Cookie SUBJECT held on Plain Cookie"
      }
    },
    {
      "type": "Feature",
      "id": "bb8fd739-37cf-4187-a5c8-f438d8c46f65",
      "geometry": null,
      "properties": {
        "kind": "SENSOR_CONTACT",
        "parent_track": "SENSOR",
        "time": "2010-01-12T13:05:59+00:00",
        "bearing": -70.0,
        "range": 12000.0,
        "sensor_name": "Plain",
        "label": "Cookie SUBJECT held on Plain Cookie"
      }
    },
    {
      "type": "Feature",
      "id": "95bba386-7b4e-4857-a108-51ecddcfccdb",
      "geometry": null,
      "properties": {
        "kind": "SENSOR_CONTACT",
        "parent_track": "SENSOR",
        "time": "2010-01-12T13:06:14+00:00",
        "bearing": -69.6,
        "range": 12000.0,
        "sensor_name": "Plain",
        "label": "Cookie SUBJECT held on Plain Cookie"
      }
    },
    {
      "type": "Feature",
      "id": "9e24195b-0a0e-44cc-a330-10d293748cf1",
      "geometry": null,
      "properties": {
        "kind": "SENSOR_CONTACT",
        "parent_track": "SENSOR",
        "time": "2010-01-12T13:06:29+00:00",
        "bearing": -69.3,
        "range": 12000.0,
        "sensor_name": "Plain",
        "label": "Cookie SUBJECT held on Plain Cookie"
      }
    },
    {
      "type": "Feature",
      "id": "effa73ce-8f93-4bbc-b065-25e997465c25",
      "geometry": null,
      "properties": {
        "kind": "SENSOR_CONTACT",
        "parent_track": "SENSOR",
        "time": "2010-01-12T13:06:44+00:00",
        "bearing": -68.9,
        "range": 12000.0,
        "sensor_name": "Plain",
        "label": "Cookie SUBJECT held on Plain Cookie"
      }
    },
    {
      "type": "Feature",
      "id": "4e4e8858-88bc-4d43-a288-24020ad34e49",
      "geometry": null,
      "properties": {
        "kind": "SENSOR_CONTACT",
        "parent_track": "SENSOR",
        "time": "2010-01-12T13:06:59+00:00",
        "bearing": -68.6,
        "range": 12000.0,
        "sensor_name": "Plain",
        "label": "Cookie SUBJECT held on Plain Cookie"
      }
    },
    {
      "type": "Feature",
      "id": "98f82806-e150-41cf-8d2b-9072d5658854",
      "geometry": null,
      "properties": {
        "kind": "SENSOR_CONTACT",
        "parent_track": "SENSOR",
        "time": "2010-01-12T13:07:14+00:00",
        "bearing": -68.3,
        "range": 12000.0,
        "sensor_name": "Plain",
        "label": "Cookie SUBJECT held on Plain Cookie"
      }
    },
    {
      "type": "Feature",
      "id": "5eae6df0-856a-4067-b2ca-84a4b363116f",
      "geometry": null,
      "properties": {
        "kind": "SENSOR_CONTACT",
        "parent_track": "SENSOR",
        "time": "2010-01-12T13:07:29+00:00",
        "bearing": -68.0,
        "range": 12000.0,
        "sensor_name": "Plain",
        "label": "Cookie SUBJECT held on Plain Cookie"
      }
    },
    {
      "type": "Feature",
      "id": "600b75b1-8ae4-4b8a-b813-d8f51c106958",
      "geometry": null,
      "properties": {
        "kind": "SENSOR_CONTACT",
        "parent_track": "SENSOR",
        "time": "2010-01-12T13:07:44+00:00",
        "bearing": -67.7,
        "range": 12000.0,
        "sensor_name": "Plain",
        "label": "Cookie SUBJECT held on Plain Cookie"
      }
    },
    {
      "type": "Feature",
      "id": "a69b2add-f01d-4258-822e-9f5587ec7df4",
      "geometry": null,
      "properties": {
        "kind": "SENSOR_CONTACT",
        "parent_track": "SENSOR",
        "time": "2010-01-12T13:07:59+00:00",
        "bearing": -67.4,
        "range": 12000.0,
        "sensor_name": "Plain",
        "label": "Cookie SUBJECT held on Plain Cookie"
      }
    },
    {
      "type": "Feature",
      "id": "9982bb1a-4bd5-45a6-9dc0-081584c402d8",
      "geometry": null,
      "properties": {
        "kind": "SENSOR_CONTACT",
        "parent_track": "SENSOR",
        "time": "2010-01-12T13:08:14+00:00",
        "bearing": -67.1,
        "range": 12000.0,
        "sensor_name": "Plain",
        "label": "Cookie SUBJECT held on Plain Cookie"
      }
    },
    {
      "type": "Feature",
      "id": "6a62d6d7-d19d-464e-9878-a56cf0e886aa",
      "geometry": null,
      "properties": {
        "kind": "SENSOR_CONTACT",
        "parent_track": "SENSOR",
        "time": "2010-01-12T13:08:29+00:00",
        "bearing": -66.8,
        "range": 12000.0,
        "sensor_name": "Plain",
        "label": "Cookie SUBJECT held on Plain Cookie"
      }
    },
    {
      "type": "Feature",
      "id": "70fad815-dbdc-45d6-b63e-7a71ce34ddc0",
      "geometry": null,
      "properties": {
        "kind": "SENSOR_CONTACT",
        "parent_track": "SENSOR",
        "time": "2010-01-12T13:08:44+00:00",
        "bearing": -66.6,
        "range": 12000.0,
        "sensor_name": "Plain",
        "label": "Cookie SUBJECT held on Plain Cookie"
      }
    },
    {
      "type": "Feature",
      "id": "36f8b1f7-9c5d-476e-a5b4-338a1697904b",
      "geometry": null,
      "properties": {
        "kind": "SENSOR_CONTACT",
        "parent_track": "SENSOR",
        "time": "2010-01-12T13:08:59+00:00",
        "bearing": -66.3,
        "range": 12000.0,
        "sensor_name": "Plain",
        "label": "Cookie SUBJECT held on Plain Cookie"
      }
    },
    {
      "type": "Feature",
      "id": "11127615-2ade-4309-bb1e-7da0fabbc061",
      "geometry": null,
      "properties": {
        "kind": "SENSOR_CONTACT",
        "parent_track": "SENSOR",
        "time": "2010-01-12T13:09:14+00:00",
        "bearing": -66.1,
        "range": 12000.0,
        "sensor_name": "Plain",
        "label": "Cookie SUBJECT held on Plain Cookie"
      }
    },
    {
      "type": "Feature",
      "id": "d044a90b-77f3-4501-8f83-79b08681dc20",
      "geometry": null,
      "properties": {
        "kind": "SENSOR_CONTACT",
        "parent_track": "SENSOR",
        "time": "2010-01-12T13:09:29+00:00",
        "bearing": -65.8,
        "range": 12000.0,
        "sensor_name": "Plain",
        "label": "Cookie SUBJECT held on Plain Cookie"
      }
    },
    {
      "type": "Feature",
      "id": "da4e15dd-486b-4665-8a56-7028bb11b1cc",
      "geometry": null,
      "properties": {
        "kind": "SENSOR_CONTACT",
        "parent_track": "SENSOR",
        "time": "2010-01-12T13:09:44+00:00",
        "bearing": -65.6,
        "range": 12000.0,
        "sensor_name": "Plain",
        "label": "Cookie SUBJECT held on Plain Cookie"
      }
    },
    {
      "type": "Feature",
      "id": "3144bfc2-205d-48e5-a311-5a9dafd20f90",
      "geometry": null,
      "properties": {
        "kind": "SENSOR_CONTACT",
        "parent_track": "SENSOR",
        "time": "2010-01-12T13:09:59+00:00",
        "bearing": -65.4,
        "range": 12000.0,
        "sensor_name": "Plain",
        "label": "Cookie SUBJECT held on Plain Cookie"
      }
    },
    {
      "type": "Feature",
      "id": "07f5b1e0-faf1-4d19-8ba9-49c2d8856ccf",
      "geometry": null,
      "properties": {
        "kind": "SENSOR_CONTACT",
        "parent_track": "SENSOR",
        "time": "2010-01-12T13:10:14+00:00",
        "bearing": -65.1,
        "range": 12000.0,
        "sensor_name": "Plain",
        "label": "Cookie SUBJECT held on Plain Cookie"
      }
    },
    {
      "type": "Feature",
      "id": "0d72b8f8-d70b-4078-8c87-8a8e4c1cb496",
      "geometry": null,
      "properties": {
        "kind": "SENSOR_CONTACT",
        "parent_track": "SENSOR",
        "time": "2010-01-12T13:10:29+00:00",
        "bearing": -64.9,
        "range": 12000.0,
        "sensor_name": "Plain",
        "label": "Cookie SUBJECT held on Plain Cookie"
      }
    },
    {
      "type": "Feature",
      "id": "d2abaa89-7fb0-411a-a542-0651588ded1c",
      "geometry": null,
      "properties": {
        "kind": "SENSOR_CONTACT",
        "parent_track": "SENSOR",
        "time": "2010-01-12T13:10:44+00:00",
        "bearing": -64.7,
        "range": 12000.0,
        "sensor_name": "Plain",
        "label": "Cookie SUBJECT held on Plain Cookie"
      }
    },
    {
      "type": "Feature",
      "id": "40604797-1541-445d-b9ec-9c86449f9951",
      "geometry": null,
      "properties": {
        "kind": "SENSOR_CONTACT",
        "parent_track": "SENSOR",
        "time": "2010-01-12T13:10:59+00:00",
        "bearing": -64.5,
        "range": 12000.0,
        "sensor_name": "Plain",
        "label": "Cookie SUBJECT held on Plain Cookie"
      }
    },
    {
      "type": "Feature",
      "id": "303dc166-31d0-41f8-bc40-fb0ce3626f06",
      "geometry": null,
      "properties": {
        "kind": "SENSOR_CONTACT",
        "parent_track": "SENSOR",
        "time": "2010-01-12T13:11:14+00:00",
        "bearing": -64.3,
        "range": 12000.0,
        "sensor_name": "Plain",
        "label": "Cookie SUBJECT held on Plain Cookie"
      }
    },
    {
      "type": "Feature",
      "id": "d0880089-9273-46c8-a82e-e1ce8d3d059c",
      "geometry": null,
      "properties": {
        "kind": "SENSOR_CONTACT",
        "parent_track": "SENSOR",
        "time": "2010-01-12T13:11:29+00:00",
        "bearing": -64.1,
        "range": 12000.0,
        "sensor_name": "Plain",
        "label": "Cookie SUBJECT held on Plain Cookie"
      }
    },
    {
      "type": "Feature",
      "id": "4c91e99b-e3b8-4256-9e01-e25666b84df3",
      "geometry": null,
      "properties": {
        "kind": "SENSOR_CONTACT",
        "parent_track": "SENSOR",
        "time": "2010-01-12T13:11:44+00:00",
        "bearing": -63.9,
        "range": 12000.0,
        "sensor_name": "Plain",
        "label": "Cookie SUBJECT held on Plain Cookie"
      }
    },
    {
      "type": "Feature",
      "id": "68274ac3-c3cb-40c9-aa49-5200e166f5e0",
      "geometry": null,
      "properties": {
        "kind": "SENSOR_CONTACT",
        "parent_track": "SENSOR",
        "time": "2010-01-12T13:11:59+00:00",
        "bearing": -63.7,
        "range": 12000.0,
        "sensor_name": "Plain",
        "label": "Cookie SUBJECT held on Plain Cookie"
      }
    },
    {
      "type": "Feature",
      "id": "24a543fc-b74d-468d-b9cc-02ea266f8e1d",
      "geometry": null,
      "properties": {
        "kind": "SENSOR_CONTACT",
        "parent_track": "SENSOR",
        "time": "2010-01-12T13:12:14+00:00",
        "bearing": -63.5,
        "range": 12000.0,
        "sensor_name": "Plain",
        "label": "Cookie SUBJECT held on Plain Cookie"
      }
    },
    {
      "type": "Feature",
      "id": "0e0b766f-b01e-47b9-b301-48483549b82e",
      "geometry": null,
      "properties": {
        "kind": "SENSOR_CONTACT",
        "parent_track": "SENSOR",
        "time": "2010-01-12T13:12:29+00:00",
        "bearing": -63.4,
        "range": 12000.0,
        "sensor_name": "Plain",
        "label": "Cookie SUBJECT held on Plain Cookie"
      }
    },
    {
      "type": "Feature",
      "id": "c36a3e1e-9192-499f-8fd7-1eda97f28f58",
      "geometry": null,
      "properties": {
        "kind": "SENSOR_CONTACT",
        "parent_track": "SENSOR",
        "time": "2010-01-12T13:12:44+00:00",
        "bearing": -63.2,
        "range": 12000.0,
        "sensor_name": "Plain",
        "label": "Cookie SUBJECT held on Plain Cookie"
      }
    },
    {
      "type": "Feature",
      "id": "4bd20ec6-2852-49ce-a31b-7fcceaa02ff5",
      "geometry": null,
      "properties": {
        "kind": "SENSOR_CONTACT",
        "parent_track": "SENSOR",
        "time": "2010-01-12T13:12:59+00:00",
        "bearing": -63.0,
        "range": 12000.0,
        "sensor_name": "Plain",
        "label": "Cookie SUBJECT held on Plain Cookie"
      }
    },
    {
      "type": "Feature",
      "id": "805665f6-c7a5-4912-aecd-e9e33f56aa28",
      "geometry": null,
      "properties": {
        "kind": "SENSOR_CONTACT",
        "parent_track": "SENSOR",
        "time": "2010-01-12T13:13:14+00:00",
        "bearing": -62.8,
        "range": 12000.0,
        "sensor_name": "Plain",
        "label": "Cookie SUBJECT held on Plain Cookie"
      }
    }
  ]
}