{
  "type": "FeatureCollection",
  "features": [
    {
      "type": "Feature",
      "id": "2fd1d921-1b74-4bd8-a0fa-13b71d18bfb4",
      "geometry": null,
      "properties": {
        "kind": "SENSOR_CONTACT",
        "parent_track": "New_SSK",
        "time": "1970-01-03T03:05:25+00:00",
        "bearing": -85.0,
        "range": 0.0,
        "sensor_name": "New_SSK_BB",
        "label": "some message"
      }
    },
    {
      "type": "Feature",
      "id": "7be738ef-18eb-4b28-83a2-844f0dd88688",
      "geometry": null,
      "properties": {
        "kind": "SENSOR_CONTACT",
        "parent_track": "New_SSK",
        "time": "1970-01-03T03:06:25+00:00",
        "bearing": -85.0,
        "range": 0.0,
        "sensor_name": "New_SSK_BB",
        "label": "some message"
      }
    },
    {
      "type": "Feature",
      "id": "f5434f7a-cf63-49a6-9d05-91a6428a1dde",
      "geometry": null,
      "properties": {
        "kind": "SENSOR_CONTACT",
        "parent_track": "New_SSK",
        "time": "1970-01-03T03:07:25+00:00",
        "bearing": -85.0,
        "range": 0.0,
        "sensor_name": "New_SSK_BB",
        "label": "some message"
      }
    },
    {
      "type": "Feature",
      "id": "e037f6bc-0223-4c39-a1be-e2dfacc1e1f0",
      "geometry": null,
      "properties": {
        "kind": "SENSOR_CONTACT",
        "parent_track": "New_SSK",
        "time": "1970-01-03T03:08:25+00:00",
        "bearing": -85.0,
        "range": 0.0,
        "sensor_name": "New_SSK_BB",
        "label": "some message"
      }
    },
    {
      "type": "Feature",
      "id": "1d1a477b-a5fa-43e1-9a01-b2a0691a6cc0",
      "geometry": null,
      "properties": {
        "kind": "SENSOR_CONTACT",
        "parent_track": "New_SSK",
        "time": "1970-01-03T03:09:25+00:00",
        "bearing": -85.0,
        "range": 0.0,
        "sensor_name": "New_SSK_BB",
        "label": "some message"
      }
    },
    {
      "type": "Feature",
      "id": "0fbb2c7f-0623-48e9-9846-a4da1ca2a82e",
      "geometry": null,
      "properties": {
        "kind": "SENSOR_CONTACT",
        "parent_track": "New_SSK",
        "time": "1970-01-03T03:10:25+00:00",
        "bearing": -86.0,
        "range": 0.0,
        "sensor_name": "New_SSK_BB",
        "label": "some message"
      }
    },
    {
      "type": "Feature",
      "id": "a5776dfc-bdb8-4295-990c-cbd90a8f3943",
      "geometry": null,
      "properties": {
        "kind": "SENSOR_CONTACT",
        "parent_track": "New_SSK",
        "time": "1970-01-03T03:11:25+00:00",
        "bearing": -86.0,
        "range": 0.0,
        "sensor_name": "New_SSK_BB",
        "label": "some message"
      }
    },
    {
      "type": "Feature",
      "id": "c04f7aa1-09d3-4e0f-9b91-d39f8e7b97fa",
      "geometry": null,
      "properties": {
        "kind": "SENSOR_CONTACT",
        "parent_track": "New_SSK",
        "time": "1970-01-03T03:12:25+00:00",
        "bearing": -86.0,
        "range": 0.0,
        "sensor_name": "New_SSK_BB",
        "label": "some message"
      }
    },
    {
      "type": "Feature",
      "id": "160d08a1-43f5-40ee-965f-b0665259162e",
      "geometry": null,
      "properties": {
        "kind": "SENSOR_CONTACT",
        "parent_track": "New_SSK",
        "time": "1970-01-03T03:13:25+00:00",
        "bearing": -87.0,
        "range": 0.0,
        "sensor_name": "New_SSK_BB",
        "label": "some message"
      }
    },
    {
      "type": "Feature",
      "id": "3d0b3a30-cdcd-465f-b698-02c05c3ba21a",
      "geometry": null,
      "properties": {
        "kind": "SENSOR_CONTACT",
        "parent_track": "New_SSK",
        "time": "1970-01-03T03:14:25+00:00",
        "bearing": -87.0,
        "range": 0.0,
        "sensor_name": "New_SSK_BB",
        "label": "some message"
      }
    },
    {
      "type": "Feature",
      "id": "dfb024ae-a6cd-4905-a870-a0084c911195",
      "geometry": null,
      "properties": {
        "kind": "SENSOR_CONTACT",
        "parent_track": "New_SSK",
        "time": "1970-01-03T03:15:25+00:00",
        "bearing": -87.0,
        "range": 0.0,
        "sensor_name": "New_SSK_BB",
        "label": "some message"
      }
    },
    {
      "type": "Feature",
      "id": "c2ae63f1-d0d8-49d6-ad1b-79b95a97d896",
      "geometry": null,
      "properties": {
        "kind": "SENSOR_CONTACT",
        "parent_track": "New_SSK",
        "time": "1970-01-03T03:16:25+00:00",
        "bearing": -88.0,
        "range": 0.0,
        "sensor_name": "New_SSK_BB",
        "label": "some message"
      }
    },
    {
      "type": "Feature",
      "id": "4fbd57f0-e507-40ac-90ab-ce4d0c5d8844",
      "geometry": null,
      "properties": {
        "kind": "SENSOR_CONTACT",
        "parent_track": "New_SSK",
        "time": "1970-01-03T03:17:25+00:00",
        "bearing": -88.0,
        "range": 0.0,
        "sensor_name": "New_SSK_BB",
        "label": "some message"
      }
    },
    {
      "type": "Feature",
      "id": "2ff82bc9-38b0-438c-99f1-5946d4df5729",
      "geometry": null,
      "properties": {
        "kind": "SENSOR_CONTACT",
        "parent_track": "New_SSK",
        "time": "1970-01-03T03:18:25+00:00",
        "bearing": -89.0,
        "range": 0.0,
        "sensor_name": "New_SSK_BB",
        "label": "some message"
      }
    },
    {
      "type": "Feature",
      "id": "9c2092ec-8f48-4661-aefa-35d2625219f4",
      "geometry": null,
      "properties": {
        "kind": "SENSOR_CONTACT",
        "parent_track": "New_SSK",
        "time": "1970-01-03T03:19:25+00:00",
        "bearing": -89.0,
        "range": 0.0,
        "sensor_name": "New_SSK_BB",
        "label": "some message"
      }
    }
  ]
}