{
  "type": "FeatureCollection",
  "features": [
    {
      "type": "Feature",
      "id": "642dd74c-ea74-4395-bcf2-07841072cdf7",
      "geometry": {
        "type": "LineString",
        "coordinates": [
          [
            51.364580555555555,
            26.454141666666665
          ],
          [
            51.366483333333335,
            26.451275
          ],
          [
            51.368383333333334,
            26.44841111111111
          ],
          [
            51.37028611111111,
            26.445544444444444
          ],
          [
            51.37218888888889,
            26.442680555555555
          ],
          [
            51.374091666666665,
            26.43981388888889
          ],
          [
            51.375994444444444,
            26.436947222222223
          ],
          [
            51.37789444444444,
            26.434083333333334
          ],
          [
            51.37979722222222,
            26.431216666666668
          ],
          [
            51.3817,
            26.42835277777778
          ],
          [
            51.383602777777774,
            26.425486111111113
          ],
          [
            51.38550277777778,
            26.422622222222223
          ],
          [
            51.38740555555555,
            26.419755555555557
          ],
          [
            51.38930833333333,
            26.416891666666668
          ],
          [
            51.39120833333333,
            26.414025
          ],
          [
            51.39311111111111,
            26.41116111111111
          ],
          [
            51.39501388888889,
            26.408294444444444
          ],
          [
            51.39691388888889,
            26.405430555555554
          ],
          [
            51.39881666666667,
            26.40256388888889
          ],
          [
            51.40071666666667,
            26.3997
          ],
          [
            51.40261944444444,
            26.396833333333333
          ],
          [
            51.404519444444446,
            26.393969444444444
          ],
          [
            51.40642222222222,
            26.39110277777778
          ],
          [
            51.40832222222222,
            26.38823888888889
          ],
          [
            51.410225,
            26.385372222222223
          ],
          [
            51.412124999999996,
            26.382508333333334
          ],
          [
            51.414027777777775,
            26.379641666666668
          ],
          [
            51.415927777777775,
            26.37677777777778
          ],
          [
            51.417830555555554,
            26.373911111111113
          ],
          [
            51.41973055555555,
            26.371047222222224
          ],
          [
            51.42163055555555,
            26.368180555555558
          ],
          [
            51.42353333333333,
            26.36531666666667
          ],
          [
            51.42543333333333,
            26.362450000000003
          ],
          [
            51.42733333333333,
            26.359586111111113
          ],
          [
            51.42923611111111,
            26.356719444444447
          ],
          [
            51.43113611111111,
            26.35385555555556
          ],
          [
            51.43303611111111,
            26.35098888888889
          ],
          [
            51.43493888888889,
            26.34812222222222
          ],
          [
            51.436838888888886,
            26.345258333333334
          ],
          [
            51.438738888888885,
            26.342391666666664
          ],
          [
            51.440638888888884,
            26.339527777777775
          ],
          [
            51.44253888888888,
            26.33666111111111
          ],
          [
            51.44444166666666,
            26.33379722222222
          ],
          [
            51.44634166666666,
            26.330930555555554
          ],
          [
            51.44824166666666,
            26.328066666666665
          ],
          [
            51.45014166666667,
            26.3252
          ],
          [
            51.452041666666666,
            26.32233611111111
          ],
          [
            51.45394166666667,
            26.319469444444444
          ],
          [
            51.45584166666667,
            26.316605555555558
          ],
          [
            51.45774166666667,
            26.31373888888889
          ],
          [
            51.45964166666667,
            26.310875
          ],
          [
            51.46154166666667,
            26.308008333333333
          ],
          [
            51.46344166666667,
            26.305144444444444
          ],
          [
            51.46534166666667,
            26.30227777777778
          ],
          [
            51.467241666666666,
            26.29941388888889
          ],
          [
            51.469141666666665,
            26.296547222222223
          ],
          [
            51.47104166666667,
            26.293683333333334
          ],
          [
            51.47294166666667,
            26.290816666666668
          ],
          [
            51.47484166666667,
            26.28795277777778
          ],
          [
            51.47674166666667,
            26.285086111111113
          ],
          [
            51.47864166666667,
            26.28222222222222
          ],
          [
            51.48054166666667,
            26.279355555555554
          ],
          [
            51.482441666666666,
            26.276491666666665
          ],
          [
            51.48433888888889,
            26.273625
          ],
          [
            51.48623888888889,
            26.27076111111111
          ],
          [
            51.48813888888889,
            26.267894444444444
          ],
          [
            51.49003888888889,
            26.265030555555555
          ],
          [
            51.49193888888889,
            26.26216388888889
          ],
          [
            51.493836111111115,
            26.259297222222223
          ],
          [
            51.495736111111114,
            26.256433333333334
          ],
          [
            51.49763611111111,
            26.253566666666668
          ],
          [
            51.500302777777776,
            26.251297222222224
          ],
          [
            51.50341111111111,
            26.24948888888889
          ],
          [
            51.506658333333334,
            26.247866666666667
          ],
          [
            51.509902777777775,
            26.246241666666666
          ],
          [
            51.51315,
            26.244619444444446
          ],
          [
            51.516394444444444,
            26.242994444444445
          ],
          [
            51.519641666666665,
            26.241372222222225
          ],
          [
            51.52288611111111,
            26.239747222222224
          ],
          [
            51.526133333333334,
            26.238125
          ],
          [
            51.529377777777775,
            26.23650277777778
          ],
          [
            51.532624999999996,
            26.23487777777778
          ],
          [
            51.535869444444444,
            26.233255555555555
          ],
          [
            51.539116666666665,
            26.231630555555554
          ],
          [
            51.542361111111106,
            26.23000833333333
          ],
          [
            51.545605555555554,
            26.228383333333333
          ],
          [
            51.548852777777775,
            26.22676111111111
          ],
          [
            51.55209722222222,
            26.22513611111111
          ],
          [
            51.55534166666666,
            26.22351388888889
          ],
          [
            51.558588888888885,
            26.221891666666664
          ],
          [
            51.56183333333333,
            26.220266666666664
          ],
          [
            51.56507777777777,
            26.218644444444443
          ],
          [
            51.56832222222223,
            26.217019444444443
          ],
          [
            51.57156944444445,
            26.215397222222222
          ],
          [
            51.57481388888889,
            26.21377222222222
          ],
          [
            51.57805833333334,
            26.212149999999998
          ],
          [
            51.58130277777778,
            26.210527777777777
          ],
          [
            51.58454722222223,
            26.208902777777777
          ],
          [
            51.58779444444445,
            26.207280555555556
          ],
          [
            51.59103888888889,
            26.205655555555555
          ],
          [
            51.59428333333334,
            26.20403333333333
          ],
          [
            51.59752777777778,
            26.20240833333333
          ],
          [
            51.600772222222226,
            26.20078611111111
          ],
          [
            51.604016666666666,
            26.19916388888889
          ],
          [
            51.607261111111114,
            26.19753888888889
          ],
          [
            51.610505555555555,
            26.195916666666665
          ],
          [
            51.61375,
            26.19429166666667
          ],
          [
            51.616994444444444,
            26.192669444444444
          ],
          [
            51.62023888888889,
            26.191044444444444
          ],
          [
            51.62348333333333,
            26.189422222222223
          ],
          [
            51.62672777777778,
            26.187797222222223
          ],
          [
            51.62997222222222,
            26.186175
          ],
          [
            51.63321666666667,
            26.18455277777778
          ],
          [
            51.63646111111111,
            26.182927777777778
          ],
          [
            51.63970555555556,
            26.181305555555557
          ],
          [
            51.64295,
            26.179680555555557
          ],
          [
            51.64619444444445,
            26.178058333333336
          ],
          [
            51.64943611111111,
            26.176433333333335
          ],
          [
            51.652680555555555,
            26.17481111111111
          ],
          [
            51.655924999999996,
            26.17318888888889
          ],
          [
            51.659169444444444,
            26.17156388888889
          ],
          [
            51.662413888888885,
            26.169941666666666
          ],
          [
            51.66565555555555,
            26.16831666666667
          ],
          [
            51.6689,
            26.166694444444445
          ],
          [
            51.67214444444444,
            26.165069444444445
          ],
          [
            51.67538888888889,
            26.16344722222222
          ],
          [
            51.67863055555555,
            26.16182222222222
          ],
          [
            51.681875,
            26.1602
          ],
          [
            51.68511944444444,
            26.158577777777776
          ],
          [
            51.68836111111111,
            26.156952777777775
          ],
          [
            51.691605555555554,
            26.155330555555555
          ],
          [
            51.694849999999995,
            26.153705555555554
          ],
          [
            51.69809166666666,
            26.152083333333334
          ],
          [
            51.70133611111111,
            26.150458333333333
          ],
          [
            51.70457777777778,
            26.14883611111111
          ],
          [
            51.70782222222223,
            26.14721388888889
          ],
          [
            51.711063888888894,
            26.145588888888888
          ],
          [
            51.714308333333335,
            26.143966666666667
          ],
          [
            51.71755,
            26.142341666666667
          ],
          [
            51.720794444444444,
            26.140719444444443
          ],
          [
            51.72403611111111,
            26.139094444444446
          ],
          [
            51.72728055555556,
            26.13747222222222
          ],
          [
            51.73052222222223,
            26.135849999999998
          ],
          [
            51.73376666666667,
            26.134225
          ],
          [
            51.737008333333335,
            26.132602777777777
          ],
          [
            51.74025,
            26.13097777777778
          ],
          [
            51.743494444444444,
            26.129355555555556
          ],
          [
            51.74673611111111,
            26.127730555555555
          ],
          [
            51.74997777777778,
            26.126108333333335
          ],
          [
            51.75322222222222,
            26.124483333333334
          ],
          [
            51.75646388888889,
            26.12286111111111
          ],
          [
            51.759705555555556,
            26.12123888888889
          ],
          [
            51.76295,
            26.11961388888889
          ],
          [
            51.766191666666664,
            26.11799166666667
          ],
          [
            51.76943333333333,
            26.116366666666668
          ],
          [
            51.772675,
            26.114744444444447
          ],
          [
            51.77591944444444,
            26.113119444444447
          ],
          [
            51.77916111111111,
            26.111497222222223
          ],
          [
            51.782402777777776,
            26.109875000000002
          ],
          [
            51.78564444444444,
            26.10825
          ],
          [
            51.78888611111111,
            26.106627777777778
          ],
          [
            51.79212777777778,
            26.10500277777778
          ],
          [
            51.79537222222222,
            26.103380555555557
          ],
          [
            51.79861388888889,
            26.101755555555556
          ]
        ]
      },
      "properties": {
        "kind": "TRACK",
        "platform_id": "Frigate",
        "platform_name": "Frigate",
        "track_type": "CONTACT",
        "start_time": "1970-01-03T01:34:25+00:00",
        "end_time": "1970-01-03T04:17:25+00:00",
        "positions": [
          {
            "time": "1970-01-03T01:34:25+00:00",
            "course": 149.3,
            "speed": 12.0,
            "depth": 0.0
          },
          {
            "time": "1970-01-03T01:35:25+00:00",
            "course": 149.3,
            "speed": 12.0,
            "depth": 0.0
          },
          {
            "time": "1970-01-03T01:36:25+00:00",
            "course": 149.3,
            "speed": 12.0,
            "depth": 0.0
          },
          {
            "time": "1970-01-03T01:37:25+00:00",
            "course": 149.3,
            "speed": 12.0,
            "depth": 0.0
          },
          {
            "time": "1970-01-03T01:38:25+00:00",
            "course": 149.3,
            "speed": 12.0,
            "depth": 0.0
          },
          {
            "time": "1970-01-03T01:39:25+00:00",
            "course": 149.3,
            "speed": 12.0,
            "depth": 0.0
          },
          {
            "time": "1970-01-03T01:40:25+00:00",
            "course": 149.3,
            "speed": 12.0,
            "depth": 0.0
          },
          {
            "time": "1970-01-03T01:41:25+00:00",
            "course": 149.3,
            "speed": 12.0,
            "depth": 0.0
          },
          {
            "time": "1970-01-03T01:42:25+00:00",
            "course": 149.3,
            "speed": 12.0,
            "depth": 0.0
          },
          {
            "time": "1970-01-03T01:43:25+00:00",
            "course": 149.3,
            "speed": 12.0,
            "depth": 0.0
          },
          {
            "time": "1970-01-03T01:44:25+00:00",
            "course": 149.3,
            "speed": 12.0,
            "depth": 0.0
          },
          {
            "time": "1970-01-03T01:45:25+00:00",
            "course": 149.3,
            "speed": 12.0,
            "depth": 0.0
          },
          {
            "time": "1970-01-03T01:46:25+00:00",
            "course": 149.3,
            "speed": 12.0,
            "depth": 0.0
          },
          {
            "time": "1970-01-03T01:47:25+00:00",
            "course": 149.3,
            "speed": 12.0,
            "depth": 0.0
          },
          {
            "time": "1970-01-03T01:48:25+00:00",
            "course": 149.3,
            "speed": 12.0,
            "depth": 0.0
          },
          {
            "time": "1970-01-03T01:49:25+00:00",
            "course": 149.3,
            "speed": 12.0,
            "depth": 0.0
          },
          {
            "time": "1970-01-03T01:50:25+00:00",
            "course": 149.3,
            "speed": 12.0,
            "depth": 0.0
          },
          {
            "time": "1970-01-03T01:51:25+00:00",
            "course": 149.3,
            "speed": 12.0,
            "depth": 0.0
          },
          {
            "time": "1970-01-03T01:52:25+00:00",
            "course": 149.3,
            "speed": 12.0,
            "depth": 0.0
          },
          {
            "time": "1970-01-03T01:53:25+00:00",
            "course": 149.3,
            "speed": 12.0,
            "depth": 0.0
          },
          {
            "time": "1970-01-03T01:54:25+00:00",
            "course": 149.3,
            "speed": 12.0,
            "depth": 0.0
          },
          {
            "time": "1970-01-03T01:55:25+00:00",
            "course": 149.3,
            "speed": 12.0,
            "depth": 0.0
          },
          {
            "time": "1970-01-03T01:56:25+00:00",
            "course": 149.3,
            "speed": 12.0,
            "depth": 0.0
          },
          {
            "time": "1970-01-03T01:57:25+00:00",
            "course": 149.3,
            "speed": 12.0,
            "depth": 0.0
          },
          {
            "time": "1970-01-03T01:58:25+00:00",
            "course": 149.3,
            "speed": 12.0,
            "depth": 0.0
          },
          {
            "time": "1970-01-03T01:59:25+00:00",
            "course": 149.3,
            "speed": 12.0,
            "depth": 0.0
          },
          {
            "time": "1970-01-03T02:00:25+00:00",
            "course": 149.3,
            "speed": 12.0,
            "depth": 0.0
          },
          {
            "time": "1970-01-03T02:01:25+00:00",
            "course": 149.3,
            "speed": 12.0,
            "depth": 0.0
          },
          {
            "time": "1970-01-03T02:02:25+00:00",
            "course": 149.3,
            "speed": 12.0,
            "depth": 0.0
          },
          {
            "time": "1970-01-03T02:03:25+00:00",
            "course": 149.3,
            "speed": 12.0,
            "depth": 0.0
          },
          {
            "time": "1970-01-03T02:04:25+00:00",
            "course": 149.3,
            "speed": 12.0,
            "depth": 0.0
          },
          {
            "time": "1970-01-03T02:05:25+00:00",
            "course": 149.3,
            "speed": 12.0,
            "depth": 0.0
          },
          {
            "time": "1970-01-03T02:06:25+00:00",
            "course": 149.3,
            "speed": 12.0,
            "depth": 0.0
          },
          {
            "time": "1970-01-03T02:07:25+00:00",
            "course": 149.3,
            "speed": 12.0,
            "depth": 0.0
          },
          {
            "time": "1970-01-03T02:08:25+00:00",
            "course": 149.3,
            "speed": 12.0,
            "depth": 0.0
          },
          {
            "time": "1970-01-03T02:09:25+00:00",
            "course": 149.3,
            "speed": 12.0,
            "depth": 0.0
          },
          {
            "time": "1970-01-03T02:10:25+00:00",
            "course": 149.3,
            "speed": 12.0,
            "depth": 0.0
          },
          {
            "time": "1970-01-03T02:11:25+00:00",
            "course": 149.3,
            "speed": 12.0,
            "depth": 0.0
          },
          {
            "time": "1970-01-03T02:12:25+00:00",
            "course": 149.3,
            "speed": 12.0,
            "depth": 0.0
          },
          {
            "time": "1970-01-03T02:13:25+00:00",
            "course": 149.3,
            "speed": 12.0,
            "depth": 0.0
          },
          {
            "time": "1970-01-03T02:14:25+00:00",
            "course": 149.3,
            "speed": 12.0,
            "depth": 0.0
          },
          {
            "time": "1970-01-03T02:15:25+00:00",
            "course": 149.3,
            "speed": 12.0,
            "depth": 0.0
          },
          {
            "time": "1970-01-03T02:16:25+00:00",
            "course": 149.3,
            "speed": 12.0,
            "depth": 0.0
          },
          {
            "time": "1970-01-03T02:17:25+00:00",
            "course": 149.3,
            "speed": 12.0,
            "depth": 0.0
          },
          {
            "time": "1970-01-03T02:18:25+00:00",
            "course": 149.3,
            "speed": 12.0,
            "depth": 0.0
          },
          {
            "time": "1970-01-03T02:19:25+00:00",
            "course": 149.3,
            "speed": 12.0,
            "depth": 0.0
          },
          {
            "time": "1970-01-03T02:20:25+00:00",
            "course": 149.3,
            "speed": 12.0,
            "depth": 0.0
          },
          {
            "time": "1970-01-03T02:21:25+00:00",
            "course": 149.3,
            "speed": 12.0,
            "depth": 0.0
          },
          {
            "time": "1970-01-03T02:22:25+00:00",
            "course": 149.3,
            "speed": 12.0,
            "depth": 0.0
          },
          {
            "time": "1970-01-03T02:23:25+00:00",
            "course": 149.3,
            "speed": 12.0,
            "depth": 0.0
          },
          {
            "time": "1970-01-03T02:24:25+00:00",
            "course": 149.3,
            "speed": 12.0,
            "depth": 0.0
          },
          {
            "time": "1970-01-03T02:25:25+00:00",
            "course": 149.3,
            "speed": 12.0,
            "depth": 0.0
          },
          {
            "time": "1970-01-03T02:26:25+00:00",
            "course": 149.3,
            "speed": 12.0,
            "depth": 0.0
          },
          {
            "time": "1970-01-03T02:27:25+00:00",
            "course": 149.3,
            "speed": 12.0,
            "depth": 0.0
          },
          {
            "time": "1970-01-03T02:28:25+00:00",
            "course": 149.3,
            "speed": 12.0,
            "depth": 0.0
          },
          {
            "time": "1970-01-03T02:29:25+00:00",
            "course": 149.3,
            "speed": 12.0,
            "depth": 0.0
          },
          {
            "time": "1970-01-03T02:30:25+00:00",
            "course": 149.3,
            "speed": 12.0,
            "depth": 0.0
          },
          {
            "time": "1970-01-03T02:31:25+00:00",
            "course": 149.3,
            "speed": 12.0,
            "depth": 0.0
          },
          {
            "time": "1970-01-03T02:32:25+00:00",
            "course": 149.3,
            "speed": 12.0,
            "depth": 0.0
          },
          {
            "time": "1970-01-03T02:33:25+00:00",
            "course": 149.3,
            "speed": 12.0,
            "depth": 0.0
          },
          {
            "time": "1970-01-03T02:34:25+00:00",
            "course": 149.3,
            "speed": 12.0,
            "depth": 0.0
          },
          {
            "time": "1970-01-03T02:35:25+00:00",
            "course": 149.3,
            "speed": 12.0,
            "depth": 0.0
          },
          {
            "time": "1970-01-03T02:36:25+00:00",
            "course": 149.3,
            "speed": 12.0,
            "depth": 0.0
          },
          {
            "time": "1970-01-03T02:37:25+00:00",
            "course": 149.3,
            "speed": 12.0,
            "depth": 0.0
          },
          {
            "time": "1970-01-03T02:38:25+00:00",
            "course": 149.3,
            "speed": 12.0,
            "depth": 0.0
          },
          {
            "time": "1970-01-03T02:39:25+00:00",
            "course": 149.3,
            "speed": 12.0,
            "depth": 0.0
          },
          {
            "time": "1970-01-03T02:40:25+00:00",
            "course": 149.3,
            "speed": 12.0,
            "depth": 0.0
          },
          {
            "time": "1970-01-03T02:41:25+00:00",
            "course": 149.3,
            "speed": 12.0,
            "depth": 0.0
          },
          {
            "time": "1970-01-03T02:42:25+00:00",
            "course": 149.3,
            "speed": 12.0,
            "depth": 0.0
          },
          {
            "time": "1970-01-03T02:43:25+00:00",
            "course": 149.3,
            "speed": 12.0,
            "depth": 0.0
          },
          {
            "time": "1970-01-03T02:44:25+00:00",
            "course": 149.3,
            "speed": 12.0,
            "depth": 0.0
          },
          {
            "time": "1970-01-03T02:45:25+00:00",
            "course": 129.2,
            "speed": 12.0,
            "depth": 0.0
          },
          {
            "time": "1970-01-03T02:46:25+00:00",
            "course": 122.5,
            "speed": 12.0,
            "depth": 0.0
          },
          {
            "time": "1970-01-03T02:47:25+00:00",
            "course": 119.1,
            "speed": 12.0,
            "depth": 0.0
          },
          {
            "time": "1970-01-03T02:48:25+00:00",
            "course": 119.1,
            "speed": 12.0,
            "depth": 0.0
          },
          {
            "time": "1970-01-03T02:49:25+00:00",
            "course": 119.1,
            "speed": 12.0,
            "depth": 0.0
          },
          {
            "time": "1970-01-03T02:50:25+00:00",
            "course": 119.1,
            "speed": 12.0,
            "depth": 0.0
          },
          {
            "time": "1970-01-03T02:51:25+00:00",
            "course": 119.1,
            "speed": 12.0,
            "depth": 0.0
          },
          {
            "time": "1970-01-03T02:52:25+00:00",
            "course": 119.1,
            "speed": 12.0,
            "depth": 0.0
          },
          {
            "time": "1970-01-03T02:53:25+00:00",
            "course": 119.1,
            "speed": 12.0,
            "depth": 0.0
          },
          {
            "time": "1970-01-03T02:54:25+00:00",
            "course": 119.1,
            "speed": 12.0,
            "depth": 0.0
          },
          {
            "time": "1970-01-03T02:55:25+00:00",
            "course": 119.1,
            "speed": 12.0,
            "depth": 0.0
          },
          {
            "time": "1970-01-03T02:56:25+00:00",
            "course": 119.1,
            "speed": 12.0,
            "depth": 0.0
          },
          {
            "time": "1970-01-03T02:57:25+00:00",
            "course": 119.1,
            "speed": 12.0,
            "depth": 0.0
          },
          {
            "time": "1970-01-03T02:58:25+00:00",
            "course": 119.1,
            "speed": 12.0,
            "depth": 0.0
          },
          {
            "time": "1970-01-03T02:59:25+00:00",
            "course": 119.1,
            "speed": 12.0,
            "depth": 0.0
          },
          {
            "time": "1970-01-03T03:00:25+00:00",
            "course": 119.1,
            "speed": 12.0,
            "depth": 0.0
          },
          {
            "time": "1970-01-03T03:01:25+00:00",
            "course": 119.1,
            "speed": 12.0,
            "depth": 0.0
          },
          {
            "time": "1970-01-03T03:02:25+00:00",
            "course": 119.1,
            "speed": 12.0,
            "depth": 0.0
          },
          {
            "time": "1970-01-03T03:03:25+00:00",
            "course": 119.1,
            "speed": 12.0,
            "depth": 0.0
          },
          {
            "time": "1970-01-03T03:04:25+00:00",
            "course": 119.1,
            "speed": 12.0,
            "depth": 0.0
          },
          {
            "time": "1970-01-03T03:05:25+00:00",
            "course": 119.1,
            "speed": 12.0,
            "depth": 0.0
          },
          {
            "time": "1970-01-03T03:06:25+00:00",
            "course": 119.1,
            "speed": 12.0,
            "depth": 0.0
          },
          {
            "time": "1970-01-03T03:07:25+00:00",
            "course": 119.1,
            "speed": 12.0,
            "depth": 0.0
          },
          {
            "time": "1970-01-03T03:08:25+00:00",
            "course": 119.1,
            "speed": 12.0,
            "depth": 0.0
          },
          {
            "time": "1970-01-03T03:09:25+00:00",
            "course": 119.1,
            "speed": 12.0,
            "depth": 0.0
          },
          {
            "time": "1970-01-03T03:10:25+00:00",
            "course": 119.1,
            "speed": 12.0,
            "depth": 0.0
          },
          {
            "time": "1970-01-03T03:11:25+00:00",
            "course": 119.1,
            "speed": 12.0,
            "depth": 0.0
          },
          {
            "time": "1970-01-03T03:12:25+00:00",
            "course": 119.1,
            "speed": 12.0,
            "depth": 0.0
          },
          {
            "time": "1970-01-03T03:13:25+00:00",
            "course": 119.1,
            "speed": 12.0,
            "depth": 0.0
          },
          {
            "time": "1970-01-03T03:14:25+00:00",
            "course": 119.1,
            "speed": 12.0,
            "depth": 0.0
          },
          {
            "time": "1970-01-03T03:15:25+00:00",
            "course": 119.1,
            "speed": 12.0,
            "depth": 0.0
          },
          {
            "time": "1970-01-03T03:16:25+00:00",
            "course": 119.1,
            "speed": 12.0,
            "depth": 0.0
          },
          {
            "time": "1970-01-03T03:17:25+00:00",
            "course": 119.1,
            "speed": 12.0,
            "depth": 0.0
          },
          {
            "time": "1970-01-03T03:18:25+00:00",
            "course": 119.1,
            "speed": 12.0,
            "depth": 0.0
          },
          {
            "time": "1970-01-03T03:19:25+00:00",
            "course": 119.1,
            "speed": 12.0,
            "depth": 0.0
          },
          {
            "time": "1970-01-03T03:20:25+00:00",
            "course": 119.1,
            "speed": 12.0,
            "depth": 0.0
          },
          {
            "time": "1970-01-03T03:21:25+00:00",
            "course": 119.1,
            "speed": 12.0,
            "depth": 0.0
          },
          {
            "time": "1970-01-03T03:22:25+00:00",
            "course": 119.1,
            "speed": 12.0,
            "depth": 0.0
          },
          {
            "time": "1970-01-03T03:23:25+00:00",
            "course": 119.1,
            "speed": 12.0,
            "depth": 0.0
          },
          {
            "time": "1970-01-03T03:24:25+00:00",
            "course": 119.1,
            "speed": 12.0,
            "depth": 0.0
          },
          {
            "time": "1970-01-03T03:25:25+00:00",
            "course": 119.1,
            "speed": 12.0,
            "depth": 0.0
          },
          {
            "time": "1970-01-03T03:26:25+00:00",
            "course": 119.1,
            "speed": 12.0,
            "depth": 0.0
          },
          {
            "time": "1970-01-03T03:27:25+00:00",
            "course": 119.1,
            "speed": 12.0,
            "depth": 0.0
          },
          {
            "time": "1970-01-03T03:28:25+00:00",
            "course": 119.1,
            "speed": 12.0,
            "depth": 0.0
          },
          {
            "time": "1970-01-03T03:29:25+00:00",
            "course": 119.1,
            "speed": 12.0,
            "depth": 0.0
          },
          {
            "time": "1970-01-03T03:30:25+00:00",
            "course": 119.1,
            "speed": 12.0,
            "depth": 0.0
          },
          {
            "time": "1970-01-03T03:31:25+00:00",
            "course": 119.1,
            "speed": 12.0,
            "depth": 0.0
          },
          {
            "time": "1970-01-03T03:32:25+00:00",
            "course": 119.1,
            "speed": 12.0,
            "depth": 0.0
          },
          {
            "time": "1970-01-03T03:33:25+00:00",
            "course": 119.1,
            "speed": 12.0,
            "depth": 0.0
          },
          {
            "time": "1970-01-03T03:34:25+00:00",
            "course": 119.1,
            "speed": 12.0,
            "depth": 0.0
          },
          {
            "time": "1970-01-03T03:35:25+00:00",
            "course": 119.1,
            "speed": 12.0,
            "depth": 0.0
          },
          {
            "time": "1970-01-03T03:36:25+00:00",
            "course": 119.1,
            "speed": 12.0,
            "depth": 0.0
          },
          {
            "time": "1970-01-03T03:37:25+00:00",
            "course": 119.1,
            "speed": 12.0,
            "depth": 0.0
          },
          {
            "time": "1970-01-03T03:38:25+00:00",
            "course": 119.1,
            "speed": 12.0,
            "depth": 0.0
          },
          {
            "time": "1970-01-03T03:39:25+00:00",
            "course": 119.1,
            "speed": 12.0,
            "depth": 0.0
          },
          {
            "time": "1970-01-03T03:40:25+00:00",
            "course": 119.1,
            "speed": 12.0,
            "depth": 0.0
          },
          {
            "time": "1970-01-03T03:41:25+00:00",
            "course": 119.1,
            "speed": 12.0,
            "depth": 0.0
          },
          {
            "time": "1970-01-03T03:42:25+00:00",
            "course": 119.1,
            "speed": 12.0,
            "depth": 0.0
          },
          {
            "time": "1970-01-03T03:43:25+00:00",
            "course": 119.1,
            "speed": 12.0,
            "depth": 0.0
          },
          {
            "time": "1970-01-03T03:44:25+00:00",
            "course": 119.1,
            "speed": 12.0,
            "depth": 0.0
          },
          {
            "time": "1970-01-03T03:45:25+00:00",
            "course": 119.1,
            "speed": 12.0,
            "depth": 0.0
          },
          {
            "time": "1970-01-03T03:46:25+00:00",
            "course": 119.1,
            "speed": 12.0,
            "depth": 0.0
          },
          {
            "time": "1970-01-03T03:47:25+00:00",
            "course": 119.1,
            "speed": 12.0,
            "depth": 0.0
          },
          {
            "time": "1970-01-03T03:48:25+00:00",
            "course": 119.1,
            "speed": 12.0,
            "depth": 0.0
          },
          {
            "time": "1970-01-03T03:49:25+00:00",
            "course": 119.1,
            "speed": 12.0,
            "depth": 0.0
          },
          {
            "time": "1970-01-03T03:50:25+00:00",
            "course": 119.1,
            "speed": 12.0,
            "depth": 0.0
          },
          {
            "time": "1970-01-03T03:51:25+00:00",
            "course": 119.1,
            "speed": 12.0,
            "depth": 0.0
          },
          {
            "time": "1970-01-03T03:52:25+00:00",
            "course": 119.1,
            "speed": 12.0,
            "depth": 0.0
          },
          {
            "time": "1970-01-03T03:53:25+00:00",
            "course": 119.1,
            "speed": 12.0,
            "depth": 0.0
          },
          {
            "time": "1970-01-03T03:54:25+00:00",
            "course": 119.1,
            "speed": 12.0,
            "depth": 0.0
          },
          {
            "time": "1970-01-03T03:55:25+00:00",
            "course": 119.1,
            "speed": 12.0,
            "depth": 0.0
          },
          {
            "time": "1970-01-03T03:56:25+00:00",
            "course": 119.1,
            "speed": 12.0,
            "depth": 0.0
          },
          {
            "time": "1970-01-03T03:57:25+00:00",
            "course": 119.1,
            "speed": 12.0,
            "depth": 0.0
          },
          {
            "time": "1970-01-03T03:58:25+00:00",
            "course": 119.1,
            "speed": 12.0,
            "depth": 0.0
          },
          {
            "time": "1970-01-03T03:59:25+00:00",
            "course": 119.1,
            "speed": 12.0,
            "depth": 0.0
          },
          {
            "time": "1970-01-03T04:00:25+00:00",
            "course": 119.1,
            "speed": 12.0,
            "depth": 0.0
          },
          {
            "time": "1970-01-03T04:01:25+00:00",
            "course": 119.1,
            "speed": 12.0,
            "depth": 0.0
          },
          {
            "time": "1970-01-03T04:02:25+00:00",
            "course": 119.1,
            "speed": 12.0,
            "depth": 0.0
          },
          {
            "time": "1970-01-03T04:03:25+00:00",
            "course": 119.1,
            "speed": 12.0,
            "depth": 0.0
          },
          {
            "time": "1970-01-03T04:04:25+00:00",
            "course": 119.1,
            "speed": 12.0,
            "depth": 0.0
          },
          {
            "time": "1970-01-03T04:05:25+00:00",
            "course": 119.1,
            "speed": 12.0,
            "depth": 0.0
          },
          {
            "time": "1970-01-03T04:06:25+00:00",
            "course": 119.1,
            "speed": 12.0,
            "depth": 0.0
          },
          {
            "time": "1970-01-03T04:07:25+00:00",
            "course": 119.1,
            "speed": 12.0,
            "depth": 0.0
          },
          {
            "time": "1970-01-03T04:08:25+00:00",
            "course": 119.1,
            "speed": 12.0,
            "depth": 0.0
          },
          {
            "time": "1970-01-03T04:09:25+00:00",
            "course": 119.1,
            "speed": 12.0,
            "depth": 0.0
          },
          {
            "time": "1970-01-03T04:10:25+00:00",
            "course": 119.1,
            "speed": 12.0,
            "depth": 0.0
          },
          {
            "time": "1970-01-03T04:11:25+00:00",
            "course": 119.1,
            "speed": 12.0,
            "depth": 0.0
          },
          {
            "time": "1970-01-03T04:12:25+00:00",
            "course": 119.1,
            "speed": 12.0,
            "depth": 0.0
          },
          {
            "time": "1970-01-03T04:13:25+00:00",
            "course": 119.1,
            "speed": 12.0,
            "depth": 0.0
          },
          {
            "time": "1970-01-03T04:14:25+00:00",
            "course": 119.1,
            "speed": 12.0,
            "depth": 0.0
          },
          {
            "time": "1970-01-03T04:15:25+00:00",
            "course": 119.1,
            "speed": 12.0,
            "depth": 0.0
          },
          {
            "time": "1970-01-03T04:16:25+00:00",
            "course": 119.1,
            "speed": 12.0,
            "depth": 0.0
          },
          {
            "time": "1970-01-03T04:17:25+00:00",
            "course": 119.1,
            "speed": 12.0,
            "depth": 0.0
          }
        ],
        "style": {
          "line": {
            "color": "#0000FF"
          },
          "point": {
            "shape": "circle",
            "radius": 3.0,
            "fill_color": "#0000FF",
            "color": "#0000FF"
          }
        },
        "default_position_style": {
          "show_symbol": false,
          "symbol": "circle",
          "show_label": false
        },
        "symbol_interval": "PT10M",
        "label_interval": "PT30M",
        "provenance": [
          {
            "activity_id": "a4c916a8-2270-4c2a-a050-93f4be9cecc8",
            "timestamp": "2026-04-13T23:12:33.668145Z",
            "was_generated_by": {
              "tool": "rep-parser",
              "tool_version": "1.0.0",
              "parameters": []
            },
            "used": [],
            "generated": [
              "642dd74c-ea74-4395-bcf2-07841072cdf7"
            ],
            "execution_duration": "PT0.002195S"
          }
        ]
      }
    },
    {
      "type": "Feature",
      "id": "b86f898d-28cb-4f10-a8a1-c45769c1efec",
      "geometry": {
        "type": "LineString",
        "coordinates": [
          [
            52.06401944444444,
            26.283188888888887
          ],
          [
            52.06070277777778,
            26.281683333333334
          ],
          [
            52.05738611111111,
            26.280177777777777
          ],
          [
            52.05407222222222,
            26.278669444444443
          ],
          [
            52.050755555555554,
            26.27716388888889
          ],
          [
            52.047438888888884,
            26.275658333333332
          ],
          [
            52.04412222222222,
            26.274152777777775
          ],
          [
            52.04080555555555,
            26.272644444444442
          ],
          [
            52.03749166666667,
            26.27113888888889
          ],
          [
            52.034175,
            26.26963333333333
          ],
          [
            52.030858333333335,
            26.268124999999998
          ],
          [
            52.027541666666664,
            26.266619444444444
          ],
          [
            52.024227777777774,
            26.265113888888887
          ],
          [
            52.02091111111111,
            26.263605555555557
          ],
          [
            52.01759444444444,
            26.2621
          ],
          [
            52.01428055555556,
            26.260594444444443
          ],
          [
            52.01096388888889,
            26.25908611111111
          ],
          [
            52.007647222222225,
            26.257580555555556
          ],
          [
            52.004333333333335,
            26.256075
          ],
          [
            52.001016666666665,
            26.254566666666665
          ],
          [
            51.9977,
            26.253061111111112
          ],
          [
            51.99438611111111,
            26.251555555555555
          ],
          [
            51.99106944444445,
            26.25005
          ],
          [
            51.98775555555556,
            26.248541666666668
          ],
          [
            51.98443888888889,
            26.24703611111111
          ],
          [
            51.981125,
            26.245530555555558
          ],
          [
            51.977808333333336,
            26.244022222222224
          ],
          [
            51.974494444444446,
            26.242516666666667
          ],
          [
            51.97117777777778,
            26.241011111111114
          ],
          [
            51.96786388888889,
            26.23950277777778
          ],
          [
            51.96454722222222,
            26.237997222222223
          ],
          [
            51.96123333333334,
            26.236491666666666
          ],
          [
            51.95791944444445,
            26.234983333333336
          ],
          [
            51.95460277777778,
            26.23347777777778
          ],
          [
            51.95128888888889,
            26.231972222222222
          ],
          [
            51.94797222222222,
            26.230463888888888
          ],
          [
            51.94465833333333,
            26.22895833333333
          ],
          [
            51.94134444444444,
            26.227452777777778
          ],
          [
            51.93803055555555,
            26.225944444444444
          ],
          [
            51.934713888888886,
            26.224438888888887
          ],
          [
            51.9314,
            26.22293333333333
          ],
          [
            51.92808611111111,
            26.221425
          ],
          [
            51.92476944444444,
            26.219919444444443
          ],
          [
            51.92145555555555,
            26.218413888888886
          ],
          [
            51.91814166666666,
            26.216905555555552
          ],
          [
            51.914827777777774,
            26.2154
          ],
          [
            51.91151388888889,
            26.213894444444445
          ],
          [
            51.90819722222222,
            26.212386111111112
          ],
          [
            51.90488333333333,
            26.210880555555555
          ],
          [
            51.90156944444444,
            26.209374999999998
          ],
          [
            51.89825555555556,
            26.207866666666664
          ],
          [
            51.89494166666667,
            26.20636111111111
          ],
          [
            51.89162777777778,
            26.204855555555554
          ],
          [
            51.88831388888889,
            26.20334722222222
          ],
          [
            51.885,
            26.201841666666667
          ],
          [
            51.88168611111111,
            26.20033611111111
          ],
          [
            51.878372222222225,
            26.19882777777778
          ],
          [
            51.875058333333335,
            26.197322222222223
          ],
          [
            51.871744444444445,
            26.195816666666666
          ],
          [
            51.868141666666666,
            26.195611111111113
          ],
          [
            51.865494444444444,
            26.197805555555554
          ],
          [
            51.86544722222222,
            26.201044444444445
          ],
          [
            51.866172222222225,
            26.204294444444443
          ],
          [
            51.866511111111116,
            26.207608333333333
          ],
          [
            51.86671388888889,
            26.21093611111111
          ],
          [
            51.865475,
            26.213980555555555
          ],
          [
            51.86216666666667,
            26.21526111111111
          ],
          [
            51.85859166666667,
            26.214447222222223
          ],
          [
            51.85724444444445,
            26.21406111111111
          ],
          [
            51.85606666666667,
            26.21372222222222
          ],
          [
            51.854886111111114,
            26.213380555555556
          ],
          [
            51.85370833333334,
            26.213041666666665
          ],
          [
            51.85252777777778,
            26.212699999999998
          ],
          [
            51.851350000000004,
            26.21236111111111
          ],
          [
            51.85016944444445,
            26.212019444444444
          ],
          [
            51.84899166666667,
            26.211680555555557
          ],
          [
            51.84781388888889,
            26.21133888888889
          ],
          [
            51.84663333333334,
            26.211
          ],
          [
            51.84545555555556,
            26.21065833333333
          ],
          [
            51.844275,
            26.210319444444444
          ],
          [
            51.84309722222223,
            26.209977777777777
          ],
          [
            51.84191944444445,
            26.20963888888889
          ],
          [
            51.84073888888889,
            26.209297222222222
          ],
          [
            51.83956111111112,
            26.20895833333333
          ],
          [
            51.838425,
            26.20853888888889
          ],
          [
            51.83731944444445,
            26.20803611111111
          ],
          [
            51.836311111111115,
            26.20741111111111
          ],
          [
            51.835522222222224,
            26.206563888888887
          ],
          [
            51.83501944444445,
            26.20556111111111
          ],
          [
            51.834836111111116,
            26.204466666666665
          ],
          [
            51.83497222222223,
            26.20337222222222
          ],
          [
            51.83543055555556,
            26.202352777777776
          ],
          [
            51.83591666666667,
            26.201225
          ],
          [
            51.836000000000006,
            26.199919444444443
          ],
          [
            51.83555833333334,
            26.198552777777778
          ],
          [
            51.83453333333333,
            26.19732777777778
          ],
          [
            51.83295555555556,
            26.19648888888889
          ],
          [
            51.831022222222224,
            26.196241666666666
          ],
          [
            51.82894166666667,
            26.196283333333334
          ],
          [
            51.82673333333334,
            26.196391666666667
          ],
          [
            51.824397222222224,
            26.19648888888889
          ],
          [
            51.821938888888894,
            26.196580555555556
          ],
          [
            51.81934722222223,
            26.196661111111112
          ],
          [
            51.816624999999995,
            26.196727777777777
          ],
          [
            51.813763888888886,
            26.19677777777778
          ],
          [
            51.810766666666666,
            26.19681111111111
          ],
          [
            51.80761388888889,
            26.196819444444444
          ],
          [
            51.80430555555555,
            26.19681111111111
          ],
          [
            51.80083333333333,
            26.196769444444445
          ],
          [
            51.79718611111111,
            26.196694444444443
          ],
          [
            51.79335277777778,
            26.196580555555556
          ],
          [
            51.789338888888885,
            26.196416666666668
          ],
          [
            51.785125,
            26.196202777777778
          ],
          [
            51.78069722222222,
            26.195922222222222
          ],
          [
            51.77608611111111,
            26.19557777777778
          ],
          [
            51.77146666666667,
            26.195158333333335
          ],
          [
            51.76685555555555,
            26.194672222222223
          ],
          [
            51.762252777777775,
            26.194116666666666
          ],
          [
            51.75766388888889,
            26.193480555555556
          ],
          [
            51.75308888888889,
            26.19276111111111
          ],
          [
            51.748536111111115,
            26.191947222222222
          ],
          [
            51.74400555555555,
            26.191030555555557
          ],
          [
            51.73950833333333,
            26.18999722222222
          ],
          [
            51.73504722222222,
            26.18883611111111
          ],
          [
            51.73063888888889,
            26.187533333333334
          ],
          [
            51.72629166666667,
            26.186066666666665
          ],
          [
            51.722030555555556,
            26.18441388888889
          ],
          [
            51.71787777777778,
            26.182547222222222
          ],
          [
            51.71387777777778,
            26.180436111111113
          ],
          [
            51.71008055555556,
            26.178036111111112
          ],
          [
            51.70648055555556,
            26.175427777777777
          ],
          [
            51.703208333333336,
            26.172483333333336
          ],
          [
            51.700469444444444,
            26.16913611111111
          ],
          [
            51.69850833333333,
            26.165377777777778
          ],
          [
            51.69763611111111,
            26.16130833333333
          ],
          [
            51.69808611111111,
            26.15741111111111
          ],
          [
            51.69968055555555,
            26.153980555555552
          ],
          [
            51.7021,
            26.151194444444442
          ],
          [
            51.70493888888889,
            26.148988888888887
          ],
          [
            51.70788888888889,
            26.14719722222222
          ],
          [
            51.710858333333334,
            26.14570833333333
          ],
          [
            51.71367777777778,
            26.144302777777778
          ],
          [
            51.71635277777778,
            26.14296111111111
          ],
          [
            51.718900000000005,
            26.14168611111111
          ],
          [
            51.72145277777778,
            26.140405555555557
          ],
          [
            51.72400555555556,
            26.139122222222223
          ],
          [
            51.72656111111111,
            26.137841666666667
          ],
          [
            51.72911388888889,
            26.13656111111111
          ],
          [
            51.73166944444445,
            26.135280555555553
          ],
          [
            51.73422222222222,
            26.134002777777777
          ],
          [
            51.73677777777778,
            26.132722222222224
          ],
          [
            51.739330555555554,
            26.131441666666667
          ],
          [
            51.741886111111114,
            26.13016388888889
          ],
          [
            51.74443888888889,
            26.128883333333334
          ],
          [
            51.74699444444445,
            26.127605555555554
          ],
          [
            51.74955,
            26.126325
          ],
          [
            51.75210277777778,
            26.12504722222222
          ],
          [
            51.75465833333333,
            26.12376666666667
          ],
          [
            51.757333333333335,
            26.12243611111111
          ],
          [
            51.76013611111111,
            26.121036111111113
          ],
          [
            51.763083333333334,
            26.11956388888889
          ],
          [
            51.76618055555556,
            26.118019444444446
          ],
          [
            51.76942222222222,
            26.11639166666667
          ],
          [
            51.772838888888884,
            26.114680555555555
          ]
        ]
      },
      "properties": {
        "kind": "TRACK",
        "platform_id": "New_SSK",
        "platform_name": "New_SSK",
        "track_type": "CONTACT",
        "start_time": "1970-01-03T01:34:25+00:00",
        "end_time": "1970-01-03T04:17:25+00:00",
        "positions": [
          {
            "time": "1970-01-03T01:34:25+00:00",
            "course": 243.1,
            "speed": 12.0,
            "depth": 40.0
          },
          {
            "time": "1970-01-03T01:35:25+00:00",
            "course": 243.1,
            "speed": 12.0,
            "depth": 40.0
          },
          {
            "time": "1970-01-03T01:36:25+00:00",
            "course": 243.1,
            "speed": 12.0,
            "depth": 40.0
          },
          {
            "time": "1970-01-03T01:37:25+00:00",
            "course": 243.1,
            "speed": 12.0,
            "depth": 40.0
          },
          {
            "time": "1970-01-03T01:38:25+00:00",
            "course": 243.1,
            "speed": 12.0,
            "depth": 40.0
          },
          {
            "time": "1970-01-03T01:39:25+00:00",
            "course": 243.1,
            "speed": 12.0,
            "depth": 40.0
          },
          {
            "time": "1970-01-03T01:40:25+00:00",
            "course": 243.1,
            "speed": 12.0,
            "depth": 40.0
          },
          {
            "time": "1970-01-03T01:41:25+00:00",
            "course": 243.1,
            "speed": 12.0,
            "depth": 40.0
          },
          {
            "time": "1970-01-03T01:42:25+00:00",
            "course": 243.1,
            "speed": 12.0,
            "depth": 40.0
          },
          {
            "time": "1970-01-03T01:43:25+00:00",
            "course": 243.1,
            "speed": 12.0,
            "depth": 40.0
          },
          {
            "time": "1970-01-03T01:44:25+00:00",
            "course": 243.1,
            "speed": 12.0,
            "depth": 40.0
          },
          {
            "time": "1970-01-03T01:45:25+00:00",
            "course": 243.1,
            "speed": 12.0,
            "depth": 40.0
          },
          {
            "time": "1970-01-03T01:46:25+00:00",
            "course": 243.1,
            "speed": 12.0,
            "depth": 40.0
          },
          {
            "time": "1970-01-03T01:47:25+00:00",
            "course": 243.1,
            "speed": 12.0,
            "depth": 40.0
          },
          {
            "time": "1970-01-03T01:48:25+00:00",
            "course": 243.1,
            "speed": 12.0,
            "depth": 40.0
          },
          {
            "time": "1970-01-03T01:49:25+00:00",
            "course": 243.1,
            "speed": 12.0,
            "depth": 40.0
          },
          {
            "time": "1970-01-03T01:50:25+00:00",
            "course": 243.1,
            "speed": 12.0,
            "depth": 40.0
          },
          {
            "time": "1970-01-03T01:51:25+00:00",
            "course": 243.1,
            "speed": 12.0,
            "depth": 40.0
          },
          {
            "time": "1970-01-03T01:52:25+00:00",
            "course": 243.1,
            "speed": 12.0,
            "depth": 40.0
          },
          {
            "time": "1970-01-03T01:53:25+00:00",
            "course": 243.1,
            "speed": 12.0,
            "depth": 40.0
          },
          {
            "time": "1970-01-03T01:54:25+00:00",
            "course": 243.1,
            "speed": 12.0,
            "depth": 40.0
          },
          {
            "time": "1970-01-03T01:55:25+00:00",
            "course": 243.1,
            "speed": 12.0,
            "depth": 40.0
          },
          {
            "time": "1970-01-03T01:56:25+00:00",
            "course": 243.1,
            "speed": 12.0,
            "depth": 40.0
          },
          {
            "time": "1970-01-03T01:57:25+00:00",
            "course": 243.1,
            "speed": 12.0,
            "depth": 40.0
          },
          {
            "time": "1970-01-03T01:58:25+00:00",
            "course": 243.1,
            "speed": 12.0,
            "depth": 40.0
          },
          {
            "time": "1970-01-03T01:59:25+00:00",
            "course": 243.1,
            "speed": 12.0,
            "depth": 40.0
          },
          {
            "time": "1970-01-03T02:00:25+00:00",
            "course": 243.1,
            "speed": 12.0,
            "depth": 40.0
          },
          {
            "time": "1970-01-03T02:01:25+00:00",
            "course": 243.1,
            "speed": 12.0,
            "depth": 40.0
          },
          {
            "time": "1970-01-03T02:02:25+00:00",
            "course": 243.1,
            "speed": 12.0,
            "depth": 40.0
          },
          {
            "time": "1970-01-03T02:03:25+00:00",
            "course": 243.1,
            "speed": 12.0,
            "depth": 40.0
          },
          {
            "time": "1970-01-03T02:04:25+00:00",
            "course": 243.1,
            "speed": 12.0,
            "depth": 40.0
          },
          {
            "time": "1970-01-03T02:05:25+00:00",
            "course": 243.1,
            "speed": 12.0,
            "depth": 40.0
          },
          {
            "time": "1970-01-03T02:06:25+00:00",
            "course": 243.1,
            "speed": 12.0,
            "depth": 40.0
          },
          {
            "time": "1970-01-03T02:07:25+00:00",
            "course": 243.1,
            "speed": 12.0,
            "depth": 40.0
          },
          {
            "time": "1970-01-03T02:08:25+00:00",
            "course": 243.1,
            "speed": 12.0,
            "depth": 40.0
          },
          {
            "time": "1970-01-03T02:09:25+00:00",
            "course": 243.1,
            "speed": 12.0,
            "depth": 40.0
          },
          {
            "time": "1970-01-03T02:10:25+00:00",
            "course": 243.1,
            "speed": 12.0,
            "depth": 40.0
          },
          {
            "time": "1970-01-03T02:11:25+00:00",
            "course": 243.1,
            "speed": 12.0,
            "depth": 40.0
          },
          {
            "time": "1970-01-03T02:12:25+00:00",
            "course": 243.1,
            "speed": 12.0,
            "depth": 40.0
          },
          {
            "time": "1970-01-03T02:13:25+00:00",
            "course": 243.1,
            "speed": 12.0,
            "depth": 40.0
          },
          {
            "time": "1970-01-03T02:14:25+00:00",
            "course": 243.1,
            "speed": 12.0,
            "depth": 40.0
          },
          {
            "time": "1970-01-03T02:15:25+00:00",
            "course": 243.1,
            "speed": 12.0,
            "depth": 40.0
          },
          {
            "time": "1970-01-03T02:16:25+00:00",
            "course": 243.1,
            "speed": 12.0,
            "depth": 40.0
          },
          {
            "time": "1970-01-03T02:17:25+00:00",
            "course": 243.1,
            "speed": 12.0,
            "depth": 40.0
          },
          {
            "time": "1970-01-03T02:18:25+00:00",
            "course": 243.1,
            "speed": 12.0,
            "depth": 40.0
          },
          {
            "time": "1970-01-03T02:19:25+00:00",
            "course": 243.1,
            "speed": 12.0,
            "depth": 40.0
          },
          {
            "time": "1970-01-03T02:20:25+00:00",
            "course": 243.1,
            "speed": 12.0,
            "depth": 40.0
          },
          {
            "time": "1970-01-03T02:21:25+00:00",
            "course": 243.1,
            "speed": 12.0,
            "depth": 40.0
          },
          {
            "time": "1970-01-03T02:22:25+00:00",
            "course": 243.1,
            "speed": 12.0,
            "depth": 40.0
          },
          {
            "time": "1970-01-03T02:23:25+00:00",
            "course": 243.1,
            "speed": 12.0,
            "depth": 40.0
          },
          {
            "time": "1970-01-03T02:24:25+00:00",
            "course": 243.1,
            "speed": 12.0,
            "depth": 40.0
          },
          {
            "time": "1970-01-03T02:25:25+00:00",
            "course": 243.1,
            "speed": 12.0,
            "depth": 40.0
          },
          {
            "time": "1970-01-03T02:26:25+00:00",
            "course": 243.1,
            "speed": 12.0,
            "depth": 40.0
          },
          {
            "time": "1970-01-03T02:27:25+00:00",
            "course": 243.1,
            "speed": 12.0,
            "depth": 40.0
          },
          {
            "time": "1970-01-03T02:28:25+00:00",
            "course": 243.1,
            "speed": 12.0,
            "depth": 40.0
          },
          {
            "time": "1970-01-03T02:29:25+00:00",
            "course": 243.1,
            "speed": 12.0,
            "depth": 40.0
          },
          {
            "time": "1970-01-03T02:30:25+00:00",
            "course": 243.1,
            "speed": 12.0,
            "depth": 40.0
          },
          {
            "time": "1970-01-03T02:31:25+00:00",
            "course": 243.1,
            "speed": 12.0,
            "depth": 40.0
          },
          {
            "time": "1970-01-03T02:32:25+00:00",
            "course": 243.1,
            "speed": 12.0,
            "depth": 40.0
          },
          {
            "time": "1970-01-03T02:33:25+00:00",
            "course": 289.6,
            "speed": 12.0,
            "depth": 40.0
          },
          {
            "time": "1970-01-03T02:34:25+00:00",
            "course": 336.0,
            "speed": 12.0,
            "depth": 40.0
          },
          {
            "time": "1970-01-03T02:35:25+00:00",
            "course": 22.5,
            "speed": 12.0,
            "depth": 40.0
          },
          {
            "time": "1970-01-03T02:36:25+00:00",
            "course": 9.6,
            "speed": 12.0,
            "depth": 40.0
          },
          {
            "time": "1970-01-03T02:37:25+00:00",
            "course": 5.3,
            "speed": 12.0,
            "depth": 40.0
          },
          {
            "time": "1970-01-03T02:38:25+00:00",
            "course": 3.1,
            "speed": 12.0,
            "depth": 40.0
          },
          {
            "time": "1970-01-03T02:39:25+00:00",
            "course": 316.7,
            "speed": 12.0,
            "depth": 40.0
          },
          {
            "time": "1970-01-03T02:40:25+00:00",
            "course": 270.2,
            "speed": 12.0,
            "depth": 40.0
          },
          {
            "time": "1970-01-03T02:41:25+00:00",
            "course": 252.2,
            "speed": 12.0,
            "depth": 40.0
          },
          {
            "time": "1970-01-03T02:42:25+00:00",
            "course": 252.2,
            "speed": 4.0,
            "depth": 15.0
          },
          {
            "time": "1970-01-03T02:43:25+00:00",
            "course": 252.2,
            "speed": 4.0,
            "depth": 15.0
          },
          {
            "time": "1970-01-03T02:44:25+00:00",
            "course": 252.2,
            "speed": 4.0,
            "depth": 15.0
          },
          {
            "time": "1970-01-03T02:45:25+00:00",
            "course": 252.2,
            "speed": 4.0,
            "depth": 15.0
          },
          {
            "time": "1970-01-03T02:46:25+00:00",
            "course": 252.2,
            "speed": 4.0,
            "depth": 15.0
          },
          {
            "time": "1970-01-03T02:47:25+00:00",
            "course": 252.2,
            "speed": 4.0,
            "depth": 15.0
          },
          {
            "time": "1970-01-03T02:48:25+00:00",
            "course": 252.2,
            "speed": 4.0,
            "depth": 15.0
          },
          {
            "time": "1970-01-03T02:49:25+00:00",
            "course": 252.2,
            "speed": 4.0,
            "depth": 15.0
          },
          {
            "time": "1970-01-03T02:50:25+00:00",
            "course": 252.2,
            "speed": 4.0,
            "depth": 15.0
          },
          {
            "time": "1970-01-03T02:51:25+00:00",
            "course": 252.2,
            "speed": 4.0,
            "depth": 15.0
          },
          {
            "time": "1970-01-03T02:52:25+00:00",
            "course": 252.2,
            "speed": 4.0,
            "depth": 15.0
          },
          {
            "time": "1970-01-03T02:53:25+00:00",
            "course": 252.2,
            "speed": 4.0,
            "depth": 15.0
          },
          {
            "time": "1970-01-03T02:54:25+00:00",
            "course": 252.2,
            "speed": 4.0,
            "depth": 15.0
          },
          {
            "time": "1970-01-03T02:55:25+00:00",
            "course": 252.2,
            "speed": 4.0,
            "depth": 15.0
          },
          {
            "time": "1970-01-03T02:56:25+00:00",
            "course": 252.2,
            "speed": 4.0,
            "depth": 15.0
          },
          {
            "time": "1970-01-03T02:57:25+00:00",
            "course": 252.2,
            "speed": 4.0,
            "depth": 15.0
          },
          {
            "time": "1970-01-03T02:58:25+00:00",
            "course": 246.1,
            "speed": 4.0,
            "depth": 15.0
          },
          {
            "time": "1970-01-03T02:59:25+00:00",
            "course": 243.1,
            "speed": 4.0,
            "depth": 15.0
          },
          {
            "time": "1970-01-03T03:00:25+00:00",
            "course": 227.6,
            "speed": 4.0,
            "depth": 15.0
          },
          {
            "time": "1970-01-03T03:01:25+00:00",
            "course": 212.2,
            "speed": 4.0,
            "depth": 15.0
          },
          {
            "time": "1970-01-03T03:02:25+00:00",
            "course": 196.7,
            "speed": 4.0,
            "depth": 15.0
          },
          {
            "time": "1970-01-03T03:03:25+00:00",
            "course": 181.2,
            "speed": 4.0,
            "depth": 15.0
          },
          {
            "time": "1970-01-03T03:04:25+00:00",
            "course": 165.7,
            "speed": 4.0,
            "depth": 15.0
          },
          {
            "time": "1970-01-03T03:05:25+00:00",
            "course": 150.2,
            "speed": 4.0,
            "depth": 15.0
          },
          {
            "time": "1970-01-03T03:06:25+00:00",
            "course": 167.3,
            "speed": 4.4,
            "depth": 15.0
          },
          {
            "time": "1970-01-03T03:07:25+00:00",
            "course": 185.8,
            "speed": 4.8,
            "depth": 15.0
          },
          {
            "time": "1970-01-03T03:08:25+00:00",
            "course": 205.9,
            "speed": 5.2,
            "depth": 15.0
          },
          {
            "time": "1970-01-03T03:09:25+00:00",
            "course": 227.6,
            "speed": 5.6,
            "depth": 15.0
          },
          {
            "time": "1970-01-03T03:10:25+00:00",
            "course": 250.8,
            "speed": 6.0,
            "depth": 15.0
          },
          {
            "time": "1970-01-03T03:11:25+00:00",
            "course": 266.9,
            "speed": 6.4,
            "depth": 15.0
          },
          {
            "time": "1970-01-03T03:12:25+00:00",
            "course": 271.6,
            "speed": 6.8,
            "depth": 15.0
          },
          {
            "time": "1970-01-03T03:13:25+00:00",
            "course": 273.3,
            "speed": 7.2,
            "depth": 15.0
          },
          {
            "time": "1970-01-03T03:14:25+00:00",
            "course": 272.9,
            "speed": 7.6,
            "depth": 15.0
          },
          {
            "time": "1970-01-03T03:15:25+00:00",
            "course": 272.5,
            "speed": 8.0,
            "depth": 15.0
          },
          {
            "time": "1970-01-03T03:16:25+00:00",
            "course": 272.1,
            "speed": 8.4,
            "depth": 15.0
          },
          {
            "time": "1970-01-03T03:17:25+00:00",
            "course": 271.7,
            "speed": 8.8,
            "depth": 15.0
          },
          {
            "time": "1970-01-03T03:18:25+00:00",
            "course": 271.2,
            "speed": 9.3,
            "depth": 15.0
          },
          {
            "time": "1970-01-03T03:19:25+00:00",
            "course": 270.7,
            "speed": 9.7,
            "depth": 15.0
          },
          {
            "time": "1970-01-03T03:20:25+00:00",
            "course": 270.2,
            "speed": 10.2,
            "depth": 15.0
          },
          {
            "time": "1970-01-03T03:21:25+00:00",
            "course": 269.7,
            "speed": 10.7,
            "depth": 15.0
          },
          {
            "time": "1970-01-03T03:22:25+00:00",
            "course": 269.2,
            "speed": 11.3,
            "depth": 15.0
          },
          {
            "time": "1970-01-03T03:23:25+00:00",
            "course": 268.6,
            "speed": 11.8,
            "depth": 15.0
          },
          {
            "time": "1970-01-03T03:24:25+00:00",
            "course": 268.0,
            "speed": 12.4,
            "depth": 15.0
          },
          {
            "time": "1970-01-03T03:25:25+00:00",
            "course": 267.3,
            "speed": 13.0,
            "depth": 15.0
          },
          {
            "time": "1970-01-03T03:26:25+00:00",
            "course": 266.6,
            "speed": 13.7,
            "depth": 15.0
          },
          {
            "time": "1970-01-03T03:27:25+00:00",
            "course": 265.9,
            "speed": 14.4,
            "depth": 15.0
          },
          {
            "time": "1970-01-03T03:28:25+00:00",
            "course": 265.1,
            "speed": 15.0,
            "depth": 15.0
          },
          {
            "time": "1970-01-03T03:29:25+00:00",
            "course": 264.2,
            "speed": 15.0,
            "depth": 15.0
          },
          {
            "time": "1970-01-03T03:30:25+00:00",
            "course": 263.3,
            "speed": 15.0,
            "depth": 15.0
          },
          {
            "time": "1970-01-03T03:31:25+00:00",
            "course": 262.3,
            "speed": 15.0,
            "depth": 15.0
          },
          {
            "time": "1970-01-03T03:32:25+00:00",
            "course": 261.2,
            "speed": 15.0,
            "depth": 15.0
          },
          {
            "time": "1970-01-03T03:33:25+00:00",
            "course": 260.0,
            "speed": 15.0,
            "depth": 15.0
          },
          {
            "time": "1970-01-03T03:34:25+00:00",
            "course": 258.7,
            "speed": 15.0,
            "depth": 15.0
          },
          {
            "time": "1970-01-03T03:35:25+00:00",
            "course": 257.3,
            "speed": 15.0,
            "depth": 15.0
          },
          {
            "time": "1970-01-03T03:36:25+00:00",
            "course": 255.7,
            "speed": 15.0,
            "depth": 15.0
          },
          {
            "time": "1970-01-03T03:37:25+00:00",
            "course": 253.8,
            "speed": 15.0,
            "depth": 15.0
          },
          {
            "time": "1970-01-03T03:38:25+00:00",
            "course": 251.8,
            "speed": 15.0,
            "depth": 15.0
          },
          {
            "time": "1970-01-03T03:39:25+00:00",
            "course": 249.4,
            "speed": 15.0,
            "depth": 15.0
          },
          {
            "time": "1970-01-03T03:40:25+00:00",
            "course": 246.6,
            "speed": 15.0,
            "depth": 15.0
          },
          {
            "time": "1970-01-03T03:41:25+00:00",
            "course": 243.4,
            "speed": 15.0,
            "depth": 15.0
          },
          {
            "time": "1970-01-03T03:42:25+00:00",
            "course": 239.5,
            "speed": 15.0,
            "depth": 15.0
          },
          {
            "time": "1970-01-03T03:43:25+00:00",
            "course": 234.8,
            "speed": 15.0,
            "depth": 15.0
          },
          {
            "time": "1970-01-03T03:44:25+00:00",
            "course": 231.0,
            "speed": 15.0,
            "depth": 15.0
          },
          {
            "time": "1970-01-03T03:45:25+00:00",
            "course": 224.6,
            "speed": 15.0,
            "depth": 15.0
          },
          {
            "time": "1970-01-03T03:46:25+00:00",
            "course": 215.7,
            "speed": 15.0,
            "depth": 15.0
          },
          {
            "time": "1970-01-03T03:47:25+00:00",
            "course": 204.0,
            "speed": 15.0,
            "depth": 15.0
          },
          {
            "time": "1970-01-03T03:48:25+00:00",
            "course": 189.1,
            "speed": 15.0,
            "depth": 15.0
          },
          {
            "time": "1970-01-03T03:49:25+00:00",
            "course": 172.2,
            "speed": 14.3,
            "depth": 15.0
          },
          {
            "time": "1970-01-03T03:50:25+00:00",
            "course": 155.2,
            "speed": 13.5,
            "depth": 15.0
          },
          {
            "time": "1970-01-03T03:51:25+00:00",
            "course": 140.7,
            "speed": 12.9,
            "depth": 15.0
          },
          {
            "time": "1970-01-03T03:52:25+00:00",
            "course": 130.5,
            "speed": 12.2,
            "depth": 15.0
          },
          {
            "time": "1970-01-03T03:53:25+00:00",
            "course": 124.2,
            "speed": 11.6,
            "depth": 15.0
          },
          {
            "time": "1970-01-03T03:54:25+00:00",
            "course": 119.2,
            "speed": 11.0,
            "depth": 15.0
          },
          {
            "time": "1970-01-03T03:55:25+00:00",
            "course": 119.2,
            "speed": 10.5,
            "depth": 15.0
          },
          {
            "time": "1970-01-03T03:56:25+00:00",
            "course": 119.2,
            "speed": 10.0,
            "depth": 15.0
          },
          {
            "time": "1970-01-03T03:57:25+00:00",
            "course": 119.2,
            "speed": 9.5,
            "depth": 15.0
          },
          {
            "time": "1970-01-03T03:58:25+00:00",
            "course": 119.2,
            "speed": 9.5,
            "depth": 15.0
          },
          {
            "time": "1970-01-03T03:59:25+00:00",
            "course": 119.2,
            "speed": 9.5,
            "depth": 15.0
          },
          {
            "time": "1970-01-03T04:00:25+00:00",
            "course": 119.2,
            "speed": 9.5,
            "depth": 15.0
          },
          {
            "time": "1970-01-03T04:01:25+00:00",
            "course": 119.2,
            "speed": 9.5,
            "depth": 15.0
          },
          {
            "time": "1970-01-03T04:02:25+00:00",
            "course": 119.2,
            "speed": 9.5,
            "depth": 15.0
          },
          {
            "time": "1970-01-03T04:03:25+00:00",
            "course": 119.2,
            "speed": 9.5,
            "depth": 15.0
          },
          {
            "time": "1970-01-03T04:04:25+00:00",
            "course": 119.2,
            "speed": 9.5,
            "depth": 15.0
          },
          {
            "time": "1970-01-03T04:05:25+00:00",
            "course": 119.2,
            "speed": 9.5,
            "depth": 15.0
          },
          {
            "time": "1970-01-03T04:06:25+00:00",
            "course": 119.2,
            "speed": 9.5,
            "depth": 15.0
          },
          {
            "time": "1970-01-03T04:07:25+00:00",
            "course": 119.2,
            "speed": 9.5,
            "depth": 15.0
          },
          {
            "time": "1970-01-03T04:08:25+00:00",
            "course": 119.2,
            "speed": 9.5,
            "depth": 15.0
          },
          {
            "time": "1970-01-03T04:09:25+00:00",
            "course": 119.2,
            "speed": 9.5,
            "depth": 15.0
          },
          {
            "time": "1970-01-03T04:10:25+00:00",
            "course": 119.2,
            "speed": 9.5,
            "depth": 15.0
          },
          {
            "time": "1970-01-03T04:11:25+00:00",
            "course": 119.1,
            "speed": 9.5,
            "depth": 15.0
          },
          {
            "time": "1970-01-03T04:12:25+00:00",
            "course": 119.1,
            "speed": 9.9,
            "depth": 15.0
          },
          {
            "time": "1970-01-03T04:13:25+00:00",
            "course": 119.2,
            "speed": 10.4,
            "depth": 15.0
          },
          {
            "time": "1970-01-03T04:14:25+00:00",
            "course": 119.2,
            "speed": 10.9,
            "depth": 15.0
          },
          {
            "time": "1970-01-03T04:15:25+00:00",
            "course": 119.2,
            "speed": 11.5,
            "depth": 15.0
          },
          {
            "time": "1970-01-03T04:16:25+00:00",
            "course": 119.2,
            "speed": 12.1,
            "depth": 15.0
          },
          {
            "time": "1970-01-03T04:17:25+00:00",
            "course": 119.2,
            "speed": 12.7,
            "depth": 15.0
          }
        ],
        "style": {
          "line": {
            "color": "#FF0000"
          },
          "point": {
            "shape": "circle",
            "radius": 3.0,
            "fill_color": "#FF0000",
            "color": "#FF0000"
          }
        },
        "default_position_style": {
          "show_symbol": false,
          "symbol": "circle",
          "show_label": false
        },
        "symbol_interval": "PT10M",
        "label_interval": "PT30M",
        "provenance": [
          {
            "activity_id": "a4c916a8-2270-4c2a-a050-93f4be9cecc8",
            "timestamp": "2026-04-13T23:12:33.668145Z",
            "was_generated_by": {
              "tool": "rep-parser",
              "tool_version": "1.0.0",
              "parameters": []
            },
            "used": [],
            "generated": [
              "b86f898d-28cb-4f10-a8a1-c45769c1efec"
            ],
            "execution_duration": "PT0.002195S"
          }
        ]
      }
    }
  ]
}