{
  "type": "FeatureCollection",
  "features": [
    {
      "type": "Feature",
      "id": "620e1785-7f36-4c05-8a0e-62b38e7f5536",
      "geometry": {
        "type": "LineString",
        "coordinates": [
          [
            -21.697880555555557,
            57.18628611111111
          ],
          [
            -21.697880555555557,
            57.18628611111111
          ],
          [
            -21.697880555555557,
            57.18628611111111
          ],
          [
            -21.697880555555557,
            57.18628611111111
          ],
          [
            -21.697880555555557,
            57.18628611111111
          ],
          [
            -21.697880555555557,
            57.18628611111111
          ],
          [
            -21.697880555555557,
            57.18628611111111
          ],
          [
            -21.697880555555557,
            57.18628611111111
          ],
          [
            -21.697880555555557,
            57.18628611111111
          ],
          [
            -21.697880555555557,
            57.18628611111111
          ],
          [
            -21.697880555555557,
            57.18628611111111
          ],
          [
            -21.697880555555557,
            57.18628611111111
          ],
          [
            -21.697880555555557,
            57.18628611111111
          ],
          [
            -21.697880555555557,
            57.18628611111111
          ],
          [
            -21.697880555555557,
            57.18628611111111
          ],
          [
            -21.697880555555557,
            57.18628611111111
          ],
          [
            -21.697880555555557,
            57.18628611111111
          ],
          [
            -21.697880555555557,
            57.18628611111111
          ],
          [
            -21.697880555555557,
            57.18628611111111
          ],
          [
            -21.697880555555557,
            57.18628611111111
          ],
          [
            -21.697880555555557,
            57.18628611111111
          ],
          [
            -21.697880555555557,
            57.18628611111111
          ],
          [
            -21.697880555555557,
            57.18628611111111
          ],
          [
            -21.697880555555557,
            57.18628611111111
          ],
          [
            -21.697880555555557,
            57.18628611111111
          ],
          [
            -21.697880555555557,
            57.18628611111111
          ],
          [
            -21.697880555555557,
            57.18628611111111
          ],
          [
            -21.697880555555557,
            57.18628611111111
          ],
          [
            -21.697880555555557,
            57.18628611111111
          ],
          [
            -21.697880555555557,
            57.18628611111111
          ],
          [
            -21.697880555555557,
            57.18628611111111
          ],
          [
            -21.697880555555557,
            57.18628611111111
          ],
          [
            -21.697880555555557,
            57.18628611111111
          ],
          [
            -21.697880555555557,
            57.18628611111111
          ],
          [
            -21.697880555555557,
            57.18628611111111
          ],
          [
            -21.697880555555557,
            57.18628611111111
          ],
          [
            -21.697880555555557,
            57.18628611111111
          ],
          [
            -21.697880555555557,
            57.18628611111111
          ],
          [
            -21.697880555555557,
            57.18628611111111
          ],
          [
            -21.697880555555557,
            57.18628611111111
          ],
          [
            -21.697880555555557,
            57.18628611111111
          ],
          [
            -21.697880555555557,
            57.18628611111111
          ],
          [
            -21.697880555555557,
            57.18628611111111
          ],
          [
            -21.697880555555557,
            57.18628611111111
          ],
          [
            -21.697880555555557,
            57.18628611111111
          ],
          [
            -21.697880555555557,
            57.18628611111111
          ],
          [
            -21.697880555555557,
            57.18628611111111
          ],
          [
            -21.697880555555557,
            57.18628611111111
          ],
          [
            -21.697880555555557,
            57.18628611111111
          ],
          [
            -21.697880555555557,
            57.18628611111111
          ],
          [
            -21.697880555555557,
            57.18628611111111
          ],
          [
            -21.697880555555557,
            57.18628611111111
          ],
          [
            -21.697880555555557,
            57.18628611111111
          ],
          [
            -21.697880555555557,
            57.18628611111111
          ],
          [
            -21.697880555555557,
            57.18628611111111
          ],
          [
            -21.697880555555557,
            57.18628611111111
          ],
          [
            -21.697880555555557,
            57.18628611111111
          ],
          [
            -21.697880555555557,
            57.18628611111111
          ],
          [
            -21.697880555555557,
            57.18628611111111
          ],
          [
            -21.697880555555557,
            57.18628611111111
          ],
          [
            -21.697880555555557,
            57.18628611111111
          ],
          [
            -21.697880555555557,
            57.18628611111111
          ],
          [
            -21.697880555555557,
            57.18628611111111
          ],
          [
            -21.697880555555557,
            57.18628611111111
          ],
          [
            -21.697880555555557,
            57.18628611111111
          ],
          [
            -21.697880555555557,
            57.18628611111111
          ],
          [
            -21.697880555555557,
            57.18628611111111
          ],
          [
            -21.697880555555557,
            57.18628611111111
          ],
          [
            -21.697880555555557,
            57.18628611111111
          ],
          [
            -21.697880555555557,
            57.18628611111111
          ],
          [
            -21.697880555555557,
            57.18628611111111
          ],
          [
            -21.697880555555557,
            57.18628611111111
          ],
          [
            -21.697880555555557,
            57.18628611111111
          ],
          [
            -21.697880555555557,
            57.18628611111111
          ],
          [
            -21.697880555555557,
            57.18628611111111
          ],
          [
            -21.697880555555557,
            57.18628611111111
          ],
          [
            -21.697880555555557,
            57.18628611111111
          ],
          [
            -21.697880555555557,
            57.18628611111111
          ],
          [
            -21.697880555555557,
            57.18628611111111
          ],
          [
            -21.697880555555557,
            57.18628611111111
          ],
          [
            -21.697880555555557,
            57.18628611111111
          ],
          [
            -21.697880555555557,
            57.18628611111111
          ],
          [
            -21.697880555555557,
            57.18628611111111
          ],
          [
            -21.697880555555557,
            57.18628611111111
          ],
          [
            -21.697880555555557,
            57.18628611111111
          ],
          [
            -21.697880555555557,
            57.18628611111111
          ],
          [
            -21.697880555555557,
            57.18628611111111
          ],
          [
            -21.697880555555557,
            57.18628611111111
          ],
          [
            -21.697880555555557,
            57.18628611111111
          ],
          [
            -21.697880555555557,
            57.18628611111111
          ],
          [
            -21.697880555555557,
            57.18628611111111
          ],
          [
            -21.697880555555557,
            57.18628611111111
          ],
          [
            -21.697880555555557,
            57.18628611111111
          ],
          [
            -21.697880555555557,
            57.18628611111111
          ],
          [
            -21.697880555555557,
            57.18628611111111
          ],
          [
            -21.697880555555557,
            57.18628611111111
          ],
          [
            -21.697880555555557,
            57.18628611111111
          ],
          [
            -21.697880555555557,
            57.18628611111111
          ],
          [
            -21.697880555555557,
            57.18628611111111
          ],
          [
            -21.697880555555557,
            57.18628611111111
          ],
          [
            -21.697880555555557,
            57.18628611111111
          ],
          [
            -21.697880555555557,
            57.18628611111111
          ],
          [
            -21.697880555555557,
            57.18628611111111
          ],
          [
            -21.697880555555557,
            57.18628611111111
          ],
          [
            -21.697880555555557,
            57.18628611111111
          ],
          [
            -21.697880555555557,
            57.18628611111111
          ],
          [
            -21.697880555555557,
            57.18628611111111
          ],
          [
            -21.697880555555557,
            57.18628611111111
          ],
          [
            -21.697880555555557,
            57.18628611111111
          ],
          [
            -21.697880555555557,
            57.18628611111111
          ],
          [
            -21.697880555555557,
            57.18628611111111
          ],
          [
            -21.697880555555557,
            57.18628611111111
          ],
          [
            -21.697880555555557,
            57.18628611111111
          ],
          [
            -21.697880555555557,
            57.18628611111111
          ],
          [
            -21.697880555555557,
            57.18628611111111
          ],
          [
            -21.697880555555557,
            57.18628611111111
          ],
          [
            -21.697880555555557,
            57.18628611111111
          ],
          [
            -21.697880555555557,
            57.18628611111111
          ],
          [
            -21.697880555555557,
            57.18628611111111
          ],
          [
            -21.697880555555557,
            57.18628611111111
          ],
          [
            -21.697880555555557,
            57.18628611111111
          ],
          [
            -21.697880555555557,
            57.18628611111111
          ],
          [
            -21.697880555555557,
            57.18628611111111
          ],
          [
            -21.697880555555557,
            57.18628611111111
          ],
          [
            -21.697880555555557,
            57.18628611111111
          ],
          [
            -21.697880555555557,
            57.18628611111111
          ],
          [
            -21.697880555555557,
            57.18628611111111
          ],
          [
            -21.697880555555557,
            57.18628611111111
          ],
          [
            -21.697880555555557,
            57.18628611111111
          ],
          [
            -21.697880555555557,
            57.18628611111111
          ],
          [
            -21.697880555555557,
            57.18628611111111
          ],
          [
            -21.697880555555557,
            57.18628611111111
          ],
          [
            -21.697880555555557,
            57.18628611111111
          ],
          [
            -21.697880555555557,
            57.18628611111111
          ],
          [
            -21.697880555555557,
            57.18628611111111
          ],
          [
            -21.697880555555557,
            57.18628611111111
          ],
          [
            -21.697880555555557,
            57.18628611111111
          ],
          [
            -21.697880555555557,
            57.18628611111111
          ],
          [
            -21.697880555555557,
            57.18628611111111
          ],
          [
            -21.697880555555557,
            57.18628611111111
          ],
          [
            -21.697880555555557,
            57.18628611111111
          ],
          [
            -21.697880555555557,
            57.18628611111111
          ],
          [
            -21.697880555555557,
            57.18628611111111
          ],
          [
            -21.697880555555557,
            57.18628611111111
          ],
          [
            -21.697880555555557,
            57.18628611111111
          ],
          [
            -21.697880555555557,
            57.18628611111111
          ],
          [
            -21.697880555555557,
            57.18628611111111
          ],
          [
            -21.697880555555557,
            57.18628611111111
          ],
          [
            -21.697880555555557,
            57.18628611111111
          ],
          [
            -21.697880555555557,
            57.18628611111111
          ],
          [
            -21.697880555555557,
            57.18628611111111
          ],
          [
            -21.697880555555557,
            57.18628611111111
          ],
          [
            -21.697880555555557,
            57.18628611111111
          ],
          [
            -21.697880555555557,
            57.18628611111111
          ],
          [
            -21.697880555555557,
            57.18628611111111
          ],
          [
            -21.697880555555557,
            57.18628611111111
          ],
          [
            -21.697880555555557,
            57.18628611111111
          ],
          [
            -21.697880555555557,
            57.18628611111111
          ],
          [
            -21.697880555555557,
            57.18628611111111
          ],
          [
            -21.697880555555557,
            57.18628611111111
          ],
          [
            -21.697880555555557,
            57.18628611111111
          ],
          [
            -21.697880555555557,
            57.18628611111111
          ],
          [
            -21.697880555555557,
            57.18628611111111
          ],
          [
            -21.697880555555557,
            57.18628611111111
          ],
          [
            -21.697880555555557,
            57.18628611111111
          ],
          [
            -21.697880555555557,
            57.18628611111111
          ],
          [
            -21.697880555555557,
            57.18628611111111
          ],
          [
            -21.697880555555557,
            57.18628611111111
          ],
          [
            -21.697880555555557,
            57.18628611111111
          ],
          [
            -21.697880555555557,
            57.18628611111111
          ],
          [
            -21.697880555555557,
            57.18628611111111
          ],
          [
            -21.697880555555557,
            57.18628611111111
          ],
          [
            -21.697880555555557,
            57.18628611111111
          ],
          [
            -21.697880555555557,
            57.18628611111111
          ],
          [
            -21.697880555555557,
            57.18628611111111
          ],
          [
            -21.697880555555557,
            57.18628611111111
          ],
          [
            -21.697880555555557,
            57.18628611111111
          ],
          [
            -21.697880555555557,
            57.18628611111111
          ],
          [
            -21.697880555555557,
            57.18628611111111
          ],
          [
            -21.697880555555557,
            57.18628611111111
          ],
          [
            -21.697880555555557,
            57.18628611111111
          ],
          [
            -21.697880555555557,
            57.18628611111111
          ],
          [
            -21.697880555555557,
            57.18628611111111
          ],
          [
            -21.697880555555557,
            57.18628611111111
          ],
          [
            -21.697880555555557,
            57.18628611111111
          ],
          [
            -21.697880555555557,
            57.18628611111111
          ],
          [
            -21.697880555555557,
            57.18628611111111
          ],
          [
            -21.697880555555557,
            57.18628611111111
          ],
          [
            -21.697880555555557,
            57.18628611111111
          ],
          [
            -21.697880555555557,
            57.18628611111111
          ],
          [
            -21.697880555555557,
            57.18628611111111
          ],
          [
            -21.697880555555557,
            57.18628611111111
          ],
          [
            -21.697880555555557,
            57.18628611111111
          ],
          [
            -21.697880555555557,
            57.18628611111111
          ],
          [
            -21.697880555555557,
            57.18628611111111
          ],
          [
            -21.697880555555557,
            57.18628611111111
          ],
          [
            -21.697880555555557,
            57.18628611111111
          ],
          [
            -21.697880555555557,
            57.18628611111111
          ],
          [
            -21.697880555555557,
            57.18628611111111
          ],
          [
            -21.697880555555557,
            57.18628611111111
          ],
          [
            -21.697880555555557,
            57.18628611111111
          ],
          [
            -21.697880555555557,
            57.18628611111111
          ],
          [
            -21.697880555555557,
            57.18628611111111
          ],
          [
            -21.697880555555557,
            57.18628611111111
          ],
          [
            -21.697880555555557,
            57.18628611111111
          ],
          [
            -21.697880555555557,
            57.18628611111111
          ],
          [
            -21.697880555555557,
            57.18628611111111
          ],
          [
            -21.697880555555557,
            57.18628611111111
          ],
          [
            -21.697880555555557,
            57.18628611111111
          ],
          [
            -21.697880555555557,
            57.18628611111111
          ],
          [
            -21.697880555555557,
            57.18628611111111
          ],
          [
            -21.697880555555557,
            57.18628611111111
          ],
          [
            -21.697880555555557,
            57.18628611111111
          ],
          [
            -21.697880555555557,
            57.18628611111111
          ],
          [
            -21.697880555555557,
            57.18628611111111
          ],
          [
            -21.697880555555557,
            57.18628611111111
          ],
          [
            -21.697880555555557,
            57.18628611111111
          ],
          [
            -21.697880555555557,
            57.18628611111111
          ],
          [
            -21.697880555555557,
            57.18628611111111
          ],
          [
            -21.697880555555557,
            57.18628611111111
          ],
          [
            -21.697880555555557,
            57.18628611111111
          ],
          [
            -21.697880555555557,
            57.18628611111111
          ],
          [
            -21.697880555555557,
            57.18628611111111
          ],
          [
            -21.697880555555557,
            57.18628611111111
          ],
          [
            -21.697880555555557,
            57.18628611111111
          ],
          [
            -21.697880555555557,
            57.18628611111111
          ],
          [
            -21.697880555555557,
            57.18628611111111
          ],
          [
            -21.697880555555557,
            57.18628611111111
          ],
          [
            -21.697880555555557,
            57.18628611111111
          ],
          [
            -21.697880555555557,
            57.18628611111111
          ],
          [
            -21.697880555555557,
            57.18628611111111
          ],
          [
            -21.697880555555557,
            57.18628611111111
          ],
          [
            -21.697880555555557,
            57.18628611111111
          ],
          [
            -21.697880555555557,
            57.18628611111111
          ],
          [
            -21.697880555555557,
            57.18628611111111
          ],
          [
            -21.697880555555557,
            57.18628611111111
          ],
          [
            -21.697880555555557,
            57.18628611111111
          ],
          [
            -21.697880555555557,
            57.18628611111111
          ],
          [
            -21.697880555555557,
            57.18628611111111
          ],
          [
            -21.697880555555557,
            57.18628611111111
          ],
          [
            -21.697880555555557,
            57.18628611111111
          ]
        ]
      },
      "properties": {
        "kind": "TRACK",
        "platform_id": "OS",
        "platform_name": "OS",
        "track_type": "CONTACT",
        "start_time": "2001-01-01T14:00:47.812000+00:00",
        "end_time": "2001-01-01T18:00:49.546000+00:00",
        "positions": [
          {
            "time": "2001-01-01T14:00:47.812000+00:00",
            "course": 113.0,
            "speed": 3.9,
            "depth": 0.0
          },
          {
            "time": "2001-01-01T14:01:47.812000+00:00",
            "course": 109.9,
            "speed": 3.8,
            "depth": 0.0
          },
          {
            "time": "2001-01-01T14:02:47.812000+00:00",
            "course": 113.3,
            "speed": 3.8,
            "depth": 0.0
          },
          {
            "time": "2001-01-01T14:03:47.812000+00:00",
            "course": 115.4,
            "speed": 3.9,
            "depth": 0.0
          },
          {
            "time": "2001-01-01T14:04:47.812000+00:00",
            "course": 114.3,
            "speed": 3.9,
            "depth": 0.0
          },
          {
            "time": "2001-01-01T14:05:47.406000+00:00",
            "course": 113.2,
            "speed": 3.9,
            "depth": 0.0
          },
          {
            "time": "2001-01-01T14:06:47.406000+00:00",
            "course": 120.1,
            "speed": 4.0,
            "depth": 0.0
          },
          {
            "time": "2001-01-01T14:07:47.406000+00:00",
            "course": 113.2,
            "speed": 3.9,
            "depth": 0.0
          },
          {
            "time": "2001-01-01T14:08:47.406000+00:00",
            "course": 113.0,
            "speed": 3.9,
            "depth": 0.0
          },
          {
            "time": "2001-01-01T14:09:47.406000+00:00",
            "course": 121.0,
            "speed": 4.1,
            "depth": 0.0
          },
          {
            "time": "2001-01-01T14:10:47.406000+00:00",
            "course": 118.3,
            "speed": 4.0,
            "depth": 0.0
          },
          {
            "time": "2001-01-01T14:11:47.406000+00:00",
            "course": 117.2,
            "speed": 4.0,
            "depth": 0.0
          },
          {
            "time": "2001-01-01T14:12:47.406000+00:00",
            "course": 115.4,
            "speed": 3.9,
            "depth": 0.0
          },
          {
            "time": "2001-01-01T14:13:47.406000+00:00",
            "course": 114.3,
            "speed": 3.9,
            "depth": 0.0
          },
          {
            "time": "2001-01-01T14:14:47.406000+00:00",
            "course": 114.0,
            "speed": 3.9,
            "depth": 0.0
          },
          {
            "time": "2001-01-01T14:15:47.406000+00:00",
            "course": 117.9,
            "speed": 4.0,
            "depth": 0.0
          },
          {
            "time": "2001-01-01T14:16:47.406000+00:00",
            "course": 119.9,
            "speed": 4.1,
            "depth": 0.0
          },
          {
            "time": "2001-01-01T14:17:47.406000+00:00",
            "course": 116.4,
            "speed": 3.9,
            "depth": 0.0
          },
          {
            "time": "2001-01-01T14:18:47.406000+00:00",
            "course": 113.2,
            "speed": 3.9,
            "depth": 0.0
          },
          {
            "time": "2001-01-01T14:19:47.406000+00:00",
            "course": 113.2,
            "speed": 3.9,
            "depth": 0.0
          },
          {
            "time": "2001-01-01T14:20:47.406000+00:00",
            "course": 117.0,
            "speed": 4.0,
            "depth": 0.0
          },
          {
            "time": "2001-01-01T14:21:47.406000+00:00",
            "course": 115.4,
            "speed": 3.9,
            "depth": 0.0
          },
          {
            "time": "2001-01-01T14:22:47.406000+00:00",
            "course": 116.4,
            "speed": 3.9,
            "depth": 0.0
          },
          {
            "time": "2001-01-01T14:23:47.406000+00:00",
            "course": 113.0,
            "speed": 3.9,
            "depth": 0.0
          },
          {
            "time": "2001-01-01T14:24:47.406000+00:00",
            "course": 109.8,
            "speed": 3.8,
            "depth": 0.0
          },
          {
            "time": "2001-01-01T14:25:47.406000+00:00",
            "course": 115.8,
            "speed": 4.0,
            "depth": 0.0
          },
          {
            "time": "2001-01-01T14:26:47.406000+00:00",
            "course": 113.9,
            "speed": 3.9,
            "depth": 0.0
          },
          {
            "time": "2001-01-01T14:27:47.406000+00:00",
            "course": 113.7,
            "speed": 4.0,
            "depth": 0.0
          },
          {
            "time": "2001-01-01T14:28:47.406000+00:00",
            "course": 113.7,
            "speed": 4.0,
            "depth": 0.0
          },
          {
            "time": "2001-01-01T14:29:47.406000+00:00",
            "course": 114.4,
            "speed": 4.0,
            "depth": 0.0
          },
          {
            "time": "2001-01-01T14:30:47.406000+00:00",
            "course": 113.6,
            "speed": 4.0,
            "depth": 0.0
          },
          {
            "time": "2001-01-01T14:31:47.406000+00:00",
            "course": 117.6,
            "speed": 4.4,
            "depth": 0.0
          },
          {
            "time": "2001-01-01T14:32:47.406000+00:00",
            "course": 115.2,
            "speed": 4.3,
            "depth": 0.0
          },
          {
            "time": "2001-01-01T14:33:47.406000+00:00",
            "course": 112.6,
            "speed": 4.1,
            "depth": 0.0
          },
          {
            "time": "2001-01-01T14:34:47.406000+00:00",
            "course": 115.6,
            "speed": 4.2,
            "depth": 0.0
          },
          {
            "time": "2001-01-01T14:35:47.406000+00:00",
            "course": 118.5,
            "speed": 4.2,
            "depth": 0.0
          },
          {
            "time": "2001-01-01T14:36:47.406000+00:00",
            "course": 113.9,
            "speed": 4.1,
            "depth": 0.0
          },
          {
            "time": "2001-01-01T14:37:47.406000+00:00",
            "course": 111.8,
            "speed": 4.1,
            "depth": 0.0
          },
          {
            "time": "2001-01-01T14:38:47.406000+00:00",
            "course": 115.0,
            "speed": 4.1,
            "depth": 0.0
          },
          {
            "time": "2001-01-01T14:39:47.406000+00:00",
            "course": 114.1,
            "speed": 4.1,
            "depth": 0.0
          },
          {
            "time": "2001-01-01T14:40:47.406000+00:00",
            "course": 107.0,
            "speed": 3.9,
            "depth": 0.0
          },
          {
            "time": "2001-01-01T14:41:47.406000+00:00",
            "course": 110.0,
            "speed": 4.0,
            "depth": 0.0
          },
          {
            "time": "2001-01-01T14:42:47.406000+00:00",
            "course": 110.1,
            "speed": 4.0,
            "depth": 0.0
          },
          {
            "time": "2001-01-01T14:43:47.406000+00:00",
            "course": 112.3,
            "speed": 4.0,
            "depth": 0.0
          },
          {
            "time": "2001-01-01T14:44:47.406000+00:00",
            "course": 110.3,
            "speed": 4.0,
            "depth": 0.0
          },
          {
            "time": "2001-01-01T14:45:47.406000+00:00",
            "course": 107.0,
            "speed": 3.9,
            "depth": 0.0
          },
          {
            "time": "2001-01-01T14:46:47.406000+00:00",
            "course": 112.2,
            "speed": 4.0,
            "depth": 0.0
          },
          {
            "time": "2001-01-01T14:47:47.406000+00:00",
            "course": 113.1,
            "speed": 4.0,
            "depth": 0.0
          },
          {
            "time": "2001-01-01T14:48:47.406000+00:00",
            "course": 112.0,
            "speed": 4.0,
            "depth": 0.0
          },
          {
            "time": "2001-01-01T14:49:47.406000+00:00",
            "course": 116.0,
            "speed": 4.1,
            "depth": 0.0
          },
          {
            "time": "2001-01-01T14:50:47.406000+00:00",
            "course": 116.0,
            "speed": 4.1,
            "depth": 0.0
          },
          {
            "time": "2001-01-01T14:51:47.406000+00:00",
            "course": 114.4,
            "speed": 4.0,
            "depth": 0.0
          },
          {
            "time": "2001-01-01T14:52:47.406000+00:00",
            "course": 113.4,
            "speed": 4.0,
            "depth": 0.0
          },
          {
            "time": "2001-01-01T14:53:47.406000+00:00",
            "course": 113.4,
            "speed": 4.0,
            "depth": 0.0
          },
          {
            "time": "2001-01-01T14:54:47.406000+00:00",
            "course": 114.5,
            "speed": 4.0,
            "depth": 0.0
          },
          {
            "time": "2001-01-01T14:55:47.406000+00:00",
            "course": 115.9,
            "speed": 3.8,
            "depth": 0.0
          },
          {
            "time": "2001-01-01T14:56:47.406000+00:00",
            "course": 114.3,
            "speed": 3.5,
            "depth": 0.0
          },
          {
            "time": "2001-01-01T14:57:47.406000+00:00",
            "course": 114.2,
            "speed": 3.3,
            "depth": 0.0
          },
          {
            "time": "2001-01-01T14:58:47.406000+00:00",
            "course": 115.2,
            "speed": 3.2,
            "depth": 0.0
          },
          {
            "time": "2001-01-01T14:59:47.406000+00:00",
            "course": 115.7,
            "speed": 3.2,
            "depth": 0.0
          },
          {
            "time": "2001-01-01T15:00:47.406000+00:00",
            "course": 115.7,
            "speed": 3.7,
            "depth": 0.0
          },
          {
            "time": "2001-01-01T15:01:47.406000+00:00",
            "course": 113.5,
            "speed": 4.0,
            "depth": 0.0
          },
          {
            "time": "2001-01-01T15:02:47.406000+00:00",
            "course": 112.0,
            "speed": 3.9,
            "depth": 0.0
          },
          {
            "time": "2001-01-01T15:03:47.406000+00:00",
            "course": 112.3,
            "speed": 3.8,
            "depth": 0.0
          },
          {
            "time": "2001-01-01T15:04:47.406000+00:00",
            "course": 111.6,
            "speed": 3.7,
            "depth": 0.0
          },
          {
            "time": "2001-01-01T15:05:47.406000+00:00",
            "course": 111.7,
            "speed": 3.7,
            "depth": 0.0
          },
          {
            "time": "2001-01-01T15:06:47.406000+00:00",
            "course": 113.0,
            "speed": 3.7,
            "depth": 0.0
          },
          {
            "time": "2001-01-01T15:07:47.406000+00:00",
            "course": 113.0,
            "speed": 3.7,
            "depth": 0.0
          },
          {
            "time": "2001-01-01T15:08:47.406000+00:00",
            "course": 110.8,
            "speed": 3.7,
            "depth": 0.0
          },
          {
            "time": "2001-01-01T15:09:47.406000+00:00",
            "course": 105.3,
            "speed": 3.5,
            "depth": 0.0
          },
          {
            "time": "2001-01-01T15:10:47.406000+00:00",
            "course": 108.8,
            "speed": 3.6,
            "depth": 0.0
          },
          {
            "time": "2001-01-01T15:11:47.406000+00:00",
            "course": 110.9,
            "speed": 3.6,
            "depth": 0.0
          },
          {
            "time": "2001-01-01T15:12:47.406000+00:00",
            "course": 111.1,
            "speed": 3.6,
            "depth": 0.0
          },
          {
            "time": "2001-01-01T15:13:47.406000+00:00",
            "course": 109.9,
            "speed": 3.6,
            "depth": 0.0
          },
          {
            "time": "2001-01-01T15:14:47.406000+00:00",
            "course": 106.6,
            "speed": 3.5,
            "depth": 0.0
          },
          {
            "time": "2001-01-01T15:15:47.406000+00:00",
            "course": 106.8,
            "speed": 3.5,
            "depth": 0.0
          },
          {
            "time": "2001-01-01T15:16:47.406000+00:00",
            "course": 110.1,
            "speed": 3.6,
            "depth": 0.0
          },
          {
            "time": "2001-01-01T15:17:47.406000+00:00",
            "course": 108.9,
            "speed": 3.6,
            "depth": 0.0
          },
          {
            "time": "2001-01-01T15:18:47.406000+00:00",
            "course": 108.9,
            "speed": 3.6,
            "depth": 0.0
          },
          {
            "time": "2001-01-01T15:19:47.406000+00:00",
            "course": 106.8,
            "speed": 3.5,
            "depth": 0.0
          },
          {
            "time": "2001-01-01T15:20:47.406000+00:00",
            "course": 107.9,
            "speed": 3.5,
            "depth": 0.0
          },
          {
            "time": "2001-01-01T15:21:47.406000+00:00",
            "course": 106.7,
            "speed": 3.5,
            "depth": 0.0
          },
          {
            "time": "2001-01-01T15:22:47.406000+00:00",
            "course": 110.1,
            "speed": 3.6,
            "depth": 0.0
          },
          {
            "time": "2001-01-01T15:23:47.406000+00:00",
            "course": 111.5,
            "speed": 3.5,
            "depth": 0.0
          },
          {
            "time": "2001-01-01T15:24:47.406000+00:00",
            "course": 107.0,
            "speed": 3.5,
            "depth": 0.0
          },
          {
            "time": "2001-01-01T15:25:47.406000+00:00",
            "course": 108.1,
            "speed": 3.5,
            "depth": 0.0
          },
          {
            "time": "2001-01-01T15:26:47.406000+00:00",
            "course": 111.4,
            "speed": 3.6,
            "depth": 0.0
          },
          {
            "time": "2001-01-01T15:27:47.406000+00:00",
            "course": 110.6,
            "speed": 3.5,
            "depth": 0.0
          },
          {
            "time": "2001-01-01T15:28:47.406000+00:00",
            "course": 112.7,
            "speed": 3.6,
            "depth": 0.0
          },
          {
            "time": "2001-01-01T15:29:47.406000+00:00",
            "course": 112.9,
            "speed": 3.5,
            "depth": 0.0
          },
          {
            "time": "2001-01-01T15:30:47.406000+00:00",
            "course": 108.2,
            "speed": 3.5,
            "depth": 0.0
          },
          {
            "time": "2001-01-01T15:31:47.406000+00:00",
            "course": 112.9,
            "speed": 3.5,
            "depth": 0.0
          },
          {
            "time": "2001-01-01T15:32:47.406000+00:00",
            "course": 113.1,
            "speed": 3.5,
            "depth": 0.0
          },
          {
            "time": "2001-01-01T15:33:47.406000+00:00",
            "course": 113.2,
            "speed": 3.5,
            "depth": 0.0
          },
          {
            "time": "2001-01-01T15:34:47.406000+00:00",
            "course": 110.9,
            "speed": 3.5,
            "depth": 0.0
          },
          {
            "time": "2001-01-01T15:35:47.406000+00:00",
            "course": 108.3,
            "speed": 3.5,
            "depth": 0.0
          },
          {
            "time": "2001-01-01T15:36:47.406000+00:00",
            "course": 110.6,
            "speed": 3.5,
            "depth": 0.0
          },
          {
            "time": "2001-01-01T15:37:47.406000+00:00",
            "course": 115.0,
            "speed": 3.6,
            "depth": 0.0
          },
          {
            "time": "2001-01-01T15:38:47.421000+00:00",
            "course": 113.8,
            "speed": 3.6,
            "depth": 0.0
          },
          {
            "time": "2001-01-01T15:39:47.421000+00:00",
            "course": 110.4,
            "speed": 3.5,
            "depth": 0.0
          },
          {
            "time": "2001-01-01T15:40:47.421000+00:00",
            "course": 104.5,
            "speed": 4.0,
            "depth": 0.0
          },
          {
            "time": "2001-01-01T15:41:47.421000+00:00",
            "course": 98.8,
            "speed": 4.3,
            "depth": 0.0
          },
          {
            "time": "2001-01-01T15:42:47.421000+00:00",
            "course": 94.0,
            "speed": 4.2,
            "depth": 0.0
          },
          {
            "time": "2001-01-01T15:43:47.421000+00:00",
            "course": 94.2,
            "speed": 4.0,
            "depth": 0.0
          },
          {
            "time": "2001-01-01T15:44:47.421000+00:00",
            "course": 95.3,
            "speed": 3.9,
            "depth": 0.0
          },
          {
            "time": "2001-01-01T15:45:47.421000+00:00",
            "course": 82.8,
            "speed": 4.1,
            "depth": 0.0
          },
          {
            "time": "2001-01-01T15:46:47.421000+00:00",
            "course": 72.3,
            "speed": 4.0,
            "depth": 0.0
          },
          {
            "time": "2001-01-01T15:47:47.421000+00:00",
            "course": 58.0,
            "speed": 4.0,
            "depth": 0.0
          },
          {
            "time": "2001-01-01T15:48:47.421000+00:00",
            "course": 44.0,
            "speed": 3.8,
            "depth": 0.0
          },
          {
            "time": "2001-01-01T15:49:47.406000+00:00",
            "course": 30.1,
            "speed": 3.6,
            "depth": 0.0
          },
          {
            "time": "2001-01-01T15:50:47.421000+00:00",
            "course": 12.1,
            "speed": 3.3,
            "depth": 0.0
          },
          {
            "time": "2001-01-01T15:51:47.421000+00:00",
            "course": 349.0,
            "speed": 3.0,
            "depth": 0.0
          },
          {
            "time": "2001-01-01T15:52:47.421000+00:00",
            "course": 331.0,
            "speed": 3.3,
            "depth": 0.0
          },
          {
            "time": "2001-01-01T15:53:47.421000+00:00",
            "course": 325.7,
            "speed": 3.1,
            "depth": 0.0
          },
          {
            "time": "2001-01-01T15:54:47.421000+00:00",
            "course": 323.5,
            "speed": 2.5,
            "depth": 0.0
          },
          {
            "time": "2001-01-01T15:55:47.421000+00:00",
            "course": 327.3,
            "speed": 2.4,
            "depth": 0.0
          },
          {
            "time": "2001-01-01T15:56:47.421000+00:00",
            "course": 324.8,
            "speed": 2.3,
            "depth": 0.0
          },
          {
            "time": "2001-01-01T15:57:47.421000+00:00",
            "course": 324.9,
            "speed": 2.6,
            "depth": 0.0
          },
          {
            "time": "2001-01-01T15:58:47.421000+00:00",
            "course": 324.4,
            "speed": 2.6,
            "depth": 0.0
          },
          {
            "time": "2001-01-01T15:59:47.421000+00:00",
            "course": 324.8,
            "speed": 2.3,
            "depth": 0.0
          },
          {
            "time": "2001-01-01T16:00:47.421000+00:00",
            "course": 325.8,
            "speed": 2.3,
            "depth": 0.0
          },
          {
            "time": "2001-01-01T16:01:47.421000+00:00",
            "course": 323.2,
            "speed": 2.3,
            "depth": 0.0
          },
          {
            "time": "2001-01-01T16:02:47.421000+00:00",
            "course": 326.3,
            "speed": 2.5,
            "depth": 0.0
          },
          {
            "time": "2001-01-01T16:03:47.421000+00:00",
            "course": 327.7,
            "speed": 2.5,
            "depth": 0.0
          },
          {
            "time": "2001-01-01T16:04:47.421000+00:00",
            "course": 330.7,
            "speed": 2.4,
            "depth": 0.0
          },
          {
            "time": "2001-01-01T16:05:47.421000+00:00",
            "course": 329.7,
            "speed": 2.4,
            "depth": 0.0
          },
          {
            "time": "2001-01-01T16:06:47.421000+00:00",
            "course": 328.1,
            "speed": 2.6,
            "depth": 0.0
          },
          {
            "time": "2001-01-01T16:07:47.421000+00:00",
            "course": 326.7,
            "speed": 2.5,
            "depth": 0.0
          },
          {
            "time": "2001-01-01T16:08:47.421000+00:00",
            "course": 329.9,
            "speed": 2.6,
            "depth": 0.0
          },
          {
            "time": "2001-01-01T16:09:47.421000+00:00",
            "course": 332.6,
            "speed": 2.6,
            "depth": 0.0
          },
          {
            "time": "2001-01-01T16:10:47.421000+00:00",
            "course": 330.9,
            "speed": 2.6,
            "depth": 0.0
          },
          {
            "time": "2001-01-01T16:11:47.421000+00:00",
            "course": 326.2,
            "speed": 2.6,
            "depth": 0.0
          },
          {
            "time": "2001-01-01T16:12:47.421000+00:00",
            "course": 324.4,
            "speed": 2.6,
            "depth": 0.0
          },
          {
            "time": "2001-01-01T16:13:47.421000+00:00",
            "course": 329.4,
            "speed": 2.6,
            "depth": 0.0
          },
          {
            "time": "2001-01-01T16:14:47.421000+00:00",
            "course": 331.0,
            "speed": 2.7,
            "depth": 0.0
          },
          {
            "time": "2001-01-01T16:15:47.421000+00:00",
            "course": 327.1,
            "speed": 2.7,
            "depth": 0.0
          },
          {
            "time": "2001-01-01T16:16:47.421000+00:00",
            "course": 333.5,
            "speed": 2.7,
            "depth": 0.0
          },
          {
            "time": "2001-01-01T16:17:47.421000+00:00",
            "course": 331.3,
            "speed": 2.6,
            "depth": 0.0
          },
          {
            "time": "2001-01-01T16:18:47.421000+00:00",
            "course": 329.4,
            "speed": 2.6,
            "depth": 0.0
          },
          {
            "time": "2001-01-01T16:19:47.421000+00:00",
            "course": 330.1,
            "speed": 2.8,
            "depth": 0.0
          },
          {
            "time": "2001-01-01T16:20:47.421000+00:00",
            "course": 332.4,
            "speed": 2.9,
            "depth": 0.0
          },
          {
            "time": "2001-01-01T16:21:47.421000+00:00",
            "course": 335.0,
            "speed": 3.0,
            "depth": 0.0
          },
          {
            "time": "2001-01-01T16:22:47.421000+00:00",
            "course": 331.4,
            "speed": 2.7,
            "depth": 0.0
          },
          {
            "time": "2001-01-01T16:23:47.421000+00:00",
            "course": 328.0,
            "speed": 2.6,
            "depth": 0.0
          },
          {
            "time": "2001-01-01T16:24:47.421000+00:00",
            "course": 329.5,
            "speed": 2.9,
            "depth": 0.0
          },
          {
            "time": "2001-01-01T16:25:47.421000+00:00",
            "course": 331.9,
            "speed": 2.9,
            "depth": 0.0
          },
          {
            "time": "2001-01-01T16:26:47.421000+00:00",
            "course": 334.2,
            "speed": 2.8,
            "depth": 0.0
          },
          {
            "time": "2001-01-01T16:27:47.421000+00:00",
            "course": 330.2,
            "speed": 2.7,
            "depth": 0.0
          },
          {
            "time": "2001-01-01T16:28:47.421000+00:00",
            "course": 325.8,
            "speed": 2.6,
            "depth": 0.0
          },
          {
            "time": "2001-01-01T16:29:47.421000+00:00",
            "course": 328.4,
            "speed": 2.7,
            "depth": 0.0
          },
          {
            "time": "2001-01-01T16:30:47.421000+00:00",
            "course": 332.4,
            "speed": 2.9,
            "depth": 0.0
          },
          {
            "time": "2001-01-01T16:31:47.421000+00:00",
            "course": 332.6,
            "speed": 2.6,
            "depth": 0.0
          },
          {
            "time": "2001-01-01T16:32:47.421000+00:00",
            "course": 333.1,
            "speed": 2.6,
            "depth": 0.0
          },
          {
            "time": "2001-01-01T16:33:47.421000+00:00",
            "course": 331.6,
            "speed": 2.6,
            "depth": 0.0
          },
          {
            "time": "2001-01-01T16:34:47.421000+00:00",
            "course": 327.2,
            "speed": 2.6,
            "depth": 0.0
          },
          {
            "time": "2001-01-01T16:35:47.421000+00:00",
            "course": 331.4,
            "speed": 2.7,
            "depth": 0.0
          },
          {
            "time": "2001-01-01T16:36:47.421000+00:00",
            "course": 334.3,
            "speed": 2.6,
            "depth": 0.0
          },
          {
            "time": "2001-01-01T16:37:47.421000+00:00",
            "course": 333.1,
            "speed": 2.6,
            "depth": 0.0
          },
          {
            "time": "2001-01-01T16:38:47.421000+00:00",
            "course": 329.4,
            "speed": 2.6,
            "depth": 0.0
          },
          {
            "time": "2001-01-01T16:39:47.421000+00:00",
            "course": 328.1,
            "speed": 2.6,
            "depth": 0.0
          },
          {
            "time": "2001-01-01T16:40:47.421000+00:00",
            "course": 331.6,
            "speed": 2.6,
            "depth": 0.0
          },
          {
            "time": "2001-01-01T16:41:47.421000+00:00",
            "course": 334.3,
            "speed": 2.6,
            "depth": 0.0
          },
          {
            "time": "2001-01-01T16:42:47.421000+00:00",
            "course": 333.1,
            "speed": 2.6,
            "depth": 0.0
          },
          {
            "time": "2001-01-01T16:43:47.421000+00:00",
            "course": 330.7,
            "speed": 2.7,
            "depth": 0.0
          },
          {
            "time": "2001-01-01T16:44:47.421000+00:00",
            "course": 331.9,
            "speed": 2.7,
            "depth": 0.0
          },
          {
            "time": "2001-01-01T16:45:47.421000+00:00",
            "course": 332.6,
            "speed": 2.8,
            "depth": 0.0
          },
          {
            "time": "2001-01-01T16:46:47.421000+00:00",
            "course": 334.7,
            "speed": 2.8,
            "depth": 0.0
          },
          {
            "time": "2001-01-01T16:47:47.421000+00:00",
            "course": 332.8,
            "speed": 2.8,
            "depth": 0.0
          },
          {
            "time": "2001-01-01T16:48:47.421000+00:00",
            "course": 335.5,
            "speed": 3.1,
            "depth": 0.0
          },
          {
            "time": "2001-01-01T16:49:47.421000+00:00",
            "course": 340.9,
            "speed": 3.4,
            "depth": 0.0
          },
          {
            "time": "2001-01-01T16:50:47.421000+00:00",
            "course": 343.5,
            "speed": 3.4,
            "depth": 0.0
          },
          {
            "time": "2001-01-01T16:51:49.531000+00:00",
            "course": 343.5,
            "speed": 3.4,
            "depth": 0.0
          },
          {
            "time": "2001-01-01T16:52:49.531000+00:00",
            "course": 18.3,
            "speed": 3.4,
            "depth": 0.0
          },
          {
            "time": "2001-01-01T16:53:49.531000+00:00",
            "course": 30.8,
            "speed": 3.7,
            "depth": 0.0
          },
          {
            "time": "2001-01-01T16:54:49.531000+00:00",
            "course": 42.8,
            "speed": 3.7,
            "depth": 0.0
          },
          {
            "time": "2001-01-01T16:55:49.531000+00:00",
            "course": 52.8,
            "speed": 3.8,
            "depth": 0.0
          },
          {
            "time": "2001-01-01T16:56:49.531000+00:00",
            "course": 65.2,
            "speed": 3.8,
            "depth": 0.0
          },
          {
            "time": "2001-01-01T16:57:49.531000+00:00",
            "course": 76.2,
            "speed": 3.6,
            "depth": 0.0
          },
          {
            "time": "2001-01-01T16:58:49.531000+00:00",
            "course": 79.3,
            "speed": 3.5,
            "depth": 0.0
          },
          {
            "time": "2001-01-01T16:59:49.531000+00:00",
            "course": 80.4,
            "speed": 3.5,
            "depth": 0.0
          },
          {
            "time": "2001-01-01T17:00:49.531000+00:00",
            "course": 73.2,
            "speed": 4.5,
            "depth": 0.0
          },
          {
            "time": "2001-01-01T17:01:49.531000+00:00",
            "course": 77.1,
            "speed": 5.2,
            "depth": 0.0
          },
          {
            "time": "2001-01-01T17:02:49.531000+00:00",
            "course": 80.6,
            "speed": 5.7,
            "depth": 0.0
          },
          {
            "time": "2001-01-01T17:03:49.531000+00:00",
            "course": 79.8,
            "speed": 6.1,
            "depth": 0.0
          },
          {
            "time": "2001-01-01T17:04:49.531000+00:00",
            "course": 81.4,
            "speed": 6.3,
            "depth": 0.0
          },
          {
            "time": "2001-01-01T17:05:49.531000+00:00",
            "course": 83.4,
            "speed": 6.3,
            "depth": 0.0
          },
          {
            "time": "2001-01-01T17:06:49.531000+00:00",
            "course": 80.8,
            "speed": 6.3,
            "depth": 0.0
          },
          {
            "time": "2001-01-01T17:07:49.437000+00:00",
            "course": 84.1,
            "speed": 6.4,
            "depth": 0.0
          },
          {
            "time": "2001-01-01T17:08:49.531000+00:00",
            "course": 79.5,
            "speed": 6.4,
            "depth": 0.0
          },
          {
            "time": "2001-01-01T17:09:49.531000+00:00",
            "course": 81.5,
            "speed": 6.4,
            "depth": 0.0
          },
          {
            "time": "2001-01-01T17:10:49.531000+00:00",
            "course": 79.5,
            "speed": 6.3,
            "depth": 0.0
          },
          {
            "time": "2001-01-01T17:11:49.531000+00:00",
            "course": 79.9,
            "speed": 6.2,
            "depth": 0.0
          },
          {
            "time": "2001-01-01T17:12:49.531000+00:00",
            "course": 82.5,
            "speed": 6.1,
            "depth": 0.0
          },
          {
            "time": "2001-01-01T17:13:49.531000+00:00",
            "course": 79.3,
            "speed": 6.2,
            "depth": 0.0
          },
          {
            "time": "2001-01-01T17:14:49.531000+00:00",
            "course": 82.1,
            "speed": 6.3,
            "depth": 0.0
          },
          {
            "time": "2001-01-01T17:15:49.531000+00:00",
            "course": 76.9,
            "speed": 6.4,
            "depth": 0.0
          },
          {
            "time": "2001-01-01T17:16:49.531000+00:00",
            "course": 80.9,
            "speed": 6.4,
            "depth": 0.0
          },
          {
            "time": "2001-01-01T17:17:49.531000+00:00",
            "course": 78.4,
            "speed": 6.4,
            "depth": 0.0
          },
          {
            "time": "2001-01-01T17:18:49.531000+00:00",
            "course": 79.6,
            "speed": 6.4,
            "depth": 0.0
          },
          {
            "time": "2001-01-01T17:19:49.531000+00:00",
            "course": 80.3,
            "speed": 6.5,
            "depth": 0.0
          },
          {
            "time": "2001-01-01T17:20:49.531000+00:00",
            "course": 74.6,
            "speed": 6.5,
            "depth": 0.0
          },
          {
            "time": "2001-01-01T17:21:49.531000+00:00",
            "course": 81.0,
            "speed": 6.5,
            "depth": 0.0
          },
          {
            "time": "2001-01-01T17:22:49.531000+00:00",
            "course": 73.4,
            "speed": 6.6,
            "depth": 0.0
          },
          {
            "time": "2001-01-01T17:23:49.531000+00:00",
            "course": 82.3,
            "speed": 6.4,
            "depth": 0.0
          },
          {
            "time": "2001-01-01T17:24:49.531000+00:00",
            "course": 74.6,
            "speed": 6.5,
            "depth": 0.0
          },
          {
            "time": "2001-01-01T17:25:49.531000+00:00",
            "course": 81.6,
            "speed": 6.4,
            "depth": 0.0
          },
          {
            "time": "2001-01-01T17:26:49.531000+00:00",
            "course": 77.1,
            "speed": 6.5,
            "depth": 0.0
          },
          {
            "time": "2001-01-01T17:27:49.531000+00:00",
            "course": 79.6,
            "speed": 6.4,
            "depth": 0.0
          },
          {
            "time": "2001-01-01T17:28:49.531000+00:00",
            "course": 80.2,
            "speed": 6.4,
            "depth": 0.0
          },
          {
            "time": "2001-01-01T17:29:49.531000+00:00",
            "course": 77.0,
            "speed": 6.4,
            "depth": 0.0
          },
          {
            "time": "2001-01-01T17:30:49.531000+00:00",
            "course": 82.2,
            "speed": 6.4,
            "depth": 0.0
          },
          {
            "time": "2001-01-01T17:31:49.531000+00:00",
            "course": 75.7,
            "speed": 6.4,
            "depth": 0.0
          },
          {
            "time": "2001-01-01T17:32:49.531000+00:00",
            "course": 83.5,
            "speed": 6.4,
            "depth": 0.0
          },
          {
            "time": "2001-01-01T17:33:49.531000+00:00",
            "course": 78.2,
            "speed": 6.3,
            "depth": 0.0
          },
          {
            "time": "2001-01-01T17:34:49.531000+00:00",
            "course": 82.1,
            "speed": 6.3,
            "depth": 0.0
          },
          {
            "time": "2001-01-01T17:35:49.531000+00:00",
            "course": 75.6,
            "speed": 6.4,
            "depth": 0.0
          },
          {
            "time": "2001-01-01T17:36:49.531000+00:00",
            "course": 80.1,
            "speed": 6.3,
            "depth": 0.0
          },
          {
            "time": "2001-01-01T17:37:49.531000+00:00",
            "course": 77.5,
            "speed": 6.4,
            "depth": 0.0
          },
          {
            "time": "2001-01-01T17:38:49.531000+00:00",
            "course": 79.4,
            "speed": 6.3,
            "depth": 0.0
          },
          {
            "time": "2001-01-01T17:39:49.531000+00:00",
            "course": 81.4,
            "speed": 6.3,
            "depth": 0.0
          },
          {
            "time": "2001-01-01T17:40:49.546000+00:00",
            "course": 73.7,
            "speed": 6.4,
            "depth": 0.0
          },
          {
            "time": "2001-01-01T17:41:49.546000+00:00",
            "course": 82.1,
            "speed": 6.3,
            "depth": 0.0
          },
          {
            "time": "2001-01-01T17:42:49.546000+00:00",
            "course": 73.7,
            "speed": 6.4,
            "depth": 0.0
          },
          {
            "time": "2001-01-01T17:43:49.546000+00:00",
            "course": 82.1,
            "speed": 6.3,
            "depth": 0.0
          },
          {
            "time": "2001-01-01T17:44:49.546000+00:00",
            "course": 77.5,
            "speed": 6.3,
            "depth": 0.0
          },
          {
            "time": "2001-01-01T17:45:49.546000+00:00",
            "course": 82.1,
            "speed": 6.3,
            "depth": 0.0
          },
          {
            "time": "2001-01-01T17:46:49.546000+00:00",
            "course": 75.1,
            "speed": 6.5,
            "depth": 0.0
          },
          {
            "time": "2001-01-01T17:47:49.546000+00:00",
            "course": 80.2,
            "speed": 6.4,
            "depth": 0.0
          },
          {
            "time": "2001-01-01T17:48:49.546000+00:00",
            "course": 79.6,
            "speed": 6.4,
            "depth": 0.0
          },
          {
            "time": "2001-01-01T17:49:49.546000+00:00",
            "course": 78.3,
            "speed": 6.4,
            "depth": 0.0
          },
          {
            "time": "2001-01-01T17:50:49.546000+00:00",
            "course": 92.6,
            "speed": 6.4,
            "depth": 0.0
          },
          {
            "time": "2001-01-01T17:51:49.546000+00:00",
            "course": 86.8,
            "speed": 6.4,
            "depth": 0.0
          },
          {
            "time": "2001-01-01T17:52:49.546000+00:00",
            "course": 90.6,
            "speed": 6.4,
            "depth": 0.0
          },
          {
            "time": "2001-01-01T17:53:49.546000+00:00",
            "course": 89.4,
            "speed": 6.5,
            "depth": 0.0
          },
          {
            "time": "2001-01-01T17:54:49.546000+00:00",
            "course": 90.0,
            "speed": 6.5,
            "depth": 0.0
          },
          {
            "time": "2001-01-01T17:55:49.546000+00:00",
            "course": 90.0,
            "speed": 6.5,
            "depth": 0.0
          },
          {
            "time": "2001-01-01T17:56:49.546000+00:00",
            "course": 86.2,
            "speed": 6.5,
            "depth": 0.0
          },
          {
            "time": "2001-01-01T17:57:49.546000+00:00",
            "course": 91.3,
            "speed": 6.5,
            "depth": 0.0
          },
          {
            "time": "2001-01-01T17:58:49.546000+00:00",
            "course": 88.1,
            "speed": 6.4,
            "depth": 0.0
          },
          {
            "time": "2001-01-01T17:59:49.546000+00:00",
            "course": 91.9,
            "speed": 6.4,
            "depth": 0.0
          },
          {
            "time": "2001-01-01T18:00:49.546000+00:00",
            "course": 84.2,
            "speed": 6.4,
            "depth": 0.0
          }
        ],
        "style": {
          "line": {
            "color": "#FF0000"
          },
          "point": {
            "shape": "circle",
            "radius": 3.0,
            "fill_color": "#FF0000",
            "color": "#FF0000"
          }
        },
        "default_position_style": {
          "show_symbol": false,
          "symbol": "circle",
          "show_label": false
        },
        "symbol_interval": "PT10M",
        "label_interval": "PT30M",
        "provenance": [
          {
            "activity_id": "df59c753-6534-4edb-a79c-9f6d04673d43",
            "timestamp": "2026-04-13T23:12:32.516650Z",
            "was_generated_by": {
              "tool": "rep-parser",
              "tool_version": "1.0.0",
              "parameters": []
            },
            "used": [],
            "generated": [
              "620e1785-7f36-4c05-8a0e-62b38e7f5536"
            ],
            "execution_duration": "PT0.001766S"
          }
        ]
      }
    }
  ]
}