{
  "type": "FeatureCollection",
  "features": [
    {
      "type": "Feature",
      "id": "15f184a5-401d-4868-97db-c0cb7e8eeb2a",
      "geometry": {
        "type": "LineString",
        "coordinates": [
          [
            -21.697880555555557,
            22.186286111111112
          ],
          [
            -21.70082777777778,
            22.18627222222222
          ],
          [
            -21.729794444444444,
            22.18616388888889
          ],
          [
            -21.753944444444443,
            22.18153888888889
          ],
          [
            -21.783458333333336,
            22.169961111111114
          ],
          [
            -21.82605,
            22.153252777777777
          ],
          [
            -21.86593888888889,
            22.11508611111111
          ],
          [
            -21.842552777777776,
            22.068069444444443
          ],
          [
            -21.759275,
            21.96786111111111
          ],
          [
            -21.592633333333332,
            21.968205555555553
          ],
          [
            -21.59896388888889,
            21.970724999999998
          ],
          [
            -21.605397222222223,
            21.973280555555554
          ],
          [
            -21.611922222222223,
            21.9759
          ],
          [
            -21.618425000000002,
            21.978491666666667
          ],
          [
            -21.627991666666667,
            22.031977777777776
          ],
          [
            -21.764069444444445,
            22.118458333333333
          ],
          [
            -21.749758333333336,
            22.121850000000002
          ],
          [
            -21.755583333333334,
            22.125258333333335
          ],
          [
            -21.754975,
            22.126444444444445
          ],
          [
            -21.7543,
            22.127694444444444
          ],
          [
            -21.75346111111111,
            22.129219444444445
          ],
          [
            -21.75251111111111,
            22.130997222222224
          ],
          [
            -21.75141111111111,
            22.133030555555557
          ],
          [
            -21.750216666666667,
            22.135177777777777
          ],
          [
            -21.749011111111113,
            22.137416666666667
          ],
          [
            -21.74778611111111,
            22.13970833333333
          ],
          [
            -21.746694444444444,
            22.141738888888888
          ]
        ]
      },
      "properties": {
        "kind": "TRACK",
        "platform_id": "NELSON",
        "platform_name": "NELSON",
        "track_type": "CONTACT",
        "start_time": "1995-12-12T05:00:00+00:00",
        "end_time": "1995-12-12T11:41:00+00:00",
        "positions": [
          {
            "time": "1995-12-12T05:00:00+00:00",
            "course": 269.7,
            "speed": 2.0,
            "depth": 0.0
          },
          {
            "time": "1995-12-12T05:01:00+00:00",
            "course": 269.7,
            "speed": 2.0,
            "depth": 0.0
          },
          {
            "time": "1995-12-12T05:09:00+00:00",
            "course": 268.6,
            "speed": 2.0,
            "depth": 0.0
          },
          {
            "time": "1995-12-12T05:16:00+00:00",
            "course": 239.9,
            "speed": 2.0,
            "depth": 0.0
          },
          {
            "time": "1995-12-12T05:25:00+00:00",
            "course": 239.8,
            "speed": 2.0,
            "depth": 0.0
          },
          {
            "time": "1995-12-12T05:38:00+00:00",
            "course": 240.0,
            "speed": 2.0,
            "depth": 0.0
          },
          {
            "time": "1995-12-12T05:59:00+00:00",
            "course": 180.5,
            "speed": 2.0,
            "depth": 0.0
          },
          {
            "time": "1995-12-12T06:19:00+00:00",
            "course": 150.2,
            "speed": 2.0,
            "depth": 0.0
          },
          {
            "time": "1995-12-12T07:45:00+00:00",
            "course": 131.2,
            "speed": 2.0,
            "depth": 0.0
          },
          {
            "time": "1995-12-12T08:44:00+00:00",
            "course": 300.2,
            "speed": 2.0,
            "depth": 0.0
          },
          {
            "time": "1995-12-12T08:46:00+00:00",
            "course": 299.9,
            "speed": 2.0,
            "depth": 0.0
          },
          {
            "time": "1995-12-12T08:48:00+00:00",
            "course": 300.0,
            "speed": 2.0,
            "depth": 0.0
          },
          {
            "time": "1995-12-12T08:50:00+00:00",
            "course": 299.9,
            "speed": 2.0,
            "depth": 0.0
          },
          {
            "time": "1995-12-12T08:52:00+00:00",
            "course": 299.9,
            "speed": 2.0,
            "depth": 0.0
          },
          {
            "time": "1995-12-12T09:21:00+00:00",
            "course": 60.4,
            "speed": 2.0,
            "depth": 0.0
          },
          {
            "time": "1995-12-12T10:22:00+00:00",
            "course": 280.2,
            "speed": 2.0,
            "depth": 0.0
          },
          {
            "time": "1995-12-12T11:21:00+00:00",
            "course": 151.3,
            "speed": 2.0,
            "depth": 0.0
          },
          {
            "time": "1995-12-12T11:32:00+00:00",
            "course": 19.3,
            "speed": 2.0,
            "depth": 0.0
          },
          {
            "time": "1995-12-12T11:33:00+00:00",
            "course": 20.3,
            "speed": 2.0,
            "depth": 0.0
          },
          {
            "time": "1995-12-12T11:34:00+00:00",
            "course": 20.6,
            "speed": 2.0,
            "depth": 0.0
          },
          {
            "time": "1995-12-12T11:35:00+00:00",
            "course": 20.1,
            "speed": 2.0,
            "depth": 0.0
          },
          {
            "time": "1995-12-12T11:36:00+00:00",
            "course": 20.3,
            "speed": 2.0,
            "depth": 0.0
          },
          {
            "time": "1995-12-12T11:37:00+00:00",
            "course": 20.8,
            "speed": 2.0,
            "depth": 0.0
          },
          {
            "time": "1995-12-12T11:38:00+00:00",
            "course": 20.2,
            "speed": 2.0,
            "depth": 0.0
          },
          {
            "time": "1995-12-12T11:39:00+00:00",
            "course": 20.1,
            "speed": 2.0,
            "depth": 0.0
          },
          {
            "time": "1995-12-12T11:40:00+00:00",
            "course": 20.2,
            "speed": 2.0,
            "depth": 0.0
          },
          {
            "time": "1995-12-12T11:41:00+00:00",
            "course": 20.2,
            "speed": 2.0,
            "depth": 0.0
          }
        ],
        "style": {
          "line": {
            "color": "#FF0000"
          },
          "point": {
            "shape": "circle",
            "radius": 3.0,
            "fill_color": "#FF0000",
            "color": "#FF0000"
          }
        },
        "default_position_style": {
          "show_symbol": false,
          "symbol": "circle",
          "show_label": false
        },
        "symbol_interval": "PT15M",
        "label_interval": "PT1H",
        "provenance": [
          {
            "activity_id": "33807214-a627-4c3f-b8d7-247a6887d12a",
            "timestamp": "2026-04-13T23:12:33.776697Z",
            "was_generated_by": {
              "tool": "rep-parser",
              "tool_version": "1.0.0",
              "parameters": []
            },
            "used": [],
            "generated": [
              "15f184a5-401d-4868-97db-c0cb7e8eeb2a"
            ],
            "execution_duration": "PT0.000228S"
          }
        ]
      }
    }
  ]
}