{
  "type": "FeatureCollection",
  "features": [
    {
      "type": "Feature",
      "id": "ef7250f7-4802-445e-8db8-8e80cabde7ac",
      "geometry": null,
      "properties": {
        "kind": "SENSOR_CONTACT",
        "parent_track": "New_SSK",
        "time": "1970-01-03T03:05:25+00:00",
        "bearing": -85.0,
        "range": 0.0,
        "sensor_name": "New_SSK_BB",
        "label": "some message",
        "provenance": [
          {
            "activity_id": "823c40f5-89b5-496f-bd21-134cb63ea879",
            "timestamp": "2026-03-21T10:15:06.051172Z",
            "was_generated_by": {
              "tool": "dsf-parser",
              "tool_version": "1.0.0",
              "parameters": []
            },
            "used": [],
            "generated": [
              "ef7250f7-4802-445e-8db8-8e80cabde7ac"
            ],
            "execution_duration": "PT0S"
          }
        ]
      }
    },
    {
      "type": "Feature",
      "id": "bd33fe50-a72a-4613-b149-4fa2709d78f9",
      "geometry": null,
      "properties": {
        "kind": "SENSOR_CONTACT",
        "parent_track": "New_SSK",
        "time": "1970-01-03T03:06:25+00:00",
        "bearing": -85.0,
        "range": 0.0,
        "sensor_name": "New_SSK_BB",
        "label": "some message",
        "provenance": [
          {
            "activity_id": "823c40f5-89b5-496f-bd21-134cb63ea879",
            "timestamp": "2026-03-21T10:15:06.051172Z",
            "was_generated_by": {
              "tool": "dsf-parser",
              "tool_version": "1.0.0",
              "parameters": []
            },
            "used": [],
            "generated": [
              "bd33fe50-a72a-4613-b149-4fa2709d78f9"
            ],
            "execution_duration": "PT0S"
          }
        ]
      }
    },
    {
      "type": "Feature",
      "id": "f1e544c9-fddb-4e44-b9fa-1b8479ead3de",
      "geometry": null,
      "properties": {
        "kind": "SENSOR_CONTACT",
        "parent_track": "New_SSK",
        "time": "1970-01-03T03:07:25+00:00",
        "bearing": -85.0,
        "range": 0.0,
        "sensor_name": "New_SSK_BB",
        "label": "some message",
        "provenance": [
          {
            "activity_id": "823c40f5-89b5-496f-bd21-134cb63ea879",
            "timestamp": "2026-03-21T10:15:06.051172Z",
            "was_generated_by": {
              "tool": "dsf-parser",
              "tool_version": "1.0.0",
              "parameters": []
            },
            "used": [],
            "generated": [
              "f1e544c9-fddb-4e44-b9fa-1b8479ead3de"
            ],
            "execution_duration": "PT0S"
          }
        ]
      }
    },
    {
      "type": "Feature",
      "id": "bbeb2ddb-26f9-4afa-bcda-0dda091c89da",
      "geometry": null,
      "properties": {
        "kind": "SENSOR_CONTACT",
        "parent_track": "New_SSK",
        "time": "1970-01-03T03:08:25+00:00",
        "bearing": -85.0,
        "range": 0.0,
        "sensor_name": "New_SSK_BB",
        "label": "some message",
        "provenance": [
          {
            "activity_id": "823c40f5-89b5-496f-bd21-134cb63ea879",
            "timestamp": "2026-03-21T10:15:06.051172Z",
            "was_generated_by": {
              "tool": "dsf-parser",
              "tool_version": "1.0.0",
              "parameters": []
            },
            "used": [],
            "generated": [
              "bbeb2ddb-26f9-4afa-bcda-0dda091c89da"
            ],
            "execution_duration": "PT0S"
          }
        ]
      }
    },
    {
      "type": "Feature",
      "id": "5a5334b5-b6b0-4332-9f41-286b58a67ef1",
      "geometry": null,
      "properties": {
        "kind": "SENSOR_CONTACT",
        "parent_track": "New_SSK",
        "time": "1970-01-03T03:09:25+00:00",
        "bearing": -85.0,
        "range": 0.0,
        "sensor_name": "New_SSK_BB",
        "label": "some message",
        "provenance": [
          {
            "activity_id": "823c40f5-89b5-496f-bd21-134cb63ea879",
            "timestamp": "2026-03-21T10:15:06.051172Z",
            "was_generated_by": {
              "tool": "dsf-parser",
              "tool_version": "1.0.0",
              "parameters": []
            },
            "used": [],
            "generated": [
              "5a5334b5-b6b0-4332-9f41-286b58a67ef1"
            ],
            "execution_duration": "PT0S"
          }
        ]
      }
    },
    {
      "type": "Feature",
      "id": "88750d58-72b6-45c2-ac2e-dc97ed7e5331",
      "geometry": null,
      "properties": {
        "kind": "SENSOR_CONTACT",
        "parent_track": "New_SSK",
        "time": "1970-01-03T03:10:25+00:00",
        "bearing": -86.0,
        "range": 0.0,
        "sensor_name": "New_SSK_BB",
        "label": "some message",
        "provenance": [
          {
            "activity_id": "823c40f5-89b5-496f-bd21-134cb63ea879",
            "timestamp": "2026-03-21T10:15:06.051172Z",
            "was_generated_by": {
              "tool": "dsf-parser",
              "tool_version": "1.0.0",
              "parameters": []
            },
            "used": [],
            "generated": [
              "88750d58-72b6-45c2-ac2e-dc97ed7e5331"
            ],
            "execution_duration": "PT0S"
          }
        ]
      }
    },
    {
      "type": "Feature",
      "id": "31d1989c-f396-48d6-b5ab-b9c6c10a5625",
      "geometry": null,
      "properties": {
        "kind": "SENSOR_CONTACT",
        "parent_track": "New_SSK",
        "time": "1970-01-03T03:11:25+00:00",
        "bearing": -86.0,
        "range": 0.0,
        "sensor_name": "New_SSK_BB",
        "label": "some message",
        "provenance": [
          {
            "activity_id": "823c40f5-89b5-496f-bd21-134cb63ea879",
            "timestamp": "2026-03-21T10:15:06.051172Z",
            "was_generated_by": {
              "tool": "dsf-parser",
              "tool_version": "1.0.0",
              "parameters": []
            },
            "used": [],
            "generated": [
              "31d1989c-f396-48d6-b5ab-b9c6c10a5625"
            ],
            "execution_duration": "PT0S"
          }
        ]
      }
    },
    {
      "type": "Feature",
      "id": "4d5e15bb-8625-4443-abee-c8a6a6791243",
      "geometry": null,
      "properties": {
        "kind": "SENSOR_CONTACT",
        "parent_track": "New_SSK",
        "time": "1970-01-03T03:12:25+00:00",
        "bearing": -86.0,
        "range": 0.0,
        "sensor_name": "New_SSK_BB",
        "label": "some message",
        "provenance": [
          {
            "activity_id": "823c40f5-89b5-496f-bd21-134cb63ea879",
            "timestamp": "2026-03-21T10:15:06.051172Z",
            "was_generated_by": {
              "tool": "dsf-parser",
              "tool_version": "1.0.0",
              "parameters": []
            },
            "used": [],
            "generated": [
              "4d5e15bb-8625-4443-abee-c8a6a6791243"
            ],
            "execution_duration": "PT0S"
          }
        ]
      }
    },
    {
      "type": "Feature",
      "id": "1e5948cf-0a09-4a78-bd0a-6623c3a8323f",
      "geometry": null,
      "properties": {
        "kind": "SENSOR_CONTACT",
        "parent_track": "New_SSK",
        "time": "1970-01-03T03:13:25+00:00",
        "bearing": -87.0,
        "range": 0.0,
        "sensor_name": "New_SSK_BB",
        "label": "some message",
        "provenance": [
          {
            "activity_id": "823c40f5-89b5-496f-bd21-134cb63ea879",
            "timestamp": "2026-03-21T10:15:06.051172Z",
            "was_generated_by": {
              "tool": "dsf-parser",
              "tool_version": "1.0.0",
              "parameters": []
            },
            "used": [],
            "generated": [
              "1e5948cf-0a09-4a78-bd0a-6623c3a8323f"
            ],
            "execution_duration": "PT0S"
          }
        ]
      }
    },
    {
      "type": "Feature",
      "id": "4490cbeb-d8f9-4163-9a1f-f02e424c397c",
      "geometry": null,
      "properties": {
        "kind": "SENSOR_CONTACT",
        "parent_track": "New_SSK",
        "time": "1970-01-03T03:14:25+00:00",
        "bearing": -87.0,
        "range": 0.0,
        "sensor_name": "New_SSK_BB",
        "label": "some message",
        "provenance": [
          {
            "activity_id": "823c40f5-89b5-496f-bd21-134cb63ea879",
            "timestamp": "2026-03-21T10:15:06.051172Z",
            "was_generated_by": {
              "tool": "dsf-parser",
              "tool_version": "1.0.0",
              "parameters": []
            },
            "used": [],
            "generated": [
              "4490cbeb-d8f9-4163-9a1f-f02e424c397c"
            ],
            "execution_duration": "PT0S"
          }
        ]
      }
    },
    {
      "type": "Feature",
      "id": "ffee19f4-e9f9-492e-8eeb-51f34591f94e",
      "geometry": null,
      "properties": {
        "kind": "SENSOR_CONTACT",
        "parent_track": "New_SSK",
        "time": "1970-01-03T03:15:25+00:00",
        "bearing": -87.0,
        "range": 0.0,
        "sensor_name": "New_SSK_BB",
        "label": "some message",
        "provenance": [
          {
            "activity_id": "823c40f5-89b5-496f-bd21-134cb63ea879",
            "timestamp": "2026-03-21T10:15:06.051172Z",
            "was_generated_by": {
              "tool": "dsf-parser",
              "tool_version": "1.0.0",
              "parameters": []
            },
            "used": [],
            "generated": [
              "ffee19f4-e9f9-492e-8eeb-51f34591f94e"
            ],
            "execution_duration": "PT0S"
          }
        ]
      }
    },
    {
      "type": "Feature",
      "id": "6688a258-ae02-427b-9d60-071c47a7a2a1",
      "geometry": null,
      "properties": {
        "kind": "SENSOR_CONTACT",
        "parent_track": "New_SSK",
        "time": "1970-01-03T03:16:25+00:00",
        "bearing": -88.0,
        "range": 0.0,
        "sensor_name": "New_SSK_BB",
        "label": "some message",
        "provenance": [
          {
            "activity_id": "823c40f5-89b5-496f-bd21-134cb63ea879",
            "timestamp": "2026-03-21T10:15:06.051172Z",
            "was_generated_by": {
              "tool": "dsf-parser",
              "tool_version": "1.0.0",
              "parameters": []
            },
            "used": [],
            "generated": [
              "6688a258-ae02-427b-9d60-071c47a7a2a1"
            ],
            "execution_duration": "PT0S"
          }
        ]
      }
    },
    {
      "type": "Feature",
      "id": "e3f116ba-a7a0-482a-a1f1-6da929ee23b8",
      "geometry": null,
      "properties": {
        "kind": "SENSOR_CONTACT",
        "parent_track": "New_SSK",
        "time": "1970-01-03T03:17:25+00:00",
        "bearing": -88.0,
        "range": 0.0,
        "sensor_name": "New_SSK_BB",
        "label": "some message",
        "provenance": [
          {
            "activity_id": "823c40f5-89b5-496f-bd21-134cb63ea879",
            "timestamp": "2026-03-21T10:15:06.051172Z",
            "was_generated_by": {
              "tool": "dsf-parser",
              "tool_version": "1.0.0",
              "parameters": []
            },
            "used": [],
            "generated": [
              "e3f116ba-a7a0-482a-a1f1-6da929ee23b8"
            ],
            "execution_duration": "PT0S"
          }
        ]
      }
    },
    {
      "type": "Feature",
      "id": "5f6309ea-5f68-4c26-b85e-7bb2d228f736",
      "geometry": null,
      "properties": {
        "kind": "SENSOR_CONTACT",
        "parent_track": "New_SSK",
        "time": "1970-01-03T03:18:25+00:00",
        "bearing": -89.0,
        "range": 0.0,
        "sensor_name": "New_SSK_BB",
        "label": "some message",
        "provenance": [
          {
            "activity_id": "823c40f5-89b5-496f-bd21-134cb63ea879",
            "timestamp": "2026-03-21T10:15:06.051172Z",
            "was_generated_by": {
              "tool": "dsf-parser",
              "tool_version": "1.0.0",
              "parameters": []
            },
            "used": [],
            "generated": [
              "5f6309ea-5f68-4c26-b85e-7bb2d228f736"
            ],
            "execution_duration": "PT0S"
          }
        ]
      }
    },
    {
      "type": "Feature",
      "id": "f8eb6702-ae62-4f68-9ad6-706f649e6680",
      "geometry": null,
      "properties": {
        "kind": "SENSOR_CONTACT",
        "parent_track": "New_SSK",
        "time": "1970-01-03T03:19:25+00:00",
        "bearing": -89.0,
        "range": 0.0,
        "sensor_name": "New_SSK_BB",
        "label": "some message",
        "provenance": [
          {
            "activity_id": "823c40f5-89b5-496f-bd21-134cb63ea879",
            "timestamp": "2026-03-21T10:15:06.051172Z",
            "was_generated_by": {
              "tool": "dsf-parser",
              "tool_version": "1.0.0",
              "parameters": []
            },
            "used": [],
            "generated": [
              "f8eb6702-ae62-4f68-9ad6-706f649e6680"
            ],
            "execution_duration": "PT0S"
          }
        ]
      }
    }
  ]
}
