{
  "type": "FeatureCollection",
  "features": [
    {
      "type": "Feature",
      "id": "a11fc7c6-9c2b-4d4c-8c76-a2e60944b83f",
      "geometry": {
        "type": "LineString",
        "coordinates": [
          [
            0.02385,
            60.3945139
          ],
          [
            0.0302278,
            60.3934222
          ],
          [
            0.0366028,
            60.3923333
          ],
          [
            0.0429806,
            60.3912444
          ],
          [
            0.0493556,
            60.3901528
          ],
          [
            0.0557306,
            60.3890639
          ],
          [
            0.0621056,
            60.387975
          ],
          [
            0.0684806,
            60.3868833
          ],
          [
            0.0748556,
            60.3857944
          ],
          [
            0.0812306,
            60.3847056
          ],
          [
            0.0876056,
            60.3836139
          ],
          [
            0.0939806,
            60.382525
          ],
          [
            0.1003528,
            60.3814361
          ],
          [
            0.1067278,
            60.3803472
          ],
          [
            0.1131,
            60.3792556
          ],
          [
            0.119475,
            60.3781667
          ],
          [
            0.1258472,
            60.3770778
          ],
          [
            0.1322194,
            60.3759861
          ],
          [
            0.1385944,
            60.3748972
          ],
          [
            0.1449667,
            60.3738083
          ],
          [
            0.1513389,
            60.3727167
          ],
          [
            0.1577889,
            60.3731333
          ],
          [
            0.1609917,
            60.3759333
          ],
          [
            0.1583917,
            60.3788806
          ],
          [
            0.1520556,
            60.3798056
          ],
          [
            0.145325,
            60.3800111
          ],
          [
            0.1385917,
            60.3802139
          ],
          [
            0.1318611,
            60.3804194
          ],
          [
            0.1251278,
            60.3806222
          ],
          [
            0.1183972,
            60.380825
          ],
          [
            0.1116667,
            60.3810306
          ],
          [
            0.1060333,
            60.3826389
          ],
          [
            0.10525,
            60.3858306
          ],
          [
            0.1099417,
            60.3880583
          ],
          [
            0.1166444,
            60.3883833
          ],
          [
            0.123375,
            60.3886056
          ],
          [
            0.1301056,
            60.3888278
          ],
          [
            0.1368361,
            60.38905
          ],
          [
            0.1435667,
            60.3892722
          ],
          [
            0.1503,
            60.3894944
          ],
          [
            0.1570306,
            60.3897167
          ],
          [
            0.1637611,
            60.3899389
          ],
          [
            0.1704917,
            60.3901611
          ],
          [
            0.177225,
            60.3903833
          ],
          [
            0.1839556,
            60.3906056
          ],
          [
            0.1906861,
            60.3908278
          ],
          [
            0.1974194,
            60.39105
          ],
          [
            0.20415,
            60.3912722
          ],
          [
            0.2108833,
            60.3914972
          ],
          [
            0.2176139,
            60.3917194
          ],
          [
            0.2243444,
            60.3919417
          ],
          [
            0.2310778,
            60.3921639
          ],
          [
            0.2378083,
            60.3923861
          ],
          [
            0.2438139,
            60.3911444
          ],
          [
            0.2465,
            60.3881111
          ],
          [
            0.2487222,
            60.3849639
          ],
          [
            0.2509444,
            60.3818167
          ],
          [
            0.2531667,
            60.3786694
          ],
          [
            0.2553889,
            60.3755222
          ],
          [
            0.2576111,
            60.372375
          ],
          [
            0.2598333,
            60.3692278
          ],
          [
            0.2620556,
            60.3660806
          ],
          [
            0.2642778,
            60.3629333
          ],
          [
            0.2664972,
            60.3597861
          ],
          [
            0.2687194,
            60.3566389
          ],
          [
            0.2709389,
            60.3534917
          ],
          [
            0.2731611,
            60.3503444
          ],
          [
            0.2753806,
            60.3471972
          ],
          [
            0.2776,
            60.34405
          ],
          [
            0.2798194,
            60.3409028
          ],
          [
            0.2820389,
            60.3377556
          ],
          [
            0.2842583,
            60.3346083
          ],
          [
            0.2864778,
            60.3314611
          ],
          [
            0.2886972,
            60.3283139
          ],
          [
            0.2909167,
            60.3251667
          ],
          [
            0.2931333,
            60.3220194
          ],
          [
            0.2953528,
            60.3188722
          ],
          [
            0.2975722,
            60.315725
          ],
          [
            0.2997889,
            60.3125778
          ],
          [
            0.3020056,
            60.3094306
          ],
          [
            0.304225,
            60.3062833
          ],
          [
            0.3064417,
            60.3031361
          ],
          [
            0.3086583,
            60.2999889
          ],
          [
            0.310875,
            60.2968417
          ],
          [
            0.3130917,
            60.2936944
          ],
          [
            0.3153083,
            60.2905472
          ],
          [
            0.317525,
            60.2874
          ],
          [
            0.3197417,
            60.2842528
          ],
          [
            0.3219556,
            60.2811056
          ],
          [
            0.3241722,
            60.2779583
          ],
          [
            0.3263889,
            60.2748111
          ],
          [
            0.3286028,
            60.2716639
          ],
          [
            0.3308167,
            60.2685167
          ],
          [
            0.3330333,
            60.2653722
          ],
          [
            0.3352472,
            60.262225
          ],
          [
            0.3374611,
            60.2590778
          ],
          [
            0.339675,
            60.2559306
          ],
          [
            0.3418889,
            60.2527833
          ],
          [
            0.3441028,
            60.2496361
          ],
          [
            0.3463167,
            60.2464889
          ],
          [
            0.3485306,
            60.2433417
          ],
          [
            0.3507417,
            60.2401944
          ],
          [
            0.3529556,
            60.2370472
          ],
          [
            0.3551667,
            60.2339
          ],
          [
            0.3573806,
            60.2307528
          ],
          [
            0.3595917,
            60.2276056
          ],
          [
            0.3618056,
            60.2244583
          ],
          [
            0.3640167,
            60.2213111
          ],
          [
            0.3662278,
            60.2181639
          ],
          [
            0.3684389,
            60.2150167
          ],
          [
            0.37065,
            60.2118694
          ],
          [
            0.3728611,
            60.2087222
          ],
          [
            0.3750722,
            60.205575
          ],
          [
            0.3772833,
            60.2024278
          ]
        ]
      },
      "properties": {
        "kind": "TRACK",
        "platform_id": "SUBJECT",
        "platform_name": "SUBJECT",
        "track_type": "CONTACT",
        "start_time": "2010-01-12T12:08:00+00:00",
        "end_time": "2010-01-12T15:54:00+00:00",
        "positions": [
          {
            "time": "2010-01-12T12:08:00+00:00",
            "course": 109.08,
            "speed": 6.0,
            "depth": 0.0
          },
          {
            "time": "2010-01-12T12:10:00+00:00",
            "course": 109.08,
            "speed": 6.0,
            "depth": 0.0
          },
          {
            "time": "2010-01-12T12:12:00+00:00",
            "course": 109.08,
            "speed": 6.0,
            "depth": 0.0
          },
          {
            "time": "2010-01-12T12:14:00+00:00",
            "course": 109.08,
            "speed": 6.0,
            "depth": 0.0
          },
          {
            "time": "2010-01-12T12:16:00+00:00",
            "course": 109.08,
            "speed": 6.0,
            "depth": 0.0
          },
          {
            "time": "2010-01-12T12:18:00+00:00",
            "course": 109.08,
            "speed": 6.0,
            "depth": 0.0
          },
          {
            "time": "2010-01-12T12:20:00+00:00",
            "course": 109.08,
            "speed": 6.0,
            "depth": 0.0
          },
          {
            "time": "2010-01-12T12:22:00+00:00",
            "course": 109.08,
            "speed": 6.0,
            "depth": 0.0
          },
          {
            "time": "2010-01-12T12:24:00+00:00",
            "course": 109.08,
            "speed": 6.0,
            "depth": 0.0
          },
          {
            "time": "2010-01-12T12:26:00+00:00",
            "course": 109.08,
            "speed": 6.0,
            "depth": 0.0
          },
          {
            "time": "2010-01-12T12:28:00+00:00",
            "course": 109.08,
            "speed": 6.0,
            "depth": 0.0
          },
          {
            "time": "2010-01-12T12:30:00+00:00",
            "course": 109.08,
            "speed": 6.0,
            "depth": 0.0
          },
          {
            "time": "2010-01-12T12:32:00+00:00",
            "course": 109.08,
            "speed": 6.0,
            "depth": 0.0
          },
          {
            "time": "2010-01-12T12:34:00+00:00",
            "course": 109.08,
            "speed": 6.0,
            "depth": 0.0
          },
          {
            "time": "2010-01-12T12:36:00+00:00",
            "course": 109.08,
            "speed": 6.0,
            "depth": 0.0
          },
          {
            "time": "2010-01-12T12:38:00+00:00",
            "course": 109.08,
            "speed": 6.0,
            "depth": 0.0
          },
          {
            "time": "2010-01-12T12:40:00+00:00",
            "course": 109.08,
            "speed": 6.0,
            "depth": 0.0
          },
          {
            "time": "2010-01-12T12:42:00+00:00",
            "course": 109.08,
            "speed": 6.0,
            "depth": 0.0
          },
          {
            "time": "2010-01-12T12:44:00+00:00",
            "course": 109.08,
            "speed": 6.0,
            "depth": 0.0
          },
          {
            "time": "2010-01-12T12:46:00+00:00",
            "course": 109.08,
            "speed": 6.0,
            "depth": 0.0
          },
          {
            "time": "2010-01-12T12:48:00+00:00",
            "course": 109.08,
            "speed": 6.0,
            "depth": 0.0
          },
          {
            "time": "2010-01-12T12:50:00+00:00",
            "course": 56.03,
            "speed": 6.0,
            "depth": 0.0
          },
          {
            "time": "2010-01-12T12:52:00+00:00",
            "course": 2.97,
            "speed": 6.0,
            "depth": 0.0
          },
          {
            "time": "2010-01-12T12:54:00+00:00",
            "course": 309.92,
            "speed": 6.0,
            "depth": 0.0
          },
          {
            "time": "2010-01-12T12:56:00+00:00",
            "course": 275.06,
            "speed": 6.0,
            "depth": 0.0
          },
          {
            "time": "2010-01-12T12:58:00+00:00",
            "course": 273.51,
            "speed": 6.0,
            "depth": 0.0
          },
          {
            "time": "2010-01-12T13:00:00+00:00",
            "course": 273.51,
            "speed": 6.0,
            "depth": 0.0
          },
          {
            "time": "2010-01-12T13:02:00+00:00",
            "course": 273.51,
            "speed": 6.0,
            "depth": 0.0
          },
          {
            "time": "2010-01-12T13:04:00+00:00",
            "course": 273.51,
            "speed": 6.0,
            "depth": 0.0
          },
          {
            "time": "2010-01-12T13:06:00+00:00",
            "course": 273.51,
            "speed": 6.0,
            "depth": 0.0
          },
          {
            "time": "2010-01-12T13:08:00+00:00",
            "course": 273.51,
            "speed": 6.0,
            "depth": 0.0
          },
          {
            "time": "2010-01-12T13:10:00+00:00",
            "course": 326.56,
            "speed": 6.0,
            "depth": 0.0
          },
          {
            "time": "2010-01-12T13:12:00+00:00",
            "course": 19.62,
            "speed": 6.0,
            "depth": 0.0
          },
          {
            "time": "2010-01-12T13:14:00+00:00",
            "course": 72.67,
            "speed": 6.0,
            "depth": 0.0
          },
          {
            "time": "2010-01-12T13:16:00+00:00",
            "course": 86.09,
            "speed": 6.0,
            "depth": 0.0
          },
          {
            "time": "2010-01-12T13:18:00+00:00",
            "course": 86.18,
            "speed": 6.0,
            "depth": 0.0
          },
          {
            "time": "2010-01-12T13:20:00+00:00",
            "course": 86.18,
            "speed": 6.0,
            "depth": 0.0
          },
          {
            "time": "2010-01-12T13:22:00+00:00",
            "course": 86.18,
            "speed": 6.0,
            "depth": 0.0
          },
          {
            "time": "2010-01-12T13:24:00+00:00",
            "course": 86.18,
            "speed": 6.0,
            "depth": 0.0
          },
          {
            "time": "2010-01-12T13:26:00+00:00",
            "course": 86.18,
            "speed": 6.0,
            "depth": 0.0
          },
          {
            "time": "2010-01-12T13:28:00+00:00",
            "course": 86.18,
            "speed": 6.0,
            "depth": 0.0
          },
          {
            "time": "2010-01-12T13:30:00+00:00",
            "course": 86.18,
            "speed": 6.0,
            "depth": 0.0
          },
          {
            "time": "2010-01-12T13:32:00+00:00",
            "course": 86.18,
            "speed": 6.0,
            "depth": 0.0
          },
          {
            "time": "2010-01-12T13:34:00+00:00",
            "course": 86.18,
            "speed": 6.0,
            "depth": 0.0
          },
          {
            "time": "2010-01-12T13:36:00+00:00",
            "course": 86.18,
            "speed": 6.0,
            "depth": 0.0
          },
          {
            "time": "2010-01-12T13:38:00+00:00",
            "course": 86.18,
            "speed": 6.0,
            "depth": 0.0
          },
          {
            "time": "2010-01-12T13:40:00+00:00",
            "course": 86.18,
            "speed": 6.0,
            "depth": 0.0
          },
          {
            "time": "2010-01-12T13:42:00+00:00",
            "course": 86.18,
            "speed": 6.0,
            "depth": 0.0
          },
          {
            "time": "2010-01-12T13:44:00+00:00",
            "course": 86.18,
            "speed": 6.0,
            "depth": 0.0
          },
          {
            "time": "2010-01-12T13:46:00+00:00",
            "course": 86.18,
            "speed": 6.0,
            "depth": 0.0
          },
          {
            "time": "2010-01-12T13:48:00+00:00",
            "course": 86.18,
            "speed": 6.0,
            "depth": 0.0
          },
          {
            "time": "2010-01-12T13:50:00+00:00",
            "course": 86.18,
            "speed": 6.0,
            "depth": 0.0
          },
          {
            "time": "2010-01-12T13:52:00+00:00",
            "course": 86.18,
            "speed": 6.0,
            "depth": 0.0
          },
          {
            "time": "2010-01-12T13:54:00+00:00",
            "course": 139.23,
            "speed": 6.0,
            "depth": 0.0
          },
          {
            "time": "2010-01-12T13:56:00+00:00",
            "course": 160.69,
            "speed": 6.0,
            "depth": 0.0
          },
          {
            "time": "2010-01-12T13:58:00+00:00",
            "course": 160.76,
            "speed": 6.0,
            "depth": 0.0
          },
          {
            "time": "2010-01-12T14:00:00+00:00",
            "course": 160.76,
            "speed": 6.0,
            "depth": 0.0
          },
          {
            "time": "2010-01-12T14:02:00+00:00",
            "course": 160.76,
            "speed": 6.0,
            "depth": 0.0
          },
          {
            "time": "2010-01-12T14:04:00+00:00",
            "course": 160.76,
            "speed": 6.0,
            "depth": 0.0
          },
          {
            "time": "2010-01-12T14:06:00+00:00",
            "course": 160.76,
            "speed": 6.0,
            "depth": 0.0
          },
          {
            "time": "2010-01-12T14:08:00+00:00",
            "course": 160.76,
            "speed": 6.0,
            "depth": 0.0
          },
          {
            "time": "2010-01-12T14:10:00+00:00",
            "course": 160.76,
            "speed": 6.0,
            "depth": 0.0
          },
          {
            "time": "2010-01-12T14:12:00+00:00",
            "course": 160.76,
            "speed": 6.0,
            "depth": 0.0
          },
          {
            "time": "2010-01-12T14:14:00+00:00",
            "course": 160.76,
            "speed": 6.0,
            "depth": 0.0
          },
          {
            "time": "2010-01-12T14:16:00+00:00",
            "course": 160.76,
            "speed": 6.0,
            "depth": 0.0
          },
          {
            "time": "2010-01-12T14:18:00+00:00",
            "course": 160.76,
            "speed": 6.0,
            "depth": 0.0
          },
          {
            "time": "2010-01-12T14:20:00+00:00",
            "course": 160.76,
            "speed": 6.0,
            "depth": 0.0
          },
          {
            "time": "2010-01-12T14:22:00+00:00",
            "course": 160.76,
            "speed": 6.0,
            "depth": 0.0
          },
          {
            "time": "2010-01-12T14:24:00+00:00",
            "course": 160.76,
            "speed": 6.0,
            "depth": 0.0
          },
          {
            "time": "2010-01-12T14:26:00+00:00",
            "course": 160.76,
            "speed": 6.0,
            "depth": 0.0
          },
          {
            "time": "2010-01-12T14:28:00+00:00",
            "course": 160.76,
            "speed": 6.0,
            "depth": 0.0
          },
          {
            "time": "2010-01-12T14:30:00+00:00",
            "course": 160.76,
            "speed": 6.0,
            "depth": 0.0
          },
          {
            "time": "2010-01-12T14:32:00+00:00",
            "course": 160.76,
            "speed": 6.0,
            "depth": 0.0
          },
          {
            "time": "2010-01-12T14:34:00+00:00",
            "course": 160.76,
            "speed": 6.0,
            "depth": 0.0
          },
          {
            "time": "2010-01-12T14:36:00+00:00",
            "course": 160.76,
            "speed": 6.0,
            "depth": 0.0
          },
          {
            "time": "2010-01-12T14:38:00+00:00",
            "course": 160.76,
            "speed": 6.0,
            "depth": 0.0
          },
          {
            "time": "2010-01-12T14:40:00+00:00",
            "course": 160.76,
            "speed": 6.0,
            "depth": 0.0
          },
          {
            "time": "2010-01-12T14:42:00+00:00",
            "course": 160.76,
            "speed": 6.0,
            "depth": 0.0
          },
          {
            "time": "2010-01-12T14:44:00+00:00",
            "course": 160.76,
            "speed": 6.0,
            "depth": 0.0
          },
          {
            "time": "2010-01-12T14:46:00+00:00",
            "course": 160.76,
            "speed": 6.0,
            "depth": 0.0
          },
          {
            "time": "2010-01-12T14:48:00+00:00",
            "course": 160.76,
            "speed": 6.0,
            "depth": 0.0
          },
          {
            "time": "2010-01-12T14:50:00+00:00",
            "course": 160.76,
            "speed": 6.0,
            "depth": 0.0
          },
          {
            "time": "2010-01-12T14:52:00+00:00",
            "course": 160.76,
            "speed": 6.0,
            "depth": 0.0
          },
          {
            "time": "2010-01-12T14:54:00+00:00",
            "course": 160.76,
            "speed": 6.0,
            "depth": 0.0
          },
          {
            "time": "2010-01-12T14:56:00+00:00",
            "course": 160.76,
            "speed": 6.0,
            "depth": 0.0
          },
          {
            "time": "2010-01-12T14:58:00+00:00",
            "course": 160.76,
            "speed": 6.0,
            "depth": 0.0
          },
          {
            "time": "2010-01-12T15:00:00+00:00",
            "course": 160.76,
            "speed": 6.0,
            "depth": 0.0
          },
          {
            "time": "2010-01-12T15:02:00+00:00",
            "course": 160.76,
            "speed": 6.0,
            "depth": 0.0
          },
          {
            "time": "2010-01-12T15:04:00+00:00",
            "course": 160.76,
            "speed": 6.0,
            "depth": 0.0
          },
          {
            "time": "2010-01-12T15:06:00+00:00",
            "course": 160.76,
            "speed": 6.0,
            "depth": 0.0
          },
          {
            "time": "2010-01-12T15:08:00+00:00",
            "course": 160.76,
            "speed": 6.0,
            "depth": 0.0
          },
          {
            "time": "2010-01-12T15:10:00+00:00",
            "course": 160.76,
            "speed": 6.0,
            "depth": 0.0
          },
          {
            "time": "2010-01-12T15:12:00+00:00",
            "course": 160.76,
            "speed": 6.0,
            "depth": 0.0
          },
          {
            "time": "2010-01-12T15:14:00+00:00",
            "course": 160.76,
            "speed": 6.0,
            "depth": 0.0
          },
          {
            "time": "2010-01-12T15:16:00+00:00",
            "course": 160.76,
            "speed": 6.0,
            "depth": 0.0
          },
          {
            "time": "2010-01-12T15:18:00+00:00",
            "course": 160.76,
            "speed": 6.0,
            "depth": 0.0
          },
          {
            "time": "2010-01-12T15:20:00+00:00",
            "course": 160.76,
            "speed": 6.0,
            "depth": 0.0
          },
          {
            "time": "2010-01-12T15:22:00+00:00",
            "course": 160.76,
            "speed": 6.0,
            "depth": 0.0
          },
          {
            "time": "2010-01-12T15:24:00+00:00",
            "course": 160.76,
            "speed": 6.0,
            "depth": 0.0
          },
          {
            "time": "2010-01-12T15:26:00+00:00",
            "course": 160.76,
            "speed": 6.0,
            "depth": 0.0
          },
          {
            "time": "2010-01-12T15:28:00+00:00",
            "course": 160.76,
            "speed": 6.0,
            "depth": 0.0
          },
          {
            "time": "2010-01-12T15:30:00+00:00",
            "course": 160.76,
            "speed": 6.0,
            "depth": 0.0
          },
          {
            "time": "2010-01-12T15:32:00+00:00",
            "course": 160.76,
            "speed": 6.0,
            "depth": 0.0
          },
          {
            "time": "2010-01-12T15:34:00+00:00",
            "course": 160.76,
            "speed": 6.0,
            "depth": 0.0
          },
          {
            "time": "2010-01-12T15:36:00+00:00",
            "course": 160.76,
            "speed": 6.0,
            "depth": 0.0
          },
          {
            "time": "2010-01-12T15:38:00+00:00",
            "course": 160.76,
            "speed": 6.0,
            "depth": 0.0
          },
          {
            "time": "2010-01-12T15:40:00+00:00",
            "course": 160.76,
            "speed": 6.0,
            "depth": 0.0
          },
          {
            "time": "2010-01-12T15:42:00+00:00",
            "course": 160.76,
            "speed": 6.0,
            "depth": 0.0
          },
          {
            "time": "2010-01-12T15:44:00+00:00",
            "course": 160.76,
            "speed": 6.0,
            "depth": 0.0
          },
          {
            "time": "2010-01-12T15:46:00+00:00",
            "course": 160.76,
            "speed": 6.0,
            "depth": 0.0
          },
          {
            "time": "2010-01-12T15:48:00+00:00",
            "course": 160.76,
            "speed": 6.0,
            "depth": 0.0
          },
          {
            "time": "2010-01-12T15:50:00+00:00",
            "course": 160.76,
            "speed": 6.0,
            "depth": 0.0
          },
          {
            "time": "2010-01-12T15:52:00+00:00",
            "course": 160.76,
            "speed": 6.0,
            "depth": 0.0
          },
          {
            "time": "2010-01-12T15:54:00+00:00",
            "course": 160.76,
            "speed": 6.0,
            "depth": 0.0
          }
        ],
        "style": {
          "line": {
            "color": "#808080"
          },
          "point": {
            "shape": "circle",
            "radius": 3.0,
            "fill_color": "#808080",
            "color": "#808080"
          }
        },
        "default_position_style": {
          "show_symbol": false,
          "symbol": "circle",
          "show_label": false
        },
        "symbol_interval": "PT10M",
        "label_interval": "PT30M",
        "provenance": [
          {
            "activity_id": "c334b24f-dd79-49d9-baed-e65848fc8c20",
            "timestamp": "2026-04-13T23:12:29.897801Z",
            "was_generated_by": {
              "tool": "dpf-parser",
              "tool_version": "1.0.0",
              "parameters": []
            },
            "used": [],
            "generated": [
              "a11fc7c6-9c2b-4d4c-8c76-a2e60944b83f"
            ],
            "execution_duration": "PT0.003493S"
          }
        ]
      }
    },
    {
      "type": "Feature",
      "id": "3da3a514-5231-4d75-bb40-10afba6d6ac9",
      "geometry": {
        "type": "LineString",
        "coordinates": [
          [
            0.5999111,
            60.4822278
          ],
          [
            0.5999361,
            60.4777833
          ],
          [
            0.5999611,
            60.4733389
          ],
          [
            0.5999861,
            60.4688944
          ],
          [
            0.5965028,
            60.4649306
          ],
          [
            0.5882389,
            60.4634722
          ],
          [
            0.5792361,
            60.4637111
          ],
          [
            0.5702361,
            60.4639722
          ],
          [
            0.5612361,
            60.4642306
          ],
          [
            0.5522361,
            60.4644889
          ],
          [
            0.5440139,
            60.4629944
          ],
          [
            0.5406472,
            60.4590056
          ],
          [
            0.5422722,
            60.4546389
          ],
          [
            0.5441194,
            60.4502889
          ],
          [
            0.5459639,
            60.4459389
          ],
          [
            0.5478111,
            60.4415889
          ],
          [
            0.5496556,
            60.4372389
          ],
          [
            0.5515,
            60.4328889
          ],
          [
            0.5497167,
            60.4286611
          ],
          [
            0.5422194,
            60.4264306
          ],
          [
            0.5332194,
            60.4263028
          ],
          [
            0.5242167,
            60.4262139
          ],
          [
            0.5152139,
            60.4261222
          ],
          [
            0.5062111,
            60.4260333
          ],
          [
            0.4972083,
            60.4259417
          ],
          [
            0.4882056,
            60.4258528
          ],
          [
            0.4792,
            60.4257611
          ],
          [
            0.4701972,
            60.4256722
          ],
          [
            0.4622472,
            60.4238639
          ],
          [
            0.4588917,
            60.4198
          ],
          [
            0.4568833,
            60.4154667
          ],
          [
            0.4548778,
            60.4111361
          ],
          [
            0.4528722,
            60.4068028
          ],
          [
            0.4508667,
            60.4024694
          ],
          [
            0.4488611,
            60.3981361
          ],
          [
            0.4448083,
            60.3941889
          ],
          [
            0.4402444,
            60.3903583
          ],
          [
            0.4356833,
            60.3865278
          ],
          [
            0.4311222,
            60.3826972
          ],
          [
            0.4265611,
            60.3788667
          ],
          [
            0.4220028,
            60.3750361
          ],
          [
            0.4174417,
            60.3712056
          ],
          [
            0.4163944,
            60.3669167
          ],
          [
            0.4201694,
            60.3628889
          ],
          [
            0.4241083,
            60.3588917
          ],
          [
            0.4280444,
            60.3548972
          ],
          [
            0.4319806,
            60.3509028
          ],
          [
            0.4323472,
            60.3465861
          ],
          [
            0.427625,
            60.3428139
          ],
          [
            0.4226611,
            60.3391083
          ],
          [
            0.4177,
            60.3354056
          ],
          [
            0.4127389,
            60.3317
          ],
          [
            0.4077778,
            60.3279944
          ],
          [
            0.4028194,
            60.3242917
          ],
          [
            0.3978611,
            60.3205861
          ],
          [
            0.3929,
            60.3168806
          ],
          [
            0.3879417,
            60.3131778
          ],
          [
            0.3864361,
            60.3089222
          ],
          [
            0.3899361,
            60.3048361
          ],
          [
            0.3936389,
            60.3007861
          ],
          [
            0.3973417,
            60.2967389
          ],
          [
            0.4010444,
            60.2926917
          ],
          [
            0.4047444,
            60.2886417
          ],
          [
            0.4084472,
            60.2845944
          ],
          [
            0.4085667,
            60.280275
          ],
          [
            0.4033917,
            60.2766611
          ],
          [
            0.3978,
            60.2731861
          ],
          [
            0.3922083,
            60.2697139
          ],
          [
            0.38995,
            60.2655417
          ],
          [
            0.3945806,
            60.2618833
          ],
          [
            0.4021167,
            60.2594806
          ],
          [
            0.4096611,
            60.2570833
          ],
          [
            0.4172028,
            60.2546833
          ],
          [
            0.4247444,
            60.2522861
          ],
          [
            0.4322861,
            60.2498889
          ],
          [
            0.439825,
            60.2474889
          ],
          [
            0.4473667,
            60.2450917
          ],
          [
            0.4549056,
            60.2426944
          ],
          [
            0.4624444,
            60.2402944
          ],
          [
            0.4710389,
            60.2396139
          ],
          [
            0.4779222,
            60.2422694
          ],
          [
            0.4824472,
            60.2461028
          ],
          [
            0.4869583,
            60.2499417
          ],
          [
            0.4914694,
            60.2537833
          ],
          [
            0.4959806,
            60.2576222
          ],
          [
            0.5004944,
            60.2614611
          ],
          [
            0.5050056,
            60.2653
          ],
          [
            0.5060167,
            60.2695917
          ],
          [
            0.5003583,
            60.2728778
          ],
          [
            0.4919083,
            60.2743556
          ],
          [
            0.4834222,
            60.2757861
          ],
          [
            0.4749361,
            60.2772194
          ],
          [
            0.46645,
            60.27865
          ],
          [
            0.4579639,
            60.2800833
          ],
          [
            0.4494778,
            60.2815139
          ],
          [
            0.4409889,
            60.2829472
          ],
          [
            0.4325028,
            60.2843778
          ],
          [
            0.4240139,
            60.2858111
          ],
          [
            0.415525,
            60.2872417
          ],
          [
            0.4070361,
            60.288675
          ],
          [
            0.3985472,
            60.2901056
          ],
          [
            0.3900583,
            60.2915389
          ],
          [
            0.3815694,
            60.2929694
          ],
          [
            0.3730778,
            60.2944028
          ],
          [
            0.3645861,
            60.2958361
          ],
          [
            0.3560972,
            60.2972667
          ],
          [
            0.3476056,
            60.2987
          ],
          [
            0.3391139,
            60.3001306
          ],
          [
            0.3306194,
            60.3015639
          ],
          [
            0.3221278,
            60.3029944
          ],
          [
            0.3136361,
            60.3044278
          ],
          [
            0.3051417,
            60.3058583
          ],
          [
            0.2966472,
            60.3072917
          ],
          [
            0.2881556,
            60.3087222
          ]
        ]
      },
      "properties": {
        "kind": "TRACK",
        "platform_id": "SENSOR",
        "platform_name": "SENSOR",
        "track_type": "CONTACT",
        "start_time": "2010-01-12T12:08:00+00:00",
        "end_time": "2010-01-12T15:54:00+00:00",
        "positions": [
          {
            "time": "2010-01-12T12:08:00+00:00",
            "course": 179.84,
            "speed": 8.0,
            "depth": 0.0
          },
          {
            "time": "2010-01-12T12:10:00+00:00",
            "course": 179.84,
            "speed": 8.0,
            "depth": 0.0
          },
          {
            "time": "2010-01-12T12:12:00+00:00",
            "course": 179.84,
            "speed": 8.0,
            "depth": 0.0
          },
          {
            "time": "2010-01-12T12:14:00+00:00",
            "course": 179.84,
            "speed": 8.0,
            "depth": 0.0
          },
          {
            "time": "2010-01-12T12:16:00+00:00",
            "course": 227.0,
            "speed": 8.0,
            "depth": 0.0
          },
          {
            "time": "2010-01-12T12:18:00+00:00",
            "course": 269.06,
            "speed": 8.0,
            "depth": 0.0
          },
          {
            "time": "2010-01-12T12:20:00+00:00",
            "course": 273.29,
            "speed": 8.0,
            "depth": 0.0
          },
          {
            "time": "2010-01-12T12:22:00+00:00",
            "course": 273.34,
            "speed": 8.0,
            "depth": 0.0
          },
          {
            "time": "2010-01-12T12:24:00+00:00",
            "course": 273.34,
            "speed": 8.0,
            "depth": 0.0
          },
          {
            "time": "2010-01-12T12:26:00+00:00",
            "course": 273.34,
            "speed": 8.0,
            "depth": 0.0
          },
          {
            "time": "2010-01-12T12:28:00+00:00",
            "course": 226.18,
            "speed": 8.0,
            "depth": 0.0
          },
          {
            "time": "2010-01-12T12:30:00+00:00",
            "course": 179.02,
            "speed": 8.0,
            "depth": 0.0
          },
          {
            "time": "2010-01-12T12:32:00+00:00",
            "course": 168.4,
            "speed": 8.0,
            "depth": 0.0
          },
          {
            "time": "2010-01-12T12:34:00+00:00",
            "course": 168.18,
            "speed": 8.0,
            "depth": 0.0
          },
          {
            "time": "2010-01-12T12:36:00+00:00",
            "course": 168.18,
            "speed": 8.0,
            "depth": 0.0
          },
          {
            "time": "2010-01-12T12:38:00+00:00",
            "course": 168.18,
            "speed": 8.0,
            "depth": 0.0
          },
          {
            "time": "2010-01-12T12:40:00+00:00",
            "course": 168.18,
            "speed": 8.0,
            "depth": 0.0
          },
          {
            "time": "2010-01-12T12:42:00+00:00",
            "course": 168.18,
            "speed": 8.0,
            "depth": 0.0
          },
          {
            "time": "2010-01-12T12:44:00+00:00",
            "course": 215.34,
            "speed": 8.0,
            "depth": 0.0
          },
          {
            "time": "2010-01-12T12:46:00+00:00",
            "course": 262.5,
            "speed": 8.0,
            "depth": 0.0
          },
          {
            "time": "2010-01-12T12:48:00+00:00",
            "course": 268.78,
            "speed": 8.0,
            "depth": 0.0
          },
          {
            "time": "2010-01-12T12:50:00+00:00",
            "course": 268.84,
            "speed": 8.0,
            "depth": 0.0
          },
          {
            "time": "2010-01-12T12:52:00+00:00",
            "course": 268.84,
            "speed": 8.0,
            "depth": 0.0
          },
          {
            "time": "2010-01-12T12:54:00+00:00",
            "course": 268.84,
            "speed": 8.0,
            "depth": 0.0
          },
          {
            "time": "2010-01-12T12:56:00+00:00",
            "course": 268.84,
            "speed": 8.0,
            "depth": 0.0
          },
          {
            "time": "2010-01-12T12:58:00+00:00",
            "course": 268.84,
            "speed": 8.0,
            "depth": 0.0
          },
          {
            "time": "2010-01-12T13:00:00+00:00",
            "course": 268.84,
            "speed": 8.0,
            "depth": 0.0
          },
          {
            "time": "2010-01-12T13:02:00+00:00",
            "course": 268.84,
            "speed": 8.0,
            "depth": 0.0
          },
          {
            "time": "2010-01-12T13:04:00+00:00",
            "course": 221.68,
            "speed": 8.0,
            "depth": 0.0
          },
          {
            "time": "2010-01-12T13:06:00+00:00",
            "course": 194.21,
            "speed": 8.0,
            "depth": 0.0
          },
          {
            "time": "2010-01-12T13:08:00+00:00",
            "course": 192.88,
            "speed": 8.0,
            "depth": 0.0
          },
          {
            "time": "2010-01-12T13:10:00+00:00",
            "course": 192.87,
            "speed": 8.0,
            "depth": 0.0
          },
          {
            "time": "2010-01-12T13:12:00+00:00",
            "course": 192.87,
            "speed": 8.0,
            "depth": 0.0
          },
          {
            "time": "2010-01-12T13:14:00+00:00",
            "course": 192.87,
            "speed": 8.0,
            "depth": 0.0
          },
          {
            "time": "2010-01-12T13:16:00+00:00",
            "course": 192.87,
            "speed": 8.0,
            "depth": 0.0
          },
          {
            "time": "2010-01-12T13:18:00+00:00",
            "course": 210.0,
            "speed": 8.0,
            "depth": 0.0
          },
          {
            "time": "2010-01-12T13:20:00+00:00",
            "course": 210.47,
            "speed": 8.0,
            "depth": 0.0
          },
          {
            "time": "2010-01-12T13:22:00+00:00",
            "course": 210.47,
            "speed": 8.0,
            "depth": 0.0
          },
          {
            "time": "2010-01-12T13:24:00+00:00",
            "course": 210.47,
            "speed": 8.0,
            "depth": 0.0
          },
          {
            "time": "2010-01-12T13:26:00+00:00",
            "course": 210.47,
            "speed": 8.0,
            "depth": 0.0
          },
          {
            "time": "2010-01-12T13:28:00+00:00",
            "course": 210.47,
            "speed": 8.0,
            "depth": 0.0
          },
          {
            "time": "2010-01-12T13:30:00+00:00",
            "course": 210.47,
            "speed": 8.0,
            "depth": 0.0
          },
          {
            "time": "2010-01-12T13:32:00+00:00",
            "course": 163.31,
            "speed": 8.0,
            "depth": 0.0
          },
          {
            "time": "2010-01-12T13:34:00+00:00",
            "course": 154.27,
            "speed": 8.0,
            "depth": 0.0
          },
          {
            "time": "2010-01-12T13:36:00+00:00",
            "course": 154.02,
            "speed": 8.0,
            "depth": 0.0
          },
          {
            "time": "2010-01-12T13:38:00+00:00",
            "course": 154.02,
            "speed": 8.0,
            "depth": 0.0
          },
          {
            "time": "2010-01-12T13:40:00+00:00",
            "course": 154.02,
            "speed": 8.0,
            "depth": 0.0
          },
          {
            "time": "2010-01-12T13:42:00+00:00",
            "course": 201.18,
            "speed": 8.0,
            "depth": 0.0
          },
          {
            "time": "2010-01-12T13:44:00+00:00",
            "course": 213.34,
            "speed": 8.0,
            "depth": 0.0
          },
          {
            "time": "2010-01-12T13:46:00+00:00",
            "course": 213.54,
            "speed": 8.0,
            "depth": 0.0
          },
          {
            "time": "2010-01-12T13:48:00+00:00",
            "course": 213.54,
            "speed": 8.0,
            "depth": 0.0
          },
          {
            "time": "2010-01-12T13:50:00+00:00",
            "course": 213.54,
            "speed": 8.0,
            "depth": 0.0
          },
          {
            "time": "2010-01-12T13:52:00+00:00",
            "course": 213.54,
            "speed": 8.0,
            "depth": 0.0
          },
          {
            "time": "2010-01-12T13:54:00+00:00",
            "course": 213.54,
            "speed": 8.0,
            "depth": 0.0
          },
          {
            "time": "2010-01-12T13:56:00+00:00",
            "course": 213.54,
            "speed": 8.0,
            "depth": 0.0
          },
          {
            "time": "2010-01-12T13:58:00+00:00",
            "course": 213.54,
            "speed": 8.0,
            "depth": 0.0
          },
          {
            "time": "2010-01-12T14:00:00+00:00",
            "course": 213.54,
            "speed": 8.0,
            "depth": 0.0
          },
          {
            "time": "2010-01-12T14:02:00+00:00",
            "course": 166.38,
            "speed": 8.0,
            "depth": 0.0
          },
          {
            "time": "2010-01-12T14:04:00+00:00",
            "course": 155.83,
            "speed": 8.0,
            "depth": 0.0
          },
          {
            "time": "2010-01-12T14:06:00+00:00",
            "course": 155.62,
            "speed": 8.0,
            "depth": 0.0
          },
          {
            "time": "2010-01-12T14:08:00+00:00",
            "course": 155.62,
            "speed": 8.0,
            "depth": 0.0
          },
          {
            "time": "2010-01-12T14:10:00+00:00",
            "course": 155.62,
            "speed": 8.0,
            "depth": 0.0
          },
          {
            "time": "2010-01-12T14:12:00+00:00",
            "course": 155.62,
            "speed": 8.0,
            "depth": 0.0
          },
          {
            "time": "2010-01-12T14:14:00+00:00",
            "course": 155.62,
            "speed": 8.0,
            "depth": 0.0
          },
          {
            "time": "2010-01-12T14:16:00+00:00",
            "course": 202.78,
            "speed": 8.0,
            "depth": 0.0
          },
          {
            "time": "2010-01-12T14:18:00+00:00",
            "course": 217.73,
            "speed": 8.0,
            "depth": 0.0
          },
          {
            "time": "2010-01-12T14:20:00+00:00",
            "course": 218.61,
            "speed": 8.0,
            "depth": 0.0
          },
          {
            "time": "2010-01-12T14:22:00+00:00",
            "course": 218.61,
            "speed": 8.0,
            "depth": 0.0
          },
          {
            "time": "2010-01-12T14:24:00+00:00",
            "course": 171.45,
            "speed": 8.0,
            "depth": 0.0
          },
          {
            "time": "2010-01-12T14:26:00+00:00",
            "course": 125.01,
            "speed": 8.0,
            "depth": 0.0
          },
          {
            "time": "2010-01-12T14:28:00+00:00",
            "course": 122.66,
            "speed": 8.0,
            "depth": 0.0
          },
          {
            "time": "2010-01-12T14:30:00+00:00",
            "course": 122.66,
            "speed": 8.0,
            "depth": 0.0
          },
          {
            "time": "2010-01-12T14:32:00+00:00",
            "course": 122.66,
            "speed": 8.0,
            "depth": 0.0
          },
          {
            "time": "2010-01-12T14:34:00+00:00",
            "course": 122.66,
            "speed": 8.0,
            "depth": 0.0
          },
          {
            "time": "2010-01-12T14:36:00+00:00",
            "course": 122.66,
            "speed": 8.0,
            "depth": 0.0
          },
          {
            "time": "2010-01-12T14:38:00+00:00",
            "course": 122.66,
            "speed": 8.0,
            "depth": 0.0
          },
          {
            "time": "2010-01-12T14:40:00+00:00",
            "course": 122.66,
            "speed": 8.0,
            "depth": 0.0
          },
          {
            "time": "2010-01-12T14:42:00+00:00",
            "course": 122.66,
            "speed": 8.0,
            "depth": 0.0
          },
          {
            "time": "2010-01-12T14:44:00+00:00",
            "course": 122.66,
            "speed": 8.0,
            "depth": 0.0
          },
          {
            "time": "2010-01-12T14:46:00+00:00",
            "course": 75.5,
            "speed": 8.0,
            "depth": 0.0
          },
          {
            "time": "2010-01-12T14:48:00+00:00",
            "course": 33.21,
            "speed": 8.0,
            "depth": 0.0
          },
          {
            "time": "2010-01-12T14:50:00+00:00",
            "course": 30.26,
            "speed": 8.0,
            "depth": 0.0
          },
          {
            "time": "2010-01-12T14:52:00+00:00",
            "course": 30.24,
            "speed": 8.0,
            "depth": 0.0
          },
          {
            "time": "2010-01-12T14:54:00+00:00",
            "course": 30.24,
            "speed": 8.0,
            "depth": 0.0
          },
          {
            "time": "2010-01-12T14:56:00+00:00",
            "course": 30.24,
            "speed": 8.0,
            "depth": 0.0
          },
          {
            "time": "2010-01-12T14:58:00+00:00",
            "course": 30.24,
            "speed": 8.0,
            "depth": 0.0
          },
          {
            "time": "2010-01-12T15:00:00+00:00",
            "course": 30.24,
            "speed": 8.0,
            "depth": 0.0
          },
          {
            "time": "2010-01-12T15:02:00+00:00",
            "course": 343.08,
            "speed": 8.0,
            "depth": 0.0
          },
          {
            "time": "2010-01-12T15:04:00+00:00",
            "course": 295.92,
            "speed": 8.0,
            "depth": 0.0
          },
          {
            "time": "2010-01-12T15:06:00+00:00",
            "course": 288.89,
            "speed": 8.0,
            "depth": 0.0
          },
          {
            "time": "2010-01-12T15:08:00+00:00",
            "course": 288.8,
            "speed": 8.0,
            "depth": 0.0
          },
          {
            "time": "2010-01-12T15:10:00+00:00",
            "course": 288.8,
            "speed": 8.0,
            "depth": 0.0
          },
          {
            "time": "2010-01-12T15:12:00+00:00",
            "course": 288.8,
            "speed": 8.0,
            "depth": 0.0
          },
          {
            "time": "2010-01-12T15:14:00+00:00",
            "course": 288.8,
            "speed": 8.0,
            "depth": 0.0
          },
          {
            "time": "2010-01-12T15:16:00+00:00",
            "course": 288.8,
            "speed": 8.0,
            "depth": 0.0
          },
          {
            "time": "2010-01-12T15:18:00+00:00",
            "course": 288.8,
            "speed": 8.0,
            "depth": 0.0
          },
          {
            "time": "2010-01-12T15:20:00+00:00",
            "course": 288.8,
            "speed": 8.0,
            "depth": 0.0
          },
          {
            "time": "2010-01-12T15:22:00+00:00",
            "course": 288.8,
            "speed": 8.0,
            "depth": 0.0
          },
          {
            "time": "2010-01-12T15:24:00+00:00",
            "course": 288.8,
            "speed": 8.0,
            "depth": 0.0
          },
          {
            "time": "2010-01-12T15:26:00+00:00",
            "course": 288.8,
            "speed": 8.0,
            "depth": 0.0
          },
          {
            "time": "2010-01-12T15:28:00+00:00",
            "course": 288.8,
            "speed": 8.0,
            "depth": 0.0
          },
          {
            "time": "2010-01-12T15:30:00+00:00",
            "course": 288.8,
            "speed": 8.0,
            "depth": 0.0
          },
          {
            "time": "2010-01-12T15:32:00+00:00",
            "course": 288.8,
            "speed": 8.0,
            "depth": 0.0
          },
          {
            "time": "2010-01-12T15:34:00+00:00",
            "course": 288.8,
            "speed": 8.0,
            "depth": 0.0
          },
          {
            "time": "2010-01-12T15:36:00+00:00",
            "course": 288.8,
            "speed": 8.0,
            "depth": 0.0
          },
          {
            "time": "2010-01-12T15:38:00+00:00",
            "course": 288.8,
            "speed": 8.0,
            "depth": 0.0
          },
          {
            "time": "2010-01-12T15:40:00+00:00",
            "course": 288.8,
            "speed": 8.0,
            "depth": 0.0
          },
          {
            "time": "2010-01-12T15:42:00+00:00",
            "course": 288.8,
            "speed": 8.0,
            "depth": 0.0
          },
          {
            "time": "2010-01-12T15:44:00+00:00",
            "course": 288.8,
            "speed": 8.0,
            "depth": 0.0
          },
          {
            "time": "2010-01-12T15:46:00+00:00",
            "course": 288.8,
            "speed": 8.0,
            "depth": 0.0
          },
          {
            "time": "2010-01-12T15:48:00+00:00",
            "course": 288.8,
            "speed": 8.0,
            "depth": 0.0
          },
          {
            "time": "2010-01-12T15:50:00+00:00",
            "course": 288.8,
            "speed": 8.0,
            "depth": 0.0
          },
          {
            "time": "2010-01-12T15:52:00+00:00",
            "course": 288.8,
            "speed": 8.0,
            "depth": 0.0
          },
          {
            "time": "2010-01-12T15:54:00+00:00",
            "course": 288.8,
            "speed": 8.0,
            "depth": 0.0
          }
        ],
        "style": {
          "line": {
            "color": "#808080"
          },
          "point": {
            "shape": "circle",
            "radius": 3.0,
            "fill_color": "#808080",
            "color": "#808080"
          }
        },
        "default_position_style": {
          "show_symbol": false,
          "symbol": "circle",
          "show_label": false
        },
        "symbol_interval": "PT10M",
        "label_interval": "PT30M",
        "sensors": [
          {
            "name": "BB",
            "contacts": [
              {
                "time": "2010-01-12T12:00:00+00:00",
                "bearing": 251.33,
                "ambiguous_bearing": 128.67,
                "label": "SUBJECT held on BB"
              },
              {
                "time": "2010-01-12T12:02:00+00:00",
                "bearing": 251.58,
                "ambiguous_bearing": 108.42,
                "label": "SUBJECT held on BB"
              },
              {
                "time": "2010-01-12T12:04:00+00:00",
                "bearing": 251.99,
                "ambiguous_bearing": 107.69,
                "label": "SUBJECT held on BB"
              },
              {
                "time": "2010-01-12T12:06:00+00:00",
                "bearing": 252.41,
                "ambiguous_bearing": 107.26,
                "label": "SUBJECT held on BB"
              },
              {
                "time": "2010-01-12T12:08:00+00:00",
                "bearing": 252.85,
                "ambiguous_bearing": 106.83,
                "label": "SUBJECT held on BB"
              },
              {
                "time": "2010-01-12T12:10:00+00:00",
                "bearing": 253.29,
                "ambiguous_bearing": 106.38,
                "label": "SUBJECT held on BB"
              },
              {
                "time": "2010-01-12T12:12:00+00:00",
                "bearing": 253.75,
                "ambiguous_bearing": 105.92,
                "label": "SUBJECT held on BB"
              },
              {
                "time": "2010-01-12T12:14:00+00:00",
                "bearing": 254.23,
                "ambiguous_bearing": 105.45,
                "label": "SUBJECT held on BB"
              },
              {
                "time": "2010-01-12T12:16:00+00:00",
                "bearing": 254.52,
                "ambiguous_bearing": 199.47,
                "label": "SUBJECT held on BB"
              },
              {
                "time": "2010-01-12T12:18:00+00:00",
                "bearing": 254.19,
                "ambiguous_bearing": 283.92,
                "label": "SUBJECT held on BB"
              },
              {
                "time": "2010-01-12T12:20:00+00:00",
                "bearing": 253.47,
                "ambiguous_bearing": 293.1,
                "label": "SUBJECT held on BB"
              },
              {
                "time": "2010-01-12T12:22:00+00:00",
                "bearing": 252.71,
                "ambiguous_bearing": 293.98,
                "label": "SUBJECT held on BB"
              },
              {
                "time": "2010-01-12T12:24:00+00:00",
                "bearing": 251.91,
                "ambiguous_bearing": 294.78,
                "label": "SUBJECT held on BB"
              },
              {
                "time": "2010-01-12T12:26:00+00:00",
                "bearing": 251.06,
                "ambiguous_bearing": 295.63,
                "label": "SUBJECT held on BB"
              },
              {
                "time": "2010-01-12T12:28:00+00:00",
                "bearing": 250.59,
                "ambiguous_bearing": 201.78,
                "label": "SUBJECT held on BB"
              },
              {
                "time": "2010-01-12T12:30:00+00:00",
                "bearing": 250.87,
                "ambiguous_bearing": 107.17,
                "label": "SUBJECT held on BB"
              },
              {
                "time": "2010-01-12T12:32:00+00:00",
                "bearing": 251.45,
                "ambiguous_bearing": 85.35,
                "label": "SUBJECT held on BB"
              },
              {
                "time": "2010-01-12T12:34:00+00:00",
                "bearing": 252.05,
                "ambiguous_bearing": 84.31,
                "label": "SUBJECT held on BB"
              },
              {
                "time": "2010-01-12T12:36:00+00:00",
                "bearing": 252.67,
                "ambiguous_bearing": 83.69,
                "label": "SUBJECT held on BB"
              },
              {
                "time": "2010-01-12T12:38:00+00:00",
                "bearing": 253.31,
                "ambiguous_bearing": 83.05,
                "label": "SUBJECT held on BB"
              },
              {
                "time": "2010-01-12T12:40:00+00:00",
                "bearing": 253.96,
                "ambiguous_bearing": 82.4,
                "label": "SUBJECT held on BB"
              },
              {
                "time": "2010-01-12T12:42:00+00:00",
                "bearing": 254.63,
                "ambiguous_bearing": 81.72,
                "label": "SUBJECT held on BB"
              },
              {
                "time": "2010-01-12T12:44:00+00:00",
                "bearing": 255.17,
                "ambiguous_bearing": 175.51,
                "label": "SUBJECT held on BB"
              },
              {
                "time": "2010-01-12T12:46:00+00:00",
                "bearing": 254.99,
                "ambiguous_bearing": 270.01,
                "label": "SUBJECT held on BB"
              },
              {
                "time": "2010-01-12T12:48:00+00:00",
                "bearing": 254.14,
                "ambiguous_bearing": 283.42,
                "label": "SUBJECT held on BB"
              },
              {
                "time": "2010-01-12T12:50:00+00:00",
                "bearing": 253.66,
                "ambiguous_bearing": 284.02,
                "label": "SUBJECT held on BB"
              },
              {
                "time": "2010-01-12T12:52:00+00:00",
                "bearing": 253.99,
                "ambiguous_bearing": 283.68,
                "label": "SUBJECT held on BB"
              },
              {
                "time": "2010-01-12T12:54:00+00:00",
                "bearing": 254.65,
                "ambiguous_bearing": 283.03,
                "label": "SUBJECT held on BB"
              },
              {
                "time": "2010-01-12T12:56:00+00:00",
                "bearing": 254.86,
                "ambiguous_bearing": 282.82,
                "label": "SUBJECT held on BB"
              },
              {
                "time": "2010-01-12T12:58:00+00:00",
                "bearing": 254.85,
                "ambiguous_bearing": 282.82,
                "label": "SUBJECT held on BB"
              },
              {
                "time": "2010-01-12T13:00:00+00:00",
                "bearing": 254.85,
                "ambiguous_bearing": 282.83,
                "label": "SUBJECT held on BB"
              },
              {
                "time": "2010-01-12T13:02:00+00:00",
                "bearing": 254.85,
                "ambiguous_bearing": 282.83,
                "label": "SUBJECT held on BB"
              },
              {
                "time": "2010-01-12T13:04:00+00:00",
                "bearing": 255.44,
                "ambiguous_bearing": 187.91,
                "label": "SUBJECT held on BB"
              },
              {
                "time": "2010-01-12T13:06:00+00:00",
                "bearing": 256.95,
                "ambiguous_bearing": 131.47,
                "label": "SUBJECT held on BB"
              },
              {
                "time": "2010-01-12T13:08:00+00:00",
                "bearing": 258.58,
                "ambiguous_bearing": 127.17,
                "label": "SUBJECT held on BB"
              },
              {
                "time": "2010-01-12T13:10:00+00:00",
                "bearing": 260.61,
                "ambiguous_bearing": 125.14,
                "label": "SUBJECT held on BB"
              },
              {
                "time": "2010-01-12T13:12:00+00:00",
                "bearing": 263.04,
                "ambiguous_bearing": 122.71,
                "label": "SUBJECT held on BB"
              },
              {
                "time": "2010-01-12T13:14:00+00:00",
                "bearing": 265.11,
                "ambiguous_bearing": 120.64,
                "label": "SUBJECT held on BB"
              },
              {
                "time": "2010-01-12T13:16:00+00:00",
                "bearing": 266.6,
                "ambiguous_bearing": 119.15,
                "label": "SUBJECT held on BB"
              },
              {
                "time": "2010-01-12T13:18:00+00:00",
                "bearing": 267.99,
                "ambiguous_bearing": 152.01,
                "label": "SUBJECT held on BB"
              },
              {
                "time": "2010-01-12T13:20:00+00:00",
                "bearing": 269.43,
                "ambiguous_bearing": 151.52,
                "label": "SUBJECT held on BB"
              },
              {
                "time": "2010-01-12T13:22:00+00:00",
                "bearing": 270.98,
                "ambiguous_bearing": 149.97,
                "label": "SUBJECT held on BB"
              },
              {
                "time": "2010-01-12T13:24:00+00:00",
                "bearing": 272.65,
                "ambiguous_bearing": 148.3,
                "label": "SUBJECT held on BB"
              },
              {
                "time": "2010-01-12T13:26:00+00:00",
                "bearing": 274.45,
                "ambiguous_bearing": 146.5,
                "label": "SUBJECT held on BB"
              },
              {
                "time": "2010-01-12T13:28:00+00:00",
                "bearing": 276.4,
                "ambiguous_bearing": 144.55,
                "label": "SUBJECT held on BB"
              },
              {
                "time": "2010-01-12T13:30:00+00:00",
                "bearing": 278.5,
                "ambiguous_bearing": 142.45,
                "label": "SUBJECT held on BB"
              },
              {
                "time": "2010-01-12T13:32:00+00:00",
                "bearing": 280.83,
                "ambiguous_bearing": 45.8,
                "label": "SUBJECT held on BB"
              },
              {
                "time": "2010-01-12T13:34:00+00:00",
                "bearing": 282.9,
                "ambiguous_bearing": 25.64,
                "label": "SUBJECT held on BB"
              },
              {
                "time": "2010-01-12T13:36:00+00:00",
                "bearing": 284.96,
                "ambiguous_bearing": 23.07,
                "label": "SUBJECT held on BB"
              },
              {
                "time": "2010-01-12T13:38:00+00:00",
                "bearing": 287.03,
                "ambiguous_bearing": 21.01,
                "label": "SUBJECT held on BB"
              },
              {
                "time": "2010-01-12T13:40:00+00:00",
                "bearing": 289.1,
                "ambiguous_bearing": 18.93,
                "label": "SUBJECT held on BB"
              },
              {
                "time": "2010-01-12T13:42:00+00:00",
                "bearing": 291.61,
                "ambiguous_bearing": 110.75,
                "label": "SUBJECT held on BB"
              },
              {
                "time": "2010-01-12T13:44:00+00:00",
                "bearing": 294.43,
                "ambiguous_bearing": 132.25,
                "label": "SUBJECT held on BB"
              },
              {
                "time": "2010-01-12T13:46:00+00:00",
                "bearing": 297.42,
                "ambiguous_bearing": 129.65,
                "label": "SUBJECT held on BB"
              },
              {
                "time": "2010-01-12T13:48:00+00:00",
                "bearing": 300.6,
                "ambiguous_bearing": 126.48,
                "label": "SUBJECT held on BB"
              },
              {
                "time": "2010-01-12T13:50:00+00:00",
                "bearing": 303.94,
                "ambiguous_bearing": 123.13,
                "label": "SUBJECT held on BB"
              },
              {
                "time": "2010-01-12T13:52:00+00:00",
                "bearing": 307.45,
                "ambiguous_bearing": 119.62,
                "label": "SUBJECT held on BB"
              },
              {
                "time": "2010-01-12T13:54:00+00:00",
                "bearing": 310.37,
                "ambiguous_bearing": 116.71,
                "label": "SUBJECT held on BB"
              },
              {
                "time": "2010-01-12T13:56:00+00:00",
                "bearing": 312.05,
                "ambiguous_bearing": 115.03,
                "label": "SUBJECT held on BB"
              },
              {
                "time": "2010-01-12T13:58:00+00:00",
                "bearing": 313.67,
                "ambiguous_bearing": 113.41,
                "label": "SUBJECT held on BB"
              },
              {
                "time": "2010-01-12T14:00:00+00:00",
                "bearing": 315.36,
                "ambiguous_bearing": 111.71,
                "label": "SUBJECT held on BB"
              },
              {
                "time": "2010-01-12T14:02:00+00:00",
                "bearing": 316.61,
                "ambiguous_bearing": 16.15,
                "label": "SUBJECT held on BB"
              },
              {
                "time": "2010-01-12T14:04:00+00:00",
                "bearing": 316.71,
                "ambiguous_bearing": 354.94,
                "label": "SUBJECT held on BB"
              },
              {
                "time": "2010-01-12T14:06:00+00:00",
                "bearing": 316.76,
                "ambiguous_bearing": 354.48,
                "label": "SUBJECT held on BB"
              },
              {
                "time": "2010-01-12T14:08:00+00:00",
                "bearing": 316.8,
                "ambiguous_bearing": 354.44,
                "label": "SUBJECT held on BB"
              },
              {
                "time": "2010-01-12T14:10:00+00:00",
                "bearing": 316.85,
                "ambiguous_bearing": 354.39,
                "label": "SUBJECT held on BB"
              },
              {
                "time": "2010-01-12T14:12:00+00:00",
                "bearing": 316.89,
                "ambiguous_bearing": 354.35,
                "label": "SUBJECT held on BB"
              },
              {
                "time": "2010-01-12T14:14:00+00:00",
                "bearing": 316.93,
                "ambiguous_bearing": 354.31,
                "label": "SUBJECT held on BB"
              },
              {
                "time": "2010-01-12T14:16:00+00:00",
                "bearing": 317.8,
                "ambiguous_bearing": 87.77,
                "label": "SUBJECT held on BB"
              },
              {
                "time": "2010-01-12T14:18:00+00:00",
                "bearing": 319.51,
                "ambiguous_bearing": 115.96,
                "label": "SUBJECT held on BB"
              },
              {
                "time": "2010-01-12T14:20:00+00:00",
                "bearing": 321.34,
                "ambiguous_bearing": 115.88,
                "label": "SUBJECT held on BB"
              },
              {
                "time": "2010-01-12T14:22:00+00:00",
                "bearing": 323.25,
                "ambiguous_bearing": 113.98,
                "label": "SUBJECT held on BB"
              },
              {
                "time": "2010-01-12T14:24:00+00:00",
                "bearing": 324.67,
                "ambiguous_bearing": 18.24,
                "label": "SUBJECT held on BB"
              },
              {
                "time": "2010-01-12T14:26:00+00:00",
                "bearing": 324.26,
                "ambiguous_bearing": 285.75,
                "label": "SUBJECT held on BB"
              },
              {
                "time": "2010-01-12T14:28:00+00:00",
                "bearing": 322.76,
                "ambiguous_bearing": 282.56,
                "label": "SUBJECT held on BB"
              },
              {
                "time": "2010-01-12T14:30:00+00:00",
                "bearing": 321.29,
                "ambiguous_bearing": 284.03,
                "label": "SUBJECT held on BB"
              },
              {
                "time": "2010-01-12T14:32:00+00:00",
                "bearing": 319.84,
                "ambiguous_bearing": 285.47,
                "label": "SUBJECT held on BB"
              },
              {
                "time": "2010-01-12T14:34:00+00:00",
                "bearing": 318.43,
                "ambiguous_bearing": 286.88,
                "label": "SUBJECT held on BB"
              },
              {
                "time": "2010-01-12T14:36:00+00:00",
                "bearing": 317.05,
                "ambiguous_bearing": 288.26,
                "label": "SUBJECT held on BB"
              },
              {
                "time": "2010-01-12T14:38:00+00:00",
                "bearing": 315.71,
                "ambiguous_bearing": 289.61,
                "label": "SUBJECT held on BB"
              },
              {
                "time": "2010-01-12T14:40:00+00:00",
                "bearing": 314.39,
                "ambiguous_bearing": 290.92,
                "label": "SUBJECT held on BB"
              },
              {
                "time": "2010-01-12T14:42:00+00:00",
                "bearing": 313.12,
                "ambiguous_bearing": 292.2,
                "label": "SUBJECT held on BB"
              },
              {
                "time": "2010-01-12T14:44:00+00:00",
                "bearing": 311.87,
                "ambiguous_bearing": 293.44,
                "label": "SUBJECT held on BB"
              },
              {
                "time": "2010-01-12T14:46:00+00:00",
                "bearing": 309.79,
                "ambiguous_bearing": 201.2,
                "label": "SUBJECT held on BB"
              },
              {
                "time": "2010-01-12T14:48:00+00:00",
                "bearing": 306.62,
                "ambiguous_bearing": 119.8,
                "label": "SUBJECT held on BB"
              },
              {
                "time": "2010-01-12T14:50:00+00:00",
                "bearing": 303.17,
                "ambiguous_bearing": 117.35,
                "label": "SUBJECT held on BB"
              },
              {
                "time": "2010-01-12T14:52:00+00:00",
                "bearing": 299.51,
                "ambiguous_bearing": 120.97,
                "label": "SUBJECT held on BB"
              },
              {
                "time": "2010-01-12T14:54:00+00:00",
                "bearing": 295.68,
                "ambiguous_bearing": 124.8,
                "label": "SUBJECT held on BB"
              },
              {
                "time": "2010-01-12T14:56:00+00:00",
                "bearing": 291.69,
                "ambiguous_bearing": 128.79,
                "label": "SUBJECT held on BB"
              },
              {
                "time": "2010-01-12T14:58:00+00:00",
                "bearing": 287.58,
                "ambiguous_bearing": 132.91,
                "label": "SUBJECT held on BB"
              },
              {
                "time": "2010-01-12T15:00:00+00:00",
                "bearing": 283.37,
                "ambiguous_bearing": 137.11,
                "label": "SUBJECT held on BB"
              },
              {
                "time": "2010-01-12T15:02:00+00:00",
                "bearing": 279.02,
                "ambiguous_bearing": 47.14,
                "label": "SUBJECT held on BB"
              },
              {
                "time": "2010-01-12T15:04:00+00:00",
                "bearing": 275.32,
                "ambiguous_bearing": 316.52,
                "label": "SUBJECT held on BB"
              },
              {
                "time": "2010-01-12T15:06:00+00:00",
                "bearing": 272.48,
                "ambiguous_bearing": 305.31,
                "label": "SUBJECT held on BB"
              },
              {
                "time": "2010-01-12T15:08:00+00:00",
                "bearing": 269.28,
                "ambiguous_bearing": 308.31,
                "label": "SUBJECT held on BB"
              },
              {
                "time": "2010-01-12T15:10:00+00:00",
                "bearing": 265.62,
                "ambiguous_bearing": 311.97,
                "label": "SUBJECT held on BB"
              },
              {
                "time": "2010-01-12T15:12:00+00:00",
                "bearing": 261.43,
                "ambiguous_bearing": 316.16,
                "label": "SUBJECT held on BB"
              },
              {
                "time": "2010-01-12T15:14:00+00:00",
                "bearing": 256.64,
                "ambiguous_bearing": 320.95,
                "label": "SUBJECT held on BB"
              },
              {
                "time": "2010-01-12T15:16:00+00:00",
                "bearing": 251.19,
                "ambiguous_bearing": 326.4,
                "label": "SUBJECT held on BB"
              },
              {
                "time": "2010-01-12T15:18:00+00:00",
                "bearing": 245.06,
                "ambiguous_bearing": 332.53,
                "label": "SUBJECT held on BB"
              },
              {
                "time": "2010-01-12T15:20:00+00:00",
                "bearing": 238.28,
                "ambiguous_bearing": 339.31,
                "label": "SUBJECT held on BB"
              },
              {
                "time": "2010-01-12T15:22:00+00:00",
                "bearing": 230.96,
                "ambiguous_bearing": 346.63,
                "label": "SUBJECT held on BB"
              },
              {
                "time": "2010-01-12T15:24:00+00:00",
                "bearing": 223.29,
                "ambiguous_bearing": 354.31,
                "label": "SUBJECT held on BB"
              },
              {
                "time": "2010-01-12T15:26:00+00:00",
                "bearing": 215.52,
                "ambiguous_bearing": 2.07,
                "label": "SUBJECT held on BB"
              },
              {
                "time": "2010-01-12T15:28:00+00:00",
                "bearing": 207.94,
                "ambiguous_bearing": 9.65,
                "label": "SUBJECT held on BB"
              },
              {
                "time": "2010-01-12T15:30:00+00:00",
                "bearing": 200.8,
                "ambiguous_bearing": 16.8,
                "label": "SUBJECT held on BB"
              },
              {
                "time": "2010-01-12T15:32:00+00:00",
                "bearing": 194.24,
                "ambiguous_bearing": 23.35,
                "label": "SUBJECT held on BB"
              },
              {
                "time": "2010-01-12T15:34:00+00:00",
                "bearing": 188.35,
                "ambiguous_bearing": 29.24,
                "label": "SUBJECT held on BB"
              },
              {
                "time": "2010-01-12T15:36:00+00:00",
                "bearing": 183.14,
                "ambiguous_bearing": 34.45,
                "label": "SUBJECT held on BB"
              },
              {
                "time": "2010-01-12T15:38:00+00:00",
                "bearing": 178.57,
                "ambiguous_bearing": 39.02,
                "label": "SUBJECT held on BB"
              },
              {
                "time": "2010-01-12T15:40:00+00:00",
                "bearing": 174.58,
                "ambiguous_bearing": 43.01,
                "label": "SUBJECT held on BB"
              },
              {
                "time": "2010-01-12T15:42:00+00:00",
                "bearing": 171.09,
                "ambiguous_bearing": 46.5,
                "label": "SUBJECT held on BB"
              },
              {
                "time": "2010-01-12T15:44:00+00:00",
                "bearing": 168.04,
                "ambiguous_bearing": 49.55,
                "label": "SUBJECT held on BB"
              },
              {
                "time": "2010-01-12T15:46:00+00:00",
                "bearing": 165.37,
                "ambiguous_bearing": 52.23,
                "label": "SUBJECT held on BB"
              },
              {
                "time": "2010-01-12T15:48:00+00:00",
                "bearing": 163.01,
                "ambiguous_bearing": 54.59,
                "label": "SUBJECT held on BB"
              },
              {
                "time": "2010-01-12T15:50:00+00:00",
                "bearing": 160.92,
                "ambiguous_bearing": 56.67,
                "label": "SUBJECT held on BB"
              },
              {
                "time": "2010-01-12T15:52:00+00:00",
                "bearing": 159.07,
                "ambiguous_bearing": 58.53,
                "label": "SUBJECT held on BB"
              },
              {
                "time": "2010-01-12T15:54:00+00:00",
                "bearing": 157.41,
                "ambiguous_bearing": 60.18,
                "label": "SUBJECT held on BB"
              },
              {
                "time": "2010-01-12T15:56:00+00:00",
                "bearing": 155.93,
                "ambiguous_bearing": 61.66,
                "label": "SUBJECT held on BB"
              },
              {
                "time": "2010-01-12T15:58:00+00:00",
                "bearing": 154.59,
                "ambiguous_bearing": 63.0,
                "label": "SUBJECT held on BB"
              },
              {
                "time": "2010-01-12T16:00:00+00:00",
                "bearing": 153.38,
                "ambiguous_bearing": 64.21,
                "label": "SUBJECT held on BB"
              }
            ]
          }
        ],
        "provenance": [
          {
            "activity_id": "c334b24f-dd79-49d9-baed-e65848fc8c20",
            "timestamp": "2026-04-13T23:12:29.897801Z",
            "was_generated_by": {
              "tool": "dpf-parser",
              "tool_version": "1.0.0",
              "parameters": []
            },
            "used": [],
            "generated": [
              "3da3a514-5231-4d75-bb40-10afba6d6ac9"
            ],
            "execution_duration": "PT0.003493S"
          }
        ]
      }
    }
  ]
}