{
  "type": "FeatureCollection",
  "features": [
    {
      "type": "Feature",
      "id": "14d66ccd-2973-4f25-821a-df8516735650",
      "geometry": {
        "type": "LineString",
        "coordinates": [
          [
            0.2,
            60.2
          ],
          [
            0.2,
            60.2
          ],
          [
            0.20481944444444444,
            60.20126666666667
          ],
          [
            0.21005000000000001,
            60.20050555555556
          ],
          [
            0.21273333333333336,
            60.19814722222222
          ],
          [
            0.2114916666666667,
            60.19548611111111
          ],
          [
            0.20914166666666667,
            60.19296666666666
          ],
          [
            0.20679166666666668,
            60.19044722222222
          ],
          [
            0.2044388888888889,
            60.18792777777777
          ],
          [
            0.2020888888888889,
            60.18540833333333
          ],
          [
            0.19973888888888888,
            60.18288611111111
          ],
          [
            0.19738888888888886,
            60.180366666666664
          ],
          [
            0.19503888888888887,
            60.17784722222222
          ],
          [
            0.19268888888888888,
            60.175327777777774
          ],
          [
            0.19033888888888886,
            60.17280833333333
          ],
          [
            0.18798888888888887,
            60.17028611111111
          ],
          [
            0.18564166666666665,
            60.167766666666665
          ],
          [
            0.18329166666666666,
            60.16524722222222
          ],
          [
            0.18094166666666667,
            60.162727777777775
          ],
          [
            0.17859444444444444,
            60.16020833333333
          ],
          [
            0.17624444444444443,
            60.15768611111111
          ],
          [
            0.1738972222222222,
            60.155166666666666
          ],
          [
            0.1715472222222222,
            60.15264722222222
          ],
          [
            0.1692,
            60.150127777777776
          ],
          [
            0.16685277777777777,
            60.14760833333333
          ],
          [
            0.16450555555555554,
            60.14508611111111
          ],
          [
            0.16215833333333332,
            60.14256666666667
          ],
          [
            0.1598111111111111,
            60.14004722222222
          ],
          [
            0.15746388888888888,
            60.13752777777778
          ],
          [
            0.15511666666666665,
            60.13500833333333
          ],
          [
            0.15276944444444443,
            60.132488888888886
          ],
          [
            0.1504222222222222,
            60.12996666666667
          ],
          [
            0.148075,
            60.12744722222222
          ],
          [
            0.14573055555555556,
            60.12492777777778
          ],
          [
            0.14175277777777778,
            60.12308055555555
          ],
          [
            0.1363138888888889,
            60.12313611111111
          ],
          [
            0.13196944444444444,
            60.124852777777775
          ],
          [
            0.12786944444444445,
            60.126736111111114
          ],
          [
            0.12376944444444445,
            60.128619444444446
          ],
          [
            0.11966944444444444,
            60.13050277777778
          ],
          [
            0.11557222222222223,
            60.13238611111111
          ],
          [
            0.11147222222222222,
            60.13426944444444
          ],
          [
            0.10737222222222223,
            60.136152777777774
          ],
          [
            0.10327222222222222,
            60.13803611111111
          ],
          [
            0.09916944444444444,
            60.139919444444445
          ],
          [
            0.09506944444444444,
            60.14180277777778
          ],
          [
            0.09096944444444444,
            60.14368611111111
          ],
          [
            0.08686666666666666,
            60.14556944444444
          ],
          [
            0.08276666666666667,
            60.14745277777778
          ],
          [
            0.0786638888888889,
            60.14933888888889
          ],
          [
            0.0745611111111111,
            60.15122222222222
          ],
          [
            0.07046111111111111,
            60.153105555555555
          ],
          [
            0.06635833333333334,
            60.15498888888889
          ],
          [
            0.06225555555555556,
            60.15687222222222
          ],
          [
            0.05815277777777778,
            60.15875555555555
          ],
          [
            0.05405,
            60.16063888888889
          ],
          [
            0.049947222222222226,
            60.16252222222222
          ],
          [
            0.04584166666666667,
            60.164405555555554
          ],
          [
            0.04173888888888889,
            60.166288888888886
          ],
          [
            0.03763333333333333,
            60.16817222222222
          ],
          [
            0.033530555555555557,
            60.17005555555556
          ],
          [
            0.029425,
            60.17193888888889
          ],
          [
            0.02532222222222222,
            60.173825
          ],
          [
            0.021216666666666665,
            60.17570833333333
          ],
          [
            0.01711111111111111,
            60.177591666666665
          ],
          [
            0.013005555555555555,
            60.179475
          ],
          [
            0.0089,
            60.18135833333333
          ],
          [
            0.004794444444444445,
            60.18324166666667
          ],
          [
            0.0006888888888888888,
            60.185125
          ],
          [
            -0.0034194444444444446,
            60.18700833333333
          ],
          [
            -0.005738888888888889,
            60.18946111111111
          ],
          [
            -0.003963888888888889,
            60.19202222222222
          ],
          [
            0.0006861111111111112,
            60.193530555555554
          ],
          [
            0.005602777777777779,
            60.194849999999995
          ],
          [
            0.010519444444444444,
            60.19616944444444
          ],
          [
            0.01543888888888889,
            60.197488888888884
          ],
          [
            0.020355555555555554,
            60.19880833333333
          ],
          [
            0.025275,
            60.20012777777778
          ],
          [
            0.030194444444444447,
            60.20144722222223
          ],
          [
            0.035111111111111114,
            60.20276666666667
          ],
          [
            0.040030555555555555,
            60.20408611111112
          ],
          [
            0.044950000000000004,
            60.20540555555556
          ],
          [
            0.049869444444444445,
            60.20672777777778
          ],
          [
            0.054788888888888894,
            60.20804722222223
          ],
          [
            0.059708333333333335,
            60.20936666666667
          ],
          [
            0.06463055555555555,
            60.210686111111116
          ],
          [
            0.06955,
            60.21200555555556
          ],
          [
            0.07446944444444445,
            60.213325000000005
          ],
          [
            0.07939166666666667,
            60.214644444444446
          ],
          [
            0.0843111111111111,
            60.21596388888889
          ],
          [
            0.08923333333333333,
            60.217283333333334
          ],
          [
            0.09415277777777778,
            60.21860277777778
          ],
          [
            0.099075,
            60.21992222222222
          ],
          [
            0.10399722222222223,
            60.22124166666667
          ],
          [
            0.10891666666666668,
            60.22256111111111
          ],
          [
            0.11383888888888889,
            60.22388055555556
          ],
          [
            0.11876111111111111,
            60.2252
          ],
          [
            0.12368333333333334,
            60.22651944444445
          ],
          [
            0.12860555555555556,
            60.22783888888889
          ],
          [
            0.13353055555555554,
            60.22915833333334
          ],
          [
            0.13845277777777779,
            60.23047777777778
          ],
          [
            0.143375,
            60.23179722222223
          ],
          [
            0.1483,
            60.23311666666667
          ],
          [
            0.1532222222222222,
            60.234436111111116
          ],
          [
            0.15814722222222222,
            60.235755555555556
          ],
          [
            0.16306944444444443,
            60.237075000000004
          ],
          [
            0.16799444444444445,
            60.238394444444445
          ],
          [
            0.17291944444444443,
            60.23971388888889
          ],
          [
            0.17784444444444444,
            60.241033333333334
          ],
          [
            0.18276666666666666,
            60.242355555555555
          ],
          [
            0.18769166666666665,
            60.243675
          ],
          [
            0.19261666666666666,
            60.244994444444444
          ],
          [
            0.19754444444444444,
            60.24631388888889
          ],
          [
            0.20246944444444445,
            60.24763333333333
          ],
          [
            0.20739444444444446,
            60.24895277777778
          ],
          [
            0.21231944444444445,
            60.25027222222222
          ],
          [
            0.21724722222222223,
            60.25159166666667
          ],
          [
            0.22217222222222222,
            60.25291111111111
          ],
          [
            0.2271,
            60.25423055555556
          ],
          [
            0.232025,
            60.25555
          ],
          [
            0.2369527777777778,
            60.25686944444445
          ],
          [
            0.24188055555555557,
            60.25818888888889
          ],
          [
            0.24680833333333332,
            60.259508333333336
          ],
          [
            0.2517361111111111,
            60.26082777777778
          ],
          [
            0.2566638888888889,
            60.262147222222225
          ],
          [
            0.26159166666666667,
            60.263466666666666
          ],
          [
            0.2665194444444444,
            60.264786111111114
          ],
          [
            0.27144722222222223,
            60.266105555555555
          ],
          [
            0.276375,
            60.267424999999996
          ],
          [
            0.2813027777777778,
            60.268744444444444
          ],
          [
            0.28623333333333334,
            60.270063888888885
          ],
          [
            0.2911611111111111,
            60.27138333333333
          ],
          [
            0.29609166666666664,
            60.27270277777777
          ],
          [
            0.30101944444444445,
            60.27402222222222
          ],
          [
            0.30595,
            60.27534166666666
          ],
          [
            0.31088055555555555,
            60.27666111111111
          ],
          [
            0.3158111111111111,
            60.27798333333333
          ],
          [
            0.32074166666666665,
            60.27930277777778
          ],
          [
            0.3256722222222222,
            60.28062222222222
          ],
          [
            0.33060277777777775,
            60.28194166666667
          ],
          [
            0.3355333333333333,
            60.28326111111111
          ],
          [
            0.34046388888888884,
            60.28458055555556
          ],
          [
            0.34539444444444445,
            60.2859
          ],
          [
            0.35032777777777774,
            60.287219444444446
          ],
          [
            0.3552583333333333,
            60.28853888888889
          ],
          [
            0.3601888888888889,
            60.289858333333335
          ]
        ]
      },
      "properties": {
        "kind": "TRACK",
        "platform_id": "SENSOR",
        "platform_name": "SENSOR",
        "track_type": "CONTACT",
        "start_time": "2010-01-12T12:00:00+00:00",
        "end_time": "2010-01-12T14:00:00+00:00",
        "positions": [
          {
            "time": "2010-01-12T12:00:00+00:00",
            "course": 40.0,
            "speed": 12.0,
            "depth": 0.0
          },
          {
            "time": "2010-01-12T12:00:00+00:00",
            "course": 40.0,
            "speed": 12.0,
            "depth": 12.27
          },
          {
            "time": "2010-01-12T12:00:50+00:00",
            "course": 84.21,
            "speed": 12.0,
            "depth": 14.11
          },
          {
            "time": "2010-01-12T12:01:40+00:00",
            "course": 128.43,
            "speed": 12.0,
            "depth": 14.37
          },
          {
            "time": "2010-01-12T12:02:30+00:00",
            "course": 172.64,
            "speed": 12.0,
            "depth": 14.55
          },
          {
            "time": "2010-01-12T12:03:20+00:00",
            "course": 204.5,
            "speed": 12.0,
            "depth": 15.45
          },
          {
            "time": "2010-01-12T12:04:10+00:00",
            "course": 204.88,
            "speed": 12.0,
            "depth": 15.97
          },
          {
            "time": "2010-01-12T12:05:00+00:00",
            "course": 204.88,
            "speed": 12.0,
            "depth": 16.12
          },
          {
            "time": "2010-01-12T12:05:50+00:00",
            "course": 204.88,
            "speed": 12.0,
            "depth": 16.85
          },
          {
            "time": "2010-01-12T12:06:40+00:00",
            "course": 204.88,
            "speed": 12.0,
            "depth": 17.37
          },
          {
            "time": "2010-01-12T12:07:30+00:00",
            "course": 204.88,
            "speed": 12.0,
            "depth": 17.95
          },
          {
            "time": "2010-01-12T12:08:20+00:00",
            "course": 204.88,
            "speed": 12.0,
            "depth": 17.99
          },
          {
            "time": "2010-01-12T12:09:10+00:00",
            "course": 204.88,
            "speed": 12.0,
            "depth": 18.45
          },
          {
            "time": "2010-01-12T12:10:00+00:00",
            "course": 204.88,
            "speed": 12.0,
            "depth": 19.32
          },
          {
            "time": "2010-01-12T12:10:50+00:00",
            "course": 204.88,
            "speed": 12.0,
            "depth": 19.34
          },
          {
            "time": "2010-01-12T12:11:40+00:00",
            "course": 204.88,
            "speed": 12.0,
            "depth": 20.26
          },
          {
            "time": "2010-01-12T12:12:30+00:00",
            "course": 204.88,
            "speed": 12.0,
            "depth": 21.23
          },
          {
            "time": "2010-01-12T12:13:20+00:00",
            "course": 204.88,
            "speed": 12.0,
            "depth": 21.65
          },
          {
            "time": "2010-01-12T12:14:10+00:00",
            "course": 204.88,
            "speed": 12.0,
            "depth": 22.34
          },
          {
            "time": "2010-01-12T12:15:00+00:00",
            "course": 204.88,
            "speed": 12.0,
            "depth": 23.2
          },
          {
            "time": "2010-01-12T12:15:50+00:00",
            "course": 204.88,
            "speed": 12.0,
            "depth": 23.24
          },
          {
            "time": "2010-01-12T12:16:40+00:00",
            "course": 204.88,
            "speed": 12.0,
            "depth": 23.26
          },
          {
            "time": "2010-01-12T12:17:30+00:00",
            "course": 204.88,
            "speed": 12.0,
            "depth": 23.27
          },
          {
            "time": "2010-01-12T12:18:20+00:00",
            "course": 204.88,
            "speed": 12.0,
            "depth": 24.21
          },
          {
            "time": "2010-01-12T12:19:10+00:00",
            "course": 204.88,
            "speed": 12.0,
            "depth": 24.81
          },
          {
            "time": "2010-01-12T12:20:00+00:00",
            "course": 204.88,
            "speed": 12.0,
            "depth": 24.9
          },
          {
            "time": "2010-01-12T12:20:50+00:00",
            "course": 204.88,
            "speed": 12.0,
            "depth": 25.68
          },
          {
            "time": "2010-01-12T12:21:40+00:00",
            "course": 204.88,
            "speed": 12.0,
            "depth": 26.67
          },
          {
            "time": "2010-01-12T12:22:30+00:00",
            "course": 204.88,
            "speed": 12.0,
            "depth": 27.22
          },
          {
            "time": "2010-01-12T12:23:20+00:00",
            "course": 204.88,
            "speed": 12.0,
            "depth": 27.28
          },
          {
            "time": "2010-01-12T12:24:10+00:00",
            "course": 204.88,
            "speed": 12.0,
            "depth": 27.63
          },
          {
            "time": "2010-01-12T12:25:00+00:00",
            "course": 204.88,
            "speed": 12.0,
            "depth": 28.31
          },
          {
            "time": "2010-01-12T12:25:50+00:00",
            "course": 204.88,
            "speed": 12.0,
            "depth": 28.62
          },
          {
            "time": "2010-01-12T12:26:40+00:00",
            "course": 204.88,
            "speed": 12.0,
            "depth": 28.93
          },
          {
            "time": "2010-01-12T12:27:30+00:00",
            "course": 249.09,
            "speed": 12.0,
            "depth": 29.36
          },
          {
            "time": "2010-01-12T12:28:20+00:00",
            "course": 293.31,
            "speed": 12.0,
            "depth": 29.92
          },
          {
            "time": "2010-01-12T12:29:10+00:00",
            "course": 312.57,
            "speed": 12.0,
            "depth": 30.05
          },
          {
            "time": "2010-01-12T12:30:00+00:00",
            "course": 312.69,
            "speed": 12.0,
            "depth": 30.39
          },
          {
            "time": "2010-01-12T12:30:50+00:00",
            "course": 312.69,
            "speed": 12.0,
            "depth": 30.63
          },
          {
            "time": "2010-01-12T12:31:40+00:00",
            "course": 312.69,
            "speed": 12.0,
            "depth": 31.08
          },
          {
            "time": "2010-01-12T12:32:30+00:00",
            "course": 312.69,
            "speed": 12.0,
            "depth": 31.17
          },
          {
            "time": "2010-01-12T12:33:20+00:00",
            "course": 312.69,
            "speed": 12.0,
            "depth": 31.68
          },
          {
            "time": "2010-01-12T12:34:10+00:00",
            "course": 312.69,
            "speed": 12.0,
            "depth": 32.04
          },
          {
            "time": "2010-01-12T12:35:00+00:00",
            "course": 312.69,
            "speed": 12.0,
            "depth": 32.71
          },
          {
            "time": "2010-01-12T12:35:50+00:00",
            "course": 312.69,
            "speed": 12.0,
            "depth": 33.69
          },
          {
            "time": "2010-01-12T12:36:40+00:00",
            "course": 312.69,
            "speed": 12.0,
            "depth": 34.62
          },
          {
            "time": "2010-01-12T12:37:30+00:00",
            "course": 312.69,
            "speed": 12.0,
            "depth": 35.51
          },
          {
            "time": "2010-01-12T12:38:20+00:00",
            "course": 312.69,
            "speed": 12.0,
            "depth": 36.2
          },
          {
            "time": "2010-01-12T12:39:10+00:00",
            "course": 312.69,
            "speed": 12.0,
            "depth": 37.03
          },
          {
            "time": "2010-01-12T12:40:00+00:00",
            "course": 312.69,
            "speed": 12.0,
            "depth": 38.02
          },
          {
            "time": "2010-01-12T12:40:50+00:00",
            "course": 312.69,
            "speed": 12.0,
            "depth": 38.29
          },
          {
            "time": "2010-01-12T12:41:40+00:00",
            "course": 312.69,
            "speed": 12.0,
            "depth": 38.93
          },
          {
            "time": "2010-01-12T12:42:30+00:00",
            "course": 312.69,
            "speed": 12.0,
            "depth": 39.17
          },
          {
            "time": "2010-01-12T12:43:20+00:00",
            "course": 312.69,
            "speed": 12.0,
            "depth": 40.16
          },
          {
            "time": "2010-01-12T12:44:10+00:00",
            "course": 312.69,
            "speed": 12.0,
            "depth": 40.63
          },
          {
            "time": "2010-01-12T12:45:00+00:00",
            "course": 312.69,
            "speed": 12.0,
            "depth": 40.87
          },
          {
            "time": "2010-01-12T12:45:50+00:00",
            "course": 312.69,
            "speed": 12.0,
            "depth": 41.27
          },
          {
            "time": "2010-01-12T12:46:40+00:00",
            "course": 312.69,
            "speed": 12.0,
            "depth": 41.71
          },
          {
            "time": "2010-01-12T12:47:30+00:00",
            "course": 312.69,
            "speed": 12.0,
            "depth": 42.52
          },
          {
            "time": "2010-01-12T12:48:20+00:00",
            "course": 312.69,
            "speed": 12.0,
            "depth": 43.08
          },
          {
            "time": "2010-01-12T12:49:10+00:00",
            "course": 312.69,
            "speed": 12.0,
            "depth": 43.11
          },
          {
            "time": "2010-01-12T12:50:00+00:00",
            "course": 312.69,
            "speed": 12.0,
            "depth": 43.53
          },
          {
            "time": "2010-01-12T12:50:50+00:00",
            "course": 312.69,
            "speed": 12.0,
            "depth": 43.71
          },
          {
            "time": "2010-01-12T12:51:40+00:00",
            "course": 312.69,
            "speed": 12.0,
            "depth": 43.88
          },
          {
            "time": "2010-01-12T12:52:30+00:00",
            "course": 312.69,
            "speed": 12.0,
            "depth": 44.68
          },
          {
            "time": "2010-01-12T12:53:20+00:00",
            "course": 312.69,
            "speed": 12.0,
            "depth": 45.35
          },
          {
            "time": "2010-01-12T12:54:10+00:00",
            "course": 312.69,
            "speed": 12.0,
            "depth": 46.2
          },
          {
            "time": "2010-01-12T12:55:00+00:00",
            "course": 312.69,
            "speed": 12.0,
            "depth": 46.36
          },
          {
            "time": "2010-01-12T12:55:50+00:00",
            "course": 312.69,
            "speed": 12.0,
            "depth": 47.19
          },
          {
            "time": "2010-01-12T12:56:40+00:00",
            "course": 312.69,
            "speed": 12.0,
            "depth": 47.9
          },
          {
            "time": "2010-01-12T12:57:30+00:00",
            "course": 356.91,
            "speed": 12.0,
            "depth": 48.59
          },
          {
            "time": "2010-01-12T12:58:20+00:00",
            "course": 41.12,
            "speed": 12.0,
            "depth": 49.19
          },
          {
            "time": "2010-01-12T12:59:10+00:00",
            "course": 61.56,
            "speed": 12.0,
            "depth": 49.82
          },
          {
            "time": "2010-01-12T13:00:00+00:00",
            "course": 61.64,
            "speed": 12.0,
            "depth": 50.44
          },
          {
            "time": "2010-01-12T13:00:50+00:00",
            "course": 61.64,
            "speed": 12.0,
            "depth": 50.47
          },
          {
            "time": "2010-01-12T13:01:40+00:00",
            "course": 61.64,
            "speed": 12.0,
            "depth": 51.26
          },
          {
            "time": "2010-01-12T13:02:30+00:00",
            "course": 61.64,
            "speed": 12.0,
            "depth": 51.31
          },
          {
            "time": "2010-01-12T13:03:20+00:00",
            "course": 61.64,
            "speed": 12.0,
            "depth": 51.35
          },
          {
            "time": "2010-01-12T13:04:10+00:00",
            "course": 61.64,
            "speed": 12.0,
            "depth": 52.14
          },
          {
            "time": "2010-01-12T13:05:00+00:00",
            "course": 61.64,
            "speed": 12.0,
            "depth": 53.1
          },
          {
            "time": "2010-01-12T13:05:50+00:00",
            "course": 61.64,
            "speed": 12.0,
            "depth": 53.9
          },
          {
            "time": "2010-01-12T13:06:40+00:00",
            "course": 61.64,
            "speed": 12.0,
            "depth": 54.49
          },
          {
            "time": "2010-01-12T13:07:30+00:00",
            "course": 61.64,
            "speed": 12.0,
            "depth": 54.99
          },
          {
            "time": "2010-01-12T13:08:20+00:00",
            "course": 61.64,
            "speed": 12.0,
            "depth": 55.77
          },
          {
            "time": "2010-01-12T13:09:10+00:00",
            "course": 61.64,
            "speed": 12.0,
            "depth": 56.64
          },
          {
            "time": "2010-01-12T13:10:00+00:00",
            "course": 61.64,
            "speed": 12.0,
            "depth": 57.31
          },
          {
            "time": "2010-01-12T13:10:50+00:00",
            "course": 61.64,
            "speed": 12.0,
            "depth": 57.62
          },
          {
            "time": "2010-01-12T13:11:40+00:00",
            "course": 61.64,
            "speed": 12.0,
            "depth": 57.97
          },
          {
            "time": "2010-01-12T13:12:30+00:00",
            "course": 61.64,
            "speed": 12.0,
            "depth": 58.49
          },
          {
            "time": "2010-01-12T13:13:20+00:00",
            "course": 61.64,
            "speed": 12.0,
            "depth": 59.2
          },
          {
            "time": "2010-01-12T13:14:10+00:00",
            "course": 61.64,
            "speed": 12.0,
            "depth": 59.21
          },
          {
            "time": "2010-01-12T13:15:00+00:00",
            "course": 61.64,
            "speed": 12.0,
            "depth": 60.18
          },
          {
            "time": "2010-01-12T13:15:50+00:00",
            "course": 61.64,
            "speed": 12.0,
            "depth": 60.48
          },
          {
            "time": "2010-01-12T13:16:40+00:00",
            "course": 61.64,
            "speed": 12.0,
            "depth": 61.06
          },
          {
            "time": "2010-01-12T13:17:30+00:00",
            "course": 61.64,
            "speed": 12.0,
            "depth": 61.23
          },
          {
            "time": "2010-01-12T13:18:20+00:00",
            "course": 61.64,
            "speed": 12.0,
            "depth": 61.54
          },
          {
            "time": "2010-01-12T13:19:10+00:00",
            "course": 61.64,
            "speed": 12.0,
            "depth": 62.02
          },
          {
            "time": "2010-01-12T13:20:00+00:00",
            "course": 61.64,
            "speed": 12.0,
            "depth": 62.74
          },
          {
            "time": "2010-01-12T13:20:50+00:00",
            "course": 61.64,
            "speed": 12.0,
            "depth": 62.84
          },
          {
            "time": "2010-01-12T13:21:40+00:00",
            "course": 61.64,
            "speed": 12.0,
            "depth": 63.36
          },
          {
            "time": "2010-01-12T13:22:30+00:00",
            "course": 61.64,
            "speed": 12.0,
            "depth": 63.92
          },
          {
            "time": "2010-01-12T13:23:20+00:00",
            "course": 61.64,
            "speed": 12.0,
            "depth": 64.21
          },
          {
            "time": "2010-01-12T13:24:10+00:00",
            "course": 61.64,
            "speed": 12.0,
            "depth": 65.15
          },
          {
            "time": "2010-01-12T13:25:00+00:00",
            "course": 61.64,
            "speed": 12.0,
            "depth": 65.8
          },
          {
            "time": "2010-01-12T13:25:50+00:00",
            "course": 61.64,
            "speed": 12.0,
            "depth": 66.1
          },
          {
            "time": "2010-01-12T13:26:40+00:00",
            "course": 61.64,
            "speed": 12.0,
            "depth": 67.07
          },
          {
            "time": "2010-01-12T13:27:30+00:00",
            "course": 61.64,
            "speed": 12.0,
            "depth": 67.77
          },
          {
            "time": "2010-01-12T13:28:20+00:00",
            "course": 61.64,
            "speed": 12.0,
            "depth": 68.74
          },
          {
            "time": "2010-01-12T13:29:10+00:00",
            "course": 61.64,
            "speed": 12.0,
            "depth": 69.38
          },
          {
            "time": "2010-01-12T13:30:00+00:00",
            "course": 61.64,
            "speed": 12.0,
            "depth": 70.37
          },
          {
            "time": "2010-01-12T13:30:50+00:00",
            "course": 61.64,
            "speed": 12.0,
            "depth": 70.72
          },
          {
            "time": "2010-01-12T13:31:40+00:00",
            "course": 61.64,
            "speed": 12.0,
            "depth": 71.42
          },
          {
            "time": "2010-01-12T13:32:30+00:00",
            "course": 61.64,
            "speed": 12.0,
            "depth": 71.71
          },
          {
            "time": "2010-01-12T13:33:20+00:00",
            "course": 61.64,
            "speed": 12.0,
            "depth": 72.32
          },
          {
            "time": "2010-01-12T13:34:10+00:00",
            "course": 61.64,
            "speed": 12.0,
            "depth": 73.18
          },
          {
            "time": "2010-01-12T13:35:00+00:00",
            "course": 61.64,
            "speed": 12.0,
            "depth": 73.72
          },
          {
            "time": "2010-01-12T13:35:50+00:00",
            "course": 61.64,
            "speed": 12.0,
            "depth": 73.87
          },
          {
            "time": "2010-01-12T13:36:40+00:00",
            "course": 61.64,
            "speed": 12.0,
            "depth": 74.8
          },
          {
            "time": "2010-01-12T13:37:30+00:00",
            "course": 61.64,
            "speed": 12.0,
            "depth": 75.07
          },
          {
            "time": "2010-01-12T13:38:20+00:00",
            "course": 61.64,
            "speed": 12.0,
            "depth": 75.78
          },
          {
            "time": "2010-01-12T13:39:10+00:00",
            "course": 61.64,
            "speed": 12.0,
            "depth": 76.16
          },
          {
            "time": "2010-01-12T13:40:00+00:00",
            "course": 61.64,
            "speed": 12.0,
            "depth": 76.3
          },
          {
            "time": "2010-01-12T13:40:50+00:00",
            "course": 61.64,
            "speed": 12.0,
            "depth": 77.06
          },
          {
            "time": "2010-01-12T13:41:40+00:00",
            "course": 61.64,
            "speed": 12.0,
            "depth": 77.77
          },
          {
            "time": "2010-01-12T13:42:30+00:00",
            "course": 61.64,
            "speed": 12.0,
            "depth": 78.16
          },
          {
            "time": "2010-01-12T13:43:20+00:00",
            "course": 61.64,
            "speed": 12.0,
            "depth": 78.19
          },
          {
            "time": "2010-01-12T13:44:10+00:00",
            "course": 61.64,
            "speed": 12.0,
            "depth": 78.99
          },
          {
            "time": "2010-01-12T13:45:00+00:00",
            "course": 61.64,
            "speed": 12.0,
            "depth": 79.55
          },
          {
            "time": "2010-01-12T13:45:50+00:00",
            "course": 61.64,
            "speed": 12.0,
            "depth": 79.89
          },
          {
            "time": "2010-01-12T13:46:40+00:00",
            "course": 61.64,
            "speed": 12.0,
            "depth": 80.0
          },
          {
            "time": "2010-01-12T13:47:30+00:00",
            "course": 61.64,
            "speed": 12.0,
            "depth": 80.07
          },
          {
            "time": "2010-01-12T13:48:20+00:00",
            "course": 61.64,
            "speed": 12.0,
            "depth": 81.01
          },
          {
            "time": "2010-01-12T13:49:10+00:00",
            "course": 61.64,
            "speed": 12.0,
            "depth": 81.72
          },
          {
            "time": "2010-01-12T13:50:00+00:00",
            "course": 61.64,
            "speed": 12.0,
            "depth": 82.48
          },
          {
            "time": "2010-01-12T13:50:50+00:00",
            "course": 61.64,
            "speed": 12.0,
            "depth": 83.2
          },
          {
            "time": "2010-01-12T13:51:40+00:00",
            "course": 61.64,
            "speed": 12.0,
            "depth": 83.84
          },
          {
            "time": "2010-01-12T13:52:30+00:00",
            "course": 61.64,
            "speed": 12.0,
            "depth": 84.08
          },
          {
            "time": "2010-01-12T13:53:20+00:00",
            "course": 61.64,
            "speed": 12.0,
            "depth": 84.24
          },
          {
            "time": "2010-01-12T13:54:10+00:00",
            "course": 61.64,
            "speed": 12.0,
            "depth": 84.57
          },
          {
            "time": "2010-01-12T13:55:00+00:00",
            "course": 61.64,
            "speed": 12.0,
            "depth": 85.46
          },
          {
            "time": "2010-01-12T13:55:50+00:00",
            "course": 61.64,
            "speed": 12.0,
            "depth": 85.52
          },
          {
            "time": "2010-01-12T13:56:40+00:00",
            "course": 61.64,
            "speed": 12.0,
            "depth": 85.73
          },
          {
            "time": "2010-01-12T13:57:30+00:00",
            "course": 61.64,
            "speed": 12.0,
            "depth": 85.85
          },
          {
            "time": "2010-01-12T13:58:20+00:00",
            "course": 61.64,
            "speed": 12.0,
            "depth": 85.95
          },
          {
            "time": "2010-01-12T13:59:10+00:00",
            "course": 61.64,
            "speed": 12.0,
            "depth": 86.1
          },
          {
            "time": "2010-01-12T14:00:00+00:00",
            "course": 61.64,
            "speed": 12.0,
            "depth": 86.3
          }
        ],
        "style": {
          "line": {
            "color": "#FFA500"
          },
          "point": {
            "shape": "circle",
            "radius": 3.0,
            "fill_color": "#FFA500",
            "color": "#FFA500"
          }
        },
        "default_position_style": {
          "show_symbol": false,
          "symbol": "circle",
          "show_label": false
        },
        "symbol_interval": "PT10M",
        "label_interval": "PT30M",
        "provenance": [
          {
            "activity_id": "bbbcd779-e41c-44bc-944c-492ab1f5067e",
            "timestamp": "2026-04-13T23:12:31.836412Z",
            "was_generated_by": {
              "tool": "rep-parser",
              "tool_version": "1.0.0",
              "parameters": []
            },
            "used": [],
            "generated": [
              "14d66ccd-2973-4f25-821a-df8516735650"
            ],
            "execution_duration": "PT0.000855S"
          }
        ]
      }
    }
  ]
}