{
  "type": "FeatureCollection",
  "features": [
    {
      "type": "Feature",
      "id": "03c53b83-e61d-423a-9790-0d64de9a0e89",
      "geometry": {
        "type": "LineString",
        "coordinates": [
          [
            0.2,
            60.2
          ],
          [
            0.2048194,
            60.2012667
          ],
          [
            0.21005,
            60.2005056
          ],
          [
            0.2127333,
            60.1981472
          ],
          [
            0.2114917,
            60.1954861
          ],
          [
            0.2091417,
            60.1929667
          ],
          [
            0.2067917,
            60.1904472
          ],
          [
            0.2044389,
            60.1879278
          ],
          [
            0.2020889,
            60.1854083
          ],
          [
            0.1997389,
            60.1828861
          ],
          [
            0.1973889,
            60.1803667
          ],
          [
            0.1950389,
            60.1778472
          ],
          [
            0.1926889,
            60.1753278
          ],
          [
            0.1903389,
            60.1728083
          ],
          [
            0.1879889,
            60.1702861
          ],
          [
            0.1856417,
            60.1677667
          ],
          [
            0.1832917,
            60.1652472
          ],
          [
            0.1809417,
            60.1627278
          ],
          [
            0.1785944,
            60.1602083
          ],
          [
            0.1762444,
            60.1576861
          ],
          [
            0.1738972,
            60.1551667
          ],
          [
            0.1715472,
            60.1526472
          ],
          [
            0.1692,
            60.1501278
          ],
          [
            0.1668528,
            60.1476083
          ],
          [
            0.1645056,
            60.1450861
          ],
          [
            0.1621583,
            60.1425667
          ],
          [
            0.1598111,
            60.1400472
          ],
          [
            0.1574639,
            60.1375278
          ],
          [
            0.1551167,
            60.1350083
          ],
          [
            0.1527694,
            60.1324889
          ],
          [
            0.1504222,
            60.1299667
          ],
          [
            0.148075,
            60.1274472
          ],
          [
            0.1457306,
            60.1249278
          ],
          [
            0.1417528,
            60.1230806
          ],
          [
            0.1363139,
            60.1231361
          ],
          [
            0.1319694,
            60.1248528
          ],
          [
            0.1278694,
            60.1267361
          ],
          [
            0.1237694,
            60.1286194
          ],
          [
            0.1196694,
            60.1305028
          ],
          [
            0.1155722,
            60.1323861
          ],
          [
            0.1114722,
            60.1342694
          ],
          [
            0.1073722,
            60.1361528
          ],
          [
            0.1032722,
            60.1380361
          ],
          [
            0.0991694,
            60.1399194
          ],
          [
            0.0950694,
            60.1418028
          ],
          [
            0.0909694,
            60.1436861
          ],
          [
            0.0868667,
            60.1455694
          ],
          [
            0.0827667,
            60.1474528
          ],
          [
            0.0786639,
            60.1493389
          ],
          [
            0.0745611,
            60.1512222
          ],
          [
            0.0704611,
            60.1531056
          ],
          [
            0.0663583,
            60.1549889
          ],
          [
            0.0622556,
            60.1568722
          ],
          [
            0.0581528,
            60.1587556
          ],
          [
            0.05405,
            60.1606389
          ],
          [
            0.0499472,
            60.1625222
          ],
          [
            0.0458417,
            60.1644056
          ],
          [
            0.0417389,
            60.1662889
          ],
          [
            0.0376333,
            60.1681722
          ],
          [
            0.0335306,
            60.1700556
          ],
          [
            0.029425,
            60.1719389
          ],
          [
            0.0253222,
            60.173825
          ],
          [
            0.0212167,
            60.1757083
          ],
          [
            0.0171111,
            60.1775917
          ],
          [
            0.0130056,
            60.179475
          ],
          [
            0.0089,
            60.1813583
          ],
          [
            0.0047944,
            60.1832417
          ],
          [
            0.0006889,
            60.185125
          ],
          [
            -0.0034194,
            60.1870083
          ],
          [
            -0.0057389,
            60.1894611
          ],
          [
            -0.0039639,
            60.1920222
          ],
          [
            0.0006861,
            60.1935306
          ],
          [
            0.0056028,
            60.19485
          ],
          [
            0.0105194,
            60.1961694
          ],
          [
            0.0154389,
            60.1974889
          ],
          [
            0.0203556,
            60.1988083
          ],
          [
            0.025275,
            60.2001278
          ],
          [
            0.0301944,
            60.2014472
          ],
          [
            0.0351111,
            60.2027667
          ],
          [
            0.0400306,
            60.2040861
          ],
          [
            0.04495,
            60.2054056
          ],
          [
            0.0498694,
            60.2067278
          ],
          [
            0.0547889,
            60.2080472
          ],
          [
            0.0597083,
            60.2093667
          ],
          [
            0.0646306,
            60.2106861
          ],
          [
            0.06955,
            60.2120056
          ],
          [
            0.0744694,
            60.213325
          ],
          [
            0.0793917,
            60.2146444
          ],
          [
            0.0843111,
            60.2159639
          ],
          [
            0.0892333,
            60.2172833
          ],
          [
            0.0941528,
            60.2186028
          ],
          [
            0.099075,
            60.2199222
          ],
          [
            0.1039972,
            60.2212417
          ],
          [
            0.1089167,
            60.2225611
          ],
          [
            0.1138389,
            60.2238806
          ],
          [
            0.1187611,
            60.2252
          ],
          [
            0.1236833,
            60.2265194
          ],
          [
            0.1286056,
            60.2278389
          ],
          [
            0.1335306,
            60.2291583
          ],
          [
            0.1384528,
            60.2304778
          ],
          [
            0.143375,
            60.2317972
          ],
          [
            0.1483,
            60.2331167
          ],
          [
            0.1532222,
            60.2344361
          ],
          [
            0.1581472,
            60.2357556
          ],
          [
            0.1630694,
            60.237075
          ],
          [
            0.1679944,
            60.2383944
          ],
          [
            0.1729194,
            60.2397139
          ],
          [
            0.1778444,
            60.2410333
          ],
          [
            0.1827667,
            60.2423556
          ],
          [
            0.1876917,
            60.243675
          ],
          [
            0.1926167,
            60.2449944
          ],
          [
            0.1975444,
            60.2463139
          ],
          [
            0.2024694,
            60.2476333
          ],
          [
            0.2123194,
            60.2502722
          ],
          [
            0.2172472,
            60.2515917
          ],
          [
            0.2221722,
            60.2529111
          ],
          [
            0.2271,
            60.2542306
          ],
          [
            0.232025,
            60.25555
          ],
          [
            0.2369528,
            60.2568694
          ],
          [
            0.2418806,
            60.2581889
          ],
          [
            0.2468083,
            60.2595083
          ],
          [
            0.2517361,
            60.2608278
          ],
          [
            0.2566639,
            60.2621472
          ],
          [
            0.2615917,
            60.2634667
          ],
          [
            0.2665194,
            60.2647861
          ],
          [
            0.2714472,
            60.2661056
          ],
          [
            0.276375,
            60.267425
          ],
          [
            0.2813028,
            60.2687444
          ],
          [
            0.2862333,
            60.2700639
          ],
          [
            0.2911611,
            60.2713833
          ],
          [
            0.2960917,
            60.2727028
          ],
          [
            0.3010194,
            60.2740222
          ],
          [
            0.30595,
            60.2753417
          ],
          [
            0.3108806,
            60.2766611
          ],
          [
            0.3158111,
            60.2779833
          ],
          [
            0.3207417,
            60.2793028
          ]
        ]
      },
      "properties": {
        "kind": "TRACK",
        "platform_id": "bSENSOR",
        "platform_name": "bSENSOR",
        "track_type": "CONTACT",
        "start_time": "2010-01-12T12:00:00+00:00",
        "end_time": "2010-01-12T13:53:20+00:00",
        "positions": [
          {
            "time": "2010-01-12T12:00:00+00:00",
            "course": 40.0,
            "speed": 12.0,
            "depth": 0.0
          },
          {
            "time": "2010-01-12T12:00:50+00:00",
            "course": 84.21,
            "speed": 12.0,
            "depth": 14.11
          },
          {
            "time": "2010-01-12T12:01:40+00:00",
            "course": 128.43,
            "speed": 12.0,
            "depth": 14.37
          },
          {
            "time": "2010-01-12T12:02:30+00:00",
            "course": 172.64,
            "speed": 12.0,
            "depth": 14.55
          },
          {
            "time": "2010-01-12T12:03:20+00:00",
            "course": 204.5,
            "speed": 12.0,
            "depth": 15.45
          },
          {
            "time": "2010-01-12T12:04:10+00:00",
            "course": 204.88,
            "speed": 12.0,
            "depth": 15.97
          },
          {
            "time": "2010-01-12T12:05:00+00:00",
            "course": 204.88,
            "speed": 12.0,
            "depth": 16.12
          },
          {
            "time": "2010-01-12T12:05:50+00:00",
            "course": 204.88,
            "speed": 12.0,
            "depth": 16.85
          },
          {
            "time": "2010-01-12T12:06:40+00:00",
            "course": 204.88,
            "speed": 12.0,
            "depth": 17.37
          },
          {
            "time": "2010-01-12T12:07:30+00:00",
            "course": 204.88,
            "speed": 12.0,
            "depth": 17.95
          },
          {
            "time": "2010-01-12T12:08:20+00:00",
            "course": 204.88,
            "speed": 12.0,
            "depth": 17.99
          },
          {
            "time": "2010-01-12T12:09:10+00:00",
            "course": 204.88,
            "speed": 12.0,
            "depth": 18.45
          },
          {
            "time": "2010-01-12T12:10:00+00:00",
            "course": 204.88,
            "speed": 12.0,
            "depth": 19.32
          },
          {
            "time": "2010-01-12T12:10:50+00:00",
            "course": 204.88,
            "speed": 12.0,
            "depth": 19.34
          },
          {
            "time": "2010-01-12T12:11:40+00:00",
            "course": 204.88,
            "speed": 12.0,
            "depth": 20.26
          },
          {
            "time": "2010-01-12T12:12:30+00:00",
            "course": 204.88,
            "speed": 12.0,
            "depth": 21.23
          },
          {
            "time": "2010-01-12T12:13:20+00:00",
            "course": 204.88,
            "speed": 12.0,
            "depth": 21.65
          },
          {
            "time": "2010-01-12T12:14:10+00:00",
            "course": 204.88,
            "speed": 12.0,
            "depth": 22.34
          },
          {
            "time": "2010-01-12T12:15:00+00:00",
            "course": 204.88,
            "speed": 12.0,
            "depth": 23.2
          },
          {
            "time": "2010-01-12T12:15:50+00:00",
            "course": 204.88,
            "speed": 12.0,
            "depth": 23.24
          },
          {
            "time": "2010-01-12T12:16:40+00:00",
            "course": 204.88,
            "speed": 12.0,
            "depth": 23.26
          },
          {
            "time": "2010-01-12T12:17:30+00:00",
            "course": 204.88,
            "speed": 12.0,
            "depth": 23.27
          },
          {
            "time": "2010-01-12T12:18:20+00:00",
            "course": 204.88,
            "speed": 12.0,
            "depth": 24.21
          },
          {
            "time": "2010-01-12T12:19:10+00:00",
            "course": 204.88,
            "speed": 12.0,
            "depth": 24.81
          },
          {
            "time": "2010-01-12T12:20:00+00:00",
            "course": 204.88,
            "speed": 12.0,
            "depth": 24.9
          },
          {
            "time": "2010-01-12T12:20:50+00:00",
            "course": 204.88,
            "speed": 12.0,
            "depth": 25.68
          },
          {
            "time": "2010-01-12T12:21:40+00:00",
            "course": 204.88,
            "speed": 12.0,
            "depth": 26.67
          },
          {
            "time": "2010-01-12T12:22:30+00:00",
            "course": 204.88,
            "speed": 12.0,
            "depth": 27.22
          },
          {
            "time": "2010-01-12T12:23:20+00:00",
            "course": 204.88,
            "speed": 12.0,
            "depth": 27.28
          },
          {
            "time": "2010-01-12T12:24:10+00:00",
            "course": 204.88,
            "speed": 12.0,
            "depth": 27.63
          },
          {
            "time": "2010-01-12T12:25:00+00:00",
            "course": 204.88,
            "speed": 12.0,
            "depth": 28.31
          },
          {
            "time": "2010-01-12T12:25:50+00:00",
            "course": 204.88,
            "speed": 12.0,
            "depth": 28.62
          },
          {
            "time": "2010-01-12T12:26:40+00:00",
            "course": 204.88,
            "speed": 12.0,
            "depth": 28.93
          },
          {
            "time": "2010-01-12T12:27:30+00:00",
            "course": 249.09,
            "speed": 12.0,
            "depth": 29.36
          },
          {
            "time": "2010-01-12T12:28:20+00:00",
            "course": 293.31,
            "speed": 12.0,
            "depth": 29.92
          },
          {
            "time": "2010-01-12T12:29:10+00:00",
            "course": 312.57,
            "speed": 12.0,
            "depth": 30.05
          },
          {
            "time": "2010-01-12T12:30:00+00:00",
            "course": 312.69,
            "speed": 12.0,
            "depth": 30.39
          },
          {
            "time": "2010-01-12T12:30:50+00:00",
            "course": 312.69,
            "speed": 12.0,
            "depth": 30.63
          },
          {
            "time": "2010-01-12T12:31:40+00:00",
            "course": 312.69,
            "speed": 12.0,
            "depth": 31.08
          },
          {
            "time": "2010-01-12T12:32:30+00:00",
            "course": 312.69,
            "speed": 12.0,
            "depth": 31.17
          },
          {
            "time": "2010-01-12T12:33:20+00:00",
            "course": 312.69,
            "speed": 12.0,
            "depth": 31.68
          },
          {
            "time": "2010-01-12T12:34:10+00:00",
            "course": 312.69,
            "speed": 12.0,
            "depth": 32.04
          },
          {
            "time": "2010-01-12T12:35:00+00:00",
            "course": 312.69,
            "speed": 12.0,
            "depth": 32.71
          },
          {
            "time": "2010-01-12T12:35:50+00:00",
            "course": 312.69,
            "speed": 12.0,
            "depth": 33.69
          },
          {
            "time": "2010-01-12T12:36:40+00:00",
            "course": 312.69,
            "speed": 12.0,
            "depth": 34.62
          },
          {
            "time": "2010-01-12T12:37:30+00:00",
            "course": 312.69,
            "speed": 12.0,
            "depth": 35.51
          },
          {
            "time": "2010-01-12T12:38:20+00:00",
            "course": 312.69,
            "speed": 12.0,
            "depth": 36.2
          },
          {
            "time": "2010-01-12T12:39:10+00:00",
            "course": 312.69,
            "speed": 12.0,
            "depth": 37.03
          },
          {
            "time": "2010-01-12T12:40:00+00:00",
            "course": 312.69,
            "speed": 12.0,
            "depth": 38.02
          },
          {
            "time": "2010-01-12T12:40:50+00:00",
            "course": 312.69,
            "speed": 12.0,
            "depth": 38.29
          },
          {
            "time": "2010-01-12T12:41:40+00:00",
            "course": 312.69,
            "speed": 12.0,
            "depth": 38.93
          },
          {
            "time": "2010-01-12T12:42:30+00:00",
            "course": 312.69,
            "speed": 12.0,
            "depth": 39.17
          },
          {
            "time": "2010-01-12T12:43:20+00:00",
            "course": 312.69,
            "speed": 12.0,
            "depth": 40.16
          },
          {
            "time": "2010-01-12T12:44:10+00:00",
            "course": 312.69,
            "speed": 12.0,
            "depth": 40.63
          },
          {
            "time": "2010-01-12T12:45:00+00:00",
            "course": 312.69,
            "speed": 12.0,
            "depth": 40.87
          },
          {
            "time": "2010-01-12T12:45:50+00:00",
            "course": 312.69,
            "speed": 12.0,
            "depth": 41.27
          },
          {
            "time": "2010-01-12T12:46:40+00:00",
            "course": 312.69,
            "speed": 12.0,
            "depth": 41.71
          },
          {
            "time": "2010-01-12T12:47:30+00:00",
            "course": 312.69,
            "speed": 12.0,
            "depth": 42.52
          },
          {
            "time": "2010-01-12T12:48:20+00:00",
            "course": 312.69,
            "speed": 12.0,
            "depth": 43.08
          },
          {
            "time": "2010-01-12T12:49:10+00:00",
            "course": 312.69,
            "speed": 12.0,
            "depth": 43.11
          },
          {
            "time": "2010-01-12T12:50:00+00:00",
            "course": 312.69,
            "speed": 12.0,
            "depth": 43.53
          },
          {
            "time": "2010-01-12T12:50:50+00:00",
            "course": 312.69,
            "speed": 12.0,
            "depth": 43.71
          },
          {
            "time": "2010-01-12T12:51:40+00:00",
            "course": 312.69,
            "speed": 12.0,
            "depth": 43.88
          },
          {
            "time": "2010-01-12T12:52:30+00:00",
            "course": 312.69,
            "speed": 12.0,
            "depth": 44.68
          },
          {
            "time": "2010-01-12T12:53:20+00:00",
            "course": 312.69,
            "speed": 12.0,
            "depth": 45.35
          },
          {
            "time": "2010-01-12T12:54:10+00:00",
            "course": 312.69,
            "speed": 12.0,
            "depth": 46.2
          },
          {
            "time": "2010-01-12T12:55:00+00:00",
            "course": 312.69,
            "speed": 12.0,
            "depth": 46.36
          },
          {
            "time": "2010-01-12T12:55:50+00:00",
            "course": 312.69,
            "speed": 12.0,
            "depth": 47.19
          },
          {
            "time": "2010-01-12T12:56:40+00:00",
            "course": 312.69,
            "speed": 12.0,
            "depth": 47.9
          },
          {
            "time": "2010-01-12T12:57:30+00:00",
            "course": 356.91,
            "speed": 12.0,
            "depth": 48.59
          },
          {
            "time": "2010-01-12T12:58:20+00:00",
            "course": 41.12,
            "speed": 12.0,
            "depth": 49.19
          },
          {
            "time": "2010-01-12T12:59:10+00:00",
            "course": 61.56,
            "speed": 12.0,
            "depth": 49.82
          },
          {
            "time": "2010-01-12T13:00:00+00:00",
            "course": 61.64,
            "speed": 12.0,
            "depth": 50.44
          },
          {
            "time": "2010-01-12T13:00:50+00:00",
            "course": 61.64,
            "speed": 12.0,
            "depth": 50.47
          },
          {
            "time": "2010-01-12T13:01:40+00:00",
            "course": 61.64,
            "speed": 12.0,
            "depth": 51.26
          },
          {
            "time": "2010-01-12T13:02:30+00:00",
            "course": 61.64,
            "speed": 12.0,
            "depth": 51.31
          },
          {
            "time": "2010-01-12T13:03:20+00:00",
            "course": 61.64,
            "speed": 12.0,
            "depth": 51.35
          },
          {
            "time": "2010-01-12T13:04:10+00:00",
            "course": 61.64,
            "speed": 12.0,
            "depth": 52.14
          },
          {
            "time": "2010-01-12T13:05:00+00:00",
            "course": 61.64,
            "speed": 12.0,
            "depth": 53.1
          },
          {
            "time": "2010-01-12T13:05:50+00:00",
            "course": 61.64,
            "speed": 12.0,
            "depth": 53.9
          },
          {
            "time": "2010-01-12T13:06:40+00:00",
            "course": 61.64,
            "speed": 12.0,
            "depth": 54.49
          },
          {
            "time": "2010-01-12T13:07:30+00:00",
            "course": 61.64,
            "speed": 12.0,
            "depth": 54.99
          },
          {
            "time": "2010-01-12T13:08:20+00:00",
            "course": 61.64,
            "speed": 12.0,
            "depth": 55.77
          },
          {
            "time": "2010-01-12T13:09:10+00:00",
            "course": 61.64,
            "speed": 12.0,
            "depth": 56.64
          },
          {
            "time": "2010-01-12T13:10:00+00:00",
            "course": 61.64,
            "speed": 12.0,
            "depth": 57.31
          },
          {
            "time": "2010-01-12T13:10:50+00:00",
            "course": 61.64,
            "speed": 12.0,
            "depth": 57.62
          },
          {
            "time": "2010-01-12T13:11:40+00:00",
            "course": 61.64,
            "speed": 12.0,
            "depth": 57.97
          },
          {
            "time": "2010-01-12T13:12:30+00:00",
            "course": 61.64,
            "speed": 12.0,
            "depth": 58.49
          },
          {
            "time": "2010-01-12T13:13:20+00:00",
            "course": 61.64,
            "speed": 12.0,
            "depth": 59.2
          },
          {
            "time": "2010-01-12T13:14:10+00:00",
            "course": 61.64,
            "speed": 12.0,
            "depth": 59.21
          },
          {
            "time": "2010-01-12T13:15:00+00:00",
            "course": 61.64,
            "speed": 12.0,
            "depth": 60.18
          },
          {
            "time": "2010-01-12T13:15:50+00:00",
            "course": 61.64,
            "speed": 12.0,
            "depth": 60.48
          },
          {
            "time": "2010-01-12T13:16:40+00:00",
            "course": 61.64,
            "speed": 12.0,
            "depth": 61.06
          },
          {
            "time": "2010-01-12T13:17:30+00:00",
            "course": 61.64,
            "speed": 12.0,
            "depth": 61.23
          },
          {
            "time": "2010-01-12T13:18:20+00:00",
            "course": 61.64,
            "speed": 12.0,
            "depth": 61.54
          },
          {
            "time": "2010-01-12T13:19:10+00:00",
            "course": 61.64,
            "speed": 12.0,
            "depth": 62.02
          },
          {
            "time": "2010-01-12T13:20:00+00:00",
            "course": 61.64,
            "speed": 12.0,
            "depth": 62.74
          },
          {
            "time": "2010-01-12T13:20:50+00:00",
            "course": 61.64,
            "speed": 12.0,
            "depth": 62.84
          },
          {
            "time": "2010-01-12T13:21:40+00:00",
            "course": 61.64,
            "speed": 12.0,
            "depth": 63.36
          },
          {
            "time": "2010-01-12T13:22:30+00:00",
            "course": 61.64,
            "speed": 12.0,
            "depth": 63.92
          },
          {
            "time": "2010-01-12T13:23:20+00:00",
            "course": 61.64,
            "speed": 12.0,
            "depth": 64.21
          },
          {
            "time": "2010-01-12T13:24:10+00:00",
            "course": 61.64,
            "speed": 12.0,
            "depth": 65.15
          },
          {
            "time": "2010-01-12T13:25:00+00:00",
            "course": 61.64,
            "speed": 12.0,
            "depth": 65.8
          },
          {
            "time": "2010-01-12T13:25:50+00:00",
            "course": 61.64,
            "speed": 12.0,
            "depth": 66.1
          },
          {
            "time": "2010-01-12T13:26:40+00:00",
            "course": 61.64,
            "speed": 12.0,
            "depth": 67.07
          },
          {
            "time": "2010-01-12T13:27:30+00:00",
            "course": 61.64,
            "speed": 12.0,
            "depth": 67.77
          },
          {
            "time": "2010-01-12T13:28:20+00:00",
            "course": 61.64,
            "speed": 12.0,
            "depth": 68.74
          },
          {
            "time": "2010-01-12T13:29:10+00:00",
            "course": 61.64,
            "speed": 12.0,
            "depth": 69.38
          },
          {
            "time": "2010-01-12T13:30:00+00:00",
            "course": 61.64,
            "speed": 12.0,
            "depth": 70.37
          },
          {
            "time": "2010-01-12T13:30:50+00:00",
            "course": 61.64,
            "speed": 12.0,
            "depth": 70.72
          },
          {
            "time": "2010-01-12T13:31:40+00:00",
            "course": 61.64,
            "speed": 12.0,
            "depth": 71.42
          },
          {
            "time": "2010-01-12T13:32:30+00:00",
            "course": 61.64,
            "speed": 12.0,
            "depth": 71.71
          },
          {
            "time": "2010-01-12T13:33:20+00:00",
            "course": 61.64,
            "speed": 12.0,
            "depth": 72.32
          },
          {
            "time": "2010-01-12T13:35:00+00:00",
            "course": 61.64,
            "speed": 12.0,
            "depth": 73.72
          },
          {
            "time": "2010-01-12T13:35:50+00:00",
            "course": 61.64,
            "speed": 12.0,
            "depth": 73.87
          },
          {
            "time": "2010-01-12T13:36:40+00:00",
            "course": 61.64,
            "speed": 12.0,
            "depth": 74.8
          },
          {
            "time": "2010-01-12T13:37:30+00:00",
            "course": 61.64,
            "speed": 12.0,
            "depth": 75.07
          },
          {
            "time": "2010-01-12T13:38:20+00:00",
            "course": 61.64,
            "speed": 12.0,
            "depth": 75.78
          },
          {
            "time": "2010-01-12T13:39:10+00:00",
            "course": 61.64,
            "speed": 12.0,
            "depth": 76.16
          },
          {
            "time": "2010-01-12T13:40:00+00:00",
            "course": 61.64,
            "speed": 12.0,
            "depth": 76.3
          },
          {
            "time": "2010-01-12T13:40:50+00:00",
            "course": 61.64,
            "speed": 12.0,
            "depth": 77.06
          },
          {
            "time": "2010-01-12T13:41:40+00:00",
            "course": 61.64,
            "speed": 12.0,
            "depth": 77.77
          },
          {
            "time": "2010-01-12T13:42:30+00:00",
            "course": 61.64,
            "speed": 12.0,
            "depth": 78.16
          },
          {
            "time": "2010-01-12T13:43:20+00:00",
            "course": 61.64,
            "speed": 12.0,
            "depth": 78.19
          },
          {
            "time": "2010-01-12T13:44:10+00:00",
            "course": 61.64,
            "speed": 12.0,
            "depth": 78.99
          },
          {
            "time": "2010-01-12T13:45:00+00:00",
            "course": 61.64,
            "speed": 12.0,
            "depth": 79.55
          },
          {
            "time": "2010-01-12T13:45:50+00:00",
            "course": 61.64,
            "speed": 12.0,
            "depth": 79.89
          },
          {
            "time": "2010-01-12T13:46:40+00:00",
            "course": 61.64,
            "speed": 12.0,
            "depth": 80.0
          },
          {
            "time": "2010-01-12T13:47:30+00:00",
            "course": 61.64,
            "speed": 12.0,
            "depth": 80.07
          },
          {
            "time": "2010-01-12T13:48:20+00:00",
            "course": 61.64,
            "speed": 12.0,
            "depth": 81.01
          },
          {
            "time": "2010-01-12T13:49:10+00:00",
            "course": 61.64,
            "speed": 12.0,
            "depth": 81.72
          },
          {
            "time": "2010-01-12T13:50:00+00:00",
            "course": 61.64,
            "speed": 12.0,
            "depth": 82.48
          },
          {
            "time": "2010-01-12T13:50:50+00:00",
            "course": 61.64,
            "speed": 12.0,
            "depth": 83.2
          },
          {
            "time": "2010-01-12T13:51:40+00:00",
            "course": 61.64,
            "speed": 12.0,
            "depth": 83.84
          },
          {
            "time": "2010-01-12T13:52:30+00:00",
            "course": 61.64,
            "speed": 12.0,
            "depth": 84.08
          },
          {
            "time": "2010-01-12T13:53:20+00:00",
            "course": 61.64,
            "speed": 12.0,
            "depth": 84.24
          }
        ],
        "style": {
          "line": {
            "color": "#808080"
          },
          "point": {
            "shape": "circle",
            "radius": 3.0,
            "fill_color": "#808080",
            "color": "#808080"
          }
        },
        "default_position_style": {
          "show_symbol": false,
          "symbol": "circle",
          "show_label": false
        },
        "symbol_interval": "PT5M",
        "label_interval": "PT15M",
        "sensors": [
          {
            "name": "SUBJECT1",
            "contacts": [
              {
                "time": "2010-01-12T12:00:00+00:00",
                "bearing": 206.582
              },
              {
                "time": "2010-01-12T12:00:50+00:00",
                "bearing": 207.474
              },
              {
                "time": "2010-01-12T12:02:30+00:00",
                "bearing": 209.741
              },
              {
                "time": "2010-01-12T12:04:10+00:00",
                "bearing": 211.046
              },
              {
                "time": "2010-01-12T12:05:50+00:00",
                "bearing": 212.285
              },
              {
                "time": "2010-01-12T12:06:40+00:00",
                "bearing": 212.936
              },
              {
                "time": "2010-01-12T12:15:00+00:00",
                "bearing": 220.798
              },
              {
                "time": "2010-01-12T12:23:20+00:00",
                "bearing": 231.897
              }
            ]
          },
          {
            "name": "SUBJECT2",
            "contacts": [
              {
                "time": "2010-01-12T12:00:00+00:00",
                "bearing": 206.582
              },
              {
                "time": "2010-01-12T12:01:40+00:00",
                "bearing": 208.647
              },
              {
                "time": "2010-01-12T12:03:20+00:00",
                "bearing": 210.455
              },
              {
                "time": "2010-01-12T12:05:00+00:00",
                "bearing": 211.656
              },
              {
                "time": "2010-01-12T12:07:30+00:00",
                "bearing": 213.609
              },
              {
                "time": "2010-01-12T12:15:50+00:00",
                "bearing": 221.743
              },
              {
                "time": "2010-01-12T12:24:10+00:00",
                "bearing": 233.228
              }
            ]
          },
          {
            "name": "aSUBJECT3",
            "contacts": [
              {
                "time": "2010-01-12T12:08:20+00:00",
                "bearing": 214.303
              },
              {
                "time": "2010-01-12T12:16:40+00:00",
                "bearing": 222.722
              },
              {
                "time": "2010-01-12T12:25:00+00:00",
                "bearing": 234.605
              }
            ]
          },
          {
            "name": "SUBJECT4",
            "contacts": [
              {
                "time": "2010-01-12T12:09:10+00:00",
                "bearing": 215.022
              },
              {
                "time": "2010-01-12T12:17:30+00:00",
                "bearing": 223.734
              },
              {
                "time": "2010-01-12T12:25:50+00:00",
                "bearing": 236.025
              }
            ]
          },
          {
            "name": "SUBJECT5",
            "contacts": [
              {
                "time": "2010-01-12T12:10:00+00:00",
                "bearing": 215.765
              },
              {
                "time": "2010-01-12T12:18:20+00:00",
                "bearing": 224.783
              },
              {
                "time": "2010-01-12T12:26:40+00:00",
                "bearing": 237.49
              }
            ]
          },
          {
            "name": "SUBJECT6",
            "contacts": [
              {
                "time": "2010-01-12T12:10:50+00:00",
                "bearing": 216.533
              },
              {
                "time": "2010-01-12T12:19:10+00:00",
                "bearing": 225.869
              },
              {
                "time": "2010-01-12T12:27:30+00:00",
                "bearing": 238.576
              }
            ]
          },
          {
            "name": "SUBJECT7",
            "contacts": [
              {
                "time": "2010-01-12T12:11:40+00:00",
                "bearing": 217.328
              },
              {
                "time": "2010-01-12T12:20:00+00:00",
                "bearing": 226.995
              },
              {
                "time": "2010-01-12T12:28:20+00:00",
                "bearing": 238.83
              },
              {
                "time": "2010-01-12T12:29:10+00:00",
                "bearing": 238.597
              }
            ]
          },
          {
            "name": "SUBJECT8",
            "contacts": [
              {
                "time": "2010-01-12T12:12:30+00:00",
                "bearing": 218.152
              },
              {
                "time": "2010-01-12T12:20:50+00:00",
                "bearing": 228.158
              },
              {
                "time": "2010-01-12T12:30:00+00:00",
                "bearing": 238.327
              }
            ]
          },
          {
            "name": "SUBJECT0",
            "contacts": [
              {
                "time": "2010-01-12T12:14:10+00:00",
                "bearing": 219.885
              },
              {
                "time": "2010-01-12T12:22:30+00:00",
                "bearing": 230.608
              }
            ]
          }
        ],
        "provenance": [
          {
            "activity_id": "b88a0a2e-7151-4a1f-a728-c3388f6cb2dd",
            "timestamp": "2026-04-13T23:12:31.876850Z",
            "was_generated_by": {
              "tool": "dpf-parser",
              "tool_version": "1.0.0",
              "parameters": []
            },
            "used": [],
            "generated": [
              "03c53b83-e61d-423a-9790-0d64de9a0e89"
            ],
            "execution_duration": "PT0.002956S"
          }
        ]
      }
    },
    {
      "type": "Feature",
      "id": "8a2d3f06-4775-4e66-ab2e-34d55c457d94",
      "geometry": {
        "type": "LineString",
        "coordinates": [
          [
            -0.0991861,
            60.05905
          ],
          [
            -0.1018694,
            60.0606444
          ],
          [
            -0.10455,
            60.0622417
          ],
          [
            -0.1072361,
            60.0638361
          ],
          [
            -0.1099194,
            60.0654333
          ],
          [
            -0.1126028,
            60.0670278
          ],
          [
            -0.1152861,
            60.068625
          ],
          [
            -0.1179694,
            60.0702194
          ],
          [
            -0.1196167,
            60.0721056
          ],
          [
            -0.1203306,
            60.0741583
          ],
          [
            -0.1210417,
            60.0762111
          ],
          [
            -0.1217556,
            60.0782639
          ],
          [
            -0.1224694,
            60.0803167
          ],
          [
            -0.1231806,
            60.0823694
          ],
          [
            -0.1238944,
            60.0844222
          ],
          [
            -0.1246083,
            60.086475
          ],
          [
            -0.1253194,
            60.0885278
          ],
          [
            -0.1260333,
            60.0905806
          ],
          [
            -0.1267472,
            60.0926333
          ],
          [
            -0.1274611,
            60.0946861
          ],
          [
            -0.128175,
            60.0967389
          ],
          [
            -0.1288861,
            60.0987917
          ],
          [
            -0.1296,
            60.1008444
          ],
          [
            -0.1303139,
            60.1028972
          ],
          [
            -0.1310278,
            60.10495
          ],
          [
            -0.1317417,
            60.1070028
          ],
          [
            -0.1324556,
            60.1090556
          ],
          [
            -0.1331667,
            60.1111083
          ],
          [
            -0.1338806,
            60.1131611
          ],
          [
            -0.1345944,
            60.1152139
          ],
          [
            -0.1353083,
            60.1172667
          ],
          [
            -0.1360222,
            60.1193194
          ],
          [
            -0.1367361,
            60.1213722
          ],
          [
            -0.13745,
            60.123425
          ],
          [
            -0.1381639,
            60.1254778
          ],
          [
            -0.1388778,
            60.1275306
          ],
          [
            -0.1395917,
            60.1295833
          ],
          [
            -0.1403056,
            60.1316361
          ],
          [
            -0.1410194,
            60.1336889
          ],
          [
            -0.1417361,
            60.1357417
          ],
          [
            -0.14245,
            60.1377944
          ],
          [
            -0.1431639,
            60.1398472
          ],
          [
            -0.1438778,
            60.1419
          ],
          [
            -0.1445917,
            60.1439528
          ],
          [
            -0.1453056,
            60.1460056
          ],
          [
            -0.1460194,
            60.1480583
          ],
          [
            -0.1467361,
            60.1501111
          ],
          [
            -0.14745,
            60.1521639
          ],
          [
            -0.1481639,
            60.1542167
          ],
          [
            -0.1488778,
            60.1562694
          ],
          [
            -0.1495944,
            60.1583222
          ],
          [
            -0.1503083,
            60.160375
          ],
          [
            -0.1510222,
            60.1624278
          ],
          [
            -0.1517361,
            60.1644778
          ],
          [
            -0.1524528,
            60.1665306
          ],
          [
            -0.1531667,
            60.1685833
          ],
          [
            -0.1538833,
            60.1706361
          ],
          [
            -0.1545972,
            60.1726889
          ],
          [
            -0.1553111,
            60.1747417
          ],
          [
            -0.1560278,
            60.1767944
          ],
          [
            -0.1567417,
            60.1788472
          ],
          [
            -0.1574583,
            60.1809
          ],
          [
            -0.1581722,
            60.1829528
          ],
          [
            -0.1588889,
            60.1850056
          ],
          [
            -0.1596028,
            60.1870583
          ],
          [
            -0.1603194,
            60.1891111
          ],
          [
            -0.1610333,
            60.1911639
          ],
          [
            -0.16175,
            60.1932167
          ],
          [
            -0.1624639,
            60.1952694
          ],
          [
            -0.1631806,
            60.1973222
          ],
          [
            -0.1638944,
            60.199375
          ],
          [
            -0.1646111,
            60.2014278
          ],
          [
            -0.1653278,
            60.2034806
          ],
          [
            -0.1660417,
            60.2055333
          ],
          [
            -0.1667583,
            60.2075861
          ],
          [
            -0.1674722,
            60.2096389
          ],
          [
            -0.1681889,
            60.2116917
          ],
          [
            -0.1689056,
            60.2137444
          ],
          [
            -0.1696222,
            60.2157972
          ],
          [
            -0.1703361,
            60.21785
          ],
          [
            -0.1710528,
            60.2199028
          ],
          [
            -0.1717694,
            60.2219556
          ],
          [
            -0.1724861,
            60.2240083
          ],
          [
            -0.1732,
            60.2260611
          ],
          [
            -0.1739167,
            60.2281139
          ],
          [
            -0.1757583,
            60.2299556
          ],
          [
            -0.1789611,
            60.2312972
          ],
          [
            -0.1822111,
            60.2326167
          ],
          [
            -0.1854611,
            60.2339333
          ],
          [
            -0.1887111,
            60.2352528
          ],
          [
            -0.1919611,
            60.2365694
          ],
          [
            -0.1952111,
            60.2378889
          ],
          [
            -0.1984611,
            60.2392056
          ],
          [
            -0.2017139,
            60.2405222
          ],
          [
            -0.2049639,
            60.2418417
          ],
          [
            -0.2082139,
            60.2431583
          ],
          [
            -0.2114639,
            60.2444778
          ],
          [
            -0.2147167,
            60.2457944
          ],
          [
            -0.2179667,
            60.2471139
          ],
          [
            -0.2212194,
            60.2484306
          ],
          [
            -0.2244694,
            60.24975
          ],
          [
            -0.2277222,
            60.2510667
          ],
          [
            -0.2309722,
            60.2523861
          ],
          [
            -0.234225,
            60.2537028
          ],
          [
            -0.2374778,
            60.2550222
          ],
          [
            -0.2407306,
            60.2563389
          ],
          [
            -0.2439806,
            60.2576556
          ],
          [
            -0.2472333,
            60.258975
          ]
        ]
      },
      "properties": {
        "kind": "TRACK",
        "platform_id": "SUBJECT",
        "platform_name": "SUBJECT",
        "track_type": "CONTACT",
        "start_time": "2010-01-12T12:30:50+00:00",
        "end_time": "2010-01-12T14:00:00+00:00",
        "positions": [
          {
            "time": "2010-01-12T12:30:50+00:00",
            "course": 320.0,
            "speed": 9.0,
            "depth": 0.0
          },
          {
            "time": "2010-01-12T12:31:40+00:00",
            "course": 320.0,
            "speed": 9.0,
            "depth": 0.0
          },
          {
            "time": "2010-01-12T12:32:30+00:00",
            "course": 320.0,
            "speed": 9.0,
            "depth": 0.0
          },
          {
            "time": "2010-01-12T12:33:20+00:00",
            "course": 320.0,
            "speed": 9.0,
            "depth": 0.0
          },
          {
            "time": "2010-01-12T12:34:10+00:00",
            "course": 320.0,
            "speed": 9.0,
            "depth": 0.0
          },
          {
            "time": "2010-01-12T12:35:00+00:00",
            "course": 320.0,
            "speed": 9.0,
            "depth": 0.0
          },
          {
            "time": "2010-01-12T12:35:50+00:00",
            "course": 320.0,
            "speed": 9.0,
            "depth": 0.0
          },
          {
            "time": "2010-01-12T12:36:40+00:00",
            "course": 320.0,
            "speed": 9.0,
            "depth": 0.0
          },
          {
            "time": "2010-01-12T12:37:30+00:00",
            "course": 350.0,
            "speed": 9.0,
            "depth": 0.0
          },
          {
            "time": "2010-01-12T12:38:20+00:00",
            "course": 350.17,
            "speed": 9.0,
            "depth": 0.0
          },
          {
            "time": "2010-01-12T12:39:10+00:00",
            "course": 350.17,
            "speed": 9.0,
            "depth": 0.0
          },
          {
            "time": "2010-01-12T12:40:00+00:00",
            "course": 350.17,
            "speed": 9.0,
            "depth": 0.0
          },
          {
            "time": "2010-01-12T12:40:50+00:00",
            "course": 350.17,
            "speed": 9.0,
            "depth": 0.0
          },
          {
            "time": "2010-01-12T12:41:40+00:00",
            "course": 350.17,
            "speed": 9.0,
            "depth": 0.0
          },
          {
            "time": "2010-01-12T12:42:30+00:00",
            "course": 350.17,
            "speed": 9.0,
            "depth": 0.0
          },
          {
            "time": "2010-01-12T12:43:20+00:00",
            "course": 350.17,
            "speed": 9.0,
            "depth": 0.0
          },
          {
            "time": "2010-01-12T12:44:10+00:00",
            "course": 350.17,
            "speed": 9.0,
            "depth": 0.0
          },
          {
            "time": "2010-01-12T12:45:00+00:00",
            "course": 350.17,
            "speed": 9.0,
            "depth": 0.0
          },
          {
            "time": "2010-01-12T12:45:50+00:00",
            "course": 350.17,
            "speed": 9.0,
            "depth": 0.0
          },
          {
            "time": "2010-01-12T12:46:40+00:00",
            "course": 350.17,
            "speed": 9.0,
            "depth": 0.0
          },
          {
            "time": "2010-01-12T12:47:30+00:00",
            "course": 350.17,
            "speed": 9.0,
            "depth": 0.0
          },
          {
            "time": "2010-01-12T12:48:20+00:00",
            "course": 350.17,
            "speed": 9.0,
            "depth": 0.0
          },
          {
            "time": "2010-01-12T12:49:10+00:00",
            "course": 350.17,
            "speed": 9.0,
            "depth": 0.0
          },
          {
            "time": "2010-01-12T12:50:00+00:00",
            "course": 350.17,
            "speed": 9.0,
            "depth": 0.0
          },
          {
            "time": "2010-01-12T12:50:50+00:00",
            "course": 350.17,
            "speed": 9.0,
            "depth": 0.0
          },
          {
            "time": "2010-01-12T12:51:40+00:00",
            "course": 350.17,
            "speed": 9.0,
            "depth": 0.0
          },
          {
            "time": "2010-01-12T12:52:30+00:00",
            "course": 350.17,
            "speed": 9.0,
            "depth": 0.0
          },
          {
            "time": "2010-01-12T12:53:20+00:00",
            "course": 350.17,
            "speed": 9.0,
            "depth": 0.0
          },
          {
            "time": "2010-01-12T12:54:10+00:00",
            "course": 350.17,
            "speed": 9.0,
            "depth": 0.0
          },
          {
            "time": "2010-01-12T12:55:00+00:00",
            "course": 350.17,
            "speed": 9.0,
            "depth": 0.0
          },
          {
            "time": "2010-01-12T12:55:50+00:00",
            "course": 350.17,
            "speed": 9.0,
            "depth": 0.0
          },
          {
            "time": "2010-01-12T12:56:40+00:00",
            "course": 350.17,
            "speed": 9.0,
            "depth": 0.0
          },
          {
            "time": "2010-01-12T12:57:30+00:00",
            "course": 350.17,
            "speed": 9.0,
            "depth": 0.0
          },
          {
            "time": "2010-01-12T12:58:20+00:00",
            "course": 350.17,
            "speed": 9.0,
            "depth": 0.0
          },
          {
            "time": "2010-01-12T12:59:10+00:00",
            "course": 350.17,
            "speed": 9.0,
            "depth": 0.0
          },
          {
            "time": "2010-01-12T13:00:00+00:00",
            "course": 350.17,
            "speed": 9.0,
            "depth": 0.0
          },
          {
            "time": "2010-01-12T13:00:50+00:00",
            "course": 350.17,
            "speed": 9.0,
            "depth": 0.0
          },
          {
            "time": "2010-01-12T13:01:40+00:00",
            "course": 350.17,
            "speed": 9.0,
            "depth": 0.0
          },
          {
            "time": "2010-01-12T13:02:30+00:00",
            "course": 350.17,
            "speed": 9.0,
            "depth": 0.0
          },
          {
            "time": "2010-01-12T13:03:20+00:00",
            "course": 350.17,
            "speed": 9.0,
            "depth": 0.0
          },
          {
            "time": "2010-01-12T13:04:10+00:00",
            "course": 350.17,
            "speed": 9.0,
            "depth": 0.0
          },
          {
            "time": "2010-01-12T13:05:00+00:00",
            "course": 350.17,
            "speed": 9.0,
            "depth": 0.0
          },
          {
            "time": "2010-01-12T13:05:50+00:00",
            "course": 350.17,
            "speed": 9.0,
            "depth": 0.0
          },
          {
            "time": "2010-01-12T13:06:40+00:00",
            "course": 350.17,
            "speed": 9.0,
            "depth": 0.0
          },
          {
            "time": "2010-01-12T13:07:30+00:00",
            "course": 350.17,
            "speed": 9.0,
            "depth": 0.0
          },
          {
            "time": "2010-01-12T13:08:20+00:00",
            "course": 350.17,
            "speed": 9.0,
            "depth": 0.0
          },
          {
            "time": "2010-01-12T13:09:10+00:00",
            "course": 350.17,
            "speed": 9.0,
            "depth": 0.0
          },
          {
            "time": "2010-01-12T13:10:00+00:00",
            "course": 350.17,
            "speed": 9.0,
            "depth": 0.0
          },
          {
            "time": "2010-01-12T13:10:50+00:00",
            "course": 350.17,
            "speed": 9.0,
            "depth": 0.0
          },
          {
            "time": "2010-01-12T13:11:40+00:00",
            "course": 350.17,
            "speed": 9.0,
            "depth": 0.0
          },
          {
            "time": "2010-01-12T13:12:30+00:00",
            "course": 350.17,
            "speed": 9.0,
            "depth": 0.0
          },
          {
            "time": "2010-01-12T13:13:20+00:00",
            "course": 350.17,
            "speed": 9.0,
            "depth": 0.0
          },
          {
            "time": "2010-01-12T13:14:10+00:00",
            "course": 350.17,
            "speed": 9.0,
            "depth": 0.0
          },
          {
            "time": "2010-01-12T13:15:00+00:00",
            "course": 350.17,
            "speed": 9.0,
            "depth": 0.0
          },
          {
            "time": "2010-01-12T13:15:50+00:00",
            "course": 350.17,
            "speed": 9.0,
            "depth": 0.0
          },
          {
            "time": "2010-01-12T13:16:40+00:00",
            "course": 350.17,
            "speed": 9.0,
            "depth": 0.0
          },
          {
            "time": "2010-01-12T13:17:30+00:00",
            "course": 350.17,
            "speed": 9.0,
            "depth": 0.0
          },
          {
            "time": "2010-01-12T13:18:20+00:00",
            "course": 350.17,
            "speed": 9.0,
            "depth": 0.0
          },
          {
            "time": "2010-01-12T13:19:10+00:00",
            "course": 350.17,
            "speed": 9.0,
            "depth": 0.0
          },
          {
            "time": "2010-01-12T13:20:00+00:00",
            "course": 350.17,
            "speed": 9.0,
            "depth": 0.0
          },
          {
            "time": "2010-01-12T13:20:50+00:00",
            "course": 350.17,
            "speed": 9.0,
            "depth": 0.0
          },
          {
            "time": "2010-01-12T13:21:40+00:00",
            "course": 350.17,
            "speed": 9.0,
            "depth": 0.0
          },
          {
            "time": "2010-01-12T13:22:30+00:00",
            "course": 350.17,
            "speed": 9.0,
            "depth": 0.0
          },
          {
            "time": "2010-01-12T13:23:20+00:00",
            "course": 350.17,
            "speed": 9.0,
            "depth": 0.0
          },
          {
            "time": "2010-01-12T13:24:10+00:00",
            "course": 350.17,
            "speed": 9.0,
            "depth": 0.0
          },
          {
            "time": "2010-01-12T13:25:00+00:00",
            "course": 350.17,
            "speed": 9.0,
            "depth": 0.0
          },
          {
            "time": "2010-01-12T13:25:50+00:00",
            "course": 350.17,
            "speed": 9.0,
            "depth": 0.0
          },
          {
            "time": "2010-01-12T13:26:40+00:00",
            "course": 350.17,
            "speed": 9.0,
            "depth": 0.0
          },
          {
            "time": "2010-01-12T13:27:30+00:00",
            "course": 350.17,
            "speed": 9.0,
            "depth": 0.0
          },
          {
            "time": "2010-01-12T13:28:20+00:00",
            "course": 350.17,
            "speed": 9.0,
            "depth": 0.0
          },
          {
            "time": "2010-01-12T13:29:10+00:00",
            "course": 350.17,
            "speed": 9.0,
            "depth": 0.0
          },
          {
            "time": "2010-01-12T13:30:00+00:00",
            "course": 350.17,
            "speed": 9.0,
            "depth": 0.0
          },
          {
            "time": "2010-01-12T13:30:50+00:00",
            "course": 350.17,
            "speed": 9.0,
            "depth": 0.0
          },
          {
            "time": "2010-01-12T13:31:40+00:00",
            "course": 350.17,
            "speed": 9.0,
            "depth": 0.0
          },
          {
            "time": "2010-01-12T13:32:30+00:00",
            "course": 350.17,
            "speed": 9.0,
            "depth": 0.0
          },
          {
            "time": "2010-01-12T13:33:20+00:00",
            "course": 350.17,
            "speed": 9.0,
            "depth": 0.0
          },
          {
            "time": "2010-01-12T13:34:10+00:00",
            "course": 350.17,
            "speed": 9.0,
            "depth": 0.0
          },
          {
            "time": "2010-01-12T13:35:00+00:00",
            "course": 350.17,
            "speed": 9.0,
            "depth": 0.0
          },
          {
            "time": "2010-01-12T13:35:50+00:00",
            "course": 350.17,
            "speed": 9.0,
            "depth": 0.0
          },
          {
            "time": "2010-01-12T13:36:40+00:00",
            "course": 350.17,
            "speed": 9.0,
            "depth": 0.0
          },
          {
            "time": "2010-01-12T13:37:30+00:00",
            "course": 350.17,
            "speed": 9.0,
            "depth": 0.0
          },
          {
            "time": "2010-01-12T13:38:20+00:00",
            "course": 350.17,
            "speed": 9.0,
            "depth": 0.0
          },
          {
            "time": "2010-01-12T13:39:10+00:00",
            "course": 350.17,
            "speed": 9.0,
            "depth": 0.0
          },
          {
            "time": "2010-01-12T13:40:00+00:00",
            "course": 350.17,
            "speed": 9.0,
            "depth": 0.0
          },
          {
            "time": "2010-01-12T13:40:50+00:00",
            "course": 350.17,
            "speed": 9.0,
            "depth": 0.0
          },
          {
            "time": "2010-01-12T13:41:40+00:00",
            "course": 317.01,
            "speed": 9.0,
            "depth": 0.0
          },
          {
            "time": "2010-01-12T13:42:30+00:00",
            "course": 309.27,
            "speed": 9.0,
            "depth": 0.0
          },
          {
            "time": "2010-01-12T13:43:20+00:00",
            "course": 309.24,
            "speed": 9.0,
            "depth": 0.0
          },
          {
            "time": "2010-01-12T13:44:10+00:00",
            "course": 309.24,
            "speed": 9.0,
            "depth": 0.0
          },
          {
            "time": "2010-01-12T13:45:00+00:00",
            "course": 309.24,
            "speed": 9.0,
            "depth": 0.0
          },
          {
            "time": "2010-01-12T13:45:50+00:00",
            "course": 309.24,
            "speed": 9.0,
            "depth": 0.0
          },
          {
            "time": "2010-01-12T13:46:40+00:00",
            "course": 309.24,
            "speed": 9.0,
            "depth": 0.0
          },
          {
            "time": "2010-01-12T13:47:30+00:00",
            "course": 309.24,
            "speed": 9.0,
            "depth": 0.0
          },
          {
            "time": "2010-01-12T13:48:20+00:00",
            "course": 309.24,
            "speed": 9.0,
            "depth": 0.0
          },
          {
            "time": "2010-01-12T13:49:10+00:00",
            "course": 309.24,
            "speed": 9.0,
            "depth": 0.0
          },
          {
            "time": "2010-01-12T13:50:00+00:00",
            "course": 309.24,
            "speed": 9.0,
            "depth": 0.0
          },
          {
            "time": "2010-01-12T13:50:50+00:00",
            "course": 309.24,
            "speed": 9.0,
            "depth": 0.0
          },
          {
            "time": "2010-01-12T13:51:40+00:00",
            "course": 309.24,
            "speed": 9.0,
            "depth": 0.0
          },
          {
            "time": "2010-01-12T13:52:30+00:00",
            "course": 309.24,
            "speed": 9.0,
            "depth": 0.0
          },
          {
            "time": "2010-01-12T13:53:20+00:00",
            "course": 309.24,
            "speed": 9.0,
            "depth": 0.0
          },
          {
            "time": "2010-01-12T13:54:10+00:00",
            "course": 309.24,
            "speed": 9.0,
            "depth": 0.0
          },
          {
            "time": "2010-01-12T13:55:00+00:00",
            "course": 309.24,
            "speed": 9.0,
            "depth": 0.0
          },
          {
            "time": "2010-01-12T13:55:50+00:00",
            "course": 309.24,
            "speed": 9.0,
            "depth": 0.0
          },
          {
            "time": "2010-01-12T13:56:40+00:00",
            "course": 309.24,
            "speed": 9.0,
            "depth": 0.0
          },
          {
            "time": "2010-01-12T13:57:30+00:00",
            "course": 309.24,
            "speed": 9.0,
            "depth": 0.0
          },
          {
            "time": "2010-01-12T13:58:20+00:00",
            "course": 309.24,
            "speed": 9.0,
            "depth": 0.0
          },
          {
            "time": "2010-01-12T13:59:10+00:00",
            "course": 309.24,
            "speed": 9.0,
            "depth": 0.0
          },
          {
            "time": "2010-01-12T14:00:00+00:00",
            "course": 309.24,
            "speed": 9.0,
            "depth": 0.0
          }
        ],
        "style": {
          "line": {
            "color": "#808080"
          },
          "point": {
            "shape": "circle",
            "radius": 3.0,
            "fill_color": "#808080",
            "color": "#808080"
          }
        },
        "default_position_style": {
          "show_symbol": false,
          "symbol": "circle",
          "show_label": false
        },
        "symbol_interval": "PT5M",
        "label_interval": "PT15M",
        "provenance": [
          {
            "activity_id": "b88a0a2e-7151-4a1f-a728-c3388f6cb2dd",
            "timestamp": "2026-04-13T23:12:31.876850Z",
            "was_generated_by": {
              "tool": "dpf-parser",
              "tool_version": "1.0.0",
              "parameters": []
            },
            "used": [],
            "generated": [
              "8a2d3f06-4775-4e66-ab2e-34d55c457d94"
            ],
            "execution_duration": "PT0.002956S"
          }
        ]
      }
    }
  ]
}