{
  "type": "FeatureCollection",
  "features": [
    {
      "type": "Feature",
      "id": "8d8503a0-992b-48dc-9146-b84bd7756246",
      "geometry": {
        "type": "LineString",
        "coordinates": [
          [
            0.4,
            60.7
          ],
          [
            0.3986611,
            60.6993444
          ],
          [
            0.397325,
            60.6986917
          ],
          [
            0.3959861,
            60.6980361
          ],
          [
            0.39465,
            60.6973806
          ],
          [
            0.3933111,
            60.696725
          ],
          [
            0.3919722,
            60.6960722
          ],
          [
            0.3906361,
            60.6954167
          ],
          [
            0.3892972,
            60.6947611
          ],
          [
            0.3879611,
            60.6941083
          ],
          [
            0.3866222,
            60.6934528
          ],
          [
            0.3852861,
            60.6927972
          ],
          [
            0.3839472,
            60.6921444
          ],
          [
            0.3826111,
            60.6914889
          ],
          [
            0.3812722,
            60.6908333
          ],
          [
            0.3799361,
            60.6901778
          ],
          [
            0.3785972,
            60.689525
          ],
          [
            0.3772611,
            60.6888694
          ],
          [
            0.3759222,
            60.6882139
          ],
          [
            0.3745861,
            60.6875611
          ],
          [
            0.3732472,
            60.6869056
          ],
          [
            0.3719111,
            60.68625
          ],
          [
            0.3705722,
            60.6855972
          ],
          [
            0.3692361,
            60.6849417
          ],
          [
            0.3679,
            60.6842861
          ],
          [
            0.3665611,
            60.6836306
          ],
          [
            0.365225,
            60.6829778
          ],
          [
            0.3638889,
            60.6823222
          ],
          [
            0.36255,
            60.6816667
          ],
          [
            0.3612139,
            60.6810139
          ],
          [
            0.359875,
            60.6803583
          ],
          [
            0.3585389,
            60.6797028
          ],
          [
            0.3572028,
            60.67905
          ],
          [
            0.3558639,
            60.6783944
          ],
          [
            0.3545278,
            60.6777389
          ],
          [
            0.3531917,
            60.6770833
          ],
          [
            0.3518556,
            60.6764306
          ],
          [
            0.3505167,
            60.675775
          ],
          [
            0.3491806,
            60.6751194
          ],
          [
            0.3478444,
            60.6744667
          ],
          [
            0.3465083,
            60.6738111
          ],
          [
            0.3451694,
            60.6731556
          ],
          [
            0.3438333,
            60.6725028
          ],
          [
            0.3424972,
            60.6718472
          ],
          [
            0.3411611,
            60.6711917
          ],
          [
            0.3398222,
            60.6705361
          ],
          [
            0.3384861,
            60.6698833
          ],
          [
            0.33715,
            60.6692278
          ],
          [
            0.3358139,
            60.6685722
          ],
          [
            0.3344778,
            60.6679194
          ],
          [
            0.3331417,
            60.6672639
          ],
          [
            0.3318056,
            60.6666083
          ],
          [
            0.3304667,
            60.6659528
          ],
          [
            0.3291306,
            60.6653
          ],
          [
            0.3277944,
            60.6646444
          ],
          [
            0.3264583,
            60.6639889
          ],
          [
            0.3251222,
            60.6633361
          ],
          [
            0.3237861,
            60.6626806
          ],
          [
            0.32245,
            60.662025
          ],
          [
            0.3211139,
            60.6613722
          ],
          [
            0.3197778,
            60.6607167
          ],
          [
            0.3184417,
            60.6600611
          ],
          [
            0.3171056,
            60.6594056
          ],
          [
            0.3157694,
            60.6587528
          ],
          [
            0.3144333,
            60.6580972
          ],
          [
            0.3130972,
            60.6574417
          ],
          [
            0.3117611,
            60.6567889
          ],
          [
            0.310425,
            60.6561333
          ],
          [
            0.3090889,
            60.6554778
          ],
          [
            0.3077528,
            60.654825
          ],
          [
            0.3064167,
            60.6541694
          ],
          [
            0.3050806,
            60.6535139
          ],
          [
            0.3037444,
            60.6528583
          ]
        ]
      },
      "properties": {
        "kind": "TRACK",
        "platform_id": "SENSOR_2",
        "platform_name": "SENSOR_2",
        "track_type": "CONTACT",
        "times": [
          1263297600000,
          1263297650000,
          1263297700000,
          1263297750000,
          1263297800000,
          1263297850000,
          1263297900000,
          1263297950000,
          1263298000000,
          1263298050000,
          1263298100000,
          1263298150000,
          1263298200000,
          1263298250000,
          1263298300000,
          1263298350000,
          1263298400000,
          1263298450000,
          1263298500000,
          1263298550000,
          1263298600000,
          1263298650000,
          1263298700000,
          1263298750000,
          1263298800000,
          1263298850000,
          1263298900000,
          1263298950000,
          1263299000000,
          1263299050000,
          1263299100000,
          1263299150000,
          1263299200000,
          1263299250000,
          1263299300000,
          1263299350000,
          1263299400000,
          1263299450000,
          1263299500000,
          1263299550000,
          1263299600000,
          1263299650000,
          1263299700000,
          1263299750000,
          1263299800000,
          1263299850000,
          1263299900000,
          1263299950000,
          1263300000000,
          1263300050000,
          1263300100000,
          1263300150000,
          1263300200000,
          1263300250000,
          1263300300000,
          1263300350000,
          1263300400000,
          1263300450000,
          1263300500000,
          1263300550000,
          1263300600000,
          1263300650000,
          1263300700000,
          1263300750000,
          1263300800000,
          1263300850000,
          1263300900000,
          1263300950000,
          1263301000000,
          1263301050000,
          1263301100000,
          1263301150000,
          1263301200000
        ],
        "start_time": "2010-01-12T12:00:00+00:00",
        "end_time": "2010-01-12T13:00:00+00:00",
        "positions": [
          {
            "time": "2010-01-12T12:00:00+00:00",
            "course": 225.0,
            "speed": 4.0,
            "depth": 0.0
          },
          {
            "time": "2010-01-12T12:00:50+00:00",
            "course": 225.0,
            "speed": 4.0,
            "depth": 0.0
          },
          {
            "time": "2010-01-12T12:01:40+00:00",
            "course": 225.0,
            "speed": 4.0,
            "depth": 0.0
          },
          {
            "time": "2010-01-12T12:02:30+00:00",
            "course": 225.0,
            "speed": 4.0,
            "depth": 0.0
          },
          {
            "time": "2010-01-12T12:03:20+00:00",
            "course": 225.0,
            "speed": 4.0,
            "depth": 0.0
          },
          {
            "time": "2010-01-12T12:04:10+00:00",
            "course": 225.0,
            "speed": 4.0,
            "depth": 0.0
          },
          {
            "time": "2010-01-12T12:05:00+00:00",
            "course": 225.0,
            "speed": 4.0,
            "depth": 0.0
          },
          {
            "time": "2010-01-12T12:05:50+00:00",
            "course": 225.0,
            "speed": 4.0,
            "depth": 0.0
          },
          {
            "time": "2010-01-12T12:06:40+00:00",
            "course": 225.0,
            "speed": 4.0,
            "depth": 0.0
          },
          {
            "time": "2010-01-12T12:07:30+00:00",
            "course": 225.0,
            "speed": 4.0,
            "depth": 0.0
          },
          {
            "time": "2010-01-12T12:08:20+00:00",
            "course": 225.0,
            "speed": 4.0,
            "depth": 0.0
          },
          {
            "time": "2010-01-12T12:09:10+00:00",
            "course": 225.0,
            "speed": 4.0,
            "depth": 0.0
          },
          {
            "time": "2010-01-12T12:10:00+00:00",
            "course": 225.0,
            "speed": 4.0,
            "depth": 0.0
          },
          {
            "time": "2010-01-12T12:10:50+00:00",
            "course": 225.0,
            "speed": 4.0,
            "depth": 0.0
          },
          {
            "time": "2010-01-12T12:11:40+00:00",
            "course": 225.0,
            "speed": 4.0,
            "depth": 0.0
          },
          {
            "time": "2010-01-12T12:12:30+00:00",
            "course": 225.0,
            "speed": 4.0,
            "depth": 0.0
          },
          {
            "time": "2010-01-12T12:13:20+00:00",
            "course": 225.0,
            "speed": 4.0,
            "depth": 0.0
          },
          {
            "time": "2010-01-12T12:14:10+00:00",
            "course": 225.0,
            "speed": 4.0,
            "depth": 0.0
          },
          {
            "time": "2010-01-12T12:15:00+00:00",
            "course": 225.0,
            "speed": 4.0,
            "depth": 0.0
          },
          {
            "time": "2010-01-12T12:15:50+00:00",
            "course": 225.0,
            "speed": 4.0,
            "depth": 0.0
          },
          {
            "time": "2010-01-12T12:16:40+00:00",
            "course": 225.0,
            "speed": 4.0,
            "depth": 0.0
          },
          {
            "time": "2010-01-12T12:17:30+00:00",
            "course": 225.0,
            "speed": 4.0,
            "depth": 0.0
          },
          {
            "time": "2010-01-12T12:18:20+00:00",
            "course": 225.0,
            "speed": 4.0,
            "depth": 0.0
          },
          {
            "time": "2010-01-12T12:19:10+00:00",
            "course": 225.0,
            "speed": 4.0,
            "depth": 0.0
          },
          {
            "time": "2010-01-12T12:20:00+00:00",
            "course": 225.0,
            "speed": 4.0,
            "depth": 0.0
          },
          {
            "time": "2010-01-12T12:20:50+00:00",
            "course": 225.0,
            "speed": 4.0,
            "depth": 0.0
          },
          {
            "time": "2010-01-12T12:21:40+00:00",
            "course": 225.0,
            "speed": 4.0,
            "depth": 0.0
          },
          {
            "time": "2010-01-12T12:22:30+00:00",
            "course": 225.0,
            "speed": 4.0,
            "depth": 0.0
          },
          {
            "time": "2010-01-12T12:23:20+00:00",
            "course": 225.0,
            "speed": 4.0,
            "depth": 0.0
          },
          {
            "time": "2010-01-12T12:24:10+00:00",
            "course": 225.0,
            "speed": 4.0,
            "depth": 0.0
          },
          {
            "time": "2010-01-12T12:25:00+00:00",
            "course": 225.0,
            "speed": 4.0,
            "depth": 0.0
          },
          {
            "time": "2010-01-12T12:25:50+00:00",
            "course": 225.0,
            "speed": 4.0,
            "depth": 0.0
          },
          {
            "time": "2010-01-12T12:26:40+00:00",
            "course": 225.0,
            "speed": 4.0,
            "depth": 0.0
          },
          {
            "time": "2010-01-12T12:27:30+00:00",
            "course": 225.0,
            "speed": 4.0,
            "depth": 0.0
          },
          {
            "time": "2010-01-12T12:28:20+00:00",
            "course": 225.0,
            "speed": 4.0,
            "depth": 0.0
          },
          {
            "time": "2010-01-12T12:29:10+00:00",
            "course": 225.0,
            "speed": 4.0,
            "depth": 0.0
          },
          {
            "time": "2010-01-12T12:30:00+00:00",
            "course": 225.0,
            "speed": 4.0,
            "depth": 0.0
          },
          {
            "time": "2010-01-12T12:30:50+00:00",
            "course": 225.0,
            "speed": 4.0,
            "depth": 0.0
          },
          {
            "time": "2010-01-12T12:31:40+00:00",
            "course": 225.0,
            "speed": 4.0,
            "depth": 0.0
          },
          {
            "time": "2010-01-12T12:32:30+00:00",
            "course": 225.0,
            "speed": 4.0,
            "depth": 0.0
          },
          {
            "time": "2010-01-12T12:33:20+00:00",
            "course": 225.0,
            "speed": 4.0,
            "depth": 0.0
          },
          {
            "time": "2010-01-12T12:34:10+00:00",
            "course": 225.0,
            "speed": 4.0,
            "depth": 0.0
          },
          {
            "time": "2010-01-12T12:35:00+00:00",
            "course": 225.0,
            "speed": 4.0,
            "depth": 0.0
          },
          {
            "time": "2010-01-12T12:35:50+00:00",
            "course": 225.0,
            "speed": 4.0,
            "depth": 0.0
          },
          {
            "time": "2010-01-12T12:36:40+00:00",
            "course": 225.0,
            "speed": 4.0,
            "depth": 0.0
          },
          {
            "time": "2010-01-12T12:37:30+00:00",
            "course": 225.0,
            "speed": 4.0,
            "depth": 0.0
          },
          {
            "time": "2010-01-12T12:38:20+00:00",
            "course": 225.0,
            "speed": 4.0,
            "depth": 0.0
          },
          {
            "time": "2010-01-12T12:39:10+00:00",
            "course": 225.0,
            "speed": 4.0,
            "depth": 0.0
          },
          {
            "time": "2010-01-12T12:40:00+00:00",
            "course": 225.0,
            "speed": 4.0,
            "depth": 0.0
          },
          {
            "time": "2010-01-12T12:40:50+00:00",
            "course": 225.0,
            "speed": 4.0,
            "depth": 0.0
          },
          {
            "time": "2010-01-12T12:41:40+00:00",
            "course": 225.0,
            "speed": 4.0,
            "depth": 0.0
          },
          {
            "time": "2010-01-12T12:42:30+00:00",
            "course": 225.0,
            "speed": 4.0,
            "depth": 0.0
          },
          {
            "time": "2010-01-12T12:43:20+00:00",
            "course": 225.0,
            "speed": 4.0,
            "depth": 0.0
          },
          {
            "time": "2010-01-12T12:44:10+00:00",
            "course": 225.0,
            "speed": 4.0,
            "depth": 0.0
          },
          {
            "time": "2010-01-12T12:45:00+00:00",
            "course": 225.0,
            "speed": 4.0,
            "depth": 0.0
          },
          {
            "time": "2010-01-12T12:45:50+00:00",
            "course": 225.0,
            "speed": 4.0,
            "depth": 0.0
          },
          {
            "time": "2010-01-12T12:46:40+00:00",
            "course": 225.0,
            "speed": 4.0,
            "depth": 0.0
          },
          {
            "time": "2010-01-12T12:47:30+00:00",
            "course": 225.0,
            "speed": 4.0,
            "depth": 0.0
          },
          {
            "time": "2010-01-12T12:48:20+00:00",
            "course": 225.0,
            "speed": 4.0,
            "depth": 0.0
          },
          {
            "time": "2010-01-12T12:49:10+00:00",
            "course": 225.0,
            "speed": 4.0,
            "depth": 0.0
          },
          {
            "time": "2010-01-12T12:50:00+00:00",
            "course": 225.0,
            "speed": 4.0,
            "depth": 0.0
          },
          {
            "time": "2010-01-12T12:50:50+00:00",
            "course": 225.0,
            "speed": 4.0,
            "depth": 0.0
          },
          {
            "time": "2010-01-12T12:51:40+00:00",
            "course": 225.0,
            "speed": 4.0,
            "depth": 0.0
          },
          {
            "time": "2010-01-12T12:52:30+00:00",
            "course": 225.0,
            "speed": 4.0,
            "depth": 0.0
          },
          {
            "time": "2010-01-12T12:53:20+00:00",
            "course": 225.0,
            "speed": 4.0,
            "depth": 0.0
          },
          {
            "time": "2010-01-12T12:54:10+00:00",
            "course": 225.0,
            "speed": 4.0,
            "depth": 0.0
          },
          {
            "time": "2010-01-12T12:55:00+00:00",
            "course": 225.0,
            "speed": 4.0,
            "depth": 0.0
          },
          {
            "time": "2010-01-12T12:55:50+00:00",
            "course": 225.0,
            "speed": 4.0,
            "depth": 0.0
          },
          {
            "time": "2010-01-12T12:56:40+00:00",
            "course": 225.0,
            "speed": 4.0,
            "depth": 0.0
          },
          {
            "time": "2010-01-12T12:57:30+00:00",
            "course": 225.0,
            "speed": 4.0,
            "depth": 0.0
          },
          {
            "time": "2010-01-12T12:58:20+00:00",
            "course": 225.0,
            "speed": 4.0,
            "depth": 0.0
          },
          {
            "time": "2010-01-12T12:59:10+00:00",
            "course": 225.0,
            "speed": 4.0,
            "depth": 0.0
          },
          {
            "time": "2010-01-12T13:00:00+00:00",
            "course": 225.0,
            "speed": 4.0,
            "depth": 0.0
          }
        ],
        "default_position_style": {
          "show_symbol": false,
          "symbol": "circle",
          "show_label": false
        },
        "symbol_interval": "PT5M",
        "label_interval": "PT15M"
      }
    },
    {
      "type": "Feature",
      "id": "5f735897-3318-4e57-a9be-4f533655cb22",
      "geometry": null,
      "properties": {
        "kind": "SENSOR_CONTACT",
        "parent_track": "SENSOR_2",
        "sensor_name": "Plain",
        "bearing": 173.0,
        "time": "2010-01-12T12:00:00+00:00",
        "label": "Cookie SUBJECT held on Plain Cookie"
      }
    },
    {
      "type": "Feature",
      "id": "f7bac167-37c4-483c-b20d-ed51039a700f",
      "geometry": null,
      "properties": {
        "kind": "SENSOR_CONTACT",
        "parent_track": "SENSOR_2",
        "sensor_name": "Plain",
        "bearing": 171.3,
        "time": "2010-01-12T12:10:00+00:00",
        "label": "Cookie SUBJECT held on Plain Cookie"
      }
    },
    {
      "type": "Feature",
      "id": "1250111e-63b1-4130-b3e2-21f2871e792f",
      "geometry": null,
      "properties": {
        "kind": "SENSOR_CONTACT",
        "parent_track": "SENSOR_2",
        "sensor_name": "Plain",
        "bearing": 169.3,
        "time": "2010-01-12T12:20:00+00:00",
        "label": "Cookie SUBJECT held on Plain Cookie"
      }
    },
    {
      "type": "Feature",
      "id": "c46fc75f-3626-44b4-a72d-b2a62148ff59",
      "geometry": null,
      "properties": {
        "kind": "SENSOR_CONTACT",
        "parent_track": "SENSOR_2",
        "sensor_name": "Plain",
        "bearing": 167.1,
        "time": "2010-01-12T12:30:00+00:00",
        "label": "Cookie SUBJECT held on Plain Cookie"
      }
    },
    {
      "type": "Feature",
      "id": "aa758930-fe16-4612-b501-55fbed8abf56",
      "geometry": null,
      "properties": {
        "kind": "SENSOR_CONTACT",
        "parent_track": "SENSOR_2",
        "sensor_name": "Plain",
        "bearing": 164.5,
        "time": "2010-01-12T12:40:00+00:00",
        "label": "Cookie SUBJECT held on Plain Cookie"
      }
    },
    {
      "type": "Feature",
      "id": "491f7db6-cae0-4e5c-82d2-1326c5315d82",
      "geometry": null,
      "properties": {
        "kind": "SENSOR_CONTACT",
        "parent_track": "SENSOR_2",
        "sensor_name": "Plain",
        "bearing": 161.4,
        "time": "2010-01-12T12:50:00+00:00",
        "label": "Cookie SUBJECT held on Plain Cookie"
      }
    },
    {
      "type": "Feature",
      "id": "2d765064-3793-442c-b7dc-7dfd627117e9",
      "geometry": null,
      "properties": {
        "kind": "SENSOR_CONTACT",
        "parent_track": "SENSOR_2",
        "sensor_name": "Plain",
        "bearing": 157.8,
        "time": "2010-01-12T13:00:00+00:00",
        "label": "Cookie SUBJECT held on Plain Cookie"
      }
    },
    {
      "type": "Feature",
      "id": "85e5004b-f5ec-4623-a1d1-eae533368e60",
      "geometry": {
        "type": "LineString",
        "coordinates": [
          [
            -0.0,
            60.2
          ],
          [
            -0.0,
            60.2016194
          ],
          [
            -0.0,
            60.2032417
          ],
          [
            -0.0,
            60.2048611
          ],
          [
            -0.0,
            60.2064806
          ],
          [
            -0.0,
            60.2081028
          ],
          [
            -0.0,
            60.2097222
          ],
          [
            -0.0,
            60.2113417
          ],
          [
            -0.0,
            60.2129639
          ],
          [
            -0.0,
            60.2145833
          ],
          [
            -0.0,
            60.2162028
          ],
          [
            -0.0,
            60.217825
          ],
          [
            -0.0,
            60.2194444
          ],
          [
            -0.0,
            60.2210639
          ],
          [
            -0.0,
            60.2226861
          ],
          [
            -0.0,
            60.2243056
          ],
          [
            -0.0,
            60.225925
          ],
          [
            -0.0,
            60.2275472
          ],
          [
            -0.0,
            60.2291667
          ],
          [
            -0.0,
            60.2307861
          ],
          [
            -0.0,
            60.2324083
          ],
          [
            -0.0,
            60.2340278
          ],
          [
            -0.0,
            60.2356472
          ],
          [
            -0.0,
            60.2372694
          ],
          [
            -0.0,
            60.2388889
          ],
          [
            -0.0,
            60.2405083
          ],
          [
            -0.0,
            60.2421306
          ],
          [
            -0.0,
            60.24375
          ],
          [
            -0.0,
            60.2453694
          ],
          [
            -0.0,
            60.2469917
          ],
          [
            -0.0,
            60.2486111
          ],
          [
            -0.0,
            60.2502306
          ],
          [
            -0.0,
            60.2518528
          ],
          [
            -0.0,
            60.2534722
          ],
          [
            -0.0,
            60.2550917
          ],
          [
            -0.0,
            60.2567139
          ],
          [
            -0.0,
            60.2583333
          ],
          [
            -0.0,
            60.2599528
          ],
          [
            -0.0,
            60.261575
          ],
          [
            -0.0,
            60.2631944
          ],
          [
            -0.0,
            60.2648139
          ],
          [
            -0.0,
            60.2664361
          ],
          [
            -0.0,
            60.2680556
          ],
          [
            -0.0,
            60.269675
          ],
          [
            -0.0,
            60.2712972
          ],
          [
            -0.0,
            60.2729167
          ],
          [
            -0.0,
            60.2745361
          ],
          [
            -0.0,
            60.2761583
          ],
          [
            -0.0,
            60.2777778
          ],
          [
            -0.0,
            60.2793972
          ],
          [
            -0.0,
            60.2810194
          ],
          [
            -0.0,
            60.2826389
          ],
          [
            -0.0,
            60.2842583
          ],
          [
            -0.0,
            60.2858806
          ],
          [
            -0.0,
            60.2875
          ],
          [
            -0.0,
            60.2891194
          ],
          [
            -0.0,
            60.2907417
          ],
          [
            -0.0,
            60.2923611
          ],
          [
            -0.0,
            60.2939806
          ],
          [
            -0.0,
            60.2956028
          ],
          [
            -0.0,
            60.2972222
          ],
          [
            -0.0,
            60.2988417
          ],
          [
            -0.0,
            60.3004639
          ],
          [
            -0.0,
            60.3020833
          ],
          [
            -0.0,
            60.3037028
          ],
          [
            -0.0,
            60.305325
          ],
          [
            -0.0,
            60.3069444
          ],
          [
            -0.0,
            60.3085639
          ],
          [
            -0.0,
            60.3101861
          ],
          [
            -0.0,
            60.3118056
          ],
          [
            -0.0,
            60.313425
          ],
          [
            -0.0,
            60.3150472
          ],
          [
            -0.0,
            60.3166667
          ]
        ]
      },
      "properties": {
        "kind": "TRACK",
        "platform_id": "SENSOR_1",
        "platform_name": "SENSOR_1",
        "track_type": "CONTACT",
        "times": [
          1263297600000,
          1263297650000,
          1263297700000,
          1263297750000,
          1263297800000,
          1263297850000,
          1263297900000,
          1263297950000,
          1263298000000,
          1263298050000,
          1263298100000,
          1263298150000,
          1263298200000,
          1263298250000,
          1263298300000,
          1263298350000,
          1263298400000,
          1263298450000,
          1263298500000,
          1263298550000,
          1263298600000,
          1263298650000,
          1263298700000,
          1263298750000,
          1263298800000,
          1263298850000,
          1263298900000,
          1263298950000,
          1263299000000,
          1263299050000,
          1263299100000,
          1263299150000,
          1263299200000,
          1263299250000,
          1263299300000,
          1263299350000,
          1263299400000,
          1263299450000,
          1263299500000,
          1263299550000,
          1263299600000,
          1263299650000,
          1263299700000,
          1263299750000,
          1263299800000,
          1263299850000,
          1263299900000,
          1263299950000,
          1263300000000,
          1263300050000,
          1263300100000,
          1263300150000,
          1263300200000,
          1263300250000,
          1263300300000,
          1263300350000,
          1263300400000,
          1263300450000,
          1263300500000,
          1263300550000,
          1263300600000,
          1263300650000,
          1263300700000,
          1263300750000,
          1263300800000,
          1263300850000,
          1263300900000,
          1263300950000,
          1263301000000,
          1263301050000,
          1263301100000,
          1263301150000,
          1263301200000
        ],
        "start_time": "2010-01-12T12:00:00+00:00",
        "end_time": "2010-01-12T13:00:00+00:00",
        "positions": [
          {
            "time": "2010-01-12T12:00:00+00:00",
            "course": 0.0,
            "speed": 7.0,
            "depth": 0.0
          },
          {
            "time": "2010-01-12T12:00:50+00:00",
            "course": 0.0,
            "speed": 7.0,
            "depth": 0.0
          },
          {
            "time": "2010-01-12T12:01:40+00:00",
            "course": 0.0,
            "speed": 7.0,
            "depth": 0.0
          },
          {
            "time": "2010-01-12T12:02:30+00:00",
            "course": 0.0,
            "speed": 7.0,
            "depth": 0.0
          },
          {
            "time": "2010-01-12T12:03:20+00:00",
            "course": 0.0,
            "speed": 7.0,
            "depth": 0.0
          },
          {
            "time": "2010-01-12T12:04:10+00:00",
            "course": 0.0,
            "speed": 7.0,
            "depth": 0.0
          },
          {
            "time": "2010-01-12T12:05:00+00:00",
            "course": 0.0,
            "speed": 7.0,
            "depth": 0.0
          },
          {
            "time": "2010-01-12T12:05:50+00:00",
            "course": 0.0,
            "speed": 7.0,
            "depth": 0.0
          },
          {
            "time": "2010-01-12T12:06:40+00:00",
            "course": 0.0,
            "speed": 7.0,
            "depth": 0.0
          },
          {
            "time": "2010-01-12T12:07:30+00:00",
            "course": 0.0,
            "speed": 7.0,
            "depth": 0.0
          },
          {
            "time": "2010-01-12T12:08:20+00:00",
            "course": 0.0,
            "speed": 7.0,
            "depth": 0.0
          },
          {
            "time": "2010-01-12T12:09:10+00:00",
            "course": 0.0,
            "speed": 7.0,
            "depth": 0.0
          },
          {
            "time": "2010-01-12T12:10:00+00:00",
            "course": 0.0,
            "speed": 7.0,
            "depth": 0.0
          },
          {
            "time": "2010-01-12T12:10:50+00:00",
            "course": 0.0,
            "speed": 7.0,
            "depth": 0.0
          },
          {
            "time": "2010-01-12T12:11:40+00:00",
            "course": 0.0,
            "speed": 7.0,
            "depth": 0.0
          },
          {
            "time": "2010-01-12T12:12:30+00:00",
            "course": 0.0,
            "speed": 7.0,
            "depth": 0.0
          },
          {
            "time": "2010-01-12T12:13:20+00:00",
            "course": 0.0,
            "speed": 7.0,
            "depth": 0.0
          },
          {
            "time": "2010-01-12T12:14:10+00:00",
            "course": 0.0,
            "speed": 7.0,
            "depth": 0.0
          },
          {
            "time": "2010-01-12T12:15:00+00:00",
            "course": 0.0,
            "speed": 7.0,
            "depth": 0.0
          },
          {
            "time": "2010-01-12T12:15:50+00:00",
            "course": 0.0,
            "speed": 7.0,
            "depth": 0.0
          },
          {
            "time": "2010-01-12T12:16:40+00:00",
            "course": 0.0,
            "speed": 7.0,
            "depth": 0.0
          },
          {
            "time": "2010-01-12T12:17:30+00:00",
            "course": 0.0,
            "speed": 7.0,
            "depth": 0.0
          },
          {
            "time": "2010-01-12T12:18:20+00:00",
            "course": 0.0,
            "speed": 7.0,
            "depth": 0.0
          },
          {
            "time": "2010-01-12T12:19:10+00:00",
            "course": 0.0,
            "speed": 7.0,
            "depth": 0.0
          },
          {
            "time": "2010-01-12T12:20:00+00:00",
            "course": 0.0,
            "speed": 7.0,
            "depth": 0.0
          },
          {
            "time": "2010-01-12T12:20:50+00:00",
            "course": 0.0,
            "speed": 7.0,
            "depth": 0.0
          },
          {
            "time": "2010-01-12T12:21:40+00:00",
            "course": 0.0,
            "speed": 7.0,
            "depth": 0.0
          },
          {
            "time": "2010-01-12T12:22:30+00:00",
            "course": 0.0,
            "speed": 7.0,
            "depth": 0.0
          },
          {
            "time": "2010-01-12T12:23:20+00:00",
            "course": 0.0,
            "speed": 7.0,
            "depth": 0.0
          },
          {
            "time": "2010-01-12T12:24:10+00:00",
            "course": 0.0,
            "speed": 7.0,
            "depth": 0.0
          },
          {
            "time": "2010-01-12T12:25:00+00:00",
            "course": 0.0,
            "speed": 7.0,
            "depth": 0.0
          },
          {
            "time": "2010-01-12T12:25:50+00:00",
            "course": 0.0,
            "speed": 7.0,
            "depth": 0.0
          },
          {
            "time": "2010-01-12T12:26:40+00:00",
            "course": 0.0,
            "speed": 7.0,
            "depth": 0.0
          },
          {
            "time": "2010-01-12T12:27:30+00:00",
            "course": 0.0,
            "speed": 7.0,
            "depth": 0.0
          },
          {
            "time": "2010-01-12T12:28:20+00:00",
            "course": 0.0,
            "speed": 7.0,
            "depth": 0.0
          },
          {
            "time": "2010-01-12T12:29:10+00:00",
            "course": 0.0,
            "speed": 7.0,
            "depth": 0.0
          },
          {
            "time": "2010-01-12T12:30:00+00:00",
            "course": 0.0,
            "speed": 7.0,
            "depth": 0.0
          },
          {
            "time": "2010-01-12T12:30:50+00:00",
            "course": 0.0,
            "speed": 7.0,
            "depth": 0.0
          },
          {
            "time": "2010-01-12T12:31:40+00:00",
            "course": 0.0,
            "speed": 7.0,
            "depth": 0.0
          },
          {
            "time": "2010-01-12T12:32:30+00:00",
            "course": 0.0,
            "speed": 7.0,
            "depth": 0.0
          },
          {
            "time": "2010-01-12T12:33:20+00:00",
            "course": 0.0,
            "speed": 7.0,
            "depth": 0.0
          },
          {
            "time": "2010-01-12T12:34:10+00:00",
            "course": 0.0,
            "speed": 7.0,
            "depth": 0.0
          },
          {
            "time": "2010-01-12T12:35:00+00:00",
            "course": 0.0,
            "speed": 7.0,
            "depth": 0.0
          },
          {
            "time": "2010-01-12T12:35:50+00:00",
            "course": 0.0,
            "speed": 7.0,
            "depth": 0.0
          },
          {
            "time": "2010-01-12T12:36:40+00:00",
            "course": 0.0,
            "speed": 7.0,
            "depth": 0.0
          },
          {
            "time": "2010-01-12T12:37:30+00:00",
            "course": 0.0,
            "speed": 7.0,
            "depth": 0.0
          },
          {
            "time": "2010-01-12T12:38:20+00:00",
            "course": 0.0,
            "speed": 7.0,
            "depth": 0.0
          },
          {
            "time": "2010-01-12T12:39:10+00:00",
            "course": 0.0,
            "speed": 7.0,
            "depth": 0.0
          },
          {
            "time": "2010-01-12T12:40:00+00:00",
            "course": 0.0,
            "speed": 7.0,
            "depth": 0.0
          },
          {
            "time": "2010-01-12T12:40:50+00:00",
            "course": 0.0,
            "speed": 7.0,
            "depth": 0.0
          },
          {
            "time": "2010-01-12T12:41:40+00:00",
            "course": 0.0,
            "speed": 7.0,
            "depth": 0.0
          },
          {
            "time": "2010-01-12T12:42:30+00:00",
            "course": 0.0,
            "speed": 7.0,
            "depth": 0.0
          },
          {
            "time": "2010-01-12T12:43:20+00:00",
            "course": 0.0,
            "speed": 7.0,
            "depth": 0.0
          },
          {
            "time": "2010-01-12T12:44:10+00:00",
            "course": 0.0,
            "speed": 7.0,
            "depth": 0.0
          },
          {
            "time": "2010-01-12T12:45:00+00:00",
            "course": 0.0,
            "speed": 7.0,
            "depth": 0.0
          },
          {
            "time": "2010-01-12T12:45:50+00:00",
            "course": 0.0,
            "speed": 7.0,
            "depth": 0.0
          },
          {
            "time": "2010-01-12T12:46:40+00:00",
            "course": 0.0,
            "speed": 7.0,
            "depth": 0.0
          },
          {
            "time": "2010-01-12T12:47:30+00:00",
            "course": 0.0,
            "speed": 7.0,
            "depth": 0.0
          },
          {
            "time": "2010-01-12T12:48:20+00:00",
            "course": 0.0,
            "speed": 7.0,
            "depth": 0.0
          },
          {
            "time": "2010-01-12T12:49:10+00:00",
            "course": 0.0,
            "speed": 7.0,
            "depth": 0.0
          },
          {
            "time": "2010-01-12T12:50:00+00:00",
            "course": 0.0,
            "speed": 7.0,
            "depth": 0.0
          },
          {
            "time": "2010-01-12T12:50:50+00:00",
            "course": 0.0,
            "speed": 7.0,
            "depth": 0.0
          },
          {
            "time": "2010-01-12T12:51:40+00:00",
            "course": 0.0,
            "speed": 7.0,
            "depth": 0.0
          },
          {
            "time": "2010-01-12T12:52:30+00:00",
            "course": 0.0,
            "speed": 7.0,
            "depth": 0.0
          },
          {
            "time": "2010-01-12T12:53:20+00:00",
            "course": 0.0,
            "speed": 7.0,
            "depth": 0.0
          },
          {
            "time": "2010-01-12T12:54:10+00:00",
            "course": 0.0,
            "speed": 7.0,
            "depth": 0.0
          },
          {
            "time": "2010-01-12T12:55:00+00:00",
            "course": 0.0,
            "speed": 7.0,
            "depth": 0.0
          },
          {
            "time": "2010-01-12T12:55:50+00:00",
            "course": 0.0,
            "speed": 7.0,
            "depth": 0.0
          },
          {
            "time": "2010-01-12T12:56:40+00:00",
            "course": 0.0,
            "speed": 7.0,
            "depth": 0.0
          },
          {
            "time": "2010-01-12T12:57:30+00:00",
            "course": 0.0,
            "speed": 7.0,
            "depth": 0.0
          },
          {
            "time": "2010-01-12T12:58:20+00:00",
            "course": 0.0,
            "speed": 7.0,
            "depth": 0.0
          },
          {
            "time": "2010-01-12T12:59:10+00:00",
            "course": 0.0,
            "speed": 7.0,
            "depth": 0.0
          },
          {
            "time": "2010-01-12T13:00:00+00:00",
            "course": 0.0,
            "speed": 7.0,
            "depth": 0.0
          }
        ],
        "default_position_style": {
          "show_symbol": false,
          "symbol": "circle",
          "show_label": false
        },
        "symbol_interval": "PT5M",
        "label_interval": "PT15M"
      }
    },
    {
      "type": "Feature",
      "id": "c5191564-df46-4b63-9881-8c902ba6b125",
      "geometry": null,
      "properties": {
        "kind": "SENSOR_CONTACT",
        "parent_track": "SENSOR_1",
        "sensor_name": "Plain",
        "bearing": 68.0,
        "time": "2010-01-12T12:00:00+00:00",
        "label": "Cookie SUBJECT held on Plain Cookie"
      }
    },
    {
      "type": "Feature",
      "id": "d8570bea-d640-4be3-bc71-e296eef49b52",
      "geometry": null,
      "properties": {
        "kind": "SENSOR_CONTACT",
        "parent_track": "SENSOR_1",
        "sensor_name": "Plain",
        "bearing": 68.0,
        "time": "2010-01-12T12:05:50+00:00",
        "label": "Cookie SUBJECT held on Plain Cookie"
      }
    },
    {
      "type": "Feature",
      "id": "741f75ac-603b-48a8-92b4-24fb95365a82",
      "geometry": null,
      "properties": {
        "kind": "SENSOR_CONTACT",
        "parent_track": "SENSOR_1",
        "sensor_name": "Plain",
        "bearing": 68.0,
        "time": "2010-01-12T12:11:40+00:00",
        "label": "Cookie SUBJECT held on Plain Cookie"
      }
    },
    {
      "type": "Feature",
      "id": "4571cea1-7b84-426d-9065-20887466c108",
      "geometry": null,
      "properties": {
        "kind": "SENSOR_CONTACT",
        "parent_track": "SENSOR_1",
        "sensor_name": "Plain",
        "bearing": 68.0,
        "time": "2010-01-12T12:17:30+00:00",
        "label": "Cookie SUBJECT held on Plain Cookie"
      }
    },
    {
      "type": "Feature",
      "id": "69ad8919-4151-4b8c-bf15-769a0709c366",
      "geometry": null,
      "properties": {
        "kind": "SENSOR_CONTACT",
        "parent_track": "SENSOR_1",
        "sensor_name": "Plain",
        "bearing": 68.0,
        "time": "2010-01-12T12:23:20+00:00",
        "label": "Cookie SUBJECT held on Plain Cookie"
      }
    },
    {
      "type": "Feature",
      "id": "14961991-d3dd-4785-a2f0-d044e53dec42",
      "geometry": null,
      "properties": {
        "kind": "SENSOR_CONTACT",
        "parent_track": "SENSOR_1",
        "sensor_name": "Plain",
        "bearing": 68.0,
        "time": "2010-01-12T12:29:10+00:00",
        "label": "Cookie SUBJECT held on Plain Cookie"
      }
    },
    {
      "type": "Feature",
      "id": "1ee39a73-d13e-4d53-af0f-f80a125454f0",
      "geometry": null,
      "properties": {
        "kind": "SENSOR_CONTACT",
        "parent_track": "SENSOR_1",
        "sensor_name": "Plain",
        "bearing": 68.0,
        "time": "2010-01-12T12:35:00+00:00",
        "label": "Cookie SUBJECT held on Plain Cookie"
      }
    },
    {
      "type": "Feature",
      "id": "5a032c44-58f3-4b60-a3cd-b6fecce9ebaa",
      "geometry": null,
      "properties": {
        "kind": "SENSOR_CONTACT",
        "parent_track": "SENSOR_1",
        "sensor_name": "Plain",
        "bearing": 68.0,
        "time": "2010-01-12T12:40:50+00:00",
        "label": "Cookie SUBJECT held on Plain Cookie"
      }
    },
    {
      "type": "Feature",
      "id": "383bf5f9-aa9a-4f87-a1cf-a42091d1590c",
      "geometry": null,
      "properties": {
        "kind": "SENSOR_CONTACT",
        "parent_track": "SENSOR_1",
        "sensor_name": "Plain",
        "bearing": 68.0,
        "time": "2010-01-12T12:46:40+00:00",
        "label": "Cookie SUBJECT held on Plain Cookie"
      }
    },
    {
      "type": "Feature",
      "id": "104e7feb-89c9-4eff-9385-1200e7316275",
      "geometry": null,
      "properties": {
        "kind": "SENSOR_CONTACT",
        "parent_track": "SENSOR_1",
        "sensor_name": "Plain",
        "bearing": 68.0,
        "time": "2010-01-12T12:52:30+00:00",
        "label": "Cookie SUBJECT held on Plain Cookie"
      }
    },
    {
      "type": "Feature",
      "id": "a2b12fbb-4bd6-4d74-b080-da17b4228569",
      "geometry": null,
      "properties": {
        "kind": "SENSOR_CONTACT",
        "parent_track": "SENSOR_1",
        "sensor_name": "Plain",
        "bearing": 68.0,
        "time": "2010-01-12T12:58:20+00:00",
        "label": "Cookie SUBJECT held on Plain Cookie"
      }
    },
    {
      "type": "Feature",
      "id": "e206a667-cf01-45d7-8538-df54334889fd",
      "geometry": {
        "type": "LineString",
        "coordinates": [
          [
            0.5,
            60.3
          ],
          [
            0.5,
            60.3016194
          ],
          [
            0.5,
            60.3032417
          ],
          [
            0.5,
            60.3048611
          ],
          [
            0.5,
            60.3064806
          ],
          [
            0.5,
            60.3081028
          ],
          [
            0.5,
            60.3097222
          ],
          [
            0.5,
            60.3113417
          ],
          [
            0.5,
            60.3129639
          ],
          [
            0.5,
            60.3145833
          ],
          [
            0.5,
            60.3162028
          ],
          [
            0.5,
            60.317825
          ],
          [
            0.5,
            60.3194444
          ],
          [
            0.5,
            60.3210639
          ],
          [
            0.5,
            60.3226861
          ],
          [
            0.5,
            60.3243056
          ],
          [
            0.5,
            60.325925
          ],
          [
            0.5,
            60.3275472
          ],
          [
            0.5,
            60.3291667
          ],
          [
            0.5,
            60.3307861
          ],
          [
            0.5,
            60.3324083
          ],
          [
            0.5,
            60.3340278
          ],
          [
            0.5,
            60.3356472
          ],
          [
            0.5,
            60.3372694
          ],
          [
            0.5,
            60.3388889
          ],
          [
            0.5,
            60.3405083
          ],
          [
            0.5,
            60.3421306
          ],
          [
            0.5,
            60.34375
          ],
          [
            0.5,
            60.3453694
          ],
          [
            0.5,
            60.3469917
          ],
          [
            0.5,
            60.3486111
          ],
          [
            0.5,
            60.3502306
          ],
          [
            0.5,
            60.3518528
          ],
          [
            0.5,
            60.3534722
          ],
          [
            0.5,
            60.3550917
          ],
          [
            0.5,
            60.3567139
          ],
          [
            0.5,
            60.3583333
          ],
          [
            0.5,
            60.3599528
          ],
          [
            0.5,
            60.361575
          ],
          [
            0.5,
            60.3631944
          ],
          [
            0.5,
            60.3648139
          ],
          [
            0.5,
            60.3664361
          ],
          [
            0.5,
            60.3680556
          ],
          [
            0.5,
            60.369675
          ],
          [
            0.5,
            60.3712972
          ],
          [
            0.5,
            60.3729167
          ],
          [
            0.5,
            60.3745361
          ],
          [
            0.5,
            60.3761583
          ],
          [
            0.5,
            60.3777778
          ],
          [
            0.5,
            60.3793972
          ],
          [
            0.5,
            60.3810194
          ],
          [
            0.5,
            60.3826389
          ],
          [
            0.5,
            60.3842583
          ],
          [
            0.5,
            60.3858806
          ],
          [
            0.5,
            60.3875
          ],
          [
            0.5,
            60.3891194
          ],
          [
            0.5,
            60.3907417
          ],
          [
            0.5,
            60.3923611
          ],
          [
            0.5,
            60.3939806
          ],
          [
            0.5,
            60.3956028
          ],
          [
            0.5,
            60.3972222
          ],
          [
            0.5,
            60.3988417
          ],
          [
            0.5,
            60.4004639
          ],
          [
            0.5,
            60.4020833
          ],
          [
            0.5,
            60.4037028
          ],
          [
            0.5,
            60.405325
          ],
          [
            0.5,
            60.4069444
          ],
          [
            0.5,
            60.4085639
          ],
          [
            0.5,
            60.4101861
          ],
          [
            0.5,
            60.4118056
          ],
          [
            0.5,
            60.413425
          ],
          [
            0.5,
            60.4150472
          ],
          [
            0.5,
            60.4166667
          ]
        ]
      },
      "properties": {
        "kind": "TRACK",
        "platform_id": "SUBJECT",
        "platform_name": "SUBJECT",
        "track_type": "CONTACT",
        "times": [
          1263297600000,
          1263297650000,
          1263297700000,
          1263297750000,
          1263297800000,
          1263297850000,
          1263297900000,
          1263297950000,
          1263298000000,
          1263298050000,
          1263298100000,
          1263298150000,
          1263298200000,
          1263298250000,
          1263298300000,
          1263298350000,
          1263298400000,
          1263298450000,
          1263298500000,
          1263298550000,
          1263298600000,
          1263298650000,
          1263298700000,
          1263298750000,
          1263298800000,
          1263298850000,
          1263298900000,
          1263298950000,
          1263299000000,
          1263299050000,
          1263299100000,
          1263299150000,
          1263299200000,
          1263299250000,
          1263299300000,
          1263299350000,
          1263299400000,
          1263299450000,
          1263299500000,
          1263299550000,
          1263299600000,
          1263299650000,
          1263299700000,
          1263299750000,
          1263299800000,
          1263299850000,
          1263299900000,
          1263299950000,
          1263300000000,
          1263300050000,
          1263300100000,
          1263300150000,
          1263300200000,
          1263300250000,
          1263300300000,
          1263300350000,
          1263300400000,
          1263300450000,
          1263300500000,
          1263300550000,
          1263300600000,
          1263300650000,
          1263300700000,
          1263300750000,
          1263300800000,
          1263300850000,
          1263300900000,
          1263300950000,
          1263301000000,
          1263301050000,
          1263301100000,
          1263301150000,
          1263301200000
        ],
        "start_time": "2010-01-12T12:00:00+00:00",
        "end_time": "2010-01-12T13:00:00+00:00",
        "positions": [
          {
            "time": "2010-01-12T12:00:00+00:00",
            "course": 0.0,
            "speed": 7.0,
            "depth": 0.0
          },
          {
            "time": "2010-01-12T12:00:50+00:00",
            "course": 0.0,
            "speed": 7.0,
            "depth": 0.0
          },
          {
            "time": "2010-01-12T12:01:40+00:00",
            "course": 0.0,
            "speed": 7.0,
            "depth": 0.0
          },
          {
            "time": "2010-01-12T12:02:30+00:00",
            "course": 0.0,
            "speed": 7.0,
            "depth": 0.0
          },
          {
            "time": "2010-01-12T12:03:20+00:00",
            "course": 0.0,
            "speed": 7.0,
            "depth": 0.0
          },
          {
            "time": "2010-01-12T12:04:10+00:00",
            "course": 0.0,
            "speed": 7.0,
            "depth": 0.0
          },
          {
            "time": "2010-01-12T12:05:00+00:00",
            "course": 0.0,
            "speed": 7.0,
            "depth": 0.0
          },
          {
            "time": "2010-01-12T12:05:50+00:00",
            "course": 0.0,
            "speed": 7.0,
            "depth": 0.0
          },
          {
            "time": "2010-01-12T12:06:40+00:00",
            "course": 0.0,
            "speed": 7.0,
            "depth": 0.0
          },
          {
            "time": "2010-01-12T12:07:30+00:00",
            "course": 0.0,
            "speed": 7.0,
            "depth": 0.0
          },
          {
            "time": "2010-01-12T12:08:20+00:00",
            "course": 0.0,
            "speed": 7.0,
            "depth": 0.0
          },
          {
            "time": "2010-01-12T12:09:10+00:00",
            "course": 0.0,
            "speed": 7.0,
            "depth": 0.0
          },
          {
            "time": "2010-01-12T12:10:00+00:00",
            "course": 0.0,
            "speed": 7.0,
            "depth": 0.0
          },
          {
            "time": "2010-01-12T12:10:50+00:00",
            "course": 0.0,
            "speed": 7.0,
            "depth": 0.0
          },
          {
            "time": "2010-01-12T12:11:40+00:00",
            "course": 0.0,
            "speed": 7.0,
            "depth": 0.0
          },
          {
            "time": "2010-01-12T12:12:30+00:00",
            "course": 0.0,
            "speed": 7.0,
            "depth": 0.0
          },
          {
            "time": "2010-01-12T12:13:20+00:00",
            "course": 0.0,
            "speed": 7.0,
            "depth": 0.0
          },
          {
            "time": "2010-01-12T12:14:10+00:00",
            "course": 0.0,
            "speed": 7.0,
            "depth": 0.0
          },
          {
            "time": "2010-01-12T12:15:00+00:00",
            "course": 0.0,
            "speed": 7.0,
            "depth": 0.0
          },
          {
            "time": "2010-01-12T12:15:50+00:00",
            "course": 0.0,
            "speed": 7.0,
            "depth": 0.0
          },
          {
            "time": "2010-01-12T12:16:40+00:00",
            "course": 0.0,
            "speed": 7.0,
            "depth": 0.0
          },
          {
            "time": "2010-01-12T12:17:30+00:00",
            "course": 0.0,
            "speed": 7.0,
            "depth": 0.0
          },
          {
            "time": "2010-01-12T12:18:20+00:00",
            "course": 0.0,
            "speed": 7.0,
            "depth": 0.0
          },
          {
            "time": "2010-01-12T12:19:10+00:00",
            "course": 0.0,
            "speed": 7.0,
            "depth": 0.0
          },
          {
            "time": "2010-01-12T12:20:00+00:00",
            "course": 0.0,
            "speed": 7.0,
            "depth": 0.0
          },
          {
            "time": "2010-01-12T12:20:50+00:00",
            "course": 0.0,
            "speed": 7.0,
            "depth": 0.0
          },
          {
            "time": "2010-01-12T12:21:40+00:00",
            "course": 0.0,
            "speed": 7.0,
            "depth": 0.0
          },
          {
            "time": "2010-01-12T12:22:30+00:00",
            "course": 0.0,
            "speed": 7.0,
            "depth": 0.0
          },
          {
            "time": "2010-01-12T12:23:20+00:00",
            "course": 0.0,
            "speed": 7.0,
            "depth": 0.0
          },
          {
            "time": "2010-01-12T12:24:10+00:00",
            "course": 0.0,
            "speed": 7.0,
            "depth": 0.0
          },
          {
            "time": "2010-01-12T12:25:00+00:00",
            "course": 0.0,
            "speed": 7.0,
            "depth": 0.0
          },
          {
            "time": "2010-01-12T12:25:50+00:00",
            "course": 0.0,
            "speed": 7.0,
            "depth": 0.0
          },
          {
            "time": "2010-01-12T12:26:40+00:00",
            "course": 0.0,
            "speed": 7.0,
            "depth": 0.0
          },
          {
            "time": "2010-01-12T12:27:30+00:00",
            "course": 0.0,
            "speed": 7.0,
            "depth": 0.0
          },
          {
            "time": "2010-01-12T12:28:20+00:00",
            "course": 0.0,
            "speed": 7.0,
            "depth": 0.0
          },
          {
            "time": "2010-01-12T12:29:10+00:00",
            "course": 0.0,
            "speed": 7.0,
            "depth": 0.0
          },
          {
            "time": "2010-01-12T12:30:00+00:00",
            "course": 0.0,
            "speed": 7.0,
            "depth": 0.0
          },
          {
            "time": "2010-01-12T12:30:50+00:00",
            "course": 0.0,
            "speed": 7.0,
            "depth": 0.0
          },
          {
            "time": "2010-01-12T12:31:40+00:00",
            "course": 0.0,
            "speed": 7.0,
            "depth": 0.0
          },
          {
            "time": "2010-01-12T12:32:30+00:00",
            "course": 0.0,
            "speed": 7.0,
            "depth": 0.0
          },
          {
            "time": "2010-01-12T12:33:20+00:00",
            "course": 0.0,
            "speed": 7.0,
            "depth": 0.0
          },
          {
            "time": "2010-01-12T12:34:10+00:00",
            "course": 0.0,
            "speed": 7.0,
            "depth": 0.0
          },
          {
            "time": "2010-01-12T12:35:00+00:00",
            "course": 0.0,
            "speed": 7.0,
            "depth": 0.0
          },
          {
            "time": "2010-01-12T12:35:50+00:00",
            "course": 0.0,
            "speed": 7.0,
            "depth": 0.0
          },
          {
            "time": "2010-01-12T12:36:40+00:00",
            "course": 0.0,
            "speed": 7.0,
            "depth": 0.0
          },
          {
            "time": "2010-01-12T12:37:30+00:00",
            "course": 0.0,
            "speed": 7.0,
            "depth": 0.0
          },
          {
            "time": "2010-01-12T12:38:20+00:00",
            "course": 0.0,
            "speed": 7.0,
            "depth": 0.0
          },
          {
            "time": "2010-01-12T12:39:10+00:00",
            "course": 0.0,
            "speed": 7.0,
            "depth": 0.0
          },
          {
            "time": "2010-01-12T12:40:00+00:00",
            "course": 0.0,
            "speed": 7.0,
            "depth": 0.0
          },
          {
            "time": "2010-01-12T12:40:50+00:00",
            "course": 0.0,
            "speed": 7.0,
            "depth": 0.0
          },
          {
            "time": "2010-01-12T12:41:40+00:00",
            "course": 0.0,
            "speed": 7.0,
            "depth": 0.0
          },
          {
            "time": "2010-01-12T12:42:30+00:00",
            "course": 0.0,
            "speed": 7.0,
            "depth": 0.0
          },
          {
            "time": "2010-01-12T12:43:20+00:00",
            "course": 0.0,
            "speed": 7.0,
            "depth": 0.0
          },
          {
            "time": "2010-01-12T12:44:10+00:00",
            "course": 0.0,
            "speed": 7.0,
            "depth": 0.0
          },
          {
            "time": "2010-01-12T12:45:00+00:00",
            "course": 0.0,
            "speed": 7.0,
            "depth": 0.0
          },
          {
            "time": "2010-01-12T12:45:50+00:00",
            "course": 0.0,
            "speed": 7.0,
            "depth": 0.0
          },
          {
            "time": "2010-01-12T12:46:40+00:00",
            "course": 0.0,
            "speed": 7.0,
            "depth": 0.0
          },
          {
            "time": "2010-01-12T12:47:30+00:00",
            "course": 0.0,
            "speed": 7.0,
            "depth": 0.0
          },
          {
            "time": "2010-01-12T12:48:20+00:00",
            "course": 0.0,
            "speed": 7.0,
            "depth": 0.0
          },
          {
            "time": "2010-01-12T12:49:10+00:00",
            "course": 0.0,
            "speed": 7.0,
            "depth": 0.0
          },
          {
            "time": "2010-01-12T12:50:00+00:00",
            "course": 0.0,
            "speed": 7.0,
            "depth": 0.0
          },
          {
            "time": "2010-01-12T12:50:50+00:00",
            "course": 0.0,
            "speed": 7.0,
            "depth": 0.0
          },
          {
            "time": "2010-01-12T12:51:40+00:00",
            "course": 0.0,
            "speed": 7.0,
            "depth": 0.0
          },
          {
            "time": "2010-01-12T12:52:30+00:00",
            "course": 0.0,
            "speed": 7.0,
            "depth": 0.0
          },
          {
            "time": "2010-01-12T12:53:20+00:00",
            "course": 0.0,
            "speed": 7.0,
            "depth": 0.0
          },
          {
            "time": "2010-01-12T12:54:10+00:00",
            "course": 0.0,
            "speed": 7.0,
            "depth": 0.0
          },
          {
            "time": "2010-01-12T12:55:00+00:00",
            "course": 0.0,
            "speed": 7.0,
            "depth": 0.0
          },
          {
            "time": "2010-01-12T12:55:50+00:00",
            "course": 0.0,
            "speed": 7.0,
            "depth": 0.0
          },
          {
            "time": "2010-01-12T12:56:40+00:00",
            "course": 0.0,
            "speed": 7.0,
            "depth": 0.0
          },
          {
            "time": "2010-01-12T12:57:30+00:00",
            "course": 0.0,
            "speed": 7.0,
            "depth": 0.0
          },
          {
            "time": "2010-01-12T12:58:20+00:00",
            "course": 0.0,
            "speed": 7.0,
            "depth": 0.0
          },
          {
            "time": "2010-01-12T12:59:10+00:00",
            "course": 0.0,
            "speed": 7.0,
            "depth": 0.0
          },
          {
            "time": "2010-01-12T13:00:00+00:00",
            "course": 0.0,
            "speed": 7.0,
            "depth": 0.0
          }
        ],
        "default_position_style": {
          "show_symbol": false,
          "symbol": "circle",
          "show_label": false
        },
        "symbol_interval": "PT5M",
        "label_interval": "PT15M"
      }
    }
  ]
}