{
  "type": "FeatureCollection",
  "features": [
    {
      "type": "Feature",
      "id": "6974ba69-6bf8-4b81-95c2-d2e7747090f8",
      "geometry": null,
      "properties": {
        "kind": "SENSOR_CONTACT",
        "parent_track": "New_SSK",
        "time": "1970-01-03T03:14:25+00:00",
        "frequency": 23.0,
        "sensor_name": "New_SSK_FREQ",
        "label": "some message"
      }
    },
    {
      "type": "Feature",
      "id": "8daed21e-bde2-4eec-b3e9-08fabd3f40b8",
      "geometry": null,
      "properties": {
        "kind": "SENSOR_CONTACT",
        "parent_track": "New_SSK",
        "time": "1970-01-03T03:15:25+00:00",
        "frequency": 23.0,
        "sensor_name": "New_SSK_FREQ",
        "label": "some message"
      }
    },
    {
      "type": "Feature",
      "id": "69a042fb-5b16-4698-be12-f467f20eaaab",
      "geometry": null,
      "properties": {
        "kind": "SENSOR_CONTACT",
        "parent_track": "New_SSK",
        "time": "1970-01-03T03:16:25+00:00",
        "frequency": 23.0,
        "sensor_name": "New_SSK_FREQ",
        "label": "some message"
      }
    },
    {
      "type": "Feature",
      "id": "d0cc90df-8cf4-4d4f-9a4f-913aaed1d1ab",
      "geometry": null,
      "properties": {
        "kind": "SENSOR_CONTACT",
        "parent_track": "New_SSK",
        "time": "1970-01-03T03:17:25+00:00",
        "frequency": 23.0,
        "sensor_name": "New_SSK_FREQ",
        "label": "some message"
      }
    },
    {
      "type": "Feature",
      "id": "a5e7f928-c102-487b-a71a-8028237ac49c",
      "geometry": null,
      "properties": {
        "kind": "SENSOR_CONTACT",
        "parent_track": "New_SSK",
        "time": "1970-01-03T03:18:25+00:00",
        "frequency": 23.0,
        "sensor_name": "New_SSK_FREQ",
        "label": "some message"
      }
    },
    {
      "type": "Feature",
      "id": "d165686e-e00d-4395-b2e7-e0876309fb95",
      "geometry": null,
      "properties": {
        "kind": "SENSOR_CONTACT",
        "parent_track": "New_SSK",
        "time": "1970-01-03T03:19:25+00:00",
        "frequency": 23.0,
        "sensor_name": "New_SSK_FREQ",
        "label": "some message"
      }
    },
    {
      "type": "Feature",
      "id": "c64b4708-becd-48dc-a755-dbf49048060a",
      "geometry": null,
      "properties": {
        "kind": "SENSOR_CONTACT",
        "parent_track": "New_SSK",
        "time": "1970-01-03T03:20:25+00:00",
        "frequency": 23.0,
        "sensor_name": "New_SSK_FREQ",
        "label": "some message"
      }
    },
    {
      "type": "Feature",
      "id": "f30339e2-0bcc-4aa7-b58a-382fa6b25c2b",
      "geometry": null,
      "properties": {
        "kind": "SENSOR_CONTACT",
        "parent_track": "New_SSK",
        "time": "1970-01-03T03:21:25+00:00",
        "frequency": 23.0,
        "sensor_name": "New_SSK_FREQ",
        "label": "some message"
      }
    }
  ]
}