{
  "type": "FeatureCollection",
  "features": [
    {
      "type": "Feature",
      "id": "333a3476-03bc-4f30-afd7-b1e55788cdb5",
      "geometry": {
        "type": "LineString",
        "coordinates": [
          [
            0.0215972,
            0.0512972
          ],
          [
            0.02135,
            0.0505139
          ],
          [
            0.0207583,
            0.0499306
          ],
          [
            0.0201417,
            0.0493667
          ],
          [
            0.0195278,
            0.0488028
          ],
          [
            0.0189139,
            0.0482417
          ],
          [
            0.0183,
            0.0476778
          ],
          [
            0.0176861,
            0.0471139
          ],
          [
            0.0170722,
            0.04655
          ],
          [
            0.0164583,
            0.0459889
          ],
          [
            0.0158444,
            0.045425
          ],
          [
            0.0152306,
            0.0448611
          ],
          [
            0.0146139,
            0.0442972
          ],
          [
            0.014,
            0.0437361
          ],
          [
            0.0133861,
            0.0431722
          ],
          [
            0.0127722,
            0.0426083
          ],
          [
            0.0121583,
            0.0420444
          ],
          [
            0.0115444,
            0.0414833
          ],
          [
            0.0109306,
            0.0409194
          ],
          [
            0.0103167,
            0.0403556
          ],
          [
            0.0097028,
            0.0397917
          ],
          [
            0.0090861,
            0.0392306
          ],
          [
            0.0084722,
            0.0386667
          ],
          [
            0.0078583,
            0.0381028
          ],
          [
            0.0072444,
            0.0375389
          ],
          [
            0.0066306,
            0.0369778
          ],
          [
            0.0060167,
            0.0364139
          ],
          [
            0.0054028,
            0.03585
          ],
          [
            0.0047889,
            0.0352861
          ],
          [
            0.004175,
            0.0347222
          ],
          [
            0.0035583,
            0.0341611
          ],
          [
            0.0031528,
            0.03345
          ],
          [
            0.0031472,
            0.0326167
          ],
          [
            0.0031917,
            0.0317861
          ],
          [
            0.0032389,
            0.0309528
          ],
          [
            0.0032833,
            0.0301222
          ],
          [
            0.0033278,
            0.0292889
          ],
          [
            0.0033722,
            0.0284583
          ],
          [
            0.0034194,
            0.027625
          ],
          [
            0.0034639,
            0.0267944
          ],
          [
            0.0035083,
            0.0259611
          ],
          [
            0.0035556,
            0.0251278
          ],
          [
            0.0036,
            0.0242972
          ],
          [
            0.0038917,
            0.0235306
          ],
          [
            0.0045722,
            0.023075
          ],
          [
            0.0054,
            0.0230278
          ],
          [
            0.0062333,
            0.0230417
          ],
          [
            0.0070667,
            0.0230528
          ],
          [
            0.0079,
            0.0230667
          ],
          [
            0.0087333,
            0.0230806
          ],
          [
            0.0095667,
            0.0230944
          ],
          [
            0.0104,
            0.0231083
          ],
          [
            0.0112333,
            0.0231222
          ],
          [
            0.0120667,
            0.0231361
          ],
          [
            0.0129,
            0.02315
          ],
          [
            0.0137333,
            0.0231639
          ],
          [
            0.0145667,
            0.0231778
          ],
          [
            0.0154,
            0.0231917
          ],
          [
            0.0162333,
            0.0232056
          ],
          [
            0.0170667,
            0.0232194
          ],
          [
            0.0179,
            0.0232333
          ],
          [
            0.0187333,
            0.0232472
          ],
          [
            0.0195667,
            0.0232611
          ],
          [
            0.0203972,
            0.023275
          ],
          [
            0.0212306,
            0.0232889
          ],
          [
            0.0220639,
            0.0233028
          ],
          [
            0.0228972,
            0.0233167
          ],
          [
            0.0237306,
            0.0233306
          ],
          [
            0.0245639,
            0.0233444
          ],
          [
            0.0253972,
            0.0233556
          ],
          [
            0.0262306,
            0.0233694
          ],
          [
            0.0270639,
            0.0233833
          ],
          [
            0.0278972,
            0.0233972
          ],
          [
            0.0287306,
            0.0234111
          ],
          [
            0.0295167,
            0.023175
          ],
          [
            0.0300194,
            0.0225278
          ],
          [
            0.0300889,
            0.0217056
          ],
          [
            0.0300528,
            0.0208722
          ],
          [
            0.0300139,
            0.0200389
          ],
          [
            0.0299778,
            0.0192083
          ],
          [
            0.0299389,
            0.018375
          ],
          [
            0.0299028,
            0.0175417
          ],
          [
            0.0298639,
            0.0167111
          ],
          [
            0.0298278,
            0.0158778
          ],
          [
            0.0297889,
            0.0150444
          ],
          [
            0.0297528,
            0.0142139
          ],
          [
            0.0297139,
            0.0133806
          ],
          [
            0.0296778,
            0.0125472
          ],
          [
            0.0296389,
            0.0117139
          ],
          [
            0.0296028,
            0.0108833
          ],
          [
            0.0295639,
            0.01005
          ]
        ]
      },
      "properties": {
        "kind": "TRACK",
        "platform_id": "SENSOR",
        "platform_name": "SENSOR",
        "track_type": "CONTACT",
        "start_time": "2010-01-12T12:00:00+00:00",
        "end_time": "2010-01-12T12:30:00+00:00",
        "positions": [
          {
            "time": "2010-01-12T12:00:00+00:00",
            "course": 180.0,
            "speed": 9.0,
            "depth": -0.0
          },
          {
            "time": "2010-01-12T12:00:20+00:00",
            "course": 215.37,
            "speed": 9.0,
            "depth": -0.0
          },
          {
            "time": "2010-01-12T12:00:40+00:00",
            "course": 227.41,
            "speed": 9.0,
            "depth": -0.0
          },
          {
            "time": "2010-01-12T12:01:00+00:00",
            "course": 227.48,
            "speed": 9.0,
            "depth": -0.0
          },
          {
            "time": "2010-01-12T12:01:20+00:00",
            "course": 227.48,
            "speed": 9.0,
            "depth": -0.0
          },
          {
            "time": "2010-01-12T12:01:40+00:00",
            "course": 227.48,
            "speed": 9.0,
            "depth": -0.0
          },
          {
            "time": "2010-01-12T12:02:00+00:00",
            "course": 227.48,
            "speed": 9.0,
            "depth": -0.0
          },
          {
            "time": "2010-01-12T12:02:20+00:00",
            "course": 227.48,
            "speed": 9.0,
            "depth": -0.0
          },
          {
            "time": "2010-01-12T12:02:40+00:00",
            "course": 227.48,
            "speed": 9.0,
            "depth": -0.0
          },
          {
            "time": "2010-01-12T12:03:00+00:00",
            "course": 227.48,
            "speed": 9.0,
            "depth": -0.0
          },
          {
            "time": "2010-01-12T12:03:20+00:00",
            "course": 227.48,
            "speed": 9.0,
            "depth": -0.0
          },
          {
            "time": "2010-01-12T12:03:40+00:00",
            "course": 227.48,
            "speed": 9.0,
            "depth": -0.0
          },
          {
            "time": "2010-01-12T12:04:00+00:00",
            "course": 227.48,
            "speed": 9.0,
            "depth": -0.0
          },
          {
            "time": "2010-01-12T12:04:20+00:00",
            "course": 227.48,
            "speed": 9.0,
            "depth": -0.0
          },
          {
            "time": "2010-01-12T12:04:40+00:00",
            "course": 227.48,
            "speed": 9.0,
            "depth": -0.0
          },
          {
            "time": "2010-01-12T12:05:00+00:00",
            "course": 227.48,
            "speed": 9.0,
            "depth": -0.0
          },
          {
            "time": "2010-01-12T12:05:20+00:00",
            "course": 227.48,
            "speed": 9.0,
            "depth": -0.0
          },
          {
            "time": "2010-01-12T12:05:40+00:00",
            "course": 227.48,
            "speed": 9.0,
            "depth": -0.0
          },
          {
            "time": "2010-01-12T12:06:00+00:00",
            "course": 227.48,
            "speed": 9.0,
            "depth": -0.0
          },
          {
            "time": "2010-01-12T12:06:20+00:00",
            "course": 227.48,
            "speed": 9.0,
            "depth": -0.0
          },
          {
            "time": "2010-01-12T12:06:40+00:00",
            "course": 227.48,
            "speed": 9.0,
            "depth": -0.0
          },
          {
            "time": "2010-01-12T12:07:00+00:00",
            "course": 227.48,
            "speed": 9.0,
            "depth": -0.0
          },
          {
            "time": "2010-01-12T12:07:20+00:00",
            "course": 227.48,
            "speed": 9.0,
            "depth": -0.0
          },
          {
            "time": "2010-01-12T12:07:40+00:00",
            "course": 227.48,
            "speed": 9.0,
            "depth": -0.0
          },
          {
            "time": "2010-01-12T12:08:00+00:00",
            "course": 227.48,
            "speed": 9.0,
            "depth": -0.0
          },
          {
            "time": "2010-01-12T12:08:20+00:00",
            "course": 227.48,
            "speed": 9.0,
            "depth": -0.0
          },
          {
            "time": "2010-01-12T12:08:40+00:00",
            "course": 227.48,
            "speed": 9.0,
            "depth": -0.0
          },
          {
            "time": "2010-01-12T12:09:00+00:00",
            "course": 227.48,
            "speed": 9.0,
            "depth": -0.0
          },
          {
            "time": "2010-01-12T12:09:20+00:00",
            "course": 227.48,
            "speed": 9.0,
            "depth": -0.0
          },
          {
            "time": "2010-01-12T12:09:40+00:00",
            "course": 227.48,
            "speed": 9.0,
            "depth": -0.0
          },
          {
            "time": "2010-01-12T12:10:00+00:00",
            "course": 227.48,
            "speed": 9.0,
            "depth": -0.0
          },
          {
            "time": "2010-01-12T12:10:20+00:00",
            "course": 192.11,
            "speed": 9.0,
            "depth": -0.0
          },
          {
            "time": "2010-01-12T12:10:40+00:00",
            "course": 177.2,
            "speed": 9.0,
            "depth": -0.0
          },
          {
            "time": "2010-01-12T12:11:00+00:00",
            "course": 176.89,
            "speed": 9.0,
            "depth": -0.0
          },
          {
            "time": "2010-01-12T12:11:20+00:00",
            "course": 176.89,
            "speed": 9.0,
            "depth": -0.0
          },
          {
            "time": "2010-01-12T12:11:40+00:00",
            "course": 176.89,
            "speed": 9.0,
            "depth": -0.0
          },
          {
            "time": "2010-01-12T12:12:00+00:00",
            "course": 176.89,
            "speed": 9.0,
            "depth": -0.0
          },
          {
            "time": "2010-01-12T12:12:20+00:00",
            "course": 176.89,
            "speed": 9.0,
            "depth": -0.0
          },
          {
            "time": "2010-01-12T12:12:40+00:00",
            "course": 176.89,
            "speed": 9.0,
            "depth": -0.0
          },
          {
            "time": "2010-01-12T12:13:00+00:00",
            "course": 176.89,
            "speed": 9.0,
            "depth": -0.0
          },
          {
            "time": "2010-01-12T12:13:20+00:00",
            "course": 176.89,
            "speed": 9.0,
            "depth": -0.0
          },
          {
            "time": "2010-01-12T12:13:40+00:00",
            "course": 176.89,
            "speed": 9.0,
            "depth": -0.0
          },
          {
            "time": "2010-01-12T12:14:00+00:00",
            "course": 176.89,
            "speed": 9.0,
            "depth": -0.0
          },
          {
            "time": "2010-01-12T12:14:20+00:00",
            "course": 141.52,
            "speed": 9.0,
            "depth": -0.0
          },
          {
            "time": "2010-01-12T12:14:40+00:00",
            "course": 106.14,
            "speed": 9.0,
            "depth": -0.0
          },
          {
            "time": "2010-01-12T12:15:00+00:00",
            "course": 89.2,
            "speed": 9.0,
            "depth": -0.0
          },
          {
            "time": "2010-01-12T12:15:20+00:00",
            "course": 89.05,
            "speed": 9.0,
            "depth": -0.0
          },
          {
            "time": "2010-01-12T12:15:40+00:00",
            "course": 89.05,
            "speed": 9.0,
            "depth": -0.0
          },
          {
            "time": "2010-01-12T12:16:00+00:00",
            "course": 89.05,
            "speed": 9.0,
            "depth": -0.0
          },
          {
            "time": "2010-01-12T12:16:20+00:00",
            "course": 89.05,
            "speed": 9.0,
            "depth": -0.0
          },
          {
            "time": "2010-01-12T12:16:40+00:00",
            "course": 89.05,
            "speed": 9.0,
            "depth": -0.0
          },
          {
            "time": "2010-01-12T12:17:00+00:00",
            "course": 89.05,
            "speed": 9.0,
            "depth": -0.0
          },
          {
            "time": "2010-01-12T12:17:20+00:00",
            "course": 89.05,
            "speed": 9.0,
            "depth": -0.0
          },
          {
            "time": "2010-01-12T12:17:40+00:00",
            "course": 89.05,
            "speed": 9.0,
            "depth": -0.0
          },
          {
            "time": "2010-01-12T12:18:00+00:00",
            "course": 89.05,
            "speed": 9.0,
            "depth": -0.0
          },
          {
            "time": "2010-01-12T12:18:20+00:00",
            "course": 89.05,
            "speed": 9.0,
            "depth": -0.0
          },
          {
            "time": "2010-01-12T12:18:40+00:00",
            "course": 89.05,
            "speed": 9.0,
            "depth": -0.0
          },
          {
            "time": "2010-01-12T12:19:00+00:00",
            "course": 89.05,
            "speed": 9.0,
            "depth": -0.0
          },
          {
            "time": "2010-01-12T12:19:20+00:00",
            "course": 89.05,
            "speed": 9.0,
            "depth": -0.0
          },
          {
            "time": "2010-01-12T12:19:40+00:00",
            "course": 89.05,
            "speed": 9.0,
            "depth": -0.0
          },
          {
            "time": "2010-01-12T12:20:00+00:00",
            "course": 89.05,
            "speed": 9.0,
            "depth": -0.0
          },
          {
            "time": "2010-01-12T12:20:20+00:00",
            "course": 89.05,
            "speed": 9.0,
            "depth": -0.0
          },
          {
            "time": "2010-01-12T12:20:40+00:00",
            "course": 89.05,
            "speed": 9.0,
            "depth": -0.0
          },
          {
            "time": "2010-01-12T12:21:00+00:00",
            "course": 89.05,
            "speed": 9.0,
            "depth": -0.0
          },
          {
            "time": "2010-01-12T12:21:20+00:00",
            "course": 89.05,
            "speed": 9.0,
            "depth": -0.0
          },
          {
            "time": "2010-01-12T12:21:40+00:00",
            "course": 89.05,
            "speed": 9.0,
            "depth": -0.0
          },
          {
            "time": "2010-01-12T12:22:00+00:00",
            "course": 89.05,
            "speed": 9.0,
            "depth": -0.0
          },
          {
            "time": "2010-01-12T12:22:20+00:00",
            "course": 89.05,
            "speed": 9.0,
            "depth": -0.0
          },
          {
            "time": "2010-01-12T12:22:40+00:00",
            "course": 89.05,
            "speed": 9.0,
            "depth": -0.0
          },
          {
            "time": "2010-01-12T12:23:00+00:00",
            "course": 89.05,
            "speed": 9.0,
            "depth": -0.0
          },
          {
            "time": "2010-01-12T12:23:20+00:00",
            "course": 89.05,
            "speed": 9.0,
            "depth": -0.0
          },
          {
            "time": "2010-01-12T12:23:40+00:00",
            "course": 89.05,
            "speed": 9.0,
            "depth": -0.0
          },
          {
            "time": "2010-01-12T12:24:00+00:00",
            "course": 89.05,
            "speed": 9.0,
            "depth": -0.0
          },
          {
            "time": "2010-01-12T12:24:20+00:00",
            "course": 89.05,
            "speed": 9.0,
            "depth": -0.0
          },
          {
            "time": "2010-01-12T12:24:40+00:00",
            "course": 124.42,
            "speed": 9.0,
            "depth": -0.0
          },
          {
            "time": "2010-01-12T12:25:00+00:00",
            "course": 159.8,
            "speed": 9.0,
            "depth": -0.0
          },
          {
            "time": "2010-01-12T12:25:20+00:00",
            "course": 182.45,
            "speed": 9.0,
            "depth": -0.0
          },
          {
            "time": "2010-01-12T12:25:40+00:00",
            "course": 182.58,
            "speed": 9.0,
            "depth": -0.0
          },
          {
            "time": "2010-01-12T12:26:00+00:00",
            "course": 182.58,
            "speed": 9.0,
            "depth": -0.0
          },
          {
            "time": "2010-01-12T12:26:20+00:00",
            "course": 182.58,
            "speed": 9.0,
            "depth": -0.0
          },
          {
            "time": "2010-01-12T12:26:40+00:00",
            "course": 182.58,
            "speed": 9.0,
            "depth": -0.0
          },
          {
            "time": "2010-01-12T12:27:00+00:00",
            "course": 182.58,
            "speed": 9.0,
            "depth": -0.0
          },
          {
            "time": "2010-01-12T12:27:20+00:00",
            "course": 182.58,
            "speed": 9.0,
            "depth": -0.0
          },
          {
            "time": "2010-01-12T12:27:40+00:00",
            "course": 182.58,
            "speed": 9.0,
            "depth": -0.0
          },
          {
            "time": "2010-01-12T12:28:00+00:00",
            "course": 182.58,
            "speed": 9.0,
            "depth": -0.0
          },
          {
            "time": "2010-01-12T12:28:20+00:00",
            "course": 182.58,
            "speed": 9.0,
            "depth": -0.0
          },
          {
            "time": "2010-01-12T12:28:40+00:00",
            "course": 182.58,
            "speed": 9.0,
            "depth": -0.0
          },
          {
            "time": "2010-01-12T12:29:00+00:00",
            "course": 182.58,
            "speed": 9.0,
            "depth": -0.0
          },
          {
            "time": "2010-01-12T12:29:20+00:00",
            "course": 182.58,
            "speed": 9.0,
            "depth": -0.0
          },
          {
            "time": "2010-01-12T12:29:40+00:00",
            "course": 182.58,
            "speed": 9.0,
            "depth": -0.0
          },
          {
            "time": "2010-01-12T12:30:00+00:00",
            "course": 182.58,
            "speed": 9.0,
            "depth": -0.0
          }
        ],
        "style": {
          "line": {
            "color": "#808080"
          },
          "point": {
            "shape": "circle",
            "radius": 3.0,
            "fill_color": "#808080",
            "color": "#808080"
          }
        },
        "default_position_style": {
          "show_symbol": false,
          "symbol": "circle",
          "show_label": false
        },
        "symbol_interval": "PT5M",
        "label_interval": "PT15M"
      }
    },
    {
      "type": "Feature",
      "id": "1602ae3e-6abe-4ad2-bd3b-c75603ee572b",
      "geometry": null,
      "properties": {
        "kind": "SENSOR_CONTACT",
        "parent_track": "SENSOR",
        "sensor_name": "Plain",
        "bearing": -116.6,
        "time": "2010-01-12T12:00:00+00:00",
        "label": "Cookie SUBJECT held on Plain Cookie"
      }
    },
    {
      "type": "Feature",
      "id": "45b36e83-7978-4b6b-8dc4-6c9ab3190b9a",
      "geometry": null,
      "properties": {
        "kind": "SENSOR_CONTACT",
        "parent_track": "SENSOR",
        "sensor_name": "Plain",
        "bearing": -117.3,
        "time": "2010-01-12T12:00:40+00:00",
        "label": "Cookie SUBJECT held on Plain Cookie"
      }
    },
    {
      "type": "Feature",
      "id": "67bd30ae-3fb5-4857-88a9-675565bc8215",
      "geometry": null,
      "properties": {
        "kind": "SENSOR_CONTACT",
        "parent_track": "SENSOR",
        "sensor_name": "Plain",
        "bearing": -120.4,
        "time": "2010-01-12T12:01:20+00:00",
        "label": "Cookie SUBJECT held on Plain Cookie"
      }
    },
    {
      "type": "Feature",
      "id": "0db004f3-48ce-49d9-b71e-833812eef7d7",
      "geometry": null,
      "properties": {
        "kind": "SENSOR_CONTACT",
        "parent_track": "SENSOR",
        "sensor_name": "Plain",
        "bearing": -122.3,
        "time": "2010-01-12T12:01:40+00:00",
        "label": "Cookie SUBJECT held on Plain Cookie"
      }
    },
    {
      "type": "Feature",
      "id": "cf968d43-adbc-4400-aed8-985a1330bb3c",
      "geometry": null,
      "properties": {
        "kind": "SENSOR_CONTACT",
        "parent_track": "SENSOR",
        "sensor_name": "Plain",
        "bearing": -124.3,
        "time": "2010-01-12T12:02:00+00:00",
        "label": "Cookie SUBJECT held on Plain Cookie"
      }
    },
    {
      "type": "Feature",
      "id": "0cbe38b5-baf0-498a-8bba-89b75752862c",
      "geometry": null,
      "properties": {
        "kind": "SENSOR_CONTACT",
        "parent_track": "SENSOR",
        "sensor_name": "Plain",
        "bearing": -129.1,
        "time": "2010-01-12T12:02:40+00:00",
        "label": "Cookie SUBJECT held on Plain Cookie"
      }
    },
    {
      "type": "Feature",
      "id": "0f044d25-c6e3-4669-ae2e-e67251e23dbe",
      "geometry": null,
      "properties": {
        "kind": "SENSOR_CONTACT",
        "parent_track": "SENSOR",
        "sensor_name": "Plain",
        "bearing": -132.0,
        "time": "2010-01-12T12:03:00+00:00",
        "label": "Cookie SUBJECT held on Plain Cookie"
      }
    },
    {
      "type": "Feature",
      "id": "cf090006-cb64-4dae-ab6d-1dcfd8b0c5a7",
      "geometry": null,
      "properties": {
        "kind": "SENSOR_CONTACT",
        "parent_track": "SENSOR",
        "sensor_name": "Plain",
        "bearing": -135.2,
        "time": "2010-01-12T12:03:20+00:00",
        "label": "Cookie SUBJECT held on Plain Cookie"
      }
    },
    {
      "type": "Feature",
      "id": "ad7e8d9e-4b81-41a5-87f4-7a0d1438c8bd",
      "geometry": null,
      "properties": {
        "kind": "SENSOR_CONTACT",
        "parent_track": "SENSOR",
        "sensor_name": "Plain",
        "bearing": -138.9,
        "time": "2010-01-12T12:03:40+00:00",
        "label": "Cookie SUBJECT held on Plain Cookie"
      }
    },
    {
      "type": "Feature",
      "id": "05f5234d-ed88-4c91-aa90-62f730cf4f9b",
      "geometry": null,
      "properties": {
        "kind": "SENSOR_CONTACT",
        "parent_track": "SENSOR",
        "sensor_name": "Plain",
        "bearing": -147.7,
        "time": "2010-01-12T12:04:20+00:00",
        "label": "Cookie SUBJECT held on Plain Cookie"
      }
    },
    {
      "type": "Feature",
      "id": "dd3ec9b4-a728-475e-ade3-0503f96e38a2",
      "geometry": null,
      "properties": {
        "kind": "SENSOR_CONTACT",
        "parent_track": "SENSOR",
        "sensor_name": "Plain",
        "bearing": -152.9,
        "time": "2010-01-12T12:04:40+00:00",
        "label": "Cookie SUBJECT held on Plain Cookie"
      }
    },
    {
      "type": "Feature",
      "id": "cd8f68a3-5e75-4e6e-9dcd-23003a3ec238",
      "geometry": null,
      "properties": {
        "kind": "SENSOR_CONTACT",
        "parent_track": "SENSOR",
        "sensor_name": "Plain",
        "bearing": -158.6,
        "time": "2010-01-12T12:05:00+00:00",
        "label": "Cookie SUBJECT held on Plain Cookie"
      }
    },
    {
      "type": "Feature",
      "id": "646a6e85-08a2-493e-bc85-58d9b8e03b6d",
      "geometry": null,
      "properties": {
        "kind": "SENSOR_CONTACT",
        "parent_track": "SENSOR",
        "sensor_name": "Plain",
        "bearing": -171.6,
        "time": "2010-01-12T12:05:40+00:00",
        "label": "Cookie SUBJECT held on Plain Cookie"
      }
    },
    {
      "type": "Feature",
      "id": "dadc61ce-a6d4-4de1-98c5-adb020960f36",
      "geometry": null,
      "properties": {
        "kind": "SENSOR_CONTACT",
        "parent_track": "SENSOR",
        "sensor_name": "Plain",
        "bearing": -178.5,
        "time": "2010-01-12T12:06:00+00:00",
        "label": "Cookie SUBJECT held on Plain Cookie"
      }
    },
    {
      "type": "Feature",
      "id": "dc890276-1113-44b9-bdaf-a16ead58a30c",
      "geometry": null,
      "properties": {
        "kind": "SENSOR_CONTACT",
        "parent_track": "SENSOR",
        "sensor_name": "Plain",
        "bearing": 174.5,
        "time": "2010-01-12T12:06:20+00:00",
        "label": "Cookie SUBJECT held on Plain Cookie"
      }
    },
    {
      "type": "Feature",
      "id": "c24b9d0a-bbdc-4528-9550-f2cca5ac7fc8",
      "geometry": null,
      "properties": {
        "kind": "SENSOR_CONTACT",
        "parent_track": "SENSOR",
        "sensor_name": "Plain",
        "bearing": 161.1,
        "time": "2010-01-12T12:07:00+00:00",
        "label": "Cookie SUBJECT held on Plain Cookie"
      }
    },
    {
      "type": "Feature",
      "id": "7abc5a6a-ac30-4d2b-99b7-31f9579e7cc9",
      "geometry": null,
      "properties": {
        "kind": "SENSOR_CONTACT",
        "parent_track": "SENSOR",
        "sensor_name": "Plain",
        "bearing": 155.0,
        "time": "2010-01-12T12:07:20+00:00",
        "label": "Cookie SUBJECT held on Plain Cookie"
      }
    },
    {
      "type": "Feature",
      "id": "0676c5f7-7495-4079-9315-276c6ce750b3",
      "geometry": null,
      "properties": {
        "kind": "SENSOR_CONTACT",
        "parent_track": "SENSOR",
        "sensor_name": "Plain",
        "bearing": 144.5,
        "time": "2010-01-12T12:08:00+00:00",
        "label": "Cookie SUBJECT held on Plain Cookie"
      }
    },
    {
      "type": "Feature",
      "id": "5babbfcf-baea-4151-8577-8510c9166492",
      "geometry": null,
      "properties": {
        "kind": "SENSOR_CONTACT",
        "parent_track": "SENSOR",
        "sensor_name": "Plain",
        "bearing": 140.0,
        "time": "2010-01-12T12:08:20+00:00",
        "label": "Cookie SUBJECT held on Plain Cookie"
      }
    },
    {
      "type": "Feature",
      "id": "4785fb6e-d257-4ca4-841f-c43b5e8396ff",
      "geometry": null,
      "properties": {
        "kind": "SENSOR_CONTACT",
        "parent_track": "SENSOR",
        "sensor_name": "Plain",
        "bearing": 135.8,
        "time": "2010-01-12T12:08:40+00:00",
        "label": "Cookie SUBJECT held on Plain Cookie"
      }
    },
    {
      "type": "Feature",
      "id": "1f5b1353-80c2-453e-bbf6-70d72fc05a73",
      "geometry": null,
      "properties": {
        "kind": "SENSOR_CONTACT",
        "parent_track": "SENSOR",
        "sensor_name": "Plain",
        "bearing": 123.4,
        "time": "2010-01-12T12:09:40+00:00",
        "label": "Cookie SUBJECT held on Plain Cookie"
      }
    },
    {
      "type": "Feature",
      "id": "31a0b836-5f37-4689-b6b1-e6772d3c0a0c",
      "geometry": null,
      "properties": {
        "kind": "SENSOR_CONTACT",
        "parent_track": "SENSOR",
        "sensor_name": "Plain",
        "bearing": 115.5,
        "time": "2010-01-12T12:10:20+00:00",
        "label": "Cookie SUBJECT held on Plain Cookie"
      }
    },
    {
      "type": "Feature",
      "id": "a66edf14-4996-40b5-9e3e-1d2f286497e5",
      "geometry": null,
      "properties": {
        "kind": "SENSOR_CONTACT",
        "parent_track": "SENSOR",
        "sensor_name": "Plain",
        "bearing": 112.1,
        "time": "2010-01-12T12:10:40+00:00",
        "label": "Cookie SUBJECT held on Plain Cookie"
      }
    },
    {
      "type": "Feature",
      "id": "0cfd8716-d10b-49f0-87ab-dac61db68915",
      "geometry": null,
      "properties": {
        "kind": "SENSOR_CONTACT",
        "parent_track": "SENSOR",
        "sensor_name": "Plain",
        "bearing": 108.9,
        "time": "2010-01-12T12:11:00+00:00",
        "label": "Cookie SUBJECT held on Plain Cookie"
      }
    },
    {
      "type": "Feature",
      "id": "39f25fc2-aeec-447e-a91a-62a55d3fdc71",
      "geometry": null,
      "properties": {
        "kind": "SENSOR_CONTACT",
        "parent_track": "SENSOR",
        "sensor_name": "Plain",
        "bearing": 105.8,
        "time": "2010-01-12T12:11:20+00:00",
        "label": "Cookie SUBJECT held on Plain Cookie"
      }
    },
    {
      "type": "Feature",
      "id": "6764a799-5adc-425d-8bda-7ea216112fde",
      "geometry": null,
      "properties": {
        "kind": "SENSOR_CONTACT",
        "parent_track": "SENSOR",
        "sensor_name": "Plain",
        "bearing": 100.1,
        "time": "2010-01-12T12:12:00+00:00",
        "label": "Cookie SUBJECT held on Plain Cookie"
      }
    },
    {
      "type": "Feature",
      "id": "fe0db728-aac2-4dba-8975-fffe107da0d3",
      "geometry": null,
      "properties": {
        "kind": "SENSOR_CONTACT",
        "parent_track": "SENSOR",
        "sensor_name": "Plain",
        "bearing": 92.5,
        "time": "2010-01-12T12:13:00+00:00",
        "label": "Cookie SUBJECT held on Plain Cookie"
      }
    },
    {
      "type": "Feature",
      "id": "86ee74a8-3c46-4df7-9b2f-cf713f556c91",
      "geometry": null,
      "properties": {
        "kind": "SENSOR_CONTACT",
        "parent_track": "SENSOR",
        "sensor_name": "Plain",
        "bearing": 88.2,
        "time": "2010-01-12T12:13:40+00:00",
        "label": "Cookie SUBJECT held on Plain Cookie"
      }
    },
    {
      "type": "Feature",
      "id": "c4ee5ee6-eb17-4d96-b64c-2bfa03721967",
      "geometry": null,
      "properties": {
        "kind": "SENSOR_CONTACT",
        "parent_track": "SENSOR",
        "sensor_name": "Plain",
        "bearing": 86.2,
        "time": "2010-01-12T12:14:00+00:00",
        "label": "Cookie SUBJECT held on Plain Cookie"
      }
    },
    {
      "type": "Feature",
      "id": "16ade2c0-aee1-482b-b01d-13db2f849c46",
      "geometry": null,
      "properties": {
        "kind": "SENSOR_CONTACT",
        "parent_track": "SENSOR",
        "sensor_name": "Plain",
        "bearing": 86.8,
        "time": "2010-01-12T12:15:20+00:00",
        "label": "Cookie SUBJECT held on Plain Cookie"
      }
    },
    {
      "type": "Feature",
      "id": "2ae43c98-eef7-4a28-82cb-a95e58fdd798",
      "geometry": null,
      "properties": {
        "kind": "SENSOR_CONTACT",
        "parent_track": "SENSOR",
        "sensor_name": "Plain",
        "bearing": 90.2,
        "time": "2010-01-12T12:16:00+00:00",
        "label": "Cookie SUBJECT held on Plain Cookie"
      }
    },
    {
      "type": "Feature",
      "id": "c43b13d5-a2e0-48a8-8c56-63a4d0742345",
      "geometry": null,
      "properties": {
        "kind": "SENSOR_CONTACT",
        "parent_track": "SENSOR",
        "sensor_name": "Plain",
        "bearing": 92.2,
        "time": "2010-01-12T12:16:20+00:00",
        "label": "Cookie SUBJECT held on Plain Cookie"
      }
    },
    {
      "type": "Feature",
      "id": "d9c76532-5b9a-4fce-b387-f2ab5b2ff45d",
      "geometry": null,
      "properties": {
        "kind": "SENSOR_CONTACT",
        "parent_track": "SENSOR",
        "sensor_name": "Plain",
        "bearing": 94.2,
        "time": "2010-01-12T12:16:40+00:00",
        "label": "Cookie SUBJECT held on Plain Cookie"
      }
    },
    {
      "type": "Feature",
      "id": "ccdda0da-e464-4166-8ba1-097c6d6fe5c8",
      "geometry": null,
      "properties": {
        "kind": "SENSOR_CONTACT",
        "parent_track": "SENSOR",
        "sensor_name": "Plain",
        "bearing": 98.8,
        "time": "2010-01-12T12:17:20+00:00",
        "label": "Cookie SUBJECT held on Plain Cookie"
      }
    },
    {
      "type": "Feature",
      "id": "64b5a223-c3ff-4dc1-8190-73ecb640c743",
      "geometry": null,
      "properties": {
        "kind": "SENSOR_CONTACT",
        "parent_track": "SENSOR",
        "sensor_name": "Plain",
        "bearing": 101.4,
        "time": "2010-01-12T12:17:40+00:00",
        "label": "Cookie SUBJECT held on Plain Cookie"
      }
    },
    {
      "type": "Feature",
      "id": "4015d0d4-87c5-4d15-be19-26230ce026c6",
      "geometry": null,
      "properties": {
        "kind": "SENSOR_CONTACT",
        "parent_track": "SENSOR",
        "sensor_name": "Plain",
        "bearing": 104.1,
        "time": "2010-01-12T12:18:00+00:00",
        "label": "Cookie SUBJECT held on Plain Cookie"
      }
    },
    {
      "type": "Feature",
      "id": "3d9815fc-2402-43f9-8ea3-efef6d071e23",
      "geometry": null,
      "properties": {
        "kind": "SENSOR_CONTACT",
        "parent_track": "SENSOR",
        "sensor_name": "Plain",
        "bearing": 110.2,
        "time": "2010-01-12T12:18:40+00:00",
        "label": "Cookie SUBJECT held on Plain Cookie"
      }
    },
    {
      "type": "Feature",
      "id": "1a5c358d-9c30-4662-b37a-f290ed1061f4",
      "geometry": null,
      "properties": {
        "kind": "SENSOR_CONTACT",
        "parent_track": "SENSOR",
        "sensor_name": "Plain",
        "bearing": 116.9,
        "time": "2010-01-12T12:19:20+00:00",
        "label": "Cookie SUBJECT held on Plain Cookie"
      }
    },
    {
      "type": "Feature",
      "id": "761488d8-12c2-46d1-8bb9-6170ce1b3b73",
      "geometry": null,
      "properties": {
        "kind": "SENSOR_CONTACT",
        "parent_track": "SENSOR",
        "sensor_name": "Plain",
        "bearing": 124.3,
        "time": "2010-01-12T12:20:00+00:00",
        "label": "Cookie SUBJECT held on Plain Cookie"
      }
    },
    {
      "type": "Feature",
      "id": "0933aaa1-8ed3-4202-aaea-022cd2ca31ff",
      "geometry": null,
      "properties": {
        "kind": "SENSOR_CONTACT",
        "parent_track": "SENSOR",
        "sensor_name": "Plain",
        "bearing": 128.6,
        "time": "2010-01-12T12:20:20+00:00",
        "label": "Cookie SUBJECT held on Plain Cookie"
      }
    },
    {
      "type": "Feature",
      "id": "42394aa2-4901-4d2d-8ab4-2442f53ea48b",
      "geometry": null,
      "properties": {
        "kind": "SENSOR_CONTACT",
        "parent_track": "SENSOR",
        "sensor_name": "Plain",
        "bearing": 133.5,
        "time": "2010-01-12T12:20:40+00:00",
        "label": "Cookie SUBJECT held on Plain Cookie"
      }
    },
    {
      "type": "Feature",
      "id": "acbe3079-143d-4685-a986-3a8397c8af52",
      "geometry": null,
      "properties": {
        "kind": "SENSOR_CONTACT",
        "parent_track": "SENSOR",
        "sensor_name": "Plain",
        "bearing": 139.1,
        "time": "2010-01-12T12:21:00+00:00",
        "label": "Cookie SUBJECT held on Plain Cookie"
      }
    },
    {
      "type": "Feature",
      "id": "f71187d9-8343-4f44-a48b-80a964e532bc",
      "geometry": null,
      "properties": {
        "kind": "SENSOR_CONTACT",
        "parent_track": "SENSOR",
        "sensor_name": "Plain",
        "bearing": 145.3,
        "time": "2010-01-12T12:21:20+00:00",
        "label": "Cookie SUBJECT held on Plain Cookie"
      }
    },
    {
      "type": "Feature",
      "id": "c18d17a2-86e8-4410-83ad-6ec252d72338",
      "geometry": null,
      "properties": {
        "kind": "SENSOR_CONTACT",
        "parent_track": "SENSOR",
        "sensor_name": "Plain",
        "bearing": 152.0,
        "time": "2010-01-12T12:21:40+00:00",
        "label": "Cookie SUBJECT held on Plain Cookie"
      }
    },
    {
      "type": "Feature",
      "id": "649b305c-a646-4aaf-b1bf-ec3c481e88c9",
      "geometry": null,
      "properties": {
        "kind": "SENSOR_CONTACT",
        "parent_track": "SENSOR",
        "sensor_name": "Plain",
        "bearing": 159.1,
        "time": "2010-01-12T12:22:00+00:00",
        "label": "Cookie SUBJECT held on Plain Cookie"
      }
    },
    {
      "type": "Feature",
      "id": "e8def732-78a7-42e2-a9da-31a6da4ca9c4",
      "geometry": null,
      "properties": {
        "kind": "SENSOR_CONTACT",
        "parent_track": "SENSOR",
        "sensor_name": "Plain",
        "bearing": 172.2,
        "time": "2010-01-12T12:22:40+00:00",
        "label": "Cookie SUBJECT held on Plain Cookie"
      }
    },
    {
      "type": "Feature",
      "id": "3e81e994-d932-4bec-ad10-9f6572d51058",
      "geometry": null,
      "properties": {
        "kind": "SENSOR_CONTACT",
        "parent_track": "SENSOR",
        "sensor_name": "Plain",
        "bearing": -177.0,
        "time": "2010-01-12T12:23:20+00:00",
        "label": "Cookie SUBJECT held on Plain Cookie"
      }
    },
    {
      "type": "Feature",
      "id": "ee6f361c-0939-437a-a061-99ddda7799dd",
      "geometry": null,
      "properties": {
        "kind": "SENSOR_CONTACT",
        "parent_track": "SENSOR",
        "sensor_name": "Plain",
        "bearing": -172.5,
        "time": "2010-01-12T12:23:40+00:00",
        "label": "Cookie SUBJECT held on Plain Cookie"
      }
    },
    {
      "type": "Feature",
      "id": "f057490f-681a-4fd6-b1ba-db909ed54a5d",
      "geometry": null,
      "properties": {
        "kind": "SENSOR_CONTACT",
        "parent_track": "SENSOR",
        "sensor_name": "Plain",
        "bearing": -168.5,
        "time": "2010-01-12T12:24:00+00:00",
        "label": "Cookie SUBJECT held on Plain Cookie"
      }
    },
    {
      "type": "Feature",
      "id": "958a5483-5b62-42bd-86ea-84a5ba862180",
      "geometry": null,
      "properties": {
        "kind": "SENSOR_CONTACT",
        "parent_track": "SENSOR",
        "sensor_name": "Plain",
        "bearing": -158.3,
        "time": "2010-01-12T12:25:40+00:00",
        "label": "Cookie SUBJECT held on Plain Cookie"
      }
    },
    {
      "type": "Feature",
      "id": "f216b250-9807-41c4-8734-893af6be2368",
      "geometry": null,
      "properties": {
        "kind": "SENSOR_CONTACT",
        "parent_track": "SENSOR",
        "sensor_name": "Plain",
        "bearing": -157.9,
        "time": "2010-01-12T12:26:00+00:00",
        "label": "Cookie SUBJECT held on Plain Cookie"
      }
    },
    {
      "type": "Feature",
      "id": "415e746c-cd24-46a8-bf9e-e5e0e03d6bdb",
      "geometry": null,
      "properties": {
        "kind": "SENSOR_CONTACT",
        "parent_track": "SENSOR",
        "sensor_name": "Plain",
        "bearing": -157.0,
        "time": "2010-01-12T12:26:40+00:00",
        "label": "Cookie SUBJECT held on Plain Cookie"
      }
    },
    {
      "type": "Feature",
      "id": "45d26fd6-9e3d-4e81-bd09-5246f96028f3",
      "geometry": null,
      "properties": {
        "kind": "SENSOR_CONTACT",
        "parent_track": "SENSOR",
        "sensor_name": "Plain",
        "bearing": -156.5,
        "time": "2010-01-12T12:27:00+00:00",
        "label": "Cookie SUBJECT held on Plain Cookie"
      }
    },
    {
      "type": "Feature",
      "id": "83d6abb4-e822-4321-b1a2-00c7798b7801",
      "geometry": null,
      "properties": {
        "kind": "SENSOR_CONTACT",
        "parent_track": "SENSOR",
        "sensor_name": "Plain",
        "bearing": -156.0,
        "time": "2010-01-12T12:27:20+00:00",
        "label": "Cookie SUBJECT held on Plain Cookie"
      }
    },
    {
      "type": "Feature",
      "id": "6a3c1864-1749-47ee-8cab-2a1eb2c602b8",
      "geometry": null,
      "properties": {
        "kind": "SENSOR_CONTACT",
        "parent_track": "SENSOR",
        "sensor_name": "Plain",
        "bearing": -154.9,
        "time": "2010-01-12T12:28:00+00:00",
        "label": "Cookie SUBJECT held on Plain Cookie"
      }
    },
    {
      "type": "Feature",
      "id": "57dd29a7-8123-4ea3-806d-8c2151a75111",
      "geometry": null,
      "properties": {
        "kind": "SENSOR_CONTACT",
        "parent_track": "SENSOR",
        "sensor_name": "Plain",
        "bearing": -153.7,
        "time": "2010-01-12T12:28:40+00:00",
        "label": "Cookie SUBJECT held on Plain Cookie"
      }
    },
    {
      "type": "Feature",
      "id": "c0668698-0f6a-4c83-b26c-1be1cd7e8af4",
      "geometry": null,
      "properties": {
        "kind": "SENSOR_CONTACT",
        "parent_track": "SENSOR",
        "sensor_name": "Plain",
        "bearing": -153.1,
        "time": "2010-01-12T12:29:00+00:00",
        "label": "Cookie SUBJECT held on Plain Cookie"
      }
    },
    {
      "type": "Feature",
      "id": "c8eff497-6ba6-4c72-bf6d-6f15c5df671c",
      "geometry": null,
      "properties": {
        "kind": "SENSOR_CONTACT",
        "parent_track": "SENSOR",
        "sensor_name": "Plain",
        "bearing": -152.4,
        "time": "2010-01-12T12:29:20+00:00",
        "label": "Cookie SUBJECT held on Plain Cookie"
      }
    },
    {
      "type": "Feature",
      "id": "7e3cfbdc-a280-49ad-97c4-94e4dfb183d5",
      "geometry": null,
      "properties": {
        "kind": "SENSOR_CONTACT",
        "parent_track": "SENSOR",
        "sensor_name": "Plain",
        "bearing": -150.9,
        "time": "2010-01-12T12:30:00+00:00",
        "label": "Cookie SUBJECT held on Plain Cookie"
      }
    },
    {
      "type": "Feature",
      "id": "4472bbea-0220-4faf-a060-68b6795ea14c",
      "geometry": {
        "type": "LineString",
        "coordinates": [
          [
            0.0108,
            0.0458972
          ],
          [
            0.0108,
            0.0453417
          ],
          [
            0.0108,
            0.0447861
          ],
          [
            0.0108,
            0.0442306
          ],
          [
            0.0108,
            0.043675
          ],
          [
            0.0108,
            0.0431194
          ],
          [
            0.0108,
            0.0425639
          ],
          [
            0.0108,
            0.0420083
          ],
          [
            0.0108,
            0.0414528
          ],
          [
            0.0108,
            0.0408972
          ],
          [
            0.0108,
            0.0403417
          ],
          [
            0.0108,
            0.0397861
          ],
          [
            0.0108,
            0.0392306
          ],
          [
            0.0108,
            0.038675
          ],
          [
            0.0108,
            0.0381194
          ],
          [
            0.0108,
            0.0375639
          ],
          [
            0.0108,
            0.0370083
          ],
          [
            0.0108,
            0.0364528
          ],
          [
            0.0108,
            0.0358972
          ],
          [
            0.0108,
            0.0353417
          ],
          [
            0.0108,
            0.0347861
          ],
          [
            0.0108,
            0.0342306
          ],
          [
            0.0108,
            0.033675
          ],
          [
            0.0108,
            0.0331194
          ],
          [
            0.0108,
            0.0325639
          ],
          [
            0.0108,
            0.0320083
          ],
          [
            0.0108417,
            0.0314528
          ],
          [
            0.0109694,
            0.0309139
          ],
          [
            0.0111778,
            0.0304
          ],
          [
            0.0114639,
            0.029925
          ],
          [
            0.0118194,
            0.0294972
          ],
          [
            0.0122306,
            0.029125
          ],
          [
            0.0126556,
            0.0287667
          ],
          [
            0.0130778,
            0.0284083
          ],
          [
            0.0135028,
            0.0280472
          ],
          [
            0.0139278,
            0.0276889
          ],
          [
            0.01435,
            0.0273306
          ],
          [
            0.014775,
            0.0269694
          ],
          [
            0.0151972,
            0.0266111
          ],
          [
            0.0156222,
            0.0262528
          ],
          [
            0.0160444,
            0.0258917
          ],
          [
            0.0164694,
            0.0255333
          ],
          [
            0.0168944,
            0.025175
          ],
          [
            0.0173167,
            0.0248139
          ],
          [
            0.0177417,
            0.0244556
          ],
          [
            0.0181639,
            0.0240972
          ],
          [
            0.0185889,
            0.0237389
          ],
          [
            0.0190111,
            0.0233778
          ],
          [
            0.0194361,
            0.0230194
          ],
          [
            0.0198611,
            0.0226611
          ],
          [
            0.0202833,
            0.0223
          ],
          [
            0.0207083,
            0.0219417
          ],
          [
            0.0211306,
            0.0215833
          ],
          [
            0.0215556,
            0.0212222
          ],
          [
            0.0219778,
            0.0208639
          ],
          [
            0.0224028,
            0.0205056
          ],
          [
            0.0228278,
            0.0201444
          ],
          [
            0.02325,
            0.0197861
          ],
          [
            0.023675,
            0.0194278
          ],
          [
            0.0240972,
            0.0190667
          ],
          [
            0.0245222,
            0.0187083
          ],
          [
            0.0249167,
            0.0183194
          ],
          [
            0.0252472,
            0.0178722
          ],
          [
            0.0255028,
            0.0173806
          ],
          [
            0.0256806,
            0.0168556
          ],
          [
            0.0257778,
            0.0163083
          ],
          [
            0.0257889,
            0.0157528
          ],
          [
            0.0257694,
            0.0151972
          ],
          [
            0.02575,
            0.0146417
          ],
          [
            0.0257306,
            0.0140861
          ],
          [
            0.0257111,
            0.0135333
          ],
          [
            0.0256917,
            0.0129778
          ],
          [
            0.0256722,
            0.0124222
          ],
          [
            0.0256528,
            0.0118667
          ],
          [
            0.0256333,
            0.0113111
          ],
          [
            0.0256139,
            0.0107556
          ],
          [
            0.0255944,
            0.0102
          ],
          [
            0.025575,
            0.0096444
          ],
          [
            0.0255556,
            0.0090917
          ],
          [
            0.0255361,
            0.0085361
          ],
          [
            0.0255167,
            0.0079806
          ],
          [
            0.0255,
            0.007425
          ],
          [
            0.0254806,
            0.0068694
          ],
          [
            0.0254611,
            0.0063139
          ],
          [
            0.0254417,
            0.0057583
          ],
          [
            0.0254222,
            0.0052028
          ],
          [
            0.0254028,
            0.00465
          ],
          [
            0.0253833,
            0.0040944
          ],
          [
            0.0253639,
            0.0035389
          ],
          [
            0.0253444,
            0.0029833
          ],
          [
            0.025325,
            0.0024278
          ]
        ]
      },
      "properties": {
        "kind": "TRACK",
        "platform_id": "SUBJECT",
        "platform_name": "SUBJECT",
        "track_type": "CONTACT",
        "start_time": "2010-01-12T12:00:00+00:00",
        "end_time": "2010-01-12T12:30:00+00:00",
        "positions": [
          {
            "time": "2010-01-12T12:00:00+00:00",
            "course": 180.0,
            "speed": 6.0,
            "depth": -0.0
          },
          {
            "time": "2010-01-12T12:00:20+00:00",
            "course": 180.0,
            "speed": 6.0,
            "depth": -0.0
          },
          {
            "time": "2010-01-12T12:00:40+00:00",
            "course": 180.0,
            "speed": 6.0,
            "depth": -0.0
          },
          {
            "time": "2010-01-12T12:01:00+00:00",
            "course": 180.0,
            "speed": 6.0,
            "depth": -0.0
          },
          {
            "time": "2010-01-12T12:01:20+00:00",
            "course": 180.0,
            "speed": 6.0,
            "depth": -0.0
          },
          {
            "time": "2010-01-12T12:01:40+00:00",
            "course": 180.0,
            "speed": 6.0,
            "depth": -0.0
          },
          {
            "time": "2010-01-12T12:02:00+00:00",
            "course": 180.0,
            "speed": 6.0,
            "depth": -0.0
          },
          {
            "time": "2010-01-12T12:02:20+00:00",
            "course": 180.0,
            "speed": 6.0,
            "depth": -0.0
          },
          {
            "time": "2010-01-12T12:02:40+00:00",
            "course": 180.0,
            "speed": 6.0,
            "depth": -0.0
          },
          {
            "time": "2010-01-12T12:03:00+00:00",
            "course": 180.0,
            "speed": 6.0,
            "depth": -0.0
          },
          {
            "time": "2010-01-12T12:03:20+00:00",
            "course": 180.0,
            "speed": 6.0,
            "depth": -0.0
          },
          {
            "time": "2010-01-12T12:03:40+00:00",
            "course": 180.0,
            "speed": 6.0,
            "depth": -0.0
          },
          {
            "time": "2010-01-12T12:04:00+00:00",
            "course": 180.0,
            "speed": 6.0,
            "depth": -0.0
          },
          {
            "time": "2010-01-12T12:04:20+00:00",
            "course": 180.0,
            "speed": 6.0,
            "depth": -0.0
          },
          {
            "time": "2010-01-12T12:04:40+00:00",
            "course": 180.0,
            "speed": 6.0,
            "depth": -0.0
          },
          {
            "time": "2010-01-12T12:05:00+00:00",
            "course": 180.0,
            "speed": 6.0,
            "depth": -0.0
          },
          {
            "time": "2010-01-12T12:05:20+00:00",
            "course": 180.0,
            "speed": 6.0,
            "depth": -0.0
          },
          {
            "time": "2010-01-12T12:05:40+00:00",
            "course": 180.0,
            "speed": 6.0,
            "depth": -0.0
          },
          {
            "time": "2010-01-12T12:06:00+00:00",
            "course": 180.0,
            "speed": 6.0,
            "depth": -0.0
          },
          {
            "time": "2010-01-12T12:06:20+00:00",
            "course": 180.0,
            "speed": 6.0,
            "depth": -0.0
          },
          {
            "time": "2010-01-12T12:06:40+00:00",
            "course": 180.0,
            "speed": 6.0,
            "depth": -0.0
          },
          {
            "time": "2010-01-12T12:07:00+00:00",
            "course": 180.0,
            "speed": 6.0,
            "depth": -0.0
          },
          {
            "time": "2010-01-12T12:07:20+00:00",
            "course": 180.0,
            "speed": 6.0,
            "depth": -0.0
          },
          {
            "time": "2010-01-12T12:07:40+00:00",
            "course": 180.0,
            "speed": 6.0,
            "depth": -0.0
          },
          {
            "time": "2010-01-12T12:08:00+00:00",
            "course": 180.0,
            "speed": 6.0,
            "depth": -0.0
          },
          {
            "time": "2010-01-12T12:08:20+00:00",
            "course": 180.0,
            "speed": 6.0,
            "depth": -0.0
          },
          {
            "time": "2010-01-12T12:08:40+00:00",
            "course": 171.16,
            "speed": 6.0,
            "depth": -0.0
          },
          {
            "time": "2010-01-12T12:09:00+00:00",
            "course": 162.31,
            "speed": 6.0,
            "depth": -0.0
          },
          {
            "time": "2010-01-12T12:09:20+00:00",
            "course": 153.47,
            "speed": 6.0,
            "depth": -0.0
          },
          {
            "time": "2010-01-12T12:09:40+00:00",
            "course": 144.63,
            "speed": 6.0,
            "depth": -0.0
          },
          {
            "time": "2010-01-12T12:10:00+00:00",
            "course": 135.79,
            "speed": 6.0,
            "depth": -0.0
          },
          {
            "time": "2010-01-12T12:10:20+00:00",
            "course": 130.34,
            "speed": 6.0,
            "depth": -0.0
          },
          {
            "time": "2010-01-12T12:10:40+00:00",
            "course": 130.28,
            "speed": 6.0,
            "depth": -0.0
          },
          {
            "time": "2010-01-12T12:11:00+00:00",
            "course": 130.28,
            "speed": 6.0,
            "depth": -0.0
          },
          {
            "time": "2010-01-12T12:11:20+00:00",
            "course": 130.28,
            "speed": 6.0,
            "depth": -0.0
          },
          {
            "time": "2010-01-12T12:11:40+00:00",
            "course": 130.28,
            "speed": 6.0,
            "depth": -0.0
          },
          {
            "time": "2010-01-12T12:12:00+00:00",
            "course": 130.28,
            "speed": 6.0,
            "depth": -0.0
          },
          {
            "time": "2010-01-12T12:12:20+00:00",
            "course": 130.28,
            "speed": 6.0,
            "depth": -0.0
          },
          {
            "time": "2010-01-12T12:12:40+00:00",
            "course": 130.28,
            "speed": 6.0,
            "depth": -0.0
          },
          {
            "time": "2010-01-12T12:13:00+00:00",
            "course": 130.28,
            "speed": 6.0,
            "depth": -0.0
          },
          {
            "time": "2010-01-12T12:13:20+00:00",
            "course": 130.28,
            "speed": 6.0,
            "depth": -0.0
          },
          {
            "time": "2010-01-12T12:13:40+00:00",
            "course": 130.28,
            "speed": 6.0,
            "depth": -0.0
          },
          {
            "time": "2010-01-12T12:14:00+00:00",
            "course": 130.28,
            "speed": 6.0,
            "depth": -0.0
          },
          {
            "time": "2010-01-12T12:14:20+00:00",
            "course": 130.28,
            "speed": 6.0,
            "depth": -0.0
          },
          {
            "time": "2010-01-12T12:14:40+00:00",
            "course": 130.28,
            "speed": 6.0,
            "depth": -0.0
          },
          {
            "time": "2010-01-12T12:15:00+00:00",
            "course": 130.28,
            "speed": 6.0,
            "depth": -0.0
          },
          {
            "time": "2010-01-12T12:15:20+00:00",
            "course": 130.28,
            "speed": 6.0,
            "depth": -0.0
          },
          {
            "time": "2010-01-12T12:15:40+00:00",
            "course": 130.28,
            "speed": 6.0,
            "depth": -0.0
          },
          {
            "time": "2010-01-12T12:16:00+00:00",
            "course": 130.28,
            "speed": 6.0,
            "depth": -0.0
          },
          {
            "time": "2010-01-12T12:16:20+00:00",
            "course": 130.28,
            "speed": 6.0,
            "depth": -0.0
          },
          {
            "time": "2010-01-12T12:16:40+00:00",
            "course": 130.28,
            "speed": 6.0,
            "depth": -0.0
          },
          {
            "time": "2010-01-12T12:17:00+00:00",
            "course": 130.28,
            "speed": 6.0,
            "depth": -0.0
          },
          {
            "time": "2010-01-12T12:17:20+00:00",
            "course": 130.28,
            "speed": 6.0,
            "depth": -0.0
          },
          {
            "time": "2010-01-12T12:17:40+00:00",
            "course": 130.28,
            "speed": 6.0,
            "depth": -0.0
          },
          {
            "time": "2010-01-12T12:18:00+00:00",
            "course": 130.28,
            "speed": 6.0,
            "depth": -0.0
          },
          {
            "time": "2010-01-12T12:18:20+00:00",
            "course": 130.28,
            "speed": 6.0,
            "depth": -0.0
          },
          {
            "time": "2010-01-12T12:18:40+00:00",
            "course": 130.28,
            "speed": 6.0,
            "depth": -0.0
          },
          {
            "time": "2010-01-12T12:19:00+00:00",
            "course": 130.28,
            "speed": 6.0,
            "depth": -0.0
          },
          {
            "time": "2010-01-12T12:19:20+00:00",
            "course": 130.28,
            "speed": 6.0,
            "depth": -0.0
          },
          {
            "time": "2010-01-12T12:19:40+00:00",
            "course": 130.28,
            "speed": 6.0,
            "depth": -0.0
          },
          {
            "time": "2010-01-12T12:20:00+00:00",
            "course": 130.28,
            "speed": 6.0,
            "depth": -0.0
          },
          {
            "time": "2010-01-12T12:20:20+00:00",
            "course": 139.13,
            "speed": 6.0,
            "depth": -0.0
          },
          {
            "time": "2010-01-12T12:20:40+00:00",
            "course": 147.97,
            "speed": 6.0,
            "depth": -0.0
          },
          {
            "time": "2010-01-12T12:21:00+00:00",
            "course": 156.81,
            "speed": 6.0,
            "depth": -0.0
          },
          {
            "time": "2010-01-12T12:21:20+00:00",
            "course": 165.65,
            "speed": 6.0,
            "depth": -0.0
          },
          {
            "time": "2010-01-12T12:21:40+00:00",
            "course": 174.5,
            "speed": 6.0,
            "depth": -0.0
          },
          {
            "time": "2010-01-12T12:22:00+00:00",
            "course": 181.96,
            "speed": 6.0,
            "depth": -0.0
          },
          {
            "time": "2010-01-12T12:22:20+00:00",
            "course": 182.0,
            "speed": 6.0,
            "depth": -0.0
          },
          {
            "time": "2010-01-12T12:22:40+00:00",
            "course": 182.0,
            "speed": 6.0,
            "depth": -0.0
          },
          {
            "time": "2010-01-12T12:23:00+00:00",
            "course": 182.0,
            "speed": 6.0,
            "depth": -0.0
          },
          {
            "time": "2010-01-12T12:23:20+00:00",
            "course": 182.0,
            "speed": 6.0,
            "depth": -0.0
          },
          {
            "time": "2010-01-12T12:23:40+00:00",
            "course": 182.0,
            "speed": 6.0,
            "depth": -0.0
          },
          {
            "time": "2010-01-12T12:24:00+00:00",
            "course": 182.0,
            "speed": 6.0,
            "depth": -0.0
          },
          {
            "time": "2010-01-12T12:24:20+00:00",
            "course": 182.0,
            "speed": 6.0,
            "depth": -0.0
          },
          {
            "time": "2010-01-12T12:24:40+00:00",
            "course": 182.0,
            "speed": 6.0,
            "depth": -0.0
          },
          {
            "time": "2010-01-12T12:25:00+00:00",
            "course": 182.0,
            "speed": 6.0,
            "depth": -0.0
          },
          {
            "time": "2010-01-12T12:25:20+00:00",
            "course": 182.0,
            "speed": 6.0,
            "depth": -0.0
          },
          {
            "time": "2010-01-12T12:25:40+00:00",
            "course": 182.0,
            "speed": 6.0,
            "depth": -0.0
          },
          {
            "time": "2010-01-12T12:26:00+00:00",
            "course": 182.0,
            "speed": 6.0,
            "depth": -0.0
          },
          {
            "time": "2010-01-12T12:26:20+00:00",
            "course": 182.0,
            "speed": 6.0,
            "depth": -0.0
          },
          {
            "time": "2010-01-12T12:26:40+00:00",
            "course": 182.0,
            "speed": 6.0,
            "depth": -0.0
          },
          {
            "time": "2010-01-12T12:27:00+00:00",
            "course": 182.0,
            "speed": 6.0,
            "depth": -0.0
          },
          {
            "time": "2010-01-12T12:27:20+00:00",
            "course": 182.0,
            "speed": 6.0,
            "depth": -0.0
          },
          {
            "time": "2010-01-12T12:27:40+00:00",
            "course": 182.0,
            "speed": 6.0,
            "depth": -0.0
          },
          {
            "time": "2010-01-12T12:28:00+00:00",
            "course": 182.0,
            "speed": 6.0,
            "depth": -0.0
          },
          {
            "time": "2010-01-12T12:28:20+00:00",
            "course": 182.0,
            "speed": 6.0,
            "depth": -0.0
          },
          {
            "time": "2010-01-12T12:28:40+00:00",
            "course": 182.0,
            "speed": 6.0,
            "depth": -0.0
          },
          {
            "time": "2010-01-12T12:29:00+00:00",
            "course": 182.0,
            "speed": 6.0,
            "depth": -0.0
          },
          {
            "time": "2010-01-12T12:29:20+00:00",
            "course": 182.0,
            "speed": 6.0,
            "depth": -0.0
          },
          {
            "time": "2010-01-12T12:29:40+00:00",
            "course": 182.0,
            "speed": 6.0,
            "depth": -0.0
          },
          {
            "time": "2010-01-12T12:30:00+00:00",
            "course": 182.0,
            "speed": 6.0,
            "depth": -0.0
          }
        ],
        "style": {
          "line": {
            "color": "#808080"
          },
          "point": {
            "shape": "circle",
            "radius": 3.0,
            "fill_color": "#808080",
            "color": "#808080"
          }
        },
        "default_position_style": {
          "show_symbol": false,
          "symbol": "circle",
          "show_label": false
        },
        "symbol_interval": "PT5M",
        "label_interval": "PT15M"
      }
    }
  ]
}