{
  "type": "FeatureCollection",
  "features": [
    {
      "type": "Feature",
      "id": "13f6565d-fc2a-411e-9b77-f7b98b40d429",
      "geometry": {
        "type": "LineString",
        "coordinates": [
          [
            -30.002777777777776,
            -0.06666666666666667
          ],
          [
            -30.002402777777778,
            -0.0659388888888889
          ],
          [
            -30.002516666666665,
            -0.065125
          ],
          [
            -30.003080555555556,
            -0.06453055555555556
          ],
          [
            -30.00388611111111,
            -0.06436111111111112
          ],
          [
            -30.004719444444444,
            -0.06436111111111112
          ],
          [
            -30.005552777777776,
            -0.06436111111111112
          ],
          [
            -30.006386111111112,
            -0.06436111111111112
          ],
          [
            -30.007219444444445,
            -0.06436111111111112
          ],
          [
            -30.008052777777777,
            -0.06436111111111112
          ],
          [
            -30.00888611111111,
            -0.06436111111111112
          ],
          [
            -30.009719444444446,
            -0.06436111111111112
          ],
          [
            -30.01055277777778,
            -0.06436111111111112
          ],
          [
            -30.01138611111111,
            -0.06436111111111112
          ],
          [
            -30.012219444444444,
            -0.06436111111111112
          ],
          [
            -30.013052777777776,
            -0.06436111111111112
          ],
          [
            -30.013886111111113,
            -0.06436111111111112
          ],
          [
            -30.014719444444445,
            -0.06436111111111112
          ],
          [
            -30.015552777777778,
            -0.06436111111111112
          ],
          [
            -30.01638611111111,
            -0.06436111111111112
          ],
          [
            -30.017219444444443,
            -0.06436111111111112
          ],
          [
            -30.018,
            -0.06411388888888889
          ],
          [
            -30.018491666666666,
            -0.06345833333333334
          ],
          [
            -30.018605555555556,
            -0.06263333333333333
          ],
          [
            -30.01867777777778,
            -0.06180555555555556
          ],
          [
            -30.018752777777777,
            -0.060975
          ],
          [
            -30.018825,
            -0.060144444444444445
          ],
          [
            -30.018897222222222,
            -0.05931388888888889
          ],
          [
            -30.018969444444444,
            -0.05848333333333333
          ],
          [
            -30.019041666666666,
            -0.05765277777777778
          ],
          [
            -30.01911388888889,
            -0.056822222222222225
          ],
          [
            -30.019188888888888,
            -0.055994444444444444
          ],
          [
            -30.01926111111111,
            -0.055163888888888894
          ],
          [
            -30.019333333333332,
            -0.05433333333333334
          ],
          [
            -30.019405555555554,
            -0.05350277777777778
          ],
          [
            -30.019477777777777,
            -0.052672222222222224
          ],
          [
            -30.01955,
            -0.05184166666666667
          ],
          [
            -30.01962222222222,
            -0.05101111111111111
          ],
          [
            -30.01969722222222,
            -0.05018333333333334
          ],
          [
            -30.019769444444442,
            -0.04935277777777777
          ],
          [
            -30.019841666666665,
            -0.048522222222222224
          ],
          [
            -30.019913888888887,
            -0.04769166666666667
          ],
          [
            -30.01998611111111,
            -0.04686111111111111
          ],
          [
            -30.02005833333333,
            -0.046030555555555554
          ],
          [
            -30.020130555555554,
            -0.0452
          ],
          [
            -30.020205555555556,
            -0.04437222222222222
          ],
          [
            -30.02027777777778,
            -0.043541666666666666
          ],
          [
            -30.02035,
            -0.04271111111111111
          ],
          [
            -30.020422222222223,
            -0.04188055555555555
          ],
          [
            -30.020494444444445,
            -0.04105
          ],
          [
            -30.020566666666667,
            -0.04021944444444445
          ],
          [
            -30.02063888888889,
            -0.03938888888888889
          ],
          [
            -30.02071388888889,
            -0.03856111111111111
          ],
          [
            -30.02078611111111,
            -0.03773055555555556
          ],
          [
            -30.020858333333333,
            -0.0369
          ],
          [
            -30.020930555555555,
            -0.036069444444444446
          ],
          [
            -30.021002777777777,
            -0.03523888888888889
          ],
          [
            -30.021075,
            -0.03440833333333333
          ],
          [
            -30.021147222222222,
            -0.033577777777777776
          ],
          [
            -30.02122222222222,
            -0.03275
          ],
          [
            -30.021294444444443,
            -0.031919444444444445
          ],
          [
            -30.021366666666665,
            -0.031088888888888888
          ],
          [
            -30.021663888888888,
            -0.030319444444444444
          ],
          [
            -30.022080555555554,
            -0.02959722222222222
          ],
          [
            -30.02249722222222,
            -0.028875
          ],
          [
            -30.022913888888887,
            -0.028155555555555555
          ],
          [
            -30.023330555555553,
            -0.02743333333333333
          ],
          [
            -30.023747222222223,
            -0.02671111111111111
          ],
          [
            -30.02416388888889,
            -0.025988888888888888
          ],
          [
            -30.024580555555556,
            -0.025266666666666666
          ],
          [
            -30.024997222222222,
            -0.02454722222222222
          ],
          [
            -30.025413888888888,
            -0.023825
          ],
          [
            -30.025830555555554,
            -0.023102777777777778
          ],
          [
            -30.02624722222222,
            -0.022380555555555556
          ],
          [
            -30.026663888888887,
            -0.02165833333333333
          ],
          [
            -30.027080555555553,
            -0.02093888888888889
          ],
          [
            -30.02749722222222,
            -0.020216666666666668
          ],
          [
            -30.02791388888889,
            -0.019494444444444443
          ],
          [
            -30.028330555555556,
            -0.01877222222222222
          ],
          [
            -30.028747222222222,
            -0.01805
          ],
          [
            -30.02916388888889,
            -0.01732777777777778
          ],
          [
            -30.029580555555555,
            -0.016608333333333333
          ],
          [
            -30.02999722222222,
            -0.01588611111111111
          ],
          [
            -30.030413888888887,
            -0.01516388888888889
          ],
          [
            -30.030830555555553,
            -0.014441666666666667
          ],
          [
            -30.03124722222222,
            -0.013719444444444444
          ],
          [
            -30.03166388888889,
            -0.013
          ],
          [
            -30.032080555555556,
            -0.012277777777777778
          ],
          [
            -30.032497222222222,
            -0.011555555555555557
          ],
          [
            -30.033102777777778,
            -0.011002777777777778
          ],
          [
            -30.033919444444447,
            -0.010880555555555557
          ],
          [
            -30.03475277777778,
            -0.010880555555555557
          ],
          [
            -30.03558611111111,
            -0.010880555555555557
          ],
          [
            -30.036419444444444,
            -0.010880555555555557
          ],
          [
            -30.03725277777778,
            -0.010880555555555557
          ],
          [
            -30.038086111111113,
            -0.010880555555555557
          ],
          [
            -30.038919444444446,
            -0.010880555555555557
          ],
          [
            -30.039752777777778,
            -0.010880555555555557
          ],
          [
            -30.040586111111114,
            -0.010880555555555557
          ],
          [
            -30.041419444444447,
            -0.010880555555555557
          ],
          [
            -30.04225277777778,
            -0.010880555555555557
          ],
          [
            -30.043086111111112,
            -0.010880555555555557
          ],
          [
            -30.043919444444445,
            -0.010880555555555557
          ],
          [
            -30.04475277777778,
            -0.010880555555555557
          ],
          [
            -30.045586111111113,
            -0.010880555555555557
          ],
          [
            -30.046419444444446,
            -0.010880555555555557
          ],
          [
            -30.04725277777778,
            -0.010880555555555557
          ],
          [
            -30.04808611111111,
            -0.010880555555555557
          ],
          [
            -30.048919444444447,
            -0.010880555555555557
          ],
          [
            -30.04975277777778,
            -0.010880555555555557
          ],
          [
            -30.050586111111112,
            -0.010880555555555557
          ],
          [
            -30.051419444444445,
            -0.010880555555555557
          ],
          [
            -30.052252777777777,
            -0.010880555555555557
          ],
          [
            -30.05308611111111,
            -0.010880555555555557
          ],
          [
            -30.053919444444446,
            -0.010880555555555557
          ],
          [
            -30.05475277777778,
            -0.010880555555555557
          ],
          [
            -30.05558611111111,
            -0.010880555555555557
          ],
          [
            -30.056419444444444,
            -0.010880555555555557
          ],
          [
            -30.05725277777778,
            -0.010880555555555557
          ],
          [
            -30.058086111111113,
            -0.010880555555555557
          ],
          [
            -30.058919444444445,
            -0.010880555555555557
          ],
          [
            -30.059752777777778,
            -0.010880555555555557
          ],
          [
            -30.06058611111111,
            -0.010880555555555557
          ],
          [
            -30.061419444444446,
            -0.010880555555555557
          ],
          [
            -30.06225277777778,
            -0.010880555555555557
          ],
          [
            -30.06308611111111,
            -0.010880555555555557
          ],
          [
            -30.063919444444444,
            -0.010880555555555557
          ],
          [
            -30.064752777777777,
            -0.010880555555555557
          ],
          [
            -30.065586111111113,
            -0.010880555555555557
          ],
          [
            -30.066419444444445,
            -0.010880555555555557
          ],
          [
            -30.067252777777778,
            -0.010880555555555557
          ],
          [
            -30.06808611111111,
            -0.010880555555555557
          ],
          [
            -30.068919444444443,
            -0.010880555555555557
          ],
          [
            -30.069752777777776,
            -0.010880555555555557
          ],
          [
            -30.070586111111112,
            -0.010880555555555557
          ],
          [
            -30.071419444444444,
            -0.010880555555555557
          ],
          [
            -30.072252777777777,
            -0.010880555555555557
          ],
          [
            -30.07308611111111,
            -0.010880555555555557
          ],
          [
            -30.073919444444446,
            -0.010880555555555557
          ],
          [
            -30.0747,
            -0.011130555555555555
          ],
          [
            -30.075194444444445,
            -0.011786111111111112
          ],
          [
            -30.075269444444444,
            -0.012611111111111111
          ],
          [
            -30.075269444444444,
            -0.013444444444444445
          ],
          [
            -30.075269444444444,
            -0.014277777777777778
          ],
          [
            -30.075269444444444,
            -0.01511111111111111
          ],
          [
            -30.075269444444444,
            -0.015944444444444445
          ],
          [
            -30.075269444444444,
            -0.016777777777777777
          ],
          [
            -30.075269444444444,
            -0.017611111111111112
          ],
          [
            -30.075269444444444,
            -0.018444444444444444
          ],
          [
            -30.075269444444444,
            -0.01927777777777778
          ],
          [
            -30.075269444444444,
            -0.02011111111111111
          ],
          [
            -30.075269444444444,
            -0.020944444444444446
          ],
          [
            -30.075269444444444,
            -0.021777777777777778
          ],
          [
            -30.075269444444444,
            -0.02261111111111111
          ],
          [
            -30.075269444444444,
            -0.023444444444444445
          ],
          [
            -30.075269444444444,
            -0.024277777777777777
          ],
          [
            -30.075269444444444,
            -0.025111111111111112
          ],
          [
            -30.075269444444444,
            -0.025944444444444444
          ],
          [
            -30.075269444444444,
            -0.026777777777777775
          ],
          [
            -30.075269444444444,
            -0.02761111111111111
          ],
          [
            -30.075269444444444,
            -0.028444444444444446
          ],
          [
            -30.075269444444444,
            -0.029277777777777778
          ],
          [
            -30.075269444444444,
            -0.03011111111111111
          ],
          [
            -30.075269444444444,
            -0.030944444444444445
          ],
          [
            -30.075269444444444,
            -0.03177777777777778
          ],
          [
            -30.075269444444444,
            -0.03261111111111111
          ],
          [
            -30.075269444444444,
            -0.03344444444444444
          ],
          [
            -30.075269444444444,
            -0.034277777777777775
          ],
          [
            -30.075269444444444,
            -0.035111111111111114
          ],
          [
            -30.075269444444444,
            -0.035944444444444446
          ],
          [
            -30.075269444444444,
            -0.03677777777777778
          ],
          [
            -30.075269444444444,
            -0.03761111111111111
          ],
          [
            -30.075269444444444,
            -0.03844444444444444
          ],
          [
            -30.075269444444444,
            -0.03927777777777778
          ],
          [
            -30.075269444444444,
            -0.04011111111111111
          ],
          [
            -30.075269444444444,
            -0.04094444444444444
          ],
          [
            -30.075269444444444,
            -0.041777777777777775
          ],
          [
            -30.075269444444444,
            -0.042611111111111113
          ],
          [
            -30.075269444444444,
            -0.043444444444444445
          ],
          [
            -30.075269444444444,
            -0.04427777777777778
          ],
          [
            -30.075269444444444,
            -0.04511111111111111
          ],
          [
            -30.075269444444444,
            -0.04594444444444444
          ],
          [
            -30.075269444444444,
            -0.04677777777777778
          ],
          [
            -30.075269444444444,
            -0.04761111111111111
          ],
          [
            -30.075269444444444,
            -0.04844444444444444
          ],
          [
            -30.075269444444444,
            -0.04927777777777778
          ],
          [
            -30.075269444444444,
            -0.05011111111111111
          ],
          [
            -30.075269444444444,
            -0.050944444444444445
          ],
          [
            -30.075269444444444,
            -0.051777777777777784
          ],
          [
            -30.075269444444444,
            -0.052611111111111115
          ],
          [
            -30.075269444444444,
            -0.05344444444444445
          ],
          [
            -30.075269444444444,
            -0.05427777777777778
          ],
          [
            -30.075269444444444,
            -0.05511111111111111
          ],
          [
            -30.075269444444444,
            -0.05594444444444445
          ],
          [
            -30.075269444444444,
            -0.05677777777777778
          ],
          [
            -30.075269444444444,
            -0.05761111111111111
          ],
          [
            -30.075269444444444,
            -0.058444444444444445
          ],
          [
            -30.075269444444444,
            -0.059277777777777776
          ],
          [
            -30.075269444444444,
            -0.060111111111111115
          ],
          [
            -30.075269444444444,
            -0.06094444444444445
          ],
          [
            -30.075269444444444,
            -0.06177777777777778
          ],
          [
            -30.075269444444444,
            -0.06261111111111112
          ],
          [
            -30.075269444444444,
            -0.06344444444444444
          ],
          [
            -30.075269444444444,
            -0.06427777777777778
          ],
          [
            -30.075269444444444,
            -0.06511111111111112
          ],
          [
            -30.075269444444444,
            -0.06594444444444444
          ],
          [
            -30.075269444444444,
            -0.06677777777777778
          ],
          [
            -30.075269444444444,
            -0.06761111111111111
          ],
          [
            -30.075269444444444,
            -0.06844444444444445
          ],
          [
            -30.075269444444444,
            -0.06927777777777777
          ],
          [
            -30.075269444444444,
            -0.07011111111111111
          ],
          [
            -30.075269444444444,
            -0.07094444444444445
          ],
          [
            -30.075269444444444,
            -0.07177777777777777
          ],
          [
            -30.075269444444444,
            -0.07261111111111111
          ],
          [
            -30.075269444444444,
            -0.07344444444444444
          ],
          [
            -30.075269444444444,
            -0.07427777777777778
          ],
          [
            -30.075269444444444,
            -0.07511111111111111
          ],
          [
            -30.075269444444444,
            -0.07594444444444444
          ],
          [
            -30.075269444444444,
            -0.07677777777777778
          ],
          [
            -30.075269444444444,
            -0.0776111111111111
          ],
          [
            -30.075269444444444,
            -0.07844444444444444
          ],
          [
            -30.075269444444444,
            -0.07927777777777778
          ],
          [
            -30.075269444444444,
            -0.0801111111111111
          ],
          [
            -30.075269444444444,
            -0.08094444444444444
          ],
          [
            -30.075269444444444,
            -0.08177777777777778
          ],
          [
            -30.075269444444444,
            -0.08261111111111111
          ],
          [
            -30.075269444444444,
            -0.08344444444444445
          ],
          [
            -30.075269444444444,
            -0.08427777777777777
          ],
          [
            -30.075269444444444,
            -0.08511111111111111
          ],
          [
            -30.075269444444444,
            -0.08594444444444443
          ],
          [
            -30.075269444444444,
            -0.08677777777777777
          ],
          [
            -30.075269444444444,
            -0.08761111111111111
          ],
          [
            -30.075269444444444,
            -0.08844444444444444
          ],
          [
            -30.075269444444444,
            -0.08927777777777778
          ],
          [
            -30.075269444444444,
            -0.0901111111111111
          ],
          [
            -30.075269444444444,
            -0.09094444444444444
          ],
          [
            -30.075269444444444,
            -0.09177777777777778
          ],
          [
            -30.075269444444444,
            -0.0926111111111111
          ],
          [
            -30.075269444444444,
            -0.09344444444444444
          ],
          [
            -30.075269444444444,
            -0.09427777777777777
          ],
          [
            -30.075269444444444,
            -0.0951111111111111
          ]
        ]
      },
      "properties": {
        "kind": "TRACK",
        "platform_id": "SENSOR",
        "platform_name": "SENSOR",
        "track_type": "CONTACT",
        "start_time": "2010-01-12T12:13:14+00:00",
        "end_time": "2010-01-12T13:13:14+00:00",
        "positions": [
          {
            "time": "2010-01-12T12:13:14+00:00",
            "course": 45.0,
            "speed": 12.0,
            "depth": 0.0
          },
          {
            "time": "2010-01-12T12:13:29+00:00",
            "course": 9.6,
            "speed": 12.0,
            "depth": 0.0
          },
          {
            "time": "2010-01-12T12:13:44+00:00",
            "course": 334.3,
            "speed": 12.0,
            "depth": 0.0
          },
          {
            "time": "2010-01-12T12:13:59+00:00",
            "course": 298.9,
            "speed": 12.0,
            "depth": 0.0
          },
          {
            "time": "2010-01-12T12:14:14+00:00",
            "course": 270.0,
            "speed": 12.0,
            "depth": 0.0
          },
          {
            "time": "2010-01-12T12:14:29+00:00",
            "course": 270.0,
            "speed": 12.0,
            "depth": 0.0
          },
          {
            "time": "2010-01-12T12:14:44+00:00",
            "course": 270.0,
            "speed": 12.0,
            "depth": 0.0
          },
          {
            "time": "2010-01-12T12:14:59+00:00",
            "course": 270.0,
            "speed": 12.0,
            "depth": 0.0
          },
          {
            "time": "2010-01-12T12:15:14+00:00",
            "course": 270.0,
            "speed": 12.0,
            "depth": 0.0
          },
          {
            "time": "2010-01-12T12:15:29+00:00",
            "course": 270.0,
            "speed": 12.0,
            "depth": 0.0
          },
          {
            "time": "2010-01-12T12:15:44+00:00",
            "course": 270.0,
            "speed": 12.0,
            "depth": 0.0
          },
          {
            "time": "2010-01-12T12:15:59+00:00",
            "course": 270.0,
            "speed": 12.0,
            "depth": 0.0
          },
          {
            "time": "2010-01-12T12:16:14+00:00",
            "course": 270.0,
            "speed": 12.0,
            "depth": 0.0
          },
          {
            "time": "2010-01-12T12:16:29+00:00",
            "course": 270.0,
            "speed": 12.0,
            "depth": 0.0
          },
          {
            "time": "2010-01-12T12:16:44+00:00",
            "course": 270.0,
            "speed": 12.0,
            "depth": 0.0
          },
          {
            "time": "2010-01-12T12:16:59+00:00",
            "course": 270.0,
            "speed": 12.0,
            "depth": 0.0
          },
          {
            "time": "2010-01-12T12:17:14+00:00",
            "course": 270.0,
            "speed": 12.0,
            "depth": 0.0
          },
          {
            "time": "2010-01-12T12:17:29+00:00",
            "course": 270.0,
            "speed": 12.0,
            "depth": 0.0
          },
          {
            "time": "2010-01-12T12:17:44+00:00",
            "course": 270.0,
            "speed": 12.0,
            "depth": 0.0
          },
          {
            "time": "2010-01-12T12:17:59+00:00",
            "course": 270.0,
            "speed": 12.0,
            "depth": 0.0
          },
          {
            "time": "2010-01-12T12:18:14+00:00",
            "course": 270.0,
            "speed": 12.0,
            "depth": 0.0
          },
          {
            "time": "2010-01-12T12:18:29+00:00",
            "course": 305.4,
            "speed": 12.0,
            "depth": 0.0
          },
          {
            "time": "2010-01-12T12:18:44+00:00",
            "course": 340.7,
            "speed": 12.0,
            "depth": 0.0
          },
          {
            "time": "2010-01-12T12:18:59+00:00",
            "course": 355.0,
            "speed": 12.0,
            "depth": 0.0
          },
          {
            "time": "2010-01-12T12:19:14+00:00",
            "course": 355.0,
            "speed": 12.0,
            "depth": 0.0
          },
          {
            "time": "2010-01-12T12:19:29+00:00",
            "course": 355.0,
            "speed": 12.0,
            "depth": 0.0
          },
          {
            "time": "2010-01-12T12:19:44+00:00",
            "course": 355.0,
            "speed": 12.0,
            "depth": 0.0
          },
          {
            "time": "2010-01-12T12:19:59+00:00",
            "course": 355.0,
            "speed": 12.0,
            "depth": 0.0
          },
          {
            "time": "2010-01-12T12:20:14+00:00",
            "course": 355.0,
            "speed": 12.0,
            "depth": 0.0
          },
          {
            "time": "2010-01-12T12:20:29+00:00",
            "course": 355.0,
            "speed": 12.0,
            "depth": 0.0
          },
          {
            "time": "2010-01-12T12:20:44+00:00",
            "course": 355.0,
            "speed": 12.0,
            "depth": 0.0
          },
          {
            "time": "2010-01-12T12:20:59+00:00",
            "course": 355.0,
            "speed": 12.0,
            "depth": 0.0
          },
          {
            "time": "2010-01-12T12:21:14+00:00",
            "course": 355.0,
            "speed": 12.0,
            "depth": 0.0
          },
          {
            "time": "2010-01-12T12:21:29+00:00",
            "course": 355.0,
            "speed": 12.0,
            "depth": 0.0
          },
          {
            "time": "2010-01-12T12:21:44+00:00",
            "course": 355.0,
            "speed": 12.0,
            "depth": 0.0
          },
          {
            "time": "2010-01-12T12:21:59+00:00",
            "course": 355.0,
            "speed": 12.0,
            "depth": 0.0
          },
          {
            "time": "2010-01-12T12:22:14+00:00",
            "course": 355.0,
            "speed": 12.0,
            "depth": 0.0
          },
          {
            "time": "2010-01-12T12:22:29+00:00",
            "course": 355.0,
            "speed": 12.0,
            "depth": 0.0
          },
          {
            "time": "2010-01-12T12:22:44+00:00",
            "course": 355.0,
            "speed": 12.0,
            "depth": 0.0
          },
          {
            "time": "2010-01-12T12:22:59+00:00",
            "course": 355.0,
            "speed": 12.0,
            "depth": 0.0
          },
          {
            "time": "2010-01-12T12:23:14+00:00",
            "course": 355.0,
            "speed": 12.0,
            "depth": 0.0
          },
          {
            "time": "2010-01-12T12:23:29+00:00",
            "course": 355.0,
            "speed": 12.0,
            "depth": 0.0
          },
          {
            "time": "2010-01-12T12:23:44+00:00",
            "course": 355.0,
            "speed": 12.0,
            "depth": 0.0
          },
          {
            "time": "2010-01-12T12:23:59+00:00",
            "course": 355.0,
            "speed": 12.0,
            "depth": 0.0
          },
          {
            "time": "2010-01-12T12:24:14+00:00",
            "course": 355.0,
            "speed": 12.0,
            "depth": 0.0
          },
          {
            "time": "2010-01-12T12:24:29+00:00",
            "course": 355.0,
            "speed": 12.0,
            "depth": 0.0
          },
          {
            "time": "2010-01-12T12:24:44+00:00",
            "course": 355.0,
            "speed": 12.0,
            "depth": 0.0
          },
          {
            "time": "2010-01-12T12:24:59+00:00",
            "course": 355.0,
            "speed": 12.0,
            "depth": 0.0
          },
          {
            "time": "2010-01-12T12:25:14+00:00",
            "course": 355.0,
            "speed": 12.0,
            "depth": 0.0
          },
          {
            "time": "2010-01-12T12:25:29+00:00",
            "course": 355.0,
            "speed": 12.0,
            "depth": 0.0
          },
          {
            "time": "2010-01-12T12:25:44+00:00",
            "course": 355.0,
            "speed": 12.0,
            "depth": 0.0
          },
          {
            "time": "2010-01-12T12:25:59+00:00",
            "course": 355.0,
            "speed": 12.0,
            "depth": 0.0
          },
          {
            "time": "2010-01-12T12:26:14+00:00",
            "course": 355.0,
            "speed": 12.0,
            "depth": 0.0
          },
          {
            "time": "2010-01-12T12:26:29+00:00",
            "course": 355.0,
            "speed": 12.0,
            "depth": 0.0
          },
          {
            "time": "2010-01-12T12:26:44+00:00",
            "course": 355.0,
            "speed": 12.0,
            "depth": 0.0
          },
          {
            "time": "2010-01-12T12:26:59+00:00",
            "course": 355.0,
            "speed": 12.0,
            "depth": 0.0
          },
          {
            "time": "2010-01-12T12:27:14+00:00",
            "course": 355.0,
            "speed": 12.0,
            "depth": 0.0
          },
          {
            "time": "2010-01-12T12:27:29+00:00",
            "course": 355.0,
            "speed": 12.0,
            "depth": 0.0
          },
          {
            "time": "2010-01-12T12:27:44+00:00",
            "course": 355.0,
            "speed": 12.0,
            "depth": 0.0
          },
          {
            "time": "2010-01-12T12:27:59+00:00",
            "course": 355.0,
            "speed": 12.0,
            "depth": 0.0
          },
          {
            "time": "2010-01-12T12:28:14+00:00",
            "course": 355.0,
            "speed": 12.0,
            "depth": 0.0
          },
          {
            "time": "2010-01-12T12:28:29+00:00",
            "course": 355.0,
            "speed": 12.0,
            "depth": 0.0
          },
          {
            "time": "2010-01-12T12:28:44+00:00",
            "course": 330.0,
            "speed": 12.0,
            "depth": 0.0
          },
          {
            "time": "2010-01-12T12:28:59+00:00",
            "course": 330.0,
            "speed": 12.0,
            "depth": 0.0
          },
          {
            "time": "2010-01-12T12:29:14+00:00",
            "course": 330.0,
            "speed": 12.0,
            "depth": 0.0
          },
          {
            "time": "2010-01-12T12:29:29+00:00",
            "course": 330.0,
            "speed": 12.0,
            "depth": 0.0
          },
          {
            "time": "2010-01-12T12:29:44+00:00",
            "course": 330.0,
            "speed": 12.0,
            "depth": 0.0
          },
          {
            "time": "2010-01-12T12:29:59+00:00",
            "course": 330.0,
            "speed": 12.0,
            "depth": 0.0
          },
          {
            "time": "2010-01-12T12:30:14+00:00",
            "course": 330.0,
            "speed": 12.0,
            "depth": 0.0
          },
          {
            "time": "2010-01-12T12:30:29+00:00",
            "course": 330.0,
            "speed": 12.0,
            "depth": 0.0
          },
          {
            "time": "2010-01-12T12:30:44+00:00",
            "course": 330.0,
            "speed": 12.0,
            "depth": 0.0
          },
          {
            "time": "2010-01-12T12:30:59+00:00",
            "course": 330.0,
            "speed": 12.0,
            "depth": 0.0
          },
          {
            "time": "2010-01-12T12:31:14+00:00",
            "course": 330.0,
            "speed": 12.0,
            "depth": 0.0
          },
          {
            "time": "2010-01-12T12:31:29+00:00",
            "course": 330.0,
            "speed": 12.0,
            "depth": 0.0
          },
          {
            "time": "2010-01-12T12:31:44+00:00",
            "course": 330.0,
            "speed": 12.0,
            "depth": 0.0
          },
          {
            "time": "2010-01-12T12:31:59+00:00",
            "course": 330.0,
            "speed": 12.0,
            "depth": 0.0
          },
          {
            "time": "2010-01-12T12:32:14+00:00",
            "course": 330.0,
            "speed": 12.0,
            "depth": 0.0
          },
          {
            "time": "2010-01-12T12:32:29+00:00",
            "course": 330.0,
            "speed": 12.0,
            "depth": 0.0
          },
          {
            "time": "2010-01-12T12:32:44+00:00",
            "course": 330.0,
            "speed": 12.0,
            "depth": 0.0
          },
          {
            "time": "2010-01-12T12:32:59+00:00",
            "course": 330.0,
            "speed": 12.0,
            "depth": 0.0
          },
          {
            "time": "2010-01-12T12:33:14+00:00",
            "course": 330.0,
            "speed": 12.0,
            "depth": 0.0
          },
          {
            "time": "2010-01-12T12:33:29+00:00",
            "course": 330.0,
            "speed": 12.0,
            "depth": 0.0
          },
          {
            "time": "2010-01-12T12:33:44+00:00",
            "course": 330.0,
            "speed": 12.0,
            "depth": 0.0
          },
          {
            "time": "2010-01-12T12:33:59+00:00",
            "course": 330.0,
            "speed": 12.0,
            "depth": 0.0
          },
          {
            "time": "2010-01-12T12:34:14+00:00",
            "course": 330.0,
            "speed": 12.0,
            "depth": 0.0
          },
          {
            "time": "2010-01-12T12:34:29+00:00",
            "course": 330.0,
            "speed": 12.0,
            "depth": 0.0
          },
          {
            "time": "2010-01-12T12:34:44+00:00",
            "course": 330.0,
            "speed": 12.0,
            "depth": 0.0
          },
          {
            "time": "2010-01-12T12:34:59+00:00",
            "course": 330.0,
            "speed": 12.0,
            "depth": 0.0
          },
          {
            "time": "2010-01-12T12:35:14+00:00",
            "course": 330.0,
            "speed": 12.0,
            "depth": 0.0
          },
          {
            "time": "2010-01-12T12:35:29+00:00",
            "course": 294.6,
            "speed": 12.0,
            "depth": 0.0
          },
          {
            "time": "2010-01-12T12:35:44+00:00",
            "course": 270.0,
            "speed": 12.0,
            "depth": 0.0
          },
          {
            "time": "2010-01-12T12:35:59+00:00",
            "course": 270.0,
            "speed": 12.0,
            "depth": 0.0
          },
          {
            "time": "2010-01-12T12:36:14+00:00",
            "course": 270.0,
            "speed": 12.0,
            "depth": 0.0
          },
          {
            "time": "2010-01-12T12:36:29+00:00",
            "course": 270.0,
            "speed": 12.0,
            "depth": 0.0
          },
          {
            "time": "2010-01-12T12:36:44+00:00",
            "course": 270.0,
            "speed": 12.0,
            "depth": 0.0
          },
          {
            "time": "2010-01-12T12:36:59+00:00",
            "course": 270.0,
            "speed": 12.0,
            "depth": 0.0
          },
          {
            "time": "2010-01-12T12:37:14+00:00",
            "course": 270.0,
            "speed": 12.0,
            "depth": 0.0
          },
          {
            "time": "2010-01-12T12:37:29+00:00",
            "course": 270.0,
            "speed": 12.0,
            "depth": 0.0
          },
          {
            "time": "2010-01-12T12:37:44+00:00",
            "course": 270.0,
            "speed": 12.0,
            "depth": 0.0
          },
          {
            "time": "2010-01-12T12:37:59+00:00",
            "course": 270.0,
            "speed": 12.0,
            "depth": 0.0
          },
          {
            "time": "2010-01-12T12:38:14+00:00",
            "course": 270.0,
            "speed": 12.0,
            "depth": 0.0
          },
          {
            "time": "2010-01-12T12:38:29+00:00",
            "course": 270.0,
            "speed": 12.0,
            "depth": 0.0
          },
          {
            "time": "2010-01-12T12:38:44+00:00",
            "course": 270.0,
            "speed": 12.0,
            "depth": 0.0
          },
          {
            "time": "2010-01-12T12:38:59+00:00",
            "course": 270.0,
            "speed": 12.0,
            "depth": 0.0
          },
          {
            "time": "2010-01-12T12:39:14+00:00",
            "course": 270.0,
            "speed": 12.0,
            "depth": 0.0
          },
          {
            "time": "2010-01-12T12:39:29+00:00",
            "course": 270.0,
            "speed": 12.0,
            "depth": 0.0
          },
          {
            "time": "2010-01-12T12:39:44+00:00",
            "course": 270.0,
            "speed": 12.0,
            "depth": 0.0
          },
          {
            "time": "2010-01-12T12:39:59+00:00",
            "course": 270.0,
            "speed": 12.0,
            "depth": 0.0
          },
          {
            "time": "2010-01-12T12:40:14+00:00",
            "course": 270.0,
            "speed": 12.0,
            "depth": 0.0
          },
          {
            "time": "2010-01-12T12:40:29+00:00",
            "course": 270.0,
            "speed": 12.0,
            "depth": 0.0
          },
          {
            "time": "2010-01-12T12:40:44+00:00",
            "course": 270.0,
            "speed": 12.0,
            "depth": 0.0
          },
          {
            "time": "2010-01-12T12:40:59+00:00",
            "course": 270.0,
            "speed": 12.0,
            "depth": 0.0
          },
          {
            "time": "2010-01-12T12:41:14+00:00",
            "course": 270.0,
            "speed": 12.0,
            "depth": 0.0
          },
          {
            "time": "2010-01-12T12:41:29+00:00",
            "course": 270.0,
            "speed": 12.0,
            "depth": 0.0
          },
          {
            "time": "2010-01-12T12:41:44+00:00",
            "course": 270.0,
            "speed": 12.0,
            "depth": 0.0
          },
          {
            "time": "2010-01-12T12:41:59+00:00",
            "course": 270.0,
            "speed": 12.0,
            "depth": 0.0
          },
          {
            "time": "2010-01-12T12:42:14+00:00",
            "course": 270.0,
            "speed": 12.0,
            "depth": 0.0
          },
          {
            "time": "2010-01-12T12:42:29+00:00",
            "course": 270.0,
            "speed": 12.0,
            "depth": 0.0
          },
          {
            "time": "2010-01-12T12:42:44+00:00",
            "course": 270.0,
            "speed": 12.0,
            "depth": 0.0
          },
          {
            "time": "2010-01-12T12:42:59+00:00",
            "course": 270.0,
            "speed": 12.0,
            "depth": 0.0
          },
          {
            "time": "2010-01-12T12:43:14+00:00",
            "course": 270.0,
            "speed": 12.0,
            "depth": 0.0
          },
          {
            "time": "2010-01-12T12:43:29+00:00",
            "course": 270.0,
            "speed": 12.0,
            "depth": 0.0
          },
          {
            "time": "2010-01-12T12:43:44+00:00",
            "course": 270.0,
            "speed": 12.0,
            "depth": 0.0
          },
          {
            "time": "2010-01-12T12:43:59+00:00",
            "course": 270.0,
            "speed": 12.0,
            "depth": 0.0
          },
          {
            "time": "2010-01-12T12:44:14+00:00",
            "course": 270.0,
            "speed": 12.0,
            "depth": 0.0
          },
          {
            "time": "2010-01-12T12:44:29+00:00",
            "course": 270.0,
            "speed": 12.0,
            "depth": 0.0
          },
          {
            "time": "2010-01-12T12:44:44+00:00",
            "course": 270.0,
            "speed": 12.0,
            "depth": 0.0
          },
          {
            "time": "2010-01-12T12:44:59+00:00",
            "course": 270.0,
            "speed": 12.0,
            "depth": 0.0
          },
          {
            "time": "2010-01-12T12:45:14+00:00",
            "course": 270.0,
            "speed": 12.0,
            "depth": 0.0
          },
          {
            "time": "2010-01-12T12:45:29+00:00",
            "course": 270.0,
            "speed": 12.0,
            "depth": 0.0
          },
          {
            "time": "2010-01-12T12:45:44+00:00",
            "course": 270.0,
            "speed": 12.0,
            "depth": 0.0
          },
          {
            "time": "2010-01-12T12:45:59+00:00",
            "course": 270.0,
            "speed": 12.0,
            "depth": 0.0
          },
          {
            "time": "2010-01-12T12:46:14+00:00",
            "course": 270.0,
            "speed": 12.0,
            "depth": 0.0
          },
          {
            "time": "2010-01-12T12:46:29+00:00",
            "course": 270.0,
            "speed": 12.0,
            "depth": 0.0
          },
          {
            "time": "2010-01-12T12:46:44+00:00",
            "course": 270.0,
            "speed": 12.0,
            "depth": 0.0
          },
          {
            "time": "2010-01-12T12:46:59+00:00",
            "course": 270.0,
            "speed": 12.0,
            "depth": 0.0
          },
          {
            "time": "2010-01-12T12:47:14+00:00",
            "course": 270.0,
            "speed": 12.0,
            "depth": 0.0
          },
          {
            "time": "2010-01-12T12:47:29+00:00",
            "course": 270.0,
            "speed": 12.0,
            "depth": 0.0
          },
          {
            "time": "2010-01-12T12:47:44+00:00",
            "course": 270.0,
            "speed": 12.0,
            "depth": 0.0
          },
          {
            "time": "2010-01-12T12:47:59+00:00",
            "course": 234.6,
            "speed": 12.0,
            "depth": 0.0
          },
          {
            "time": "2010-01-12T12:48:14+00:00",
            "course": 199.3,
            "speed": 12.0,
            "depth": 0.0
          },
          {
            "time": "2010-01-12T12:48:29+00:00",
            "course": 180.0,
            "speed": 12.0,
            "depth": 0.0
          },
          {
            "time": "2010-01-12T12:48:44+00:00",
            "course": 180.0,
            "speed": 12.0,
            "depth": 0.0
          },
          {
            "time": "2010-01-12T12:48:59+00:00",
            "course": 180.0,
            "speed": 12.0,
            "depth": 0.0
          },
          {
            "time": "2010-01-12T12:49:14+00:00",
            "course": 180.0,
            "speed": 12.0,
            "depth": 0.0
          },
          {
            "time": "2010-01-12T12:49:29+00:00",
            "course": 180.0,
            "speed": 12.0,
            "depth": 0.0
          },
          {
            "time": "2010-01-12T12:49:44+00:00",
            "course": 180.0,
            "speed": 12.0,
            "depth": 0.0
          },
          {
            "time": "2010-01-12T12:49:59+00:00",
            "course": 180.0,
            "speed": 12.0,
            "depth": 0.0
          },
          {
            "time": "2010-01-12T12:50:14+00:00",
            "course": 180.0,
            "speed": 12.0,
            "depth": 0.0
          },
          {
            "time": "2010-01-12T12:50:29+00:00",
            "course": 180.0,
            "speed": 12.0,
            "depth": 0.0
          },
          {
            "time": "2010-01-12T12:50:44+00:00",
            "course": 180.0,
            "speed": 12.0,
            "depth": 0.0
          },
          {
            "time": "2010-01-12T12:50:59+00:00",
            "course": 180.0,
            "speed": 12.0,
            "depth": 0.0
          },
          {
            "time": "2010-01-12T12:51:14+00:00",
            "course": 180.0,
            "speed": 12.0,
            "depth": 0.0
          },
          {
            "time": "2010-01-12T12:51:29+00:00",
            "course": 180.0,
            "speed": 12.0,
            "depth": 0.0
          },
          {
            "time": "2010-01-12T12:51:44+00:00",
            "course": 180.0,
            "speed": 12.0,
            "depth": 0.0
          },
          {
            "time": "2010-01-12T12:51:59+00:00",
            "course": 180.0,
            "speed": 12.0,
            "depth": 0.0
          },
          {
            "time": "2010-01-12T12:52:14+00:00",
            "course": 180.0,
            "speed": 12.0,
            "depth": 0.0
          },
          {
            "time": "2010-01-12T12:52:29+00:00",
            "course": 180.0,
            "speed": 12.0,
            "depth": 0.0
          },
          {
            "time": "2010-01-12T12:52:44+00:00",
            "course": 180.0,
            "speed": 12.0,
            "depth": 0.0
          },
          {
            "time": "2010-01-12T12:52:59+00:00",
            "course": 180.0,
            "speed": 12.0,
            "depth": 0.0
          },
          {
            "time": "2010-01-12T12:53:14+00:00",
            "course": 180.0,
            "speed": 12.0,
            "depth": 0.0
          },
          {
            "time": "2010-01-12T12:53:29+00:00",
            "course": 180.0,
            "speed": 12.0,
            "depth": 0.0
          },
          {
            "time": "2010-01-12T12:53:44+00:00",
            "course": 180.0,
            "speed": 12.0,
            "depth": 0.0
          },
          {
            "time": "2010-01-12T12:53:59+00:00",
            "course": 180.0,
            "speed": 12.0,
            "depth": 0.0
          },
          {
            "time": "2010-01-12T12:54:14+00:00",
            "course": 180.0,
            "speed": 12.0,
            "depth": 0.0
          },
          {
            "time": "2010-01-12T12:54:29+00:00",
            "course": 180.0,
            "speed": 12.0,
            "depth": 0.0
          },
          {
            "time": "2010-01-12T12:54:44+00:00",
            "course": 180.0,
            "speed": 12.0,
            "depth": 0.0
          },
          {
            "time": "2010-01-12T12:54:59+00:00",
            "course": 180.0,
            "speed": 12.0,
            "depth": 0.0
          },
          {
            "time": "2010-01-12T12:55:14+00:00",
            "course": 180.0,
            "speed": 12.0,
            "depth": 0.0
          },
          {
            "time": "2010-01-12T12:55:29+00:00",
            "course": 180.0,
            "speed": 12.0,
            "depth": 0.0
          },
          {
            "time": "2010-01-12T12:55:44+00:00",
            "course": 180.0,
            "speed": 12.0,
            "depth": 0.0
          },
          {
            "time": "2010-01-12T12:55:59+00:00",
            "course": 180.0,
            "speed": 12.0,
            "depth": 0.0
          },
          {
            "time": "2010-01-12T12:56:14+00:00",
            "course": 180.0,
            "speed": 12.0,
            "depth": 0.0
          },
          {
            "time": "2010-01-12T12:56:29+00:00",
            "course": 180.0,
            "speed": 12.0,
            "depth": 0.0
          },
          {
            "time": "2010-01-12T12:56:44+00:00",
            "course": 180.0,
            "speed": 12.0,
            "depth": 0.0
          },
          {
            "time": "2010-01-12T12:56:59+00:00",
            "course": 180.0,
            "speed": 12.0,
            "depth": 0.0
          },
          {
            "time": "2010-01-12T12:57:14+00:00",
            "course": 180.0,
            "speed": 12.0,
            "depth": 0.0
          },
          {
            "time": "2010-01-12T12:57:29+00:00",
            "course": 180.0,
            "speed": 12.0,
            "depth": 0.0
          },
          {
            "time": "2010-01-12T12:57:44+00:00",
            "course": 180.0,
            "speed": 12.0,
            "depth": 0.0
          },
          {
            "time": "2010-01-12T12:57:59+00:00",
            "course": 180.0,
            "speed": 12.0,
            "depth": 0.0
          },
          {
            "time": "2010-01-12T12:58:14+00:00",
            "course": 180.0,
            "speed": 12.0,
            "depth": 0.0
          },
          {
            "time": "2010-01-12T12:58:29+00:00",
            "course": 180.0,
            "speed": 12.0,
            "depth": 0.0
          },
          {
            "time": "2010-01-12T12:58:44+00:00",
            "course": 180.0,
            "speed": 12.0,
            "depth": 0.0
          },
          {
            "time": "2010-01-12T12:58:59+00:00",
            "course": 180.0,
            "speed": 12.0,
            "depth": 0.0
          },
          {
            "time": "2010-01-12T12:59:14+00:00",
            "course": 180.0,
            "speed": 12.0,
            "depth": 0.0
          },
          {
            "time": "2010-01-12T12:59:29+00:00",
            "course": 180.0,
            "speed": 12.0,
            "depth": 0.0
          },
          {
            "time": "2010-01-12T12:59:44+00:00",
            "course": 180.0,
            "speed": 12.0,
            "depth": 0.0
          },
          {
            "time": "2010-01-12T12:59:59+00:00",
            "course": 180.0,
            "speed": 12.0,
            "depth": 0.0
          },
          {
            "time": "2010-01-12T13:00:14+00:00",
            "course": 180.0,
            "speed": 12.0,
            "depth": 0.0
          },
          {
            "time": "2010-01-12T13:00:29+00:00",
            "course": 180.0,
            "speed": 12.0,
            "depth": 0.0
          },
          {
            "time": "2010-01-12T13:00:44+00:00",
            "course": 180.0,
            "speed": 12.0,
            "depth": 0.0
          },
          {
            "time": "2010-01-12T13:00:59+00:00",
            "course": 180.0,
            "speed": 12.0,
            "depth": 0.0
          },
          {
            "time": "2010-01-12T13:01:14+00:00",
            "course": 180.0,
            "speed": 12.0,
            "depth": 0.0
          },
          {
            "time": "2010-01-12T13:01:29+00:00",
            "course": 180.0,
            "speed": 12.0,
            "depth": 0.0
          },
          {
            "time": "2010-01-12T13:01:44+00:00",
            "course": 180.0,
            "speed": 12.0,
            "depth": 0.0
          },
          {
            "time": "2010-01-12T13:01:59+00:00",
            "course": 180.0,
            "speed": 12.0,
            "depth": 0.0
          },
          {
            "time": "2010-01-12T13:02:14+00:00",
            "course": 180.0,
            "speed": 12.0,
            "depth": 0.0
          },
          {
            "time": "2010-01-12T13:02:29+00:00",
            "course": 180.0,
            "speed": 12.0,
            "depth": 0.0
          },
          {
            "time": "2010-01-12T13:02:44+00:00",
            "course": 180.0,
            "speed": 12.0,
            "depth": 0.0
          },
          {
            "time": "2010-01-12T13:02:59+00:00",
            "course": 180.0,
            "speed": 12.0,
            "depth": 0.0
          },
          {
            "time": "2010-01-12T13:03:14+00:00",
            "course": 180.0,
            "speed": 12.0,
            "depth": 0.0
          },
          {
            "time": "2010-01-12T13:03:29+00:00",
            "course": 180.0,
            "speed": 12.0,
            "depth": 0.0
          },
          {
            "time": "2010-01-12T13:03:44+00:00",
            "course": 180.0,
            "speed": 12.0,
            "depth": 0.0
          },
          {
            "time": "2010-01-12T13:03:59+00:00",
            "course": 180.0,
            "speed": 12.0,
            "depth": 0.0
          },
          {
            "time": "2010-01-12T13:04:14+00:00",
            "course": 180.0,
            "speed": 12.0,
            "depth": 0.0
          },
          {
            "time": "2010-01-12T13:04:29+00:00",
            "course": 180.0,
            "speed": 12.0,
            "depth": 0.0
          },
          {
            "time": "2010-01-12T13:04:44+00:00",
            "course": 180.0,
            "speed": 12.0,
            "depth": 0.0
          },
          {
            "time": "2010-01-12T13:04:59+00:00",
            "course": 180.0,
            "speed": 12.0,
            "depth": 0.0
          },
          {
            "time": "2010-01-12T13:05:14+00:00",
            "course": 180.0,
            "speed": 12.0,
            "depth": 0.0
          },
          {
            "time": "2010-01-12T13:05:29+00:00",
            "course": 180.0,
            "speed": 12.0,
            "depth": 0.0
          },
          {
            "time": "2010-01-12T13:05:44+00:00",
            "course": 180.0,
            "speed": 12.0,
            "depth": 0.0
          },
          {
            "time": "2010-01-12T13:05:59+00:00",
            "course": 180.0,
            "speed": 12.0,
            "depth": 0.0
          },
          {
            "time": "2010-01-12T13:06:14+00:00",
            "course": 180.0,
            "speed": 12.0,
            "depth": 0.0
          },
          {
            "time": "2010-01-12T13:06:29+00:00",
            "course": 180.0,
            "speed": 12.0,
            "depth": 0.0
          },
          {
            "time": "2010-01-12T13:06:44+00:00",
            "course": 180.0,
            "speed": 12.0,
            "depth": 0.0
          },
          {
            "time": "2010-01-12T13:06:59+00:00",
            "course": 180.0,
            "speed": 12.0,
            "depth": 0.0
          },
          {
            "time": "2010-01-12T13:07:14+00:00",
            "course": 180.0,
            "speed": 12.0,
            "depth": 0.0
          },
          {
            "time": "2010-01-12T13:07:29+00:00",
            "course": 180.0,
            "speed": 12.0,
            "depth": 0.0
          },
          {
            "time": "2010-01-12T13:07:44+00:00",
            "course": 180.0,
            "speed": 12.0,
            "depth": 0.0
          },
          {
            "time": "2010-01-12T13:07:59+00:00",
            "course": 180.0,
            "speed": 12.0,
            "depth": 0.0
          },
          {
            "time": "2010-01-12T13:08:14+00:00",
            "course": 180.0,
            "speed": 12.0,
            "depth": 0.0
          },
          {
            "time": "2010-01-12T13:08:29+00:00",
            "course": 180.0,
            "speed": 12.0,
            "depth": 0.0
          },
          {
            "time": "2010-01-12T13:08:44+00:00",
            "course": 180.0,
            "speed": 12.0,
            "depth": 0.0
          },
          {
            "time": "2010-01-12T13:08:59+00:00",
            "course": 180.0,
            "speed": 12.0,
            "depth": 0.0
          },
          {
            "time": "2010-01-12T13:09:14+00:00",
            "course": 180.0,
            "speed": 12.0,
            "depth": 0.0
          },
          {
            "time": "2010-01-12T13:09:29+00:00",
            "course": 180.0,
            "speed": 12.0,
            "depth": 0.0
          },
          {
            "time": "2010-01-12T13:09:44+00:00",
            "course": 180.0,
            "speed": 12.0,
            "depth": 0.0
          },
          {
            "time": "2010-01-12T13:09:59+00:00",
            "course": 180.0,
            "speed": 12.0,
            "depth": 0.0
          },
          {
            "time": "2010-01-12T13:10:14+00:00",
            "course": 180.0,
            "speed": 12.0,
            "depth": 0.0
          },
          {
            "time": "2010-01-12T13:10:29+00:00",
            "course": 180.0,
            "speed": 12.0,
            "depth": 0.0
          },
          {
            "time": "2010-01-12T13:10:44+00:00",
            "course": 180.0,
            "speed": 12.0,
            "depth": 0.0
          },
          {
            "time": "2010-01-12T13:10:59+00:00",
            "course": 180.0,
            "speed": 12.0,
            "depth": 0.0
          },
          {
            "time": "2010-01-12T13:11:14+00:00",
            "course": 180.0,
            "speed": 12.0,
            "depth": 0.0
          },
          {
            "time": "2010-01-12T13:11:29+00:00",
            "course": 180.0,
            "speed": 12.0,
            "depth": 0.0
          },
          {
            "time": "2010-01-12T13:11:44+00:00",
            "course": 180.0,
            "speed": 12.0,
            "depth": 0.0
          },
          {
            "time": "2010-01-12T13:11:59+00:00",
            "course": 180.0,
            "speed": 12.0,
            "depth": 0.0
          },
          {
            "time": "2010-01-12T13:12:14+00:00",
            "course": 180.0,
            "speed": 12.0,
            "depth": 0.0
          },
          {
            "time": "2010-01-12T13:12:29+00:00",
            "course": 180.0,
            "speed": 12.0,
            "depth": 0.0
          },
          {
            "time": "2010-01-12T13:12:44+00:00",
            "course": 180.0,
            "speed": 12.0,
            "depth": 0.0
          },
          {
            "time": "2010-01-12T13:12:59+00:00",
            "course": 180.0,
            "speed": 12.0,
            "depth": 0.0
          },
          {
            "time": "2010-01-12T13:13:14+00:00",
            "course": 180.0,
            "speed": 12.0,
            "depth": 0.0
          }
        ],
        "style": {
          "line": {
            "color": "#0000FF"
          },
          "point": {
            "shape": "circle",
            "radius": 3.0,
            "fill_color": "#0000FF",
            "color": "#0000FF"
          }
        },
        "default_position_style": {
          "show_symbol": false,
          "symbol": "circle",
          "show_label": false
        },
        "symbol_interval": "PT5M",
        "label_interval": "PT15M",
        "provenance": [
          {
            "activity_id": "91861514-b888-42c5-94bd-a032917b6c8d",
            "timestamp": "2026-04-13T23:12:32.525972Z",
            "was_generated_by": {
              "tool": "rep-parser",
              "tool_version": "1.0.0",
              "parameters": []
            },
            "used": [],
            "generated": [
              "13f6565d-fc2a-411e-9b77-f7b98b40d429"
            ],
            "execution_duration": "PT0.00166S"
          }
        ]
      }
    }
  ]
}